{"type":"FeatureCollection", "features": [
{"type":"Feature","geometry":{"type":"Polygon","coordinates":[[[19.78761739600003,42.48629942600007],[19.72376676400006,42.66340985200003],[19.421956462000026,42.37911072800006],[19.35706209700004,42.234901027000035],[19.48479068900002,42.12674375200004],[19.55998574700004,42.132924168000045],[19.78761739600003,42.48629942600007]]]},"properties":{"shapeName":"Malësi e Madhe","shapeISO":"","shapeID":"67620474B62137861373373","shapeGroup":"ALB","shapeType":"ADM2"}},
{"type":"Feature","geometry":{"type":"Polygon","coordinates":[[[20.169786767000062,42.00416550600005],[20.160516143000052,42.07730042600008],[20.23983147900003,42.16382624600004],[20.231590924000045,42.17721714700008],[20.028667274000043,42.255502413000045],[19.88516574600004,42.237669339000036],[19.88838471300005,42.13305292600006],[19.72421742000006,41.996246849000045],[19.75108919200005,41.942859601000066],[19.861512607000066,41.951719077000064],[19.92360020700005,41.97017322000005],[19.96686311700006,41.85892573700005],[20.092294976000062,41.96732926300007],[20.105798148000076,41.97392781800005],[20.169786767000062,42.00416550600005]]]},"properties":{"shapeName":"Pukë","shapeISO":"","shapeID":"67620474B73280275449109","shapeGroup":"ALB","shapeType":"ADM2"}},
{"type":"Feature","geometry":{"type":"Polygon","coordinates":[[[20.23983147900003,42.16382624600004],[20.433832257000063,42.07518919600005],[20.53551410400007,42.15408755900006],[20.499578158000077,42.23900580800006],[20.352721280000026,42.310038157000065],[20.231590924000045,42.17721714700008],[20.23983147900003,42.16382624600004]]]},"properties":{"shapeName":"Has","shapeISO":"","shapeID":"67620474B51228836218093","shapeGroup":"ALB","shapeType":"ADM2"}},
{"type":"Feature","geometry":{"type":"Polygon","coordinates":[[[20.169786767000062,42.00416550600005],[20.26249300300003,41.99592495200005],[20.261462934000065,41.98356412100003],[20.216139885000075,41.85995580600007],[20.288244735000035,41.89085788500006],[20.376830694000034,41.80948241100003],[20.421123674000057,41.855835529000046],[20.56224316600003,41.82699358900004],[20.625077393000026,41.96399280400004],[20.53551410400007,42.15408755900006],[20.433832257000063,42.07518919600005],[20.23983147900003,42.16382624600004],[20.160516143000052,42.07730042600008],[20.169786767000062,42.00416550600005]]]},"properties":{"shapeName":"Kukës","shapeISO":"","shapeID":"67620474B92464717887955","shapeGroup":"ALB","shapeType":"ADM2"}},
{"type":"Feature","geometry":{"type":"Polygon","coordinates":[[[19.75108919200005,41.942859601000066],[19.71617000300006,41.89806837000003],[19.576260842000067,41.947058465000055],[19.535907878000046,41.82242265600007],[19.598015905000068,41.80070622000005],[19.56834991000005,41.665561129000025],[19.76279514500004,41.698336606000055],[19.707524344000035,41.819096341000034],[19.843350017000034,41.844990015000064],[19.861512607000066,41.951719077000064],[19.75108919200005,41.942859601000066]]]},"properties":{"shapeName":"Lezhë","shapeISO":"","shapeID":"67620474B20431026689517","shapeGroup":"ALB","shapeType":"ADM2"}},
{"type":"Feature","geometry":{"type":"Polygon","coordinates":[[[19.48479068900002,42.12674375200004],[19.476498778000064,42.05771656200005],[19.372176591000027,42.073591677000024],[19.339292423000074,41.897831471000075],[19.380114148000075,41.84453644000007],[19.535907878000046,41.82242265600007],[19.576260842000067,41.947058465000055],[19.71617000300006,41.89806837000003],[19.75108919200005,41.942859601000066],[19.72421742000006,41.996246849000045],[19.88838471300005,42.13305292600006],[19.88516574600004,42.237669339000036],[19.835271765000073,42.244107272000065],[19.83162733200004,42.46406390900006],[19.78761739600003,42.48629942600007],[19.55998574700004,42.132924168000045],[19.48479068900002,42.12674375200004]]]},"properties":{"shapeName":"Shkodër","shapeISO":"","shapeID":"67620474B15717375113052","shapeGroup":"ALB","shapeType":"ADM2"}},
{"type":"Feature","geometry":{"type":"Polygon","coordinates":[[[20.352721280000026,42.310038157000065],[20.241770057000053,42.32904496400005],[20.221449909000057,42.433548581000025],[20.080021681000062,42.55665964700006],[19.83162733200004,42.46406390900006],[19.835271765000073,42.244107272000065],[19.88516574600004,42.237669339000036],[20.028667274000043,42.255502413000045],[20.231590924000045,42.17721714700008],[20.352721280000026,42.310038157000065]]]},"properties":{"shapeName":"Tropojë","shapeISO":"","shapeID":"67620474B51082079967557","shapeGroup":"ALB","shapeType":"ADM2"}},
{"type":"Feature","geometry":{"type":"Polygon","coordinates":[[[20.105798148000076,41.97392781800005],[20.092294976000062,41.96732926300007],[19.96686311700006,41.85892573700005],[19.92360020700005,41.97017322000005],[19.861512607000066,41.951719077000064],[19.843350017000034,41.844990015000064],[19.707524344000035,41.819096341000034],[19.76279514500004,41.698336606000055],[19.941724988000033,41.685380716000054],[20.165815182000074,41.766728526000065],[20.12283898100003,41.82658823500003],[20.16044315700003,41.84040201500005],[20.181931258000077,41.84116944700003],[20.194210173000045,41.86189011500005],[20.216139885000075,41.85995580600007],[20.261462934000065,41.98356412100003],[20.26249300300003,41.99592495200005],[20.169786767000062,42.00416550600005],[20.105798148000076,41.97392781800005]]]},"properties":{"shapeName":"Mirditë","shapeISO":"","shapeID":"67620474B99888539945274","shapeGroup":"ALB","shapeType":"ADM2"}},
{"type":"Feature","geometry":{"type":"Polygon","coordinates":[[[19.56834991000005,41.665561129000025],[19.59570900800003,41.62350649700005],[19.544339017000027,41.57429490900006],[19.55426767000006,41.56566129700008],[19.825794766000058,41.57688499300008],[19.76279514500004,41.698336606000055],[19.56834991000005,41.665561129000025]]]},"properties":{"shapeName":"Kurbin","shapeISO":"","shapeID":"67620474B66777869203493","shapeGroup":"ALB","shapeType":"ADM2"}},
{"type":"Feature","geometry":{"type":"Polygon","coordinates":[[[19.76279514500004,41.698336606000055],[19.825794766000058,41.57688499300008],[19.896590383000046,41.508247778000054],[20.070618369000044,41.35639232400007],[20.088534800000048,41.39011737100003],[20.124367662000054,41.386955648000026],[20.200249017000033,41.535556634000045],[20.165815182000074,41.766728526000065],[19.941724988000033,41.685380716000054],[19.76279514500004,41.698336606000055]]]},"properties":{"shapeName":"Mat","shapeISO":"","shapeID":"67620474B55788488782298","shapeGroup":"ALB","shapeType":"ADM2"}},
{"type":"Feature","geometry":{"type":"Polygon","coordinates":[[[20.216139885000075,41.85995580600007],[20.194210173000045,41.86189011500005],[20.181931258000077,41.84116944700003],[20.16044315700003,41.84040201500005],[20.12283898100003,41.82658823500003],[20.165815182000074,41.766728526000065],[20.200249017000033,41.535556634000045],[20.396078243000034,41.61025234300007],[20.447061028000064,41.60550975800004],[20.46662419000006,41.534370988000035],[20.55910459100005,41.57942554200008],[20.513457214000027,41.727631314000064],[20.56224316600003,41.82699358900004],[20.421123674000057,41.855835529000046],[20.376830694000034,41.80948241100003],[20.288244735000035,41.89085788500006],[20.216139885000075,41.85995580600007]]]},"properties":{"shapeName":"Dibër","shapeISO":"","shapeID":"67620474B73468897065558","shapeGroup":"ALB","shapeType":"ADM2"}},
{"type":"Feature","geometry":{"type":"Polygon","coordinates":[[[20.124367662000054,41.386955648000026],[20.24240532500005,41.34163761600007],[20.39100631200006,41.38800955500005],[20.500612713000066,41.32793681600003],[20.56700889900003,41.399602540000046],[20.46662419000006,41.534370988000035],[20.447061028000064,41.60550975800004],[20.396078243000034,41.61025234300007],[20.200249017000033,41.535556634000045],[20.124367662000054,41.386955648000026]]]},"properties":{"shapeName":"Bulqizë","shapeISO":"","shapeID":"67620474B60153855067708","shapeGroup":"ALB","shapeType":"ADM2"}},
{"type":"Feature","geometry":{"type":"Polygon","coordinates":[[[19.55426767000006,41.56566129700008],[19.59182388200003,41.43702047900007],[19.74463881300005,41.39903258700008],[19.879754840000032,41.45687778700005],[19.896590383000046,41.508247778000054],[19.825794766000058,41.57688499300008],[19.55426767000006,41.56566129700008]]]},"properties":{"shapeName":"Krujë","shapeISO":"","shapeID":"67620474B91291617478666","shapeGroup":"ALB","shapeType":"ADM2"}},
{"type":"Feature","geometry":{"type":"Polygon","coordinates":[[[19.896590383000046,41.508247778000054],[19.879754840000032,41.45687778700005],[19.74463881300005,41.39903258700008],[19.59182388200003,41.43702047900007],[19.632192763000035,41.31002038500003],[19.571066116000054,41.24783983000003],[19.73652962600005,41.11399355100008],[19.824003966000078,41.118209182000044],[20.116990308000027,41.26786407700007],[20.24240532500005,41.34163761600007],[20.124367662000054,41.386955648000026],[20.088534800000048,41.39011737100003],[20.070618369000044,41.35639232400007],[19.896590383000046,41.508247778000054]]]},"properties":{"shapeName":"Tiranë","shapeISO":"","shapeID":"67620474B90997304428465","shapeGroup":"ALB","shapeType":"ADM2"}},
{"type":"Feature","geometry":{"type":"Polygon","coordinates":[[[19.544339017000027,41.57429490900006],[19.44881373900006,41.57719361900007],[19.50954045000003,41.498032013000056],[19.393509055000038,41.41561719100008],[19.41125537000005,41.32321684100003],[19.505908977000047,41.27332728500005],[19.571066116000054,41.24783983000003],[19.632192763000035,41.31002038500003],[19.59182388200003,41.43702047900007],[19.55426767000006,41.56566129700008],[19.544339017000027,41.57429490900006]]]},"properties":{"shapeName":"Durrës","shapeISO":"","shapeID":"67620474B45959085094100","shapeGroup":"ALB","shapeType":"ADM2"}},
{"type":"Feature","geometry":{"type":"Polygon","coordinates":[[[19.571066116000054,41.24783983000003],[19.505908977000047,41.27332728500005],[19.43396608000006,41.149251854000056],[19.43813668200005,41.00432340900005],[19.680031641000028,41.03768823100006],[19.73652962600005,41.11399355100008],[19.571066116000054,41.24783983000003]]]},"properties":{"shapeName":"Kavajë","shapeISO":"","shapeID":"67620474B5524789266710","shapeGroup":"ALB","shapeType":"ADM2"}},
{"type":"Feature","geometry":{"type":"Polygon","coordinates":[[[19.73652962600005,41.11399355100008],[19.680031641000028,41.03768823100006],[19.809320326000034,40.99285425100004],[19.88334852400004,41.03560292900005],[19.824003966000078,41.118209182000044],[19.73652962600005,41.11399355100008]]]},"properties":{"shapeName":"Peqin","shapeISO":"","shapeID":"67620474B93113119561724","shapeGroup":"ALB","shapeType":"ADM2"}},
{"type":"Feature","geometry":{"type":"Polygon","coordinates":[[[19.824003966000078,41.118209182000044],[19.88334852400004,41.03560292900005],[19.809320326000034,40.99285425100004],[19.81349092800008,40.860437614000034],[19.967803229000026,40.87086412100007],[20.053300585000045,40.868778820000045],[20.071025647000056,40.94906292300004],[20.358797235000054,40.96157473100004],[20.19822903000005,41.109631128000046],[20.17320541400005,41.27124198400003],[20.116990308000027,41.26786407700007],[19.824003966000078,41.118209182000044]]]},"properties":{"shapeName":"Elbasan","shapeISO":"","shapeID":"67620474B34590160208903","shapeGroup":"ALB","shapeType":"ADM2"}},
{"type":"Feature","geometry":{"type":"Polygon","coordinates":[[[19.43813668200005,41.00432340900005],[19.445319346000076,40.93746838000004],[19.470314579000046,40.96046166200006],[19.450045300000056,40.916983800000025],[19.444255600000076,40.93552760000006],[19.41452030000005,40.913932300000056],[19.44101439800005,40.85789354700006],[19.56913531400005,40.855891658000075],[19.66722789000005,40.76046826700008],[19.711936752000042,40.80317523900004],[19.809359715000028,40.84956466600005],[19.81349092800008,40.860437614000034],[19.809320326000034,40.99285425100004],[19.680031641000028,41.03768823100006],[19.43813668200005,41.00432340900005]]]},"properties":{"shapeName":"Lushnjë","shapeISO":"","shapeID":"67620474B73435711419495","shapeGroup":"ALB","shapeType":"ADM2"}},
{"type":"Feature","geometry":{"type":"Polygon","coordinates":[[[19.41452030000005,40.913932300000056],[19.365808607000076,40.90758488800003],[19.408325770000033,40.86810466500003],[19.294135038000036,40.65688903100005],[19.440569534000076,40.642060221000065],[19.71126055800005,40.52189347900003],[19.663428749000047,40.64944496900006],[19.82666428700003,40.64944496900006],[19.711936752000042,40.80317523900004],[19.66722789000005,40.76046826700008],[19.56913531400005,40.855891658000075],[19.44101439800005,40.85789354700006],[19.41452030000005,40.913932300000056]]]},"properties":{"shapeName":"Fier","shapeISO":"","shapeID":"67620474B94080737422449","shapeGroup":"ALB","shapeType":"ADM2"}},
{"type":"Feature","geometry":{"type":"Polygon","coordinates":[[[19.81349092800008,40.860437614000034],[19.809359715000028,40.84956466600005],[19.943319235000047,40.75365818000006],[19.967803229000026,40.87086412100007],[19.81349092800008,40.860437614000034]]]},"properties":{"shapeName":"Kuçovë","shapeISO":"","shapeID":"67620474B36949901982284","shapeGroup":"ALB","shapeType":"ADM2"}},
{"type":"Feature","geometry":{"type":"Polygon","coordinates":[[[19.967803229000026,40.87086412100007],[19.943319235000047,40.75365818000006],[19.809359715000028,40.84956466600005],[19.711936752000042,40.80317523900004],[19.82666428700003,40.64944496900006],[19.86082986400004,40.544670531000065],[19.92916101900005,40.51885653900007],[20.096633696000026,40.47159689000006],[20.09787762700006,40.48341423200003],[20.07673080400008,40.61433794000004],[20.169403643000066,40.62522233300007],[20.17059776800005,40.723090769000066],[20.028620812000042,40.82179132700003],[20.053300585000045,40.868778820000045],[19.967803229000026,40.87086412100007]]]},"properties":{"shapeName":"Berat","shapeISO":"","shapeID":"67620474B3220488890929","shapeGroup":"ALB","shapeType":"ADM2"}},
{"type":"Feature","geometry":{"type":"Polygon","coordinates":[[[19.71126055800005,40.52189347900003],[19.77807324300005,40.40909962100005],[19.92916101900005,40.51885653900007],[19.86082986400004,40.544670531000065],[19.82666428700003,40.64944496900006],[19.663428749000047,40.64944496900006],[19.71126055800005,40.52189347900003]]]},"properties":{"shapeName":"Mallakastër","shapeISO":"","shapeID":"67620474B72354996665991","shapeGroup":"ALB","shapeType":"ADM2"}},
{"type":"Feature","geometry":{"type":"Polygon","coordinates":[[[20.24240532500005,41.34163761600007],[20.116990308000027,41.26786407700007],[20.17320541400005,41.27124198400003],[20.19822903000005,41.109631128000046],[20.358797235000054,40.96157473100004],[20.393765422000058,40.921583285000054],[20.52663155700003,41.03428223800006],[20.606113977000064,41.00581092400006],[20.61916333000005,41.09122486800004],[20.500612713000066,41.32793681600003],[20.39100631200006,41.38800955500005],[20.24240532500005,41.34163761600007]]]},"properties":{"shapeName":"Librazhd","shapeISO":"","shapeID":"67620474B87569046172350","shapeGroup":"ALB","shapeType":"ADM2"}},
{"type":"Feature","geometry":{"type":"Polygon","coordinates":[[[20.393765422000058,40.921583285000054],[20.47917936600004,40.80532541600007],[20.625094854000054,40.783971930000064],[20.703390969000054,40.821933683000054],[20.78524599900004,40.78634454000007],[20.88489560000005,40.840914560000044],[20.84456123800004,40.900229799000044],[20.65475247300003,40.92276958900004],[20.61916333000005,41.09122486800004],[20.606113977000064,41.00581092400006],[20.52663155700003,41.03428223800006],[20.393765422000058,40.921583285000054]]]},"properties":{"shapeName":"Pogradec","shapeISO":"","shapeID":"67620474B77805918454880","shapeGroup":"ALB","shapeType":"ADM2"}},
{"type":"Feature","geometry":{"type":"Polygon","coordinates":[[[20.053300585000045,40.868778820000045],[20.028620812000042,40.82179132700003],[20.17059776800005,40.723090769000066],[20.32016707400004,40.70335065800003],[20.446200094000062,40.738275470000076],[20.47917936600004,40.80532541600007],[20.393765422000058,40.921583285000054],[20.358797235000054,40.96157473100004],[20.071025647000056,40.94906292300004],[20.053300585000045,40.868778820000045]]]},"properties":{"shapeName":"Gramsh","shapeISO":"","shapeID":"67620474B60363170083379","shapeGroup":"ALB","shapeType":"ADM2"}},
{"type":"Feature","geometry":{"type":"Polygon","coordinates":[[[20.47917936600004,40.80532541600007],[20.446200094000062,40.738275470000076],[20.32016707400004,40.70335065800003],[20.45782588000003,40.56450554700007],[20.46968892800004,40.42808049700005],[20.803040570000064,40.48146421200005],[20.902690172000064,40.541965756000025],[20.924043658000073,40.700930596000035],[21.00727480100005,40.72536847400005],[20.998163980000072,40.78610727900008],[20.932869765000078,40.785348044000045],[20.998923215000048,40.90378871300004],[20.875167901000054,40.93263964500005],[20.84456123800004,40.900229799000044],[20.88489560000005,40.840914560000044],[20.78524599900004,40.78634454000007],[20.703390969000054,40.821933683000054],[20.625094854000054,40.783971930000064],[20.47917936600004,40.80532541600007]]]},"properties":{"shapeName":"Kuçovë","shapeISO":"","shapeID":"67620474B90792074310011","shapeGroup":"ALB","shapeType":"ADM2"}},
{"type":"Feature","geometry":{"type":"Polygon","coordinates":[[[20.803040570000064,40.48146421200005],[20.824394056000074,40.432825716000025],[20.86591472400005,40.47197377400005],[20.964378020000026,40.45536550700007],[21.068772841000055,40.55738771800003],[21.086567412000022,40.672459281000044],[21.00727480100005,40.72536847400005],[20.924043658000073,40.700930596000035],[20.902690172000064,40.541965756000025],[20.803040570000064,40.48146421200005]]]},"properties":{"shapeName":"Devoll","shapeISO":"","shapeID":"67620474B41402008781007","shapeGroup":"ALB","shapeType":"ADM2"}},
{"type":"Feature","geometry":{"type":"Polygon","coordinates":[[[20.46968892800004,40.42808049700005],[20.514768510000067,40.16946605600003],[20.633398987000078,40.08761102600005],[20.69983205500006,40.111337122000066],[20.824394056000074,40.432825716000025],[20.803040570000064,40.48146421200005],[20.46968892800004,40.42808049700005]]]},"properties":{"shapeName":"Kolonjë","shapeISO":"","shapeID":"67620474B91947048364679","shapeGroup":"ALB","shapeType":"ADM2"}},
{"type":"Feature","geometry":{"type":"Polygon","coordinates":[[[20.09787762700006,40.48341423200003],[20.286760731000072,40.36700952700005],[20.380905879000068,40.44141456300008],[20.46968892800004,40.42808049700005],[20.45782588000003,40.56450554700007],[20.32016707400004,40.70335065800003],[20.17059776800005,40.723090769000066],[20.169403643000066,40.62522233300007],[20.07673080400008,40.61433794000004],[20.09787762700006,40.48341423200003]]]},"properties":{"shapeName":"Skrapar","shapeISO":"","shapeID":"67620474B62055143354216","shapeGroup":"ALB","shapeType":"ADM2"}},
{"type":"Feature","geometry":{"type":"Polygon","coordinates":[[[20.096633696000026,40.47159689000006],[20.08413987600005,40.36164743000006],[20.167181210000024,40.22640868500008],[20.24429102000005,40.24183064700003],[20.36292149800005,40.18370171300006],[20.477993062000053,40.06981645500008],[20.633398987000078,40.08761102600005],[20.514768510000067,40.16946605600003],[20.46968892800004,40.42808049700005],[20.380905879000068,40.44141456300008],[20.286760731000072,40.36700952700005],[20.09787762700006,40.48341423200003],[20.096633696000026,40.47159689000006]]]},"properties":{"shapeName":"Përmet","shapeISO":"","shapeID":"67620474B23103740146981","shapeGroup":"ALB","shapeType":"ADM2"}},
{"type":"Feature","geometry":{"type":"Polygon","coordinates":[[[19.92916101900005,40.51885653900007],[19.77807324300005,40.40909962100005],[19.80654455800004,40.36876525800005],[19.753160843000046,40.34266655300007],[19.881281759000046,40.18370171300006],[20.002284846000066,40.16709344600008],[20.02482463700005,40.21217302800005],[20.167181210000024,40.22640868500008],[20.08413987600005,40.36164743000006],[20.096633696000026,40.47159689000006],[19.92916101900005,40.51885653900007]]]},"properties":{"shapeName":"Tepelenë","shapeISO":"","shapeID":"67620474B25662331989090","shapeGroup":"ALB","shapeType":"ADM2"}},
{"type":"Feature","geometry":{"type":"Polygon","coordinates":[[[20.167181210000024,40.22640868500008],[20.02482463700005,40.21217302800005],[20.002284846000066,40.16709344600008],[19.881281759000046,40.18370171300006],[19.89907633000007,40.142181046000076],[19.931106559000057,40.09947407400006],[19.983303970000065,40.04609035900006],[20.069904218000033,40.04846296900007],[20.271576030000062,39.866958338000074],[20.32258713600004,39.80645679400004],[20.41986412700004,39.78866222200003],[20.33207757400004,39.98677512000006],[20.411559994000072,39.98440251100004],[20.477993062000053,40.06981645500008],[20.36292149800005,40.18370171300006],[20.24429102000005,40.24183064700003],[20.167181210000024,40.22640868500008]]]},"properties":{"shapeName":"Gjirokastër","shapeISO":"","shapeID":"67620474B28188595050305","shapeGroup":"ALB","shapeType":"ADM2"}},
{"type":"Feature","geometry":{"type":"Polygon","coordinates":[[[19.931106559000057,40.09947407400006],[19.91805720700006,40.052021883000066],[20.088885095000023,39.84797746100003],[20.271576030000062,39.866958338000074],[20.069904218000033,40.04846296900007],[19.983303970000065,40.04609035900006],[19.931106559000057,40.09947407400006]]]},"properties":{"shapeName":"Delvinë","shapeISO":"","shapeID":"67620474B1879164611880","shapeGroup":"ALB","shapeType":"ADM2"}},
{"type":"Feature","geometry":{"type":"Polygon","coordinates":[[[20.271576030000062,39.866958338000074],[20.088885095000023,39.84797746100003],[19.91805720700006,40.052021883000066],[19.931106559000057,40.09947407400006],[19.89907633000007,40.142181046000076],[19.83976109100007,40.123200170000075],[19.844506311000032,40.04134514000003],[19.93466547400004,39.93220510000003],[19.910939378000023,39.88949812800007],[20.011775284000066,39.85153637600007],[19.989235493000024,39.68545370700008],[20.227682754000057,39.636815211000055],[20.339195403000076,39.71392502100008],[20.32258713600004,39.80645679400004],[20.271576030000062,39.866958338000074]]]},"properties":{"shapeName":"Sarandë","shapeISO":"","shapeID":"67620474B70468291702657","shapeGroup":"ALB","shapeType":"ADM2"}},
{"type":"Feature","geometry":{"type":"Polygon","coordinates":[[[19.294135038000036,40.65688903100005],[19.388798244000043,40.522500867000076],[19.392375902000026,40.56791617300007],[19.444276736000063,40.556794566000065],[19.444276736000063,40.497479327000065],[19.379400694000026,40.503040130000045],[19.464666350000073,40.43631048700007],[19.440569534000076,40.32694801500003],[19.342636753000022,40.43260743600007],[19.279306228000053,40.412213671000075],[19.36271828300005,40.29729039600005],[19.844506311000032,40.04134514000003],[19.83976109100007,40.123200170000075],[19.89907633000007,40.142181046000076],[19.881281759000046,40.18370171300006],[19.753160843000046,40.34266655300007],[19.80654455800004,40.36876525800005],[19.77807324300005,40.40909962100005],[19.71126055800005,40.52189347900003],[19.440569534000076,40.642060221000065],[19.294135038000036,40.65688903100005]]]},"properties":{"shapeName":"Vlorë","shapeISO":"","shapeID":"67620474B72762453157270","shapeGroup":"ALB","shapeType":"ADM2"}},
{"type":"Feature","geometry":{"type":"Polygon","coordinates":[[[19.269264277000048,40.513754479000056],[19.289186605000054,40.47536755500005],[19.293073888000038,40.49723352400008],[19.269264277000048,40.513754479000056]]]},"properties":{"shapeName":"Vlorë","shapeISO":"","shapeID":"67620474B93518338354482","shapeGroup":"ALB","shapeType":"ADM2"}}
]}