{"type":"FeatureCollection", "features": [
{"type":"Feature","geometry":{"type":"Polygon","coordinates":[[[1.557103093871149,42.46422232965966],[1.494252062371686,42.48155048369205],[1.459916235319838,42.50613193422646],[1.450870384619748,42.503238652489244],[1.443541362534347,42.49466974436592],[1.426131101911096,42.49400413523955],[1.416787748703371,42.485665756215155],[1.416698429355847,42.48375766576237],[1.432264174785871,42.48202619998858],[1.440260168546331,42.47535713557022],[1.439646861258893,42.46495208891923],[1.445289288303627,42.460857455070936],[1.442852005143266,42.45195873414616],[1.4470065487086,42.44870771144588],[1.444853840129554,42.442704823038866],[1.455132870267732,42.43583138883969],[1.477426590167397,42.43630666043009],[1.512627337399806,42.42973835935783],[1.528239098934932,42.43236858702795],[1.553108709442029,42.43171221740283],[1.557003210717482,42.43571822840573],[1.557407993527249,42.44302344676947],[1.562412580993112,42.44619511283048],[1.560633695471893,42.453578824463875],[1.564639942163808,42.45910640903901],[1.557103093871149,42.46422232965966]]]},"properties":{"shapeName":"Sant Julia de Loria","shapeISO":"AD-06","shapeID":"23515209B82836637605816","shapeGroup":"AND","shapeType":"ADM1"}},
{"type":"Feature","geometry":{"type":"Polygon","coordinates":[[[1.734944094979596,42.54904539493003],[1.747711111758463,42.56237502599083],[1.765067707994092,42.562600888691975],[1.786716228627483,42.57291561850997],[1.78065655636874,42.57919359737207],[1.758321327831823,42.58242844630729],[1.726276022061143,42.59107562271561],[1.726229410707219,42.598260671761466],[1.737749774795191,42.61172374825264],[1.737494638963597,42.61729880557101],[1.711058641644172,42.616215608110394],[1.699459774223556,42.62199244350495],[1.679362921027348,42.62534276246129],[1.675025611890476,42.62138590097146],[1.658500660336642,42.620245007338895],[1.642780367943999,42.62996359620769],[1.627668476380677,42.62680125015902],[1.607321197552949,42.62815631345239],[1.602830368809975,42.625609184984626],[1.605704629317415,42.61650268338542],[1.599273636012413,42.61511444426088],[1.591693102774343,42.607334604442826],[1.579143734374952,42.60067807643418],[1.575548630793719,42.589795998472994],[1.56784751669511,42.58374460972925],[1.568626381199408,42.57003244357418],[1.575347662393369,42.555279686088],[1.566634277713661,42.546757175429036],[1.582608789750736,42.5471048118207],[1.600388568349103,42.54414792182081],[1.615873350822596,42.5459697869814],[1.632756277492661,42.56773320874072],[1.722810836030192,42.55347538459807],[1.734944094979596,42.54904539493003]]]},"properties":{"shapeName":"Canillo","shapeISO":"AD-02","shapeID":"23515209B25074230340039","shapeGroup":"AND","shapeType":"ADM1"}},
{"type":"Feature","geometry":{"type":"Polygon","coordinates":[[[1.602830368809975,42.625609184984626],[1.598654429612168,42.62617858117545],[1.592813781652012,42.63292479267756],[1.583004005185671,42.63531813582381],[1.574855359241383,42.64873220594092],[1.563433124319374,42.65463592854735],[1.545975553171957,42.655219053132214],[1.520980092009381,42.6465997994797],[1.503155299716354,42.64564921678624],[1.492304394605412,42.654627845593666],[1.478166392082926,42.651376331465315],[1.475920393715739,42.640041000495444],[1.467731027510808,42.634088930199255],[1.476042051960633,42.61335208735511],[1.470665351286414,42.60689375151691],[1.498187041743904,42.59565836584693],[1.498769683647311,42.5802382397319],[1.505982814917218,42.57399552192078],[1.506874612924037,42.56949079000543],[1.521294105759864,42.55931463237903],[1.524358090310727,42.550437470474776],[1.536756121330882,42.5450004455858],[1.543694442684227,42.54778256274221],[1.549551527506878,42.54507151291938],[1.555684599937592,42.547195179035384],[1.564397093104901,42.546150154277086],[1.566634277713661,42.546757175429036],[1.575347662393369,42.555279686088],[1.568626381199408,42.57003244357418],[1.56784751669511,42.58374460972925],[1.575548630793719,42.589795998472994],[1.579143734374952,42.60067807643418],[1.591693102774343,42.607334604442826],[1.599273636012413,42.61511444426088],[1.605704629317415,42.61650268338542],[1.602830368809975,42.625609184984626]]]},"properties":{"shapeName":"Ordino","shapeISO":"AD-05","shapeID":"23515209B96881004874456","shapeGroup":"AND","shapeType":"ADM1"}},
{"type":"Feature","geometry":{"type":"Polygon","coordinates":[[[1.470665351286414,42.60689375151691],[1.456519881979943,42.602871357653044],[1.442118118289045,42.60267607362215],[1.439310620329934,42.59139539412371],[1.427681236080218,42.58784357047682],[1.428858786072112,42.57941903789697],[1.446257479719861,42.569287282902906],[1.44187071348324,42.565414165975085],[1.422931784445893,42.55802746138846],[1.412288452474229,42.53832299020661],[1.413224285127399,42.53565094550254],[1.435801247881273,42.5434943648292],[1.443989783594986,42.542115373476236],[1.451242486655815,42.538409183293425],[1.452646235635314,42.52961687559622],[1.46449235538762,42.51938649897835],[1.468257373038341,42.511265457484],[1.478387323973834,42.51022375447798],[1.489176821764886,42.51460388776712],[1.499060391049625,42.5128932065262],[1.523752058867956,42.52072385220174],[1.531541145086805,42.52313478921832],[1.548666941755414,42.52229625591298],[1.551637998603269,42.52524654520761],[1.55071558421497,42.52877562262779],[1.564397093104901,42.546150154277086],[1.555684599937592,42.547195179035384],[1.549551527506878,42.54507151291938],[1.543694442684227,42.54778256274221],[1.536756121330882,42.5450004455858],[1.524358090310727,42.550437470474776],[1.521294105759864,42.55931463237903],[1.506874612924037,42.56949079000543],[1.505982814917218,42.57399552192078],[1.498769683647311,42.5802382397319],[1.498187041743904,42.59565836584693],[1.470665351286414,42.60689375151691]]]},"properties":{"shapeName":"La Massana","shapeISO":"AD-04","shapeID":"23515209B12259378502884","shapeGroup":"AND","shapeType":"ADM1"}},
{"type":"Feature","geometry":{"type":"Polygon","coordinates":[[[1.566634277713661,42.546757175429036],[1.564397093104901,42.546150154277086],[1.55071558421497,42.52877562262779],[1.551637998603269,42.52524654520761],[1.548666941755414,42.52229625591298],[1.558919182645809,42.51279193932163],[1.566318121449285,42.5170160797191],[1.575291837488351,42.51754725910138],[1.611503855449257,42.49731526089175],[1.615264949728498,42.49696334227292],[1.620976067300774,42.50055189495407],[1.662141957385415,42.49113930964944],[1.671453710248102,42.50364830279938],[1.680442593064129,42.49190549531261],[1.688979579295108,42.49270890458098],[1.705822224023791,42.48897156183409],[1.713143690163292,42.49163801409395],[1.721062910117553,42.502266513525626],[1.726425669039315,42.50376405339392],[1.723010774062573,42.51797081119446],[1.731979779834774,42.52939752911158],[1.732800924695653,42.54797088624889],[1.734944094979596,42.54904539493003],[1.722810836030192,42.55347538459807],[1.632756277492661,42.56773320874072],[1.615873350822596,42.5459697869814],[1.600388568349103,42.54414792182081],[1.582608789750736,42.5471048118207],[1.566634277713661,42.546757175429036]]]},"properties":{"shapeName":"Encamp","shapeISO":"AD-03","shapeID":"23515209B87138494217820","shapeGroup":"AND","shapeType":"ADM1"}},
{"type":"Feature","geometry":{"type":"Polygon","coordinates":[[[1.564639942163808,42.45910640903901],[1.57395257091423,42.455506428279136],[1.575934780067314,42.45033686418054],[1.582018788359164,42.44809224271853],[1.587396266655787,42.45889465055268],[1.597307312421378,42.46441097918341],[1.602449280719611,42.46443993500674],[1.606002341561975,42.461715133365715],[1.617796682281323,42.463469907633794],[1.631318881355753,42.462007599159165],[1.634930034664421,42.46627860236339],[1.655792295355127,42.465254746384915],[1.665221281592778,42.47126318230545],[1.662141957385415,42.49113930964944],[1.620976067300774,42.50055189495407],[1.615264949728498,42.49696334227292],[1.611503855449257,42.49731526089175],[1.575291837488351,42.51754725910138],[1.566318121449285,42.5170160797191],[1.558919182645809,42.51279193932163],[1.548666941755414,42.52229625591298],[1.531541145086805,42.52313478921832],[1.523752058867956,42.52072385220174],[1.562297212830231,42.470283988174685],[1.557103093871149,42.46422232965966],[1.564639942163808,42.45910640903901]]]},"properties":{"shapeName":"Escaldes-Engordany","shapeISO":"AD-08","shapeID":"23515209B43580600008856","shapeGroup":"AND","shapeType":"ADM1"}},
{"type":"Feature","geometry":{"type":"Polygon","coordinates":[[[1.557103093871149,42.46422232965966],[1.562297212830231,42.470283988174685],[1.523752058867956,42.52072385220174],[1.499060391049625,42.5128932065262],[1.489176821764886,42.51460388776712],[1.478387323973834,42.51022375447798],[1.468257373038341,42.511265457484],[1.459916235319838,42.50613193422646],[1.494252062371686,42.48155048369205],[1.557103093871149,42.46422232965966]]]},"properties":{"shapeName":"Andorra la Vella","shapeISO":"AD-07","shapeID":"23515209B24107209170284","shapeGroup":"AND","shapeType":"ADM1"}}
]}