{"type":"FeatureCollection", "features": [
{"type":"Feature","geometry":{"type":"Polygon","coordinates":[[[44.354755287000046,40.90723330700007],[44.32240147200008,40.90634652700004],[44.21387562800004,40.93512442800005],[44.208170531000064,40.94771240600005],[44.18690320200005,40.94686317700007],[44.18306595300004,40.95806061600007],[44.14875964100003,40.96342207200007],[44.15687885400007,40.97961468900007],[44.12158141400005,40.97279958100006],[44.10869507100006,40.938645088000044],[44.08357531900003,40.922262818000036],[44.09633658000007,40.89909275100007],[44.08164347300004,40.90133672800005],[44.06846743600005,40.88976570900007],[44.02856949200003,40.89449153800007],[44.012990597000055,40.88525921200005],[43.992242684000075,40.843012212000076],[44.01337344400008,40.81951569800003],[44.014981558000045,40.798812035000026],[44.03109972200008,40.79139205600006],[44.066488555000035,40.797926784000026],[44.080061758000056,40.75495747800005],[44.11080129900006,40.75191206000005],[44.133567063000044,40.76392240400003],[44.148872339000036,40.75055592800004],[44.17475518900005,40.75534901300006],[44.19187946000005,40.735239093000075],[44.228310228000055,40.726037434000034],[44.250259017000076,40.72981386600003],[44.25819280200005,40.74695643900003],[44.27678055600006,40.75179989800006],[44.32810135700004,40.73611247500003],[44.33878600600008,40.74649387800008],[44.31549984600008,40.76810686300007],[44.311542821000046,40.79403936500006],[44.354852632000075,40.802008416000035],[44.37491646900003,40.82807479400003],[44.36731126600006,40.85048303200006],[44.33758030600006,40.867851941000026],[44.34298357700004,40.881912501000045],[44.358628295000074,40.889017995000074],[44.354755287000046,40.90723330700007]]]},"properties":{"shapeName":"Spitak","shapeISO":"","shapeID":"60910142B11544314699708","shapeGroup":"ARM","shapeType":"ADM2"}},
{"type":"Feature","geometry":{"type":"Polygon","coordinates":[[[44.32810135700004,40.73611247500003],[44.342887595000036,40.73874089800006],[44.39420622200004,40.720480673000054],[44.40771894100004,40.70528047100004],[44.406856678000054,40.694731226000044],[44.44027870100007,40.69635292500004],[44.50027638600005,40.71560892000008],[44.53284303300006,40.696785531000046],[44.56188808200005,40.71013411100006],[44.57833775600005,40.71019536800003],[44.65743888000003,40.68327076800006],[44.67874263600004,40.68468217800006],[44.723261869000055,40.67307507500004],[44.746261427000036,40.67814133100006],[44.773058727000034,40.673188922000065],[44.79423127900003,40.712550890000045],[44.77940564600004,40.74110710000008],[44.765400327000066,40.74220461300007],[44.76463054800007,40.75172738500004],[44.71230402200007,40.76135815600003],[44.69465592500006,40.78726910800003],[44.695379667000054,40.83076848700006],[44.71475859600008,40.83432418600006],[44.67855876500005,40.871409836000055],[44.686627662000035,40.92334875000006],[44.65698674300006,40.93308146600003],[44.62462749000008,40.93017579200006],[44.62734994500005,40.93930569400004],[44.640265259000046,40.94495645200004],[44.64018526500007,40.95969221300004],[44.58744522100005,40.958814345000064],[44.56995966900007,40.94401445600005],[44.54316187400008,40.93900288100008],[44.53217951600004,40.92282560700005],[44.499989637000056,40.89883859100007],[44.48430551000007,40.89455696700003],[44.38606900600007,40.92073785500003],[44.35633831300004,40.934605271000066],[44.35079760000008,40.933171780000066],[44.36208827000007,40.91359029100005],[44.354755287000046,40.90723330700007],[44.358628295000074,40.889017995000074],[44.34298357700004,40.881912501000045],[44.33758030600006,40.867851941000026],[44.36731126600006,40.85048303200006],[44.37491646900003,40.82807479400003],[44.354852632000075,40.802008416000035],[44.311542821000046,40.79403936500006],[44.31549984600008,40.76810686300007],[44.33878600600008,40.74649387800008],[44.32810135700004,40.73611247500003]]]},"properties":{"shapeName":"Gugark","shapeISO":"","shapeID":"60910142B52468279407156","shapeGroup":"ARM","shapeType":"ADM2"}},
{"type":"Feature","geometry":{"type":"Polygon","coordinates":[[[44.46386702800004,41.18222411900007],[44.457471852000026,41.19004849800007],[44.41470139100005,41.20046148900008],[44.38885834700005,41.22141501800007],[44.356765360000054,41.231862558000046],[44.345233087000054,41.22543985800007],[44.34734120500008,41.20301405500004],[44.32851550700008,41.20380584800006],[44.30736746700006,41.21518727500006],[44.287142207000045,41.207931701000064],[44.26848922200003,41.21542303900003],[44.24526605700004,41.23666429900004],[44.21350324000008,41.23324410400005],[44.18073225100005,41.24810652600007],[44.18391976400005,41.23208588800003],[44.162738079000064,41.189627735000045],[44.09321409800003,41.18898094800005],[44.08923807700006,41.20297310800004],[44.05636783500006,41.19106055800006],[44.01553250300003,41.186443636000035],[43.95928296300008,41.16535856100006],[43.95195004900006,41.08925579100003],[44.01118987900003,41.06565122400008],[44.00827977500006,41.051801244000046],[44.064325574000065,41.02596991100006],[44.05978705600006,41.01665520100005],[44.10705165500008,41.028820618000054],[44.12624975700004,41.02606354900007],[44.16445093600004,41.03505424800005],[44.191086616000064,41.05072295400004],[44.214077649000046,41.05185011400005],[44.27670106900007,41.05032403700005],[44.347185352000054,41.029462884000054],[44.35479860200007,41.03530898900004],[44.34300140900007,41.06523172500005],[44.360809403000076,41.074039294000045],[44.363255768000045,41.08565921500008],[44.35042101100004,41.09042268400003],[44.34519469900005,41.10199944000004],[44.36921096300006,41.13115442700007],[44.36908121100004,41.14469610100008],[44.37801990000003,41.14668083200007],[44.41672901800007,41.11012309100005],[44.47177765300006,41.103617384000074],[44.492314829000065,41.094039474000056],[44.49328957100005,41.13370314000008],[44.51892574200008,41.12704182400006],[44.52400486400006,41.131898017000026],[44.51624448200005,41.14347199400004],[44.46867889500004,41.171315228000026],[44.46386702800004,41.18222411900007]]]},"properties":{"shapeName":"Tashir","shapeISO":"","shapeID":"60910142B89278047993376","shapeGroup":"ARM","shapeType":"ADM2"}},
{"type":"Feature","geometry":{"type":"Polygon","coordinates":[[[44.354755287000046,40.90723330700007],[44.36208827000007,40.91359029100005],[44.35079760000008,40.933171780000066],[44.35633831300004,40.934605271000066],[44.38606900600007,40.92073785500003],[44.48430551000007,40.89455696700003],[44.499989637000056,40.89883859100007],[44.53217951600004,40.92282560700005],[44.54316187400008,40.93900288100008],[44.56995966900007,40.94401445600005],[44.58744522100005,40.958814345000064],[44.53374647800007,41.00411518400006],[44.54855757100006,41.02113918800006],[44.51968645000005,41.05588909800008],[44.48341889500006,41.07646474500007],[44.492314829000065,41.094039474000056],[44.47177765300006,41.103617384000074],[44.41672901800007,41.11012309100005],[44.37801990000003,41.14668083200007],[44.36908121100004,41.14469610100008],[44.36921096300006,41.13115442700007],[44.34519469900005,41.10199944000004],[44.35042101100004,41.09042268400003],[44.363255768000045,41.08565921500008],[44.360809403000076,41.074039294000045],[44.34300140900007,41.06523172500005],[44.35479860200007,41.03530898900004],[44.347185352000054,41.029462884000054],[44.27670106900007,41.05032403700005],[44.214077649000046,41.05185011400005],[44.191086616000064,41.05072295400004],[44.16445093600004,41.03505424800005],[44.12624975700004,41.02606354900007],[44.10705165500008,41.028820618000054],[44.05978705600006,41.01665520100005],[44.06202229000007,41.000320841000075],[44.03901164900003,40.991026169000065],[44.04044700400004,40.98395809800007],[44.12158141400005,40.97279958100006],[44.15687885400007,40.97961468900007],[44.14875964100003,40.96342207200007],[44.18306595300004,40.95806061600007],[44.18690320200005,40.94686317700007],[44.208170531000064,40.94771240600005],[44.21387562800004,40.93512442800005],[44.32240147200008,40.90634652700004],[44.354755287000046,40.90723330700007]]]},"properties":{"shapeName":"Stepanavan","shapeISO":"","shapeID":"60910142B88969695120828","shapeGroup":"ARM","shapeType":"ADM2"}},
{"type":"Feature","geometry":{"type":"Polygon","coordinates":[[[44.76463054800007,40.75172738500004],[44.75535167100003,40.76936470600003],[44.72506179700008,40.78527324500004],[44.772195830000044,40.801347375000034],[44.77806581500005,40.810888291000026],[44.838169804000074,40.817995360000054],[44.86356502600006,40.84577397800007],[44.86130857300003,40.86706460100004],[44.86904038700004,40.87884275300007],[44.85790568700003,40.90461269200006],[44.872663429000056,40.913039379000054],[44.88703732700003,40.934352656000044],[44.871450193000044,40.96600105300007],[44.85470367400006,40.96207737700007],[44.82600729200004,40.95669478700006],[44.81452868700006,40.96143889000007],[44.76707189100006,41.00589555500005],[44.80725524800005,41.048303917000055],[44.81502362900005,41.05111623800008],[44.854677268000046,41.03071769500008],[44.94641153400005,41.07478968500004],[44.91971054100003,41.110645324000075],[44.881164984000065,41.115096546000075],[44.87782056700007,41.12013748800007],[44.885210709000035,41.136115629000074],[44.873319613000035,41.15053522200003],[44.87429774200007,41.17485825400007],[44.876711080000064,41.184201347000055],[44.896295880000025,41.190714498000034],[44.89031051000006,41.20747990800004],[44.86863504100006,41.20486178400006],[44.84325505500004,41.21657229400006],[44.80967652500004,41.21525014100007],[44.79596389200003,41.23041202200005],[44.79401133700003,41.22091116000007],[44.751419035000026,41.22045033900008],[44.74521578700006,41.20989283700004],[44.74183057300007,41.21437497900007],[44.727710493000075,41.203720014000055],[44.72821441800005,41.22593412700007],[44.697854336000034,41.21448776900007],[44.68246150400006,41.22349895800005],[44.68950953800004,41.24116810100003],[44.64763403300003,41.23402005200006],[44.61341020700007,41.241387762000045],[44.59626465300005,41.19316178500003],[44.584662878000074,41.19618691200003],[44.595059968000044,41.21215758900007],[44.57900507200003,41.21314655900005],[44.580827001000046,41.20671696000005],[44.55886086100003,41.20387203400003],[44.54508630300006,41.19095116900007],[44.54811228900007,41.19716910000005],[44.534246360000054,41.19763713200007],[44.53352063700004,41.20227562100007],[44.548615916000074,41.22469516000007],[44.53572307400003,41.22688872900005],[44.51149454500006,41.19492650900003],[44.46386702800004,41.18222411900007],[44.46867889500004,41.171315228000026],[44.51624448200005,41.14347199400004],[44.52400486400006,41.131898017000026],[44.51892574200008,41.12704182400006],[44.49328957100005,41.13370314000008],[44.492314829000065,41.094039474000056],[44.48341889500006,41.07646474500007],[44.51968645000005,41.05588909800008],[44.54855757100006,41.02113918800006],[44.53374647800007,41.00411518400006],[44.58744522100005,40.958814345000064],[44.64018526500007,40.95969221300004],[44.640265259000046,40.94495645200004],[44.62734994500005,40.93930569400004],[44.62462749000008,40.93017579200006],[44.65698674300006,40.93308146600003],[44.686627662000035,40.92334875000006],[44.67855876500005,40.871409836000055],[44.71475859600008,40.83432418600006],[44.695379667000054,40.83076848700006],[44.69465592500006,40.78726910800003],[44.71230402200007,40.76135815600003],[44.76463054800007,40.75172738500004]]]},"properties":{"shapeName":"Tumanian","shapeISO":"","shapeID":"60910142B61749773094319","shapeGroup":"ARM","shapeType":"ADM2"}},
{"type":"Feature","geometry":{"type":"Polygon","coordinates":[[[44.12158141400005,40.97279958100006],[44.04044700400004,40.98395809800007],[44.03901164900003,40.991026169000065],[44.06202229000007,41.000320841000075],[44.05978705600006,41.01665520100005],[44.064325574000065,41.02596991100006],[44.00827977500006,41.051801244000046],[44.01118987900003,41.06565122400008],[43.95195004900006,41.08925579100003],[43.95928296300008,41.16535856100006],[43.93908096300004,41.17631455900005],[43.83764960800005,41.16028121700003],[43.805197977000034,41.14616637200004],[43.75202432300006,41.10947109800003],[43.759372889000076,41.09911653700004],[43.78320304300007,41.09837125900003],[43.79269481100005,41.085457432000055],[43.79761171700005,41.03347473200006],[43.78108144000004,40.99827305200006],[43.78782970200007,40.99033808400003],[43.82471550900004,40.995722630000046],[43.826229675000036,40.98472828400003],[43.84740865600003,40.981943612000066],[43.83218188700005,40.946761940000044],[43.78632909800007,40.928276992000065],[43.778925695000055,40.90017698400004],[43.78824980200005,40.895267501000035],[43.86578821300003,40.91106930500007],[43.880315504000066,40.91021180600006],[43.89644254800004,40.89235047100004],[43.90564154300006,40.89444233000006],[43.950156407000065,40.91487197300006],[43.96159476500003,40.942997570000045],[43.99345705400003,40.93027121800003],[43.988560919000065,40.90520470600006],[44.00190386300005,40.89531565000004],[44.02028868200006,40.900475966000045],[44.02856949200003,40.89449153800007],[44.06846743600005,40.88976570900007],[44.08164347300004,40.90133672800005],[44.09633658000007,40.89909275100007],[44.08357531900003,40.922262818000036],[44.10869507100006,40.938645088000044],[44.12158141400005,40.97279958100006]]]},"properties":{"shapeName":"Ashotck","shapeISO":"","shapeID":"60910142B45158711902694","shapeGroup":"ARM","shapeType":"ADM2"}},
{"type":"Feature","geometry":{"type":"Polygon","coordinates":[[[43.75202432300006,41.10947109800003],[43.685116478000054,41.13407891800006],[43.601183701000025,41.12897212300004],[43.595542813000066,41.13809191400003],[43.569598932000076,41.14553778100003],[43.46015122000006,41.11988404400006],[43.44812217900005,41.098279544000036],[43.46051163300007,41.07424505800003],[43.47255807800008,41.068816979000076],[43.46972214800007,41.03188411700006],[43.48385016100008,41.01817295500007],[43.523923326000045,41.01342391500003],[43.55733133700005,40.99475811700006],[43.57938738800004,40.993279132000055],[43.673711327000035,40.936099711000054],[43.67167733600007,40.91156064200004],[43.68309403400008,40.90386330900003],[43.67510651300006,40.88731981600006],[43.678557682000076,40.84622923000006],[43.70680711500006,40.82123272000007],[43.718562331000044,40.800280514000065],[43.76586794700006,40.821973885000034],[43.739710122000076,40.881738366000036],[43.75914341200007,40.89996580900004],[43.778925695000055,40.90017698400004],[43.78632909800007,40.928276992000065],[43.83218188700005,40.946761940000044],[43.84740865600003,40.981943612000066],[43.826229675000036,40.98472828400003],[43.82471550900004,40.995722630000046],[43.78782970200007,40.99033808400003],[43.78108144000004,40.99827305200006],[43.79761171700005,41.03347473200006],[43.79269481100005,41.085457432000055],[43.78320304300007,41.09837125900003],[43.759372889000076,41.09911653700004],[43.75202432300006,41.10947109800003]]]},"properties":{"shapeName":"Amasia","shapeISO":"","shapeID":"60910142B34664375079844","shapeGroup":"ARM","shapeType":"ADM2"}},
{"type":"Feature","geometry":{"type":"Polygon","coordinates":[[[44.02856949200003,40.89449153800007],[44.02028868200006,40.900475966000045],[44.00190386300005,40.89531565000004],[43.988560919000065,40.90520470600006],[43.99345705400003,40.93027121800003],[43.96159476500003,40.942997570000045],[43.950156407000065,40.91487197300006],[43.90564154300006,40.89444233000006],[43.89644254800004,40.89235047100004],[43.880315504000066,40.91021180600006],[43.86578821300003,40.91106930500007],[43.78824980200005,40.895267501000035],[43.778925695000055,40.90017698400004],[43.75914341200007,40.89996580900004],[43.739710122000076,40.881738366000036],[43.76586794700006,40.821973885000034],[43.718562331000044,40.800280514000065],[43.74822084300007,40.73208056900006],[43.73640671600003,40.71294560300004],[43.746414859000026,40.70514766400004],[43.74018649000004,40.69046404800008],[43.75034842200006,40.68011368400005],[43.778061636000075,40.67683618700005],[43.797518309000054,40.68575350800006],[43.818938924000065,40.67602138800004],[43.86131739000007,40.68266404000008],[43.86420178600008,40.705089918000056],[43.885494796000046,40.702811774000054],[43.90055525500003,40.68180416100006],[43.91681866400006,40.68693455500005],[43.93757073200004,40.71823273800004],[43.99654898700004,40.711292953000054],[44.00815717200004,40.700194493000026],[44.03432807000007,40.69917614800005],[44.07029166700005,40.69947139400006],[44.08981182000008,40.70708935400006],[44.10456951800006,40.70347357400004],[44.12254115300004,40.71418767800003],[44.144334410000056,40.73309099200003],[44.148872339000036,40.75055592800004],[44.133567063000044,40.76392240400003],[44.11080129900006,40.75191206000005],[44.080061758000056,40.75495747800005],[44.066488555000035,40.797926784000026],[44.03109972200008,40.79139205600006],[44.014981558000045,40.798812035000026],[44.01337344400008,40.81951569800003],[43.992242684000075,40.843012212000076],[44.012990597000055,40.88525921200005],[44.02856949200003,40.89449153800007]]]},"properties":{"shapeName":"Akhuryan","shapeISO":"","shapeID":"60910142B74255853155978","shapeGroup":"ARM","shapeType":"ADM2"}},
{"type":"Feature","geometry":{"type":"Polygon","coordinates":[[[44.85470367400006,40.96207737700007],[44.84460939300004,40.99225309000008],[44.92579700600004,41.01405058200004],[44.995081655000035,41.04393330700003],[45.01658996800006,41.03941099900004],[45.060743923000075,41.051876623000055],[45.07747636000005,41.072897503000036],[45.07408031300008,41.09675107500004],[45.099903459000075,41.120122328000036],[45.10875521400004,41.112573815000076],[45.15087487800008,41.11427935300003],[45.15825149800003,41.12325944000003],[45.17657966100006,41.11950180900004],[45.20586637900004,41.140253606000044],[45.19798419700004,41.16617494500008],[45.169861078000054,41.170641544000034],[45.14419865900004,41.19361172400005],[45.12857184100005,41.19797341100008],[45.12495568300005,41.20902371100004],[45.10041301000007,41.19106800900005],[45.05229851400003,41.19361163000008],[45.05149755300005,41.20580429200004],[45.02950180600004,41.197355910000056],[45.029107414000066,41.214116483000055],[45.04676526500003,41.21563339200003],[45.052841123000064,41.239481512000054],[45.06405069700003,41.24656614100007],[45.04991709500007,41.250455801000044],[45.01681477500006,41.297481023000046],[44.978228451000064,41.281018225000025],[44.96146977400008,41.256634759000065],[44.946017794000056,41.25990421800003],[44.94016925600005,41.25532795200007],[44.93511639400003,41.26028057700006],[44.91431639600006,41.257519813000044],[44.89924287100007,41.27457663100006],[44.89107744300003,41.267253906000064],[44.87237486300006,41.27698840900007],[44.85187654600003,41.274603924000075],[44.84952883300008,41.28511331800007],[44.83191315700003,41.29949446000006],[44.81826563100003,41.30168190300003],[44.80749674700007,41.287415872000054],[44.80313049700004,41.26058579100004],[44.814807167000026,41.238889466000046],[44.82724427800008,41.23075623100004],[44.850763174000065,41.23048561600007],[44.866633680000064,41.21800411400005],[44.89185916800005,41.222185351000064],[44.90307421400007,41.211792668000044],[44.89031051000006,41.20747990800004],[44.896295880000025,41.190714498000034],[44.876711080000064,41.184201347000055],[44.87429774200007,41.17485825400007],[44.873319613000035,41.15053522200003],[44.885210709000035,41.136115629000074],[44.87782056700007,41.12013748800007],[44.881164984000065,41.115096546000075],[44.91971054100003,41.110645324000075],[44.94641153400005,41.07478968500004],[44.854677268000046,41.03071769500008],[44.81502362900005,41.05111623800008],[44.80725524800005,41.048303917000055],[44.76707189100006,41.00589555500005],[44.81452868700006,40.96143889000007],[44.82600729200004,40.95669478700006],[44.85470367400006,40.96207737700007]]]},"properties":{"shapeName":"Noyemberyan","shapeISO":"","shapeID":"60910142B63366479111492","shapeGroup":"ARM","shapeType":"ADM2"}},
{"type":"Feature","geometry":{"type":"Polygon","coordinates":[[[44.406856678000054,40.694731226000044],[44.403456239000036,40.67898279100007],[44.41565441200004,40.65649012200004],[44.40865142800004,40.64568976800007],[44.40834948600008,40.634756037000045],[44.44180108000006,40.62264018500008],[44.44758455300007,40.60339918900007],[44.48024307400004,40.59413089800006],[44.52251702800004,40.60116373100004],[44.546976622000045,40.58442157600007],[44.54721333400005,40.54930707300008],[44.52557863200008,40.53808376300003],[44.52873715800007,40.51511189300004],[44.576453326000035,40.48829249600004],[44.566975,40.462482961000035],[44.60329354900006,40.43500183500004],[44.60363926600007,40.37609007300006],[44.651769787000035,40.378087203000064],[44.666279263000035,40.365239906000056],[44.72404524900003,40.36539216400007],[44.73369354100004,40.359893440000064],[44.74327045000007,40.37279996500007],[44.76490235600005,40.38205166900008],[44.772159585000054,40.37101829800008],[44.82269276800008,40.37847557100008],[44.863645304000045,40.36379880800007],[44.875669886000026,40.369338939000045],[44.914133879000076,40.36160737100005],[44.90844479400005,40.39973946200007],[44.91078777900003,40.45018130100004],[44.90367372800006,40.45718838200003],[44.857217055000035,40.46600574300004],[44.85019528200007,40.48682056700005],[44.86735196300003,40.50751340100004],[44.84497331400007,40.54295201900004],[44.79846359900006,40.54714019200003],[44.79100157800008,40.555280467000046],[44.788991785000064,40.60316157400007],[44.77962061300008,40.623716080000065],[44.80054496900004,40.62942697100004],[44.79582415900006,40.650346497000044],[44.773058727000034,40.673188922000065],[44.746261427000036,40.67814133100006],[44.723261869000055,40.67307507500004],[44.67874263600004,40.68468217800006],[44.65743888000003,40.68327076800006],[44.57833775600005,40.71019536800003],[44.56188808200005,40.71013411100006],[44.53284303300006,40.696785531000046],[44.50027638600005,40.71560892000008],[44.44027870100007,40.69635292500004],[44.406856678000054,40.694731226000044]]]},"properties":{"shapeName":"Hrazdan","shapeISO":"","shapeID":"60910142B83182140550987","shapeGroup":"ARM","shapeType":"ADM2"}},
{"type":"Feature","geometry":{"type":"Polygon","coordinates":[[[44.52873715800007,40.51511189300004],[44.50749147100004,40.50417457100008],[44.50161971500006,40.43876879600003],[44.51293069700006,40.425110689000064],[44.48879402000006,40.40487871900007],[44.46864455300005,40.40250610100003],[44.451984896000056,40.38443576800006],[44.43915480600003,40.356113562000075],[44.440839451000045,40.33270710800008],[44.41619981500003,40.33430196000006],[44.394689189000076,40.320055729000046],[44.396064770000066,40.29151410600008],[44.42289728500003,40.29307457700003],[44.44171754900003,40.27175650700008],[44.42057664500004,40.259086815000046],[44.409918935000064,40.24190350300006],[44.41263870100005,40.22906890300004],[44.476322253000035,40.231232490000025],[44.49041718900003,40.239287098000034],[44.50684680100005,40.23478934700006],[44.524298499000054,40.24200101100007],[44.52965054600003,40.28376061000006],[44.54152144200003,40.30589904200008],[44.58241761700003,40.30421167700007],[44.59425834900003,40.33371333400004],[44.606244676000074,40.341118308000034],[44.60363926600007,40.37609007300006],[44.60329354900006,40.43500183500004],[44.566975,40.462482961000035],[44.576453326000035,40.48829249600004],[44.52873715800007,40.51511189300004]]]},"properties":{"shapeName":"Nairi","shapeISO":"","shapeID":"60910142B7641071119746","shapeGroup":"ARM","shapeType":"ADM2"}},
{"type":"Feature","geometry":{"type":"Polygon","coordinates":[[[44.60363926600007,40.37609007300006],[44.606244676000074,40.341118308000034],[44.59425834900003,40.33371333400004],[44.58241761700003,40.30421167700007],[44.54152144200003,40.30589904200008],[44.52965054600003,40.28376061000006],[44.524298499000054,40.24200101100007],[44.550359908000075,40.237871220000045],[44.56284140200006,40.25412223200004],[44.587690114000054,40.23410596300005],[44.602037884000026,40.20132569100008],[44.586461875000055,40.19127484900008],[44.60507832700006,40.19019891800008],[44.59994179200004,40.17705005400006],[44.59028932700005,40.17330040200005],[44.59965057900007,40.16390732200006],[44.58369606300005,40.155859244000055],[44.57898357700003,40.13585477400005],[44.616548429000034,40.13713143000007],[44.62140759000005,40.13271971000006],[44.63743705600007,40.126490560000036],[44.64016187000004,40.10365912200007],[44.677068364000036,40.09652964500003],[44.73841929100007,40.10830856600006],[44.75082946600003,40.10512765000004],[44.81299407200004,40.12349471300007],[44.83943876300003,40.14132379000006],[44.950327842000036,40.17221951200003],[45.025038410000036,40.166532817000075],[45.02283936900005,40.17670271000003],[45.01461707300007,40.17813829200003],[44.988022632000025,40.20976015900004],[44.97930597000004,40.208000423000044],[44.94212500900005,40.238939523000056],[44.924832139000046,40.283268649000036],[44.941623639000056,40.28992498300005],[44.93772637200004,40.314086315000054],[44.926893747000065,40.32332765700005],[44.914133879000076,40.36160737100005],[44.875669886000026,40.369338939000045],[44.863645304000045,40.36379880800007],[44.82269276800008,40.37847557100008],[44.772159585000054,40.37101829800008],[44.76490235600005,40.38205166900008],[44.74327045000007,40.37279996500007],[44.73369354100004,40.359893440000064],[44.72404524900003,40.36539216400007],[44.666279263000035,40.365239906000056],[44.651769787000035,40.378087203000064],[44.60363926600007,40.37609007300006]]]},"properties":{"shapeName":"Kotayk","shapeISO":"","shapeID":"60910142B65902605375404","shapeGroup":"ARM","shapeType":"ADM2"}},
{"type":"Feature","geometry":{"type":"Polygon","coordinates":[[[44.90844479400005,40.39973946200007],[44.93796150800006,40.41563740700008],[44.93795698000008,40.42056732200007],[44.920217422000064,40.42425126100005],[44.950833569000054,40.453842501000054],[44.95568926900006,40.45630940800004],[44.96535388600006,40.447688018000065],[44.973412343000064,40.45877978500005],[44.99438431900006,40.46247750100008],[45.05268694500006,40.49812603200007],[45.06147398300004,40.51134120900008],[45.04245427300003,40.51298780800005],[45.04271119900005,40.518058849000056],[45.03954604000006,40.51148686100004],[45.033611310000026,40.51803045400004],[45.032797017000064,40.507543009000074],[45.030071349000025,40.51466637200008],[44.999961677000044,40.509735214000045],[44.95670830100005,40.51244846000003],[44.95000865000003,40.52228972200004],[44.96246167500004,40.53626750300003],[44.979309217000036,40.53296950300006],[44.995715490000066,40.54008340000007],[44.99773886100007,40.54746247400004],[44.98920376600006,40.55157539600003],[44.99982440600007,40.562853732000065],[45.02061672900004,40.563882858000056],[45.00224003300008,40.568427202000066],[44.969309499000076,40.591528218000064],[44.97064364600004,40.617564180000045],[44.983063869000034,40.630801613000074],[45.046051539000075,40.60926397900005],[45.06120727600006,40.61005763500003],[45.060688457000026,40.636208570000065],[45.03221491800008,40.64806207600003],[45.01998024200003,40.63875045200007],[44.998271499000055,40.64379179300005],[44.94969209100003,40.66115522400003],[44.929803262000064,40.675159439000026],[44.90623899700006,40.68130744300004],[44.89006603800004,40.66335890900007],[44.86319412700004,40.66724988900006],[44.84666874100003,40.65069733100006],[44.83195173100006,40.65039949000004],[44.812420134000035,40.661715076000064],[44.79582415900006,40.650346497000044],[44.80054496900004,40.62942697100004],[44.77962061300008,40.623716080000065],[44.788991785000064,40.60316157400007],[44.79100157800008,40.555280467000046],[44.79846359900006,40.54714019200003],[44.84497331400007,40.54295201900004],[44.86735196300003,40.50751340100004],[44.85019528200007,40.48682056700005],[44.857217055000035,40.46600574300004],[44.90367372800006,40.45718838200003],[44.91078777900003,40.45018130100004],[44.90844479400005,40.39973946200007]]]},"properties":{"shapeName":"Sevan","shapeISO":"","shapeID":"60910142B15035126722219","shapeGroup":"ARM","shapeType":"ADM2"}},
{"type":"Feature","geometry":{"type":"Polygon","coordinates":[[[45.600727859000074,40.00187934500008],[45.60274713800004,40.010169639000026],[45.62051911100008,40.02001477400006],[45.660044921000065,40.02170670400005],[45.68115651200003,40.033512244000065],[45.69833648800005,40.024345133000054],[45.74049702800005,40.03068312500005],[45.78167337200006,40.02230038700003],[45.78940502800003,40.029245469000045],[45.83888241500006,39.98997457300004],[45.854086281000036,40.01535181300005],[45.88435098400004,40.020766741000045],[45.91318958200003,40.07405743400005],[45.90498298400007,40.10306389500005],[45.91471342300008,40.102908951000074],[45.92679169500008,40.11505437100004],[45.96310803200004,40.12016436400006],[45.95595921000006,40.13493523900007],[45.97431265700004,40.16531493300005],[45.968667495000034,40.17609632600005],[45.978887618000044,40.18793760700004],[45.97615219100004,40.20656590800007],[45.98213257400005,40.21136155700003],[45.975428272000045,40.22843762900004],[45.935087742000064,40.25222192500007],[45.93953881500005,40.258471292000024],[45.95654011500005,40.25014159600005],[45.96124600700006,40.27474704600007],[45.935145402000046,40.28617103000005],[45.93196541200007,40.29645427000003],[45.89359024500004,40.291989357000034],[45.87704956200008,40.30562873900004],[45.78850368800005,40.32725759200008],[45.78536342600006,40.33419758600007],[45.75073201600003,40.34961502600004],[45.72592044700008,40.351997632000064],[45.69821678200003,40.36663868000005],[45.65196724500004,40.366908659000046],[45.63848424200006,40.38169509800008],[45.639028634000056,40.39512631400004],[45.60539141400005,40.412561915000026],[45.59780604500003,40.42580004900003],[45.58910787700006,40.43037682700003],[45.56120825800008,40.428050692000056],[45.52680578400003,40.44602185300005],[45.521166778000065,40.457372477000035],[45.51296471500007,40.45542571100003],[45.451185922000036,40.420185100000026],[45.48628356800003,40.384622867000076],[45.52270468800003,40.36753372700008],[45.54457412600004,40.366072115000065],[45.57441591400004,40.347176217000026],[45.635084103000054,40.275301323000065],[45.64434927900004,40.24000214400007],[45.63071313000006,40.19897791200003],[45.60671656900007,40.18374027600004],[45.55392052800005,40.176840080000034],[45.576463328000045,40.10338543700004],[45.57537872200004,40.06199735800004],[45.57231563400006,40.048404799000025],[45.55234643500006,40.042263082000034],[45.54661733800003,40.012122791000024],[45.57269794600006,40.01514234200005],[45.58154262200003,40.00422249600007],[45.600727859000074,40.00187934500008]]]},"properties":{"shapeName":"Vardenis","shapeISO":"","shapeID":"60910142B47699978592235","shapeGroup":"ARM","shapeType":"ADM2"}},
{"type":"Feature","geometry":{"type":"Polygon","coordinates":[[[44.914133879000076,40.36160737100005],[44.926893747000065,40.32332765700005],[44.93772637200004,40.314086315000054],[44.941623639000056,40.28992498300005],[44.924832139000046,40.283268649000036],[44.94212500900005,40.238939523000056],[44.97930597000004,40.208000423000044],[44.988022632000025,40.20976015900004],[45.01461707300007,40.17813829200003],[45.02533428000004,40.18884954500004],[45.066993266000054,40.19984455700006],[45.07418669800006,40.21195607200008],[45.13168215400003,40.22732323900004],[45.15182817500005,40.21958942500004],[45.16049000700008,40.23610030400005],[45.222497248000025,40.250159609000036],[45.226401836000036,40.27879050300004],[45.218958626000074,40.28458269600003],[45.21882413800006,40.327628934000074],[45.22659547300003,40.36128643500007],[45.21822420400008,40.43212187800003],[45.15173655900003,40.419882554000026],[45.116192083000044,40.424377407000065],[45.10838764300007,40.43003187800008],[45.11365245300004,40.445287532000066],[45.102748329000065,40.46406479800004],[45.07503088300007,40.46301326200006],[45.068622848000075,40.47497559100003],[45.05397552900007,40.48071393600003],[45.05806713000004,40.49656913800004],[45.05268694500006,40.49812603200007],[44.99438431900006,40.46247750100008],[44.973412343000064,40.45877978500005],[44.96535388600006,40.447688018000065],[44.95568926900006,40.45630940800004],[44.950833569000054,40.453842501000054],[44.920217422000064,40.42425126100005],[44.93795698000008,40.42056732200007],[44.93796150800006,40.41563740700008],[44.90844479400005,40.39973946200007],[44.914133879000076,40.36160737100005]]]},"properties":{"shapeName":"Gavar","shapeISO":"","shapeID":"60910142B84133064151767","shapeGroup":"ARM","shapeType":"ADM2"}},
{"type":"Feature","geometry":{"type":"Polygon","coordinates":[[[45.025038410000036,40.166532817000075],[45.03005211400006,40.13218322700004],[45.011324794000075,40.11045613300007],[45.031406838000066,40.09783910700003],[45.02037036100006,40.06554924900007],[45.03672390400004,40.04948273100007],[45.070359550000035,40.03584884300005],[45.07351089600007,40.00302036900007],[45.12570729200007,39.99389480100007],[45.11021631300008,39.95794349300007],[45.11877620300004,39.92091572800007],[45.11207719200007,39.877093485000046],[45.130577843000026,39.87137436100005],[45.15661479100004,39.88364713400006],[45.19646678600003,39.91907769900007],[45.20434669600007,39.94482530600004],[45.222563818000026,39.94278719000005],[45.24050740600006,39.95226654500004],[45.340119850000065,39.95437757500008],[45.364731283000026,39.965754434000075],[45.38253825500004,39.95711352200004],[45.41159751400005,39.96588536500008],[45.42194950700008,39.95583056100003],[45.448053929000025,39.96660854000004],[45.48491239500004,39.97118113500005],[45.50622485300005,39.98597500900007],[45.531888699000035,39.98414339100003],[45.54661733800003,40.012122791000024],[45.55234643500006,40.042263082000034],[45.57231563400006,40.048404799000025],[45.57537872200004,40.06199735800004],[45.576463328000045,40.10338543700004],[45.55392052800005,40.176840080000034],[45.496485766000035,40.16104901600005],[45.46251818800005,40.19263344600006],[45.41502158900005,40.16389753000004],[45.384479948000035,40.15526274000007],[45.33040098200007,40.15455041800004],[45.29010182700006,40.16687903900004],[45.25907747400004,40.18716504300005],[45.24537315200007,40.18670293500003],[45.222497248000025,40.250159609000036],[45.16049000700008,40.23610030400005],[45.15182817500005,40.21958942500004],[45.13168215400003,40.22732323900004],[45.07418669800006,40.21195607200008],[45.066993266000054,40.19984455700006],[45.02533428000004,40.18884954500004],[45.01461707300007,40.17813829200003],[45.02283936900005,40.17670271000003],[45.025038410000036,40.166532817000075]]]},"properties":{"shapeName":"Martuni","shapeISO":"","shapeID":"60910142B51830261443364","shapeGroup":"ARM","shapeType":"ADM2"}},
{"type":"Feature","geometry":{"type":"Polygon","coordinates":[[[46.52283619900004,38.97734923000007],[46.47306427500007,38.98250031500004],[46.42977000700006,39.01361829200005],[46.39297570000008,39.01498999800003],[46.394308565000074,39.02238598200006],[46.33158195000004,39.03423688300006],[46.31630743000005,39.043675198000074],[46.30779617700006,39.097512480000034],[46.29726730400006,39.10689496200007],[46.27817789800008,39.10339990500006],[46.24041040700007,39.119558174000076],[46.22128814400003,39.114201182000045],[46.20114601000006,39.11904292400004],[46.18435830100003,39.110876303000055],[46.145165356000064,39.114047407000044],[46.10435341600004,39.09035228000005],[46.09939716300005,39.077422882000064],[46.070277488000045,39.07692958200005],[46.07774465400007,39.03008007500006],[46.10249916200007,39.01607146300006],[46.103593955000065,38.98807728600008],[46.11299862800007,38.97659233600007],[46.11088599300007,38.952967940000065],[46.122019300000034,38.94732848800004],[46.12754377700003,38.917762647000075],[46.13942191400008,38.911779326000044],[46.15056758500003,38.89291442100006],[46.148139496000056,38.841926811000064],[46.185768997000025,38.84148279400006],[46.195924896000065,38.852403382000034],[46.213205981000044,38.854549313000064],[46.21801697200004,38.86421991200007],[46.24926631900007,38.87388262300004],[46.27153422300006,38.89506735000003],[46.30528680500004,38.90639929200006],[46.31771843000007,38.90119783400007],[46.341313350000064,38.91694150700005],[46.36408157500006,38.91626936400007],[46.37156379800007,38.908858620000046],[46.39529878700006,38.90399191300003],[46.41697923500004,38.89298435200004],[46.42247460500005,38.88306096700006],[46.42852210900003,38.89208991400005],[46.455027932000064,38.89908560200007],[46.46637981900005,38.888882909000074],[46.483651242000064,38.885581595000076],[46.52349271700007,38.88931362300008],[46.53467572300008,38.86774255600005],[46.53559048500006,38.914275142000065],[46.50783345000008,38.94817915700003],[46.50880986300007,38.96103268600007],[46.52407444500005,38.96973275000005],[46.52283619900004,38.97734923000007]]]},"properties":{"shapeName":"Meghri","shapeISO":"","shapeID":"60910142B11471935685487","shapeGroup":"ARM","shapeType":"ADM2"}},
{"type":"Feature","geometry":{"type":"Polygon","coordinates":[[[46.52283619900004,38.97734923000007],[46.52023482800007,38.995242810000036],[46.54714332000003,39.00221710900007],[46.53677279900006,39.03787435000004],[46.555006416000026,39.05707281800005],[46.54302408500007,39.06298448800004],[46.51772719400003,39.06242669200003],[46.53795519600004,39.084334055000056],[46.53222030400008,39.09522357900005],[46.50405595900003,39.10503825100005],[46.50579178700008,39.12472808000007],[46.49654619000006,39.12382125400006],[46.49521392400004,39.13136521900003],[46.48480125100008,39.133482134000076],[46.49768820400004,39.14029972000003],[46.497559257000034,39.15070705200003],[46.467606989000046,39.14759690100004],[46.45907202200004,39.15160360500005],[46.46072677600006,39.15945518800004],[46.440578291000065,39.154231002000074],[46.43291398800005,39.188002684000026],[46.44927215200005,39.200802141000054],[46.46527015400005,39.200193729000034],[46.49184830300004,39.192533714000035],[46.51016488100004,39.17717084700007],[46.505392423000046,39.18420981500003],[46.51095593300005,39.189617998000074],[46.499282649000065,39.19483029700007],[46.516125558000056,39.21295811500005],[46.52282724000003,39.19739844700007],[46.53198320700005,39.19371914300007],[46.53843707000004,39.159004638000056],[46.545498285000065,39.176293970000074],[46.567291838000074,39.18743426200007],[46.56893755300007,39.19822589900008],[46.588178732000074,39.20132023300005],[46.57247160400004,39.21070358000003],[46.57639696000007,39.21715132800006],[46.61982002600007,39.222852131000025],[46.63505535300004,39.23099286000007],[46.590968978000035,39.23523075700007],[46.57356300500004,39.255655267000066],[46.55461012500007,39.254679845000055],[46.52096235500005,39.29858838000007],[46.538643739000065,39.30957789200005],[46.50414039000003,39.34384109900003],[46.477944861000026,39.33197085300003],[46.44950894800007,39.338447175000056],[46.45103311200006,39.34272537800007],[46.398575738000034,39.338295790000075],[46.38832264300004,39.34642154100004],[46.38711217200006,39.363954566000075],[46.34365387400004,39.36990279300005],[46.34394337500004,39.38499987700004],[46.30887941300006,39.38298148400003],[46.28839837400005,39.36992061700005],[46.28184417400007,39.35187235800004],[46.29089069300005,39.33606985200004],[46.244769760000054,39.323282660000075],[46.253018231000055,39.30628242700004],[46.220228054000074,39.29817225600004],[46.19567267600007,39.31714991800004],[46.17928067500003,39.313695057000075],[46.16469343800003,39.32471344100003],[46.09331407500008,39.335675424000044],[46.05962976100005,39.32028417600003],[46.030892152000035,39.32235330200007],[45.991798936000066,39.293229057000076],[45.999879125000064,39.29205026600005],[46.00531068600003,39.28137258500004],[46.005953411000064,39.257556038000075],[45.98802349600004,39.24265552900005],[45.99072251700005,39.201469417000055],[46.00930433100007,39.16294690800004],[46.00516814100007,39.14869788500005],[46.02412717100003,39.13815292400005],[46.02620346000003,39.122829127000045],[46.01822207200007,39.11456062100007],[46.032538835000025,39.09325601100005],[46.070277488000045,39.07692958200005],[46.09939716300005,39.077422882000064],[46.10435341600004,39.09035228000005],[46.145165356000064,39.114047407000044],[46.18435830100003,39.110876303000055],[46.20114601000006,39.11904292400004],[46.22128814400003,39.114201182000045],[46.24041040700007,39.119558174000076],[46.27817789800008,39.10339990500006],[46.29726730400006,39.10689496200007],[46.30779617700006,39.097512480000034],[46.31630743000005,39.043675198000074],[46.33158195000004,39.03423688300006],[46.394308565000074,39.02238598200006],[46.39297570000008,39.01498999800003],[46.42977000700006,39.01361829200005],[46.47306427500007,38.98250031500004],[46.52283619900004,38.97734923000007]]]},"properties":{"shapeName":"Kapan","shapeISO":"","shapeID":"60910142B29805693167255","shapeGroup":"ARM","shapeType":"ADM2"}},
{"type":"Feature","geometry":{"type":"Polygon","coordinates":[[[46.45103311200006,39.34272537800007],[46.41076368800003,39.361827797000046],[46.403952626000034,39.37995734400005],[46.38946185300006,39.38792487300003],[46.39559278400003,39.39230569100005],[46.38388113700006,39.40111324500003],[46.39191279200003,39.41350067600007],[46.38169055100008,39.43573122600003],[46.396699597000065,39.442706875000056],[46.39125095800006,39.447064099000045],[46.39719486900003,39.457016004000025],[46.425729809000075,39.45809851800004],[46.45722782900003,39.44840721800006],[46.48537922600008,39.475084552000055],[46.48618314300006,39.48366322000004],[46.50700081600007,39.48307595700004],[46.51582332100003,39.473498267000025],[46.53664970400007,39.468854520000036],[46.54137281200008,39.473879399000054],[46.533121132000076,39.48591666600004],[46.51442867000003,39.49450981900003],[46.500272976000076,39.518549664000034],[46.53878302900006,39.533151245000056],[46.547093784000026,39.54671705800007],[46.588373268000055,39.53280331700006],[46.569260933000066,39.56860616900008],[46.52347104000006,39.58432577200006],[46.488899494000066,39.58684135500005],[46.45799030500007,39.57347345800008],[46.44341033300003,39.57874809100008],[46.43251544000003,39.56862446400004],[46.41454695600004,39.57926010400007],[46.42294855000006,39.598161815000026],[46.41457031500005,39.63094451500007],[46.39342905700005,39.61259360400004],[46.37228872800006,39.61976449200006],[46.37786721700007,39.63146424000007],[46.358995564000054,39.63940133800003],[46.32298709200006,39.62796753400005],[46.315429160000065,39.630597057000045],[46.28558239300003,39.612486871000044],[46.24991063400006,39.60102649000004],[46.19740500300003,39.60245360500005],[46.17852320000003,39.579826455000045],[46.189035207000074,39.569199],[46.180687145000036,39.518775660000074],[46.211255394000034,39.49361506500003],[46.17642352800004,39.45588421200006],[46.18104997800003,39.41360310500005],[46.175393678000034,39.39461328800007],[46.15917604900005,39.382355302000065],[46.160001574000034,39.36744009700004],[46.16746515300008,39.36736545100007],[46.19567267600007,39.31714991800004],[46.220228054000074,39.29817225600004],[46.253018231000055,39.30628242700004],[46.244769760000054,39.323282660000075],[46.29089069300005,39.33606985200004],[46.28184417400007,39.35187235800004],[46.28839837400005,39.36992061700005],[46.30887941300006,39.38298148400003],[46.34394337500004,39.38499987700004],[46.34365387400004,39.36990279300005],[46.38711217200006,39.363954566000075],[46.38832264300004,39.34642154100004],[46.398575738000034,39.338295790000075],[46.45103311200006,39.34272537800007]]]},"properties":{"shapeName":"Goris","shapeISO":"","shapeID":"60910142B47365915654778","shapeGroup":"ARM","shapeType":"ADM2"}},
{"type":"Feature","geometry":{"type":"Polygon","coordinates":[[[46.19567267600007,39.31714991800004],[46.16746515300008,39.36736545100007],[46.160001574000034,39.36744009700004],[46.15917604900005,39.382355302000065],[46.175393678000034,39.39461328800007],[46.18104997800003,39.41360310500005],[46.17642352800004,39.45588421200006],[46.211255394000034,39.49361506500003],[46.180687145000036,39.518775660000074],[46.189035207000074,39.569199],[46.17852320000003,39.579826455000045],[46.17265051100003,39.61542992700004],[46.16530301200004,39.61876463500005],[46.17306479800004,39.633954],[46.15585309800008,39.650346600000034],[46.13147651400004,39.65686739700004],[46.100205559000074,39.68627387400005],[46.083735353000066,39.685711714000035],[46.08020016200004,39.677077230000066],[46.05879896300007,39.69055288900006],[46.069714763000036,39.69769138200007],[46.06521793200005,39.70663565600006],[46.03668453800003,39.72574134800004],[46.03107719900004,39.743361563000065],[46.00465714100005,39.75417099100008],[46.00415788300006,39.762282636000066],[45.97700853900005,39.78804009800007],[45.96923513400003,39.792004535000046],[45.93897584000007,39.788034812000035],[45.864357977000054,39.82129511100004],[45.82944326900008,39.82473218500007],[45.81533220500006,39.864426534000074],[45.77692810100007,39.84307942800007],[45.76649909900004,39.82476210300007],[45.70544040100003,39.766215147000025],[45.705713521000064,39.751113444000055],[45.72947177100008,39.70467178400003],[45.71604357800004,39.68062121400004],[45.71224890700006,39.64223172000004],[45.69285642400007,39.61411103200004],[45.696342542000025,39.60339688400006],[45.727176187000055,39.60271598700007],[45.73553132200004,39.592373112000075],[45.74918793900008,39.59466738500004],[45.75690648300008,39.58713256600004],[45.78030021200004,39.58544946000006],[45.78671629100006,39.56958866600007],[45.80014780600004,39.57196223600005],[45.80750513400005,39.56196126100008],[45.82650592400006,39.50544012600005],[45.81527971000003,39.48434185100007],[45.842113321000056,39.46170109900004],[45.817052431000036,39.42973120100004],[45.80508346000005,39.428364771000076],[45.79040312700005,39.38109523300005],[45.79432436400003,39.36941697000003],[45.810782380000035,39.36156192000004],[45.862875759000076,39.35702080900006],[45.89194657200005,39.342511986000034],[45.89588139800003,39.33338453400006],[45.932306020000055,39.32178712900003],[45.94220974900003,39.30903510500008],[45.97067530900006,39.29331811000003],[45.991798936000066,39.293229057000076],[46.030892152000035,39.32235330200007],[46.05962976100005,39.32028417600003],[46.09331407500008,39.335675424000044],[46.16469343800003,39.32471344100003],[46.17928067500003,39.313695057000075],[46.19567267600007,39.31714991800004]]]},"properties":{"shapeName":"Sisian","shapeISO":"","shapeID":"60910142B80201990300088","shapeGroup":"ARM","shapeType":"ADM2"}},
{"type":"Feature","geometry":{"type":"Polygon","coordinates":[[[45.54661733800003,40.012122791000024],[45.531888699000035,39.98414339100003],[45.54770231200007,39.97413073100006],[45.574233176000064,39.93348723200006],[45.53857863800005,39.907201128000054],[45.54927649800004,39.90218923000003],[45.54587835400008,39.87987748300003],[45.50396485600004,39.87179759400004],[45.48441459400004,39.83880765400005],[45.50463233100004,39.816393410000046],[45.47666570200005,39.804107147000025],[45.48505707700008,39.77761453800008],[45.51508425600008,39.779966072000036],[45.515034943000046,39.773350513000025],[45.48056886400008,39.74868908600007],[45.47096099000004,39.753690326000026],[45.462367879000055,39.750416966000046],[45.44714098600008,39.714094732000035],[45.426755660000026,39.707555582000055],[45.40429576200006,39.711770880000074],[45.394729823000034,39.72420330800003],[45.38294503100008,39.72341579600004],[45.36124450800003,39.66808246000005],[45.36757490300005,39.65235498700008],[45.36000285400007,39.635011822000024],[45.34499209000006,39.62761440500003],[45.320406296000044,39.630165807000026],[45.32569168600003,39.61691914600004],[45.30917259100005,39.60950034900003],[45.30054760500008,39.58199114000007],[45.314627904000076,39.56188590800008],[45.343045619000065,39.54864143200007],[45.34357404600007,39.54063149700005],[45.38550543500003,39.54017023600005],[45.43555567000004,39.52464146300008],[45.44660592500003,39.50244296600005],[45.465454202000046,39.50510655100004],[45.47288958200005,39.49057765200007],[45.492349697000066,39.51133443700007],[45.52826164000004,39.526910901000065],[45.537731155000074,39.54447014300007],[45.56355650000006,39.54528471900005],[45.57802150800006,39.567752099000074],[45.59244360800005,39.57056873600004],[45.62457574300004,39.563088348000065],[45.65706505700007,39.582725727000025],[45.67709657300003,39.585756452000055],[45.696342542000025,39.60339688400006],[45.69285642400007,39.61411103200004],[45.71224890700006,39.64223172000004],[45.71604357800004,39.68062121400004],[45.72947177100008,39.70467178400003],[45.705713521000064,39.751113444000055],[45.70544040100003,39.766215147000025],[45.76649909900004,39.82476210300007],[45.77692810100007,39.84307942800007],[45.81533220500006,39.864426534000074],[45.811246211000025,39.88195197300007],[45.78962585200003,39.90476374000008],[45.80630274200007,39.91808944500008],[45.79734061400006,39.93771017900008],[45.780707850000056,39.946490554000036],[45.73463876100004,39.94718940900003],[45.70107907200003,39.96902330200004],[45.666364990000034,39.97018061000006],[45.658675577000054,39.97626960000008],[45.61256120300004,39.97429810400007],[45.61361259800003,39.98764920700006],[45.60412126300008,39.99000717000007],[45.600727859000074,40.00187934500008],[45.58154262200003,40.00422249600007],[45.57269794600006,40.01514234200005],[45.54661733800003,40.012122791000024]]]},"properties":{"shapeName":"Vayk","shapeISO":"","shapeID":"60910142B94475548001671","shapeGroup":"ARM","shapeType":"ADM2"}},
{"type":"Feature","geometry":{"type":"Polygon","coordinates":[[[45.11207719200007,39.877093485000046],[45.10842295700007,39.84721104000005],[45.07683296700003,39.82742563100004],[45.07034468100005,39.78879227600004],[45.12111954100004,39.76143393900003],[45.14844605600007,39.712044897000055],[45.18557666100003,39.68402042400004],[45.186834238000074,39.675575767000055],[45.174029877000066,39.66374558500007],[45.177262995000035,39.65156607800003],[45.18732592600003,39.649467094000045],[45.17463953600003,39.626126799000076],[45.18125135400004,39.60494440900004],[45.17285767900006,39.592782458000045],[45.213938804000065,39.582402701000035],[45.22572185700005,39.588525368000035],[45.227761745000066,39.60409835300004],[45.24352766100003,39.611849610000036],[45.30917259100005,39.60950034900003],[45.32569168600003,39.61691914600004],[45.320406296000044,39.630165807000026],[45.34499209000006,39.62761440500003],[45.36000285400007,39.635011822000024],[45.36757490300005,39.65235498700008],[45.36124450800003,39.66808246000005],[45.38294503100008,39.72341579600004],[45.394729823000034,39.72420330800003],[45.40429576200006,39.711770880000074],[45.426755660000026,39.707555582000055],[45.44714098600008,39.714094732000035],[45.462367879000055,39.750416966000046],[45.47096099000004,39.753690326000026],[45.48056886400008,39.74868908600007],[45.515034943000046,39.773350513000025],[45.51508425600008,39.779966072000036],[45.48505707700008,39.77761453800008],[45.47666570200005,39.804107147000025],[45.50463233100004,39.816393410000046],[45.48441459400004,39.83880765400005],[45.50396485600004,39.87179759400004],[45.54587835400008,39.87987748300003],[45.54927649800004,39.90218923000003],[45.53857863800005,39.907201128000054],[45.574233176000064,39.93348723200006],[45.54770231200007,39.97413073100006],[45.531888699000035,39.98414339100003],[45.50622485300005,39.98597500900007],[45.48491239500004,39.97118113500005],[45.448053929000025,39.96660854000004],[45.42194950700008,39.95583056100003],[45.41159751400005,39.96588536500008],[45.38253825500004,39.95711352200004],[45.364731283000026,39.965754434000075],[45.340119850000065,39.95437757500008],[45.24050740600006,39.95226654500004],[45.222563818000026,39.94278719000005],[45.20434669600007,39.94482530600004],[45.19646678600003,39.91907769900007],[45.15661479100004,39.88364713400006],[45.130577843000026,39.87137436100005],[45.11207719200007,39.877093485000046]]]},"properties":{"shapeName":"Yeghegnadzor","shapeISO":"","shapeID":"60910142B44226366137907","shapeGroup":"ARM","shapeType":"ADM2"}},
{"type":"Feature","geometry":{"type":"Polygon","coordinates":[[[44.83943876300003,40.14132379000006],[44.828322736000075,40.12248217300004],[44.88970814100003,40.126691540000024],[44.89298134100005,40.10023808700004],[44.91666744500003,40.103560042000026],[44.90378800600007,40.072958751000044],[44.87583260700006,40.05970117600003],[44.867247200000065,40.047287581000035],[44.87265636800004,40.03158701800004],[44.84684041500003,40.030728830000044],[44.82536804400007,40.014159610000036],[44.816713426000035,40.033165918000066],[44.79100536300007,39.99921773400007],[44.76518004700006,40.00495690200006],[44.74585806600004,39.99581974900008],[44.68888838500004,39.994026940000026],[44.678237842000044,39.97250248600005],[44.63543915400004,39.93598998600004],[44.57322852000004,39.92171949600004],[44.57764130000004,39.90272092300006],[44.55303288700003,39.900807290000046],[44.55415758400005,39.88139905400004],[44.57605151100006,39.86294257600008],[44.59301902000004,39.85806774200006],[44.59392143300005,39.825934407000034],[44.60261987100006,39.82190819500005],[44.61851524900004,39.82832082600004],[44.61275924000006,39.81492371000007],[44.62826535000005,39.814095114000054],[44.65838414700005,39.791152864000026],[44.67901743400006,39.78803472200008],[44.68637303100007,39.796717123000064],[44.69734063800007,39.79148083100006],[44.687185982000074,39.77303014900008],[44.71022259700004,39.77100680700005],[44.722274705000075,39.74251595000004],[44.74443172700006,39.74432548900006],[44.75377875400005,39.714621384000054],[44.87800589100004,39.737518590000036],[44.886936512000034,39.74871807100004],[44.90399247000005,39.74182446100008],[44.907277875000034,39.728773345000036],[44.94023869000006,39.725173004000055],[45.008851641000035,39.75019646100003],[45.011837322000076,39.76281027600004],[45.034153193000066,39.76927514000005],[45.05023010200006,39.790880634000075],[45.06245973800003,39.794821152000054],[45.07034468100005,39.78879227600004],[45.07683296700003,39.82742563100004],[45.10842295700007,39.84721104000005],[45.11207719200007,39.877093485000046],[45.11877620300004,39.92091572800007],[45.11021631300008,39.95794349300007],[45.12570729200007,39.99389480100007],[45.07351089600007,40.00302036900007],[45.070359550000035,40.03584884300005],[45.03672390400004,40.04948273100007],[45.02037036100006,40.06554924900007],[45.031406838000066,40.09783910700003],[45.011324794000075,40.11045613300007],[45.03005211400006,40.13218322700004],[45.025038410000036,40.166532817000075],[44.950327842000036,40.17221951200003],[44.83943876300003,40.14132379000006]]]},"properties":{"shapeName":"Ararat","shapeISO":"","shapeID":"60910142B40679447151714","shapeGroup":"ARM","shapeType":"ADM2"}},
{"type":"Feature","geometry":{"type":"Polygon","coordinates":[[[44.48879402000006,40.40487871900007],[44.46497331000006,40.40966944200005],[44.42849591400005,40.406396707000056],[44.42832102600005,40.427062610000064],[44.40264612300007,40.424865606000026],[44.375808162000055,40.40198987700006],[44.36224001000005,40.407081220000066],[44.34874948300006,40.403907839000055],[44.31606847000006,40.42748925400008],[44.25511018100008,40.43641226900007],[44.22115571200004,40.44859155800003],[44.18257508700003,40.50620046300003],[44.184479993000025,40.517015471000036],[44.11104557500005,40.48173527200004],[44.129370461000065,40.453750924000076],[44.112488866000035,40.42571837700007],[44.12407531200006,40.392475423000064],[44.099485651000066,40.33570298600006],[44.11174882800003,40.327272547000064],[44.10783384100006,40.31716280900008],[44.09266440000005,40.31549572000006],[44.082666010000025,40.30611703100004],[44.05333103500004,40.30432636200004],[44.051481366000075,40.29190793600003],[44.06714896700004,40.25637966900007],[44.062137482000026,40.253240934000075],[44.07884936700003,40.21461577900004],[44.059720206000065,40.20826022800003],[44.06313755000008,40.193565996000075],[44.13886856900007,40.189323554000055],[44.155981249000035,40.197210967000046],[44.147268876000055,40.205683047000036],[44.15304376900008,40.229784050000035],[44.14545905500006,40.26931460000003],[44.20448133900004,40.247226072000046],[44.221609425000054,40.255103871000074],[44.236109234000025,40.272277476000056],[44.28018472000008,40.272366419000036],[44.287039728000025,40.24679593900004],[44.31695016500004,40.24386761200003],[44.353700024000034,40.21303311300005],[44.38458890100003,40.21242688900003],[44.403630786000065,40.19965189800007],[44.41263870100005,40.22906890300004],[44.409918935000064,40.24190350300006],[44.42057664500004,40.259086815000046],[44.44171754900003,40.27175650700008],[44.42289728500003,40.29307457700003],[44.396064770000066,40.29151410600008],[44.394689189000076,40.320055729000046],[44.41619981500003,40.33430196000006],[44.440839451000045,40.33270710800008],[44.43915480600003,40.356113562000075],[44.451984896000056,40.38443576800006],[44.46864455300005,40.40250610100003],[44.48879402000006,40.40487871900007]]]},"properties":{"shapeName":"Ashtarak","shapeISO":"","shapeID":"60910142B60496138313868","shapeGroup":"ARM","shapeType":"ADM2"}},
{"type":"Feature","geometry":{"type":"Polygon","coordinates":[[[44.11104557500005,40.48173527200004],[44.09750272200006,40.46843191800008],[44.07463904000008,40.468256360000055],[44.031170314000065,40.45237819100004],[44.00849391000003,40.46175236800008],[44.015973333000034,40.484455482000044],[43.99555765400004,40.490292870000076],[43.989209180000046,40.50681647400006],[43.93436574800006,40.50255055500003],[43.93363386400006,40.48469320000004],[43.91221878700003,40.48915643400005],[43.889958930000034,40.482732902000066],[43.82911484300007,40.503866010000024],[43.81951808200006,40.50065984200006],[43.77032285700005,40.52207383100006],[43.76768386900005,40.49953779300006],[43.70516152400006,40.499628607000034],[43.68764114500004,40.48546360800003],[43.69136849300003,40.45057953000003],[43.63866856800007,40.44415151700008],[43.63561647200004,40.41927872500003],[43.61922939900006,40.41970690200003],[43.62013971700003,40.395257687000026],[43.606699252000055,40.383515346000024],[43.590549958000054,40.34634147200006],[43.63715213000006,40.29417452600006],[43.63314346200008,40.28316340400005],[43.64489415200006,40.270636952000075],[43.66402978000008,40.27034663000006],[43.683048590000055,40.254937840000025],[43.71333125700005,40.27209339400008],[43.72308927300003,40.28871801200006],[43.75633649800005,40.25254593000005],[43.770326071000056,40.25060208200006],[43.794096731000025,40.260507897000025],[43.78853881600003,40.28333024900007],[43.81660965300006,40.27515838000005],[43.86760199300005,40.274731925000026],[43.891728681000075,40.24329277000004],[43.92984047400006,40.21965601200003],[43.95673131500007,40.19168247300007],[43.98787374600005,40.18550601600003],[43.993941817000064,40.19184961500008],[44.02825812300006,40.19447169700004],[44.037968902000046,40.187272954000036],[44.06313755000008,40.193565996000075],[44.059720206000065,40.20826022800003],[44.07884936700003,40.21461577900004],[44.062137482000026,40.253240934000075],[44.06714896700004,40.25637966900007],[44.051481366000075,40.29190793600003],[44.05333103500004,40.30432636200004],[44.082666010000025,40.30611703100004],[44.09266440000005,40.31549572000006],[44.10783384100006,40.31716280900008],[44.11174882800003,40.327272547000064],[44.099485651000066,40.33570298600006],[44.12407531200006,40.392475423000064],[44.112488866000035,40.42571837700007],[44.129370461000065,40.453750924000076],[44.11104557500005,40.48173527200004]]]},"properties":{"shapeName":"Talin","shapeISO":"","shapeID":"60910142B71936783282931","shapeGroup":"ARM","shapeType":"ADM2"}},
{"type":"Feature","geometry":{"type":"Polygon","coordinates":[[[43.75034842200006,40.68011368400005],[43.736187303000065,40.66342836600006],[43.723019263000026,40.660965231000034],[43.71644292000008,40.64268130700003],[43.72350482600007,40.63549087700005],[43.71160714800004,40.63264277700006],[43.70720807500004,40.610714149000046],[43.69514462200004,40.60570647700007],[43.67936105600006,40.57701197700004],[43.673558343000025,40.57926374400006],[43.67254576200003,40.56694909500004],[43.64364567300004,40.56134361800008],[43.65083964100006,40.53179797400003],[43.64107049900008,40.538711557000056],[43.636637902000075,40.53506417800003],[43.63589884600003,40.54072815200004],[43.62883088600006,40.53816921400005],[43.63934345600006,40.52575494800004],[43.63454379900003,40.51962789100003],[43.61904038700004,40.52559254400006],[43.611108655000066,40.51415728300003],[43.605397210000035,40.517123697000045],[43.572274769000046,40.50497602000007],[43.57082106000007,40.49465402100003],[43.557844988000056,40.494655023000064],[43.55844396300006,40.48140174100007],[43.54273059600007,40.47753099000005],[43.559838229000036,40.460094050000066],[43.57259698100006,40.46001161200007],[43.58544491400005,40.445877789000065],[43.609578156000055,40.436504927000044],[43.61922939900006,40.41970690200003],[43.63561647200004,40.41927872500003],[43.63866856800007,40.44415151700008],[43.69136849300003,40.45057953000003],[43.68764114500004,40.48546360800003],[43.70516152400006,40.499628607000034],[43.76768386900005,40.49953779300006],[43.77032285700005,40.52207383100006],[43.81951808200006,40.50065984200006],[43.82911484300007,40.503866010000024],[43.889958930000034,40.482732902000066],[43.91221878700003,40.48915643400005],[43.93363386400006,40.48469320000004],[43.93436574800006,40.50255055500003],[43.989209180000046,40.50681647400006],[43.99368233300004,40.53000737100007],[43.929620697000075,40.53407873800006],[43.910021106000045,40.55249950700005],[43.91595010000003,40.562629178000066],[43.90223642900003,40.593506167000044],[43.88910636900005,40.58795384800004],[43.840047767000044,40.60297211300008],[43.81372145300003,40.59650345000006],[43.793974322000054,40.62032935600007],[43.80809820300004,40.626677219000044],[43.81835724100006,40.62213042900004],[43.818938924000065,40.67602138800004],[43.797518309000054,40.68575350800006],[43.778061636000075,40.67683618700005],[43.75034842200006,40.68011368400005]]]},"properties":{"shapeName":"Ani","shapeISO":"","shapeID":"60910142B59809350478166","shapeGroup":"ARM","shapeType":"ADM2"}},
{"type":"Feature","geometry":{"type":"Polygon","coordinates":[[[43.818938924000065,40.67602138800004],[43.81835724100006,40.62213042900004],[43.80809820300004,40.626677219000044],[43.793974322000054,40.62032935600007],[43.81372145300003,40.59650345000006],[43.840047767000044,40.60297211300008],[43.88910636900005,40.58795384800004],[43.90223642900003,40.593506167000044],[43.91595010000003,40.562629178000066],[43.910021106000045,40.55249950700005],[43.929620697000075,40.53407873800006],[43.99368233300004,40.53000737100007],[43.989209180000046,40.50681647400006],[43.99555765400004,40.490292870000076],[44.015973333000034,40.484455482000044],[44.00849391000003,40.46175236800008],[44.031170314000065,40.45237819100004],[44.07463904000008,40.468256360000055],[44.09750272200006,40.46843191800008],[44.11104557500005,40.48173527200004],[44.184479993000025,40.517015471000036],[44.18574437600006,40.524193946000025],[44.158953945000064,40.53760854500007],[44.150266980000026,40.553045878000034],[44.16168664400004,40.569849512000076],[44.16873074500006,40.60674750900006],[44.102904239000054,40.610206023000046],[44.10245253700003,40.632155683000065],[44.08821578100003,40.64962755200003],[44.07323961700007,40.65344364500004],[44.08075049000007,40.673415756000054],[44.11929008300007,40.69837987900007],[44.12254115300004,40.71418767800003],[44.10456951800006,40.70347357400004],[44.08981182000008,40.70708935400006],[44.07029166700005,40.69947139400006],[44.03432807000007,40.69917614800005],[44.00815717200004,40.700194493000026],[43.99654898700004,40.711292953000054],[43.93757073200004,40.71823273800004],[43.91681866400006,40.68693455500005],[43.90055525500003,40.68180416100006],[43.885494796000046,40.702811774000054],[43.86420178600008,40.705089918000056],[43.86131739000007,40.68266404000008],[43.818938924000065,40.67602138800004]]]},"properties":{"shapeName":"Artik","shapeISO":"","shapeID":"60910142B49287471238977","shapeGroup":"ARM","shapeType":"ADM2"}},
{"type":"Feature","geometry":{"type":"Polygon","coordinates":[[[44.155981249000035,40.197210967000046],[44.170174720000034,40.17948803000007],[44.175906428000076,40.18848886100005],[44.19415926600004,40.188617359000034],[44.196448728000064,40.18023337200003],[44.176927454000065,40.164421627000024],[44.175711455000055,40.14425836000004],[44.13118221500008,40.14617279300006],[44.11592451100006,40.14157734200006],[44.12190546200003,40.13042292700004],[44.15773322000007,40.12340908200008],[44.186140195000064,40.12641219600005],[44.21982256600006,40.11488924300005],[44.250191777000055,40.07197481900005],[44.25017454500005,40.04993557500006],[44.27890961000003,40.04968358200006],[44.295520674000045,40.044300829000065],[44.29916396400006,40.036974763000046],[44.317402652000055,40.039276581000024],[44.34019217200006,40.02876838900005],[44.34877088600007,40.04089117500007],[44.347011777000034,40.06610785600003],[44.32294708100005,40.09895772800007],[44.32128380300003,40.11408379100004],[44.32576894700003,40.12031712100003],[44.34899176300007,40.12355878900007],[44.374078291000046,40.14387286400006],[44.400919112000054,40.13936211200007],[44.413001663000045,40.14582475800006],[44.403630786000065,40.19965189800007],[44.38458890100003,40.21242688900003],[44.353700024000034,40.21303311300005],[44.31695016500004,40.24386761200003],[44.287039728000025,40.24679593900004],[44.28018472000008,40.272366419000036],[44.236109234000025,40.272277476000056],[44.221609425000054,40.255103871000074],[44.20448133900004,40.247226072000046],[44.14545905500006,40.26931460000003],[44.15304376900008,40.229784050000035],[44.147268876000055,40.205683047000036],[44.155981249000035,40.197210967000046]]]},"properties":{"shapeName":"Vagharshapat","shapeISO":"","shapeID":"60910142B22907916528063","shapeGroup":"ARM","shapeType":"ADM2"}},
{"type":"Feature","geometry":{"type":"Polygon","coordinates":[[[43.683048590000055,40.254937840000025],[43.67872058100005,40.246729662000064],[43.68642917300008,40.24012915900005],[43.67873004900008,40.23149014400008],[43.68526090800003,40.22673933200008],[43.65483885800006,40.223867218000066],[43.697516955000026,40.19178260500007],[43.71707539400006,40.16315423400005],[43.661787358000026,40.15452639400007],[43.649649520000025,40.132012416000066],[43.657181767000054,40.11235932500006],[43.676263678000055,40.10797354500005],[43.676333165000074,40.097004913000035],[43.693194919000064,40.09653698100004],[43.715469830000075,40.08143623800004],[43.73008642000008,40.078745136000066],[43.74212900800006,40.08370187300005],[43.75321292000007,40.07855676400004],[43.76198258900007,40.08336626200003],[43.78721944800003,40.06915721800004],[43.82477274000007,40.060113380000075],[43.82655650600003,40.04784820800006],[43.85816651600004,40.043448581000064],[43.90761879000007,40.04503494100004],[43.933946896000066,40.08379441900007],[43.94638618300007,40.08968090600007],[43.97584681600006,40.08946365700007],[43.93869022000007,40.141601018000074],[43.94193167100008,40.17484797800006],[43.95673131500007,40.19168247300007],[43.92984047400006,40.21965601200003],[43.891728681000075,40.24329277000004],[43.86760199300005,40.274731925000026],[43.81660965300006,40.27515838000005],[43.78853881600003,40.28333024900007],[43.794096731000025,40.260507897000025],[43.770326071000056,40.25060208200006],[43.75633649800005,40.25254593000005],[43.72308927300003,40.28871801200006],[43.71333125700005,40.27209339400008],[43.683048590000055,40.254937840000025]]]},"properties":{"shapeName":"Baghramyan","shapeISO":"","shapeID":"60910142B71267049635208","shapeGroup":"ARM","shapeType":"ADM2"}},
{"type":"Feature","geometry":{"type":"Polygon","coordinates":[[[44.34019217200006,40.02876838900005],[44.35289696600006,40.02796599800007],[44.38178997500006,40.003880923000054],[44.41939416200006,40.00114972500006],[44.44412765200008,40.00167399600008],[44.44147940900007,40.04269405600007],[44.45451879400008,40.05989670900004],[44.51235599700004,40.073861762000035],[44.51357973000006,40.08283752800003],[44.50399094200003,40.08124768300007],[44.498334526000065,40.09441754300008],[44.447653004000074,40.11301258300006],[44.43586447800004,40.13313161100007],[44.44485005800004,40.14753622300003],[44.44077040600007,40.15850203800005],[44.413001663000045,40.14582475800006],[44.400919112000054,40.13936211200007],[44.374078291000046,40.14387286400006],[44.34899176300007,40.12355878900007],[44.32576894700003,40.12031712100003],[44.32128380300003,40.11408379100004],[44.32294708100005,40.09895772800007],[44.347011777000034,40.06610785600003],[44.34877088600007,40.04089117500007],[44.34019217200006,40.02876838900005]]]},"properties":{"shapeName":"Masis","shapeISO":"","shapeID":"60910142B27028379066482","shapeGroup":"ARM","shapeType":"ADM2"}},
{"type":"Feature","geometry":{"type":"Polygon","coordinates":[[[44.773058727000034,40.673188922000065],[44.79582415900006,40.650346497000044],[44.812420134000035,40.661715076000064],[44.83195173100006,40.65039949000004],[44.84666874100003,40.65069733100006],[44.86319412700004,40.66724988900006],[44.89006603800004,40.66335890900007],[44.90623899700006,40.68130744300004],[44.929803262000064,40.675159439000026],[44.976899193000065,40.69979027200003],[45.01084055500007,40.70612424600006],[45.04479455400008,40.721716204000074],[45.01661877400005,40.768508164000025],[44.99802730400006,40.77045607200006],[44.99097709400007,40.782643703000076],[44.995463775000076,40.813346644000035],[44.986480217000064,40.82260328700005],[44.953751219000026,40.83331740300008],[44.94220678600004,40.82990022800004],[44.90947305800006,40.83621644800007],[44.878064583000025,40.81912767000006],[44.838169804000074,40.817995360000054],[44.77806581500005,40.810888291000026],[44.772195830000044,40.801347375000034],[44.72506179700008,40.78527324500004],[44.75535167100003,40.76936470600003],[44.76463054800007,40.75172738500004],[44.765400327000066,40.74220461300007],[44.77940564600004,40.74110710000008],[44.79423127900003,40.712550890000045],[44.773058727000034,40.673188922000065]]]},"properties":{"shapeName":"Dilidjan","shapeISO":"","shapeID":"60910142B8230197687251","shapeGroup":"ARM","shapeType":"ADM2"}},
{"type":"Feature","geometry":{"type":"Polygon","coordinates":[[[44.148872339000036,40.75055592800004],[44.144334410000056,40.73309099200003],[44.12254115300004,40.71418767800003],[44.11929008300007,40.69837987900007],[44.08075049000007,40.673415756000054],[44.07323961700007,40.65344364500004],[44.08821578100003,40.64962755200003],[44.10245253700003,40.632155683000065],[44.102904239000054,40.610206023000046],[44.16873074500006,40.60674750900006],[44.16168664400004,40.569849512000076],[44.150266980000026,40.553045878000034],[44.158953945000064,40.53760854500007],[44.18574437600006,40.524193946000025],[44.19617414500004,40.51453829600007],[44.244314530000054,40.501345521000076],[44.280750124000065,40.51247902800003],[44.29775459100006,40.525666880000074],[44.31289945700007,40.553667063000034],[44.30585420700004,40.57150178900008],[44.26227702300008,40.62316628200006],[44.34526731900007,40.62641926900005],[44.35914391600005,40.63121223400003],[44.36522464500007,40.64263851800007],[44.40865142800004,40.64568976800007],[44.41565441200004,40.65649012200004],[44.403456239000036,40.67898279100007],[44.406856678000054,40.694731226000044],[44.40771894100004,40.70528047100004],[44.39420622200004,40.720480673000054],[44.342887595000036,40.73874089800006],[44.32810135700004,40.73611247500003],[44.27678055600006,40.75179989800006],[44.25819280200005,40.74695643900003],[44.250259017000076,40.72981386600003],[44.228310228000055,40.726037434000034],[44.19187946000005,40.735239093000075],[44.17475518900005,40.75534901300006],[44.148872339000036,40.75055592800004]]]},"properties":{"shapeName":"Aragats","shapeISO":"","shapeID":"60910142B49896327156791","shapeGroup":"ARM","shapeType":"ADM2"}},
{"type":"Feature","geometry":{"type":"Polygon","coordinates":[[[44.62140759000005,40.13271971000006],[44.56558656900006,40.08731496000007],[44.55900229200006,40.090780979000044],[44.51235599700004,40.073861762000035],[44.45451879400008,40.05989670900004],[44.44147940900007,40.04269405600007],[44.44412765200008,40.00167399600008],[44.41939416200006,40.00114972500006],[44.42797105600005,39.990300846000025],[44.45129368900007,39.980432732000054],[44.453498868000054,39.97178118100004],[44.46660600900003,39.97282619400005],[44.486061834000054,39.963702547000025],[44.50407701800003,39.935811329000046],[44.52128133400004,39.920752521000054],[44.536228007000034,39.921907145000034],[44.55303288700003,39.900807290000046],[44.57764130000004,39.90272092300006],[44.57322852000004,39.92171949600004],[44.63543915400004,39.93598998600004],[44.678237842000044,39.97250248600005],[44.68888838500004,39.994026940000026],[44.74585806600004,39.99581974900008],[44.76518004700006,40.00495690200006],[44.79100536300007,39.99921773400007],[44.816713426000035,40.033165918000066],[44.82536804400007,40.014159610000036],[44.84684041500003,40.030728830000044],[44.87265636800004,40.03158701800004],[44.867247200000065,40.047287581000035],[44.87583260700006,40.05970117600003],[44.90378800600007,40.072958751000044],[44.91666744500003,40.103560042000026],[44.89298134100005,40.10023808700004],[44.88970814100003,40.126691540000024],[44.828322736000075,40.12248217300004],[44.83943876300003,40.14132379000006],[44.81299407200004,40.12349471300007],[44.75082946600003,40.10512765000004],[44.73841929100007,40.10830856600006],[44.677068364000036,40.09652964500003],[44.64016187000004,40.10365912200007],[44.63743705600007,40.126490560000036],[44.62140759000005,40.13271971000006]]]},"properties":{"shapeName":"Artashat","shapeISO":"","shapeID":"60910142B55787107844216","shapeGroup":"ARM","shapeType":"ADM2"}},
{"type":"Feature","geometry":{"type":"Polygon","coordinates":[[[44.06313755000008,40.193565996000075],[44.037968902000046,40.187272954000036],[44.02825812300006,40.19447169700004],[43.993941817000064,40.19184961500008],[43.98787374600005,40.18550601600003],[43.95673131500007,40.19168247300007],[43.94193167100008,40.17484797800006],[43.93869022000007,40.141601018000074],[43.97584681600006,40.08946365700007],[43.94638618300007,40.08968090600007],[43.933946896000066,40.08379441900007],[43.90761879000007,40.04503494100004],[43.85816651600004,40.043448581000064],[43.86571483900008,40.035845004000066],[43.91045024600004,40.02201787600006],[43.97184225400008,40.01862746200004],[43.992317642000046,40.03251955400003],[44.014562881000074,40.02338447100004],[44.08216471700007,40.03534911700007],[44.174707547000025,40.02814755900005],[44.189082607000046,40.03132124600006],[44.19211621200003,40.04022405000006],[44.21301465700003,40.03422873100004],[44.223168722000025,40.044822260000046],[44.25017454500005,40.04993557500006],[44.250191777000055,40.07197481900005],[44.21982256600006,40.11488924300005],[44.186140195000064,40.12641219600005],[44.15773322000007,40.12340908200008],[44.12190546200003,40.13042292700004],[44.11592451100006,40.14157734200006],[44.13118221500008,40.14617279300006],[44.175711455000055,40.14425836000004],[44.176927454000065,40.164421627000024],[44.196448728000064,40.18023337200003],[44.19415926600004,40.188617359000034],[44.175906428000076,40.18848886100005],[44.170174720000034,40.17948803000007],[44.155981249000035,40.197210967000046],[44.13886856900007,40.189323554000055],[44.06313755000008,40.193565996000075]]]},"properties":{"shapeName":"Armavir","shapeISO":"","shapeID":"60910142B93001765228002","shapeGroup":"ARM","shapeType":"ADM2"}},
{"type":"Feature","geometry":{"type":"Polygon","coordinates":[[[44.40865142800004,40.64568976800007],[44.36522464500007,40.64263851800007],[44.35914391600005,40.63121223400003],[44.34526731900007,40.62641926900005],[44.26227702300008,40.62316628200006],[44.30585420700004,40.57150178900008],[44.31289945700007,40.553667063000034],[44.29775459100006,40.525666880000074],[44.280750124000065,40.51247902800003],[44.244314530000054,40.501345521000076],[44.19617414500004,40.51453829600007],[44.18574437600006,40.524193946000025],[44.184479993000025,40.517015471000036],[44.18257508700003,40.50620046300003],[44.22115571200004,40.44859155800003],[44.25511018100008,40.43641226900007],[44.31606847000006,40.42748925400008],[44.34874948300006,40.403907839000055],[44.36224001000005,40.407081220000066],[44.375808162000055,40.40198987700006],[44.40264612300007,40.424865606000026],[44.42832102600005,40.427062610000064],[44.42849591400005,40.406396707000056],[44.46497331000006,40.40966944200005],[44.48879402000006,40.40487871900007],[44.51293069700006,40.425110689000064],[44.50161971500006,40.43876879600003],[44.50749147100004,40.50417457100008],[44.52873715800007,40.51511189300004],[44.52557863200008,40.53808376300003],[44.54721333400005,40.54930707300008],[44.546976622000045,40.58442157600007],[44.52251702800004,40.60116373100004],[44.48024307400004,40.59413089800006],[44.44758455300007,40.60339918900007],[44.44180108000006,40.62264018500008],[44.40834948600008,40.634756037000045],[44.40865142800004,40.64568976800007]]]},"properties":{"shapeName":"Aparan","shapeISO":"","shapeID":"60910142B63179365684578","shapeGroup":"ARM","shapeType":"ADM2"}},
{"type":"Feature","geometry":{"type":"Polygon","coordinates":[[[44.838169804000074,40.817995360000054],[44.878064583000025,40.81912767000006],[44.90947305800006,40.83621644800007],[44.94220678600004,40.82990022800004],[44.953751219000026,40.83331740300008],[44.986480217000064,40.82260328700005],[44.995463775000076,40.813346644000035],[44.99097709400007,40.782643703000076],[44.99802730400006,40.77045607200006],[45.01661877400005,40.768508164000025],[45.04479455400008,40.721716204000074],[45.01084055500007,40.70612424600006],[44.976899193000065,40.69979027200003],[44.929803262000064,40.675159439000026],[44.94969209100003,40.66115522400003],[44.998271499000055,40.64379179300005],[45.01998024200003,40.63875045200007],[45.03221491800008,40.64806207600003],[45.08626004100006,40.686635472000034],[45.09109104100003,40.720548121000036],[45.14818319800003,40.72189144300006],[45.162376667000046,40.74028264700007],[45.10215909100003,40.757181486000036],[45.10218064000003,40.77125338800005],[45.11660942200007,40.79155994400003],[45.15366889300003,40.807147841000074],[45.19481251800005,40.80708571000008],[45.21540956000007,40.81486734200007],[45.23192607000004,40.83046654900005],[45.23821658700007,40.86328073300007],[45.254774489000056,40.88512990900006],[45.223893031000046,40.88988278200003],[45.22601866600007,40.90863376300007],[45.24870177200006,40.91327584900006],[45.25288546100006,40.930462367000075],[45.34366839100005,40.999778656000046],[45.34023616600007,41.005272932000025],[45.31629218900008,41.00200251800004],[45.286976380000056,41.04159286200007],[45.26244604300007,41.025591588000054],[45.26131187200008,41.004369488000066],[45.25117056500005,41.015046244000075],[45.234482668000055,41.014123777000066],[45.22979946600003,41.02629971400006],[45.21845877800007,41.025845573000026],[45.21524773600004,41.03920596200004],[45.19459494900008,41.050294535000035],[45.18463190500006,41.05444490100007],[45.18429952100007,41.04681066100005],[45.16655479600007,41.04898315300005],[45.158301608000045,41.066326065000055],[45.166711071000066,41.06981499300008],[45.16547994600006,41.08070634500007],[45.132624528000065,41.09481997200004],[45.13329461100005,41.06357905100003],[45.11658001700005,41.057474710000065],[45.11688437000004,41.049761138000065],[45.10259883600003,41.04683386000005],[45.107859930000075,41.05167993900005],[45.102613535000046,41.056294896000054],[45.11229392700005,41.06159200500008],[45.10233459800003,41.063657798000065],[45.09386501000006,41.05383766800003],[45.060743923000075,41.051876623000055],[45.01658996800006,41.03941099900004],[44.995081655000035,41.04393330700003],[44.92579700600004,41.01405058200004],[44.84460939300004,40.99225309000008],[44.85470367400006,40.96207737700007],[44.871450193000044,40.96600105300007],[44.88703732700003,40.934352656000044],[44.872663429000056,40.913039379000054],[44.85790568700003,40.90461269200006],[44.86904038700004,40.87884275300007],[44.86130857300003,40.86706460100004],[44.86356502600006,40.84577397800007],[44.838169804000074,40.817995360000054]]]},"properties":{"shapeName":"Idjevan","shapeISO":"","shapeID":"60910142B72545422404248","shapeGroup":"ARM","shapeType":"ADM2"}},
{"type":"Feature","geometry":{"type":"Polygon","coordinates":[[[44.41263870100005,40.22906890300004],[44.403630786000065,40.19965189800007],[44.413001663000045,40.14582475800006],[44.44077040600007,40.15850203800005],[44.44485005800004,40.14753622300003],[44.43586447800004,40.13313161100007],[44.447653004000074,40.11301258300006],[44.498334526000065,40.09441754300008],[44.50399094200003,40.08124768300007],[44.51357973000006,40.08283752800003],[44.51235599700004,40.073861762000035],[44.55900229200006,40.090780979000044],[44.56558656900006,40.08731496000007],[44.62140759000005,40.13271971000006],[44.616548429000034,40.13713143000007],[44.57898357700003,40.13585477400005],[44.58369606300005,40.155859244000055],[44.59965057900007,40.16390732200006],[44.59028932700005,40.17330040200005],[44.59994179200004,40.17705005400006],[44.60507832700006,40.19019891800008],[44.586461875000055,40.19127484900008],[44.602037884000026,40.20132569100008],[44.587690114000054,40.23410596300005],[44.56284140200006,40.25412223200004],[44.550359908000075,40.237871220000045],[44.524298499000054,40.24200101100007],[44.50684680100005,40.23478934700006],[44.49041718900003,40.239287098000034],[44.476322253000035,40.231232490000025],[44.41263870100005,40.22906890300004]]]},"properties":{"shapeName":"Yerevan","shapeISO":"","shapeID":"60910142B16508502425174","shapeGroup":"ARM","shapeType":"ADM2"}},
{"type":"Feature","geometry":{"type":"Polygon","coordinates":[[[45.06120727600006,40.61005763500003],[45.15071965300007,40.56538778100003],[45.17514188600006,40.56511783800005],[45.20109654200007,40.551871893000055],[45.22017558400006,40.528465005000044],[45.24244373200003,40.52043432900007],[45.24827901800006,40.50539171400004],[45.27801573800008,40.49412458000006],[45.271864934000064,40.45798690600003],[45.305355907000035,40.46286979300004],[45.32852815700005,40.44866034700004],[45.34859123800004,40.445670875000076],[45.36146313300003,40.46495308800007],[45.34941808100007,40.46379691100003],[45.344649332000074,40.47724012300006],[45.35808144200007,40.48362065400005],[45.37790490200007,40.48272543000007],[45.413621282000065,40.465008485000055],[45.451185922000036,40.420185100000026],[45.51296471500007,40.45542571100003],[45.506855743000074,40.46392028200006],[45.51398568600007,40.47072882600003],[45.45388421000007,40.49761309400003],[45.453125897000064,40.50819268200007],[45.43943863100003,40.518419169000026],[45.43218738400003,40.54038988700006],[45.452049792000025,40.55009495500008],[45.43753556300004,40.56215604500005],[45.46112088400008,40.58027094200003],[45.42548551200008,40.60107914900004],[45.40503154600003,40.59988099800006],[45.39021138800007,40.616945368000074],[45.39894878400003,40.62995678300007],[45.38146358600005,40.63772443100004],[45.36552093800003,40.65696102900006],[45.34997852400005,40.658521585000074],[45.33835258400006,40.67779354500004],[45.27925931300007,40.70763430400007],[45.25503578100006,40.72842944700005],[45.22743444400004,40.73773413600003],[45.20494564400008,40.73161158700003],[45.17992060100005,40.74258015600003],[45.162376667000046,40.74028264700007],[45.14818319800003,40.72189144300006],[45.09109104100003,40.720548121000036],[45.08626004100006,40.686635472000034],[45.03221491800008,40.64806207600003],[45.060688457000026,40.636208570000065],[45.06120727600006,40.61005763500003]]]},"properties":{"shapeName":"Karmir","shapeISO":"","shapeID":"60910142B15108555986017","shapeGroup":"ARM","shapeType":"ADM2"}},
{"type":"Feature","geometry":{"type":"Polygon","coordinates":[[[45.162376667000046,40.74028264700007],[45.17992060100005,40.74258015600003],[45.20494564400008,40.73161158700003],[45.22743444400004,40.73773413600003],[45.25503578100006,40.72842944700005],[45.27925931300007,40.70763430400007],[45.33835258400006,40.67779354500004],[45.34997852400005,40.658521585000074],[45.36552093800003,40.65696102900006],[45.38026506600005,40.684356379000064],[45.37404209300007,40.691451990000076],[45.380944139000064,40.69254409200005],[45.378960395000036,40.71131158400004],[45.397576521000076,40.69733917800005],[45.40713153000007,40.70485735900007],[45.397066504000065,40.716818819000025],[45.40635330400005,40.73181090600008],[45.41952110200003,40.73192602700004],[45.42501334700006,40.740969746000076],[45.469017472000075,40.755347431000075],[45.47337970400008,40.75135244400008],[45.49138821200006,40.75509212500003],[45.50792226000004,40.771002476000035],[45.54696474900004,40.775198905000025],[45.59434805300003,40.823302467000076],[45.608730699000034,40.851051521000045],[45.598735128000044,40.86835708800004],[45.60212078200004,40.88368262100005],[45.58332655500004,40.89093270800004],[45.56115802700003,40.88293679000003],[45.55898675900005,40.89939986300004],[45.541381356000045,40.898772165000025],[45.503765937000026,40.926766361000034],[45.48424756400004,40.92303514200006],[45.47538428800004,40.93006850300003],[45.48572597300006,40.93932437900003],[45.45658424800007,40.97044866600004],[45.42358094600007,40.95936568600007],[45.40844759100003,40.98812293800006],[45.442001993000076,41.01685340900008],[45.40016725900006,41.024641031000044],[45.393808222000075,41.013851773000056],[45.369318444000044,41.00788883700005],[45.363375663000056,40.996222629000044],[45.34366839100005,40.999778656000046],[45.25288546100006,40.930462367000075],[45.24870177200006,40.91327584900006],[45.22601866600007,40.90863376300007],[45.223893031000046,40.88988278200003],[45.254774489000056,40.88512990900006],[45.23821658700007,40.86328073300007],[45.23192607000004,40.83046654900005],[45.21540956000007,40.81486734200007],[45.19481251800005,40.80708571000008],[45.15366889300003,40.807147841000074],[45.11660942200007,40.79155994400003],[45.10218064000003,40.77125338800005],[45.10215909100003,40.757181486000036],[45.162376667000046,40.74028264700007]]]},"properties":{"shapeName":"Tavush","shapeISO":"","shapeID":"60910142B36326069456860","shapeGroup":"ARM","shapeType":"ADM2"}}
]}