{"type":"FeatureCollection", "features": [
{"type":"Feature","geometry":{"type":"Polygon","coordinates":[[[-62.3457423768092,16.944074039185637],[-62.34641625230813,16.932292634397584],[-62.34183854391364,16.937983367138713],[-62.3457423768092,16.944074039185637]]]},"properties":{"shapeName":"Redonda","shapeISO":"AG-11","shapeID":"74100532B54294973205276","shapeGroup":"ATG","shapeType":"ADM1"}},
{"type":"Feature","geometry":{"type":"MultiPolygon","coordinates":[[[[-61.668757073480094,17.07155347521274],[-61.67431219295332,17.071136976690184],[-61.657174831653094,17.06891563414922],[-61.668757073480094,17.07155347521274]]],[[[-61.743231523915654,17.043626472483766],[-61.717305366149674,17.033103679691123],[-61.69330806801287,17.030933958235607],[-61.68553589396629,17.034622469151657],[-61.68893976585747,17.04102294954953],[-61.67367907293084,17.046609629830584],[-61.67884161225055,17.07188320354703],[-61.6910835697509,17.067223230567663],[-61.70051783213222,17.07506452380875],[-61.71318205101079,17.07097731824871],[-61.70504906626138,17.080462162998458],[-61.692570743544934,17.084104926301336],[-61.69361641316692,17.09001315828067],[-61.68462365585697,17.083149818409424],[-61.6862037790811,17.093700156537068],[-61.67858201035148,17.101762432989915],[-61.68641291282563,17.096898455998996],[-61.68250907993007,17.101695804018163],[-61.69412763008603,17.09854200570902],[-61.70230708910083,17.103827918523677],[-61.711601928686036,17.093078258255048],[-61.71188077337894,17.09698729732594],[-61.71973346103039,17.093591879062046],[-61.718172218173265,17.099352669889868],[-61.73334894949437,17.089947913365563],[-61.74295156496271,17.08176023904383],[-61.746531936899316,17.065031163657352],[-61.743231523915654,17.043626472483766]]]]},"properties":{"shapeName":"Saint Philip","shapeISO":"AG-08","shapeID":"74100532B52002127383103","shapeGroup":"ATG","shapeType":"ADM1"}},
{"type":"Feature","geometry":{"type":"Polygon","coordinates":[[[-61.80232832279381,17.170613051251337],[-61.82088746008816,17.167774444634972],[-61.8325264329485,17.173214229653013],[-61.846936158576796,17.16616784536984],[-61.86389878699936,17.131311410693115],[-61.85141792279887,17.12930547556732],[-61.85743143031624,17.12659471837162],[-61.84574480328001,17.118028466340718],[-61.88789608423684,17.12973919340908],[-61.88505952447741,17.12507667714698],[-61.89725673261211,17.120197175159547],[-61.90548275672381,17.099484975451333],[-61.87553067500062,17.105294713680166],[-61.869500993176246,17.10913988649662],[-61.85715132027718,17.096421326083373],[-61.83420709588074,17.08907039628184],[-61.84237638805985,17.073635548741606],[-61.84384430826816,17.05270800636947],[-61.8235168097529,17.059694283564397],[-61.81544325130494,17.05041986758289],[-61.79360145184546,17.064971025992122],[-61.791834605271156,17.080118989841385],[-61.80261328287668,17.08182420961964],[-61.80853595437077,17.089468543238752],[-61.80472135310794,17.11313520112867],[-61.809372490248165,17.14249046756106],[-61.81599785241889,17.14265034273916],[-61.81579708326876,17.155056174702736],[-61.80020406026915,17.157837781388537],[-61.80232832279381,17.170613051251337]]]},"properties":{"shapeName":"Saint John","shapeISO":"AG-04","shapeID":"74100532B54588500691901","shapeGroup":"ATG","shapeType":"ADM1"}},
{"type":"Feature","geometry":{"type":"Polygon","coordinates":[[[-61.84177361925708,17.72718718064391],[-61.85402755842506,17.72572816462315],[-61.85141792279887,17.71994601759468],[-61.84517749114826,17.724863556408025],[-61.84829770697354,17.717622298929996],[-61.860551646141516,17.71319093811138],[-61.860948764273985,17.704165754845747],[-61.83269662694772,17.68287100759096],[-61.83082449745257,17.686114025841675],[-61.828328324792324,17.677411796317415],[-61.835136068574684,17.66233053702473],[-61.828441786858946,17.646004595335853],[-61.83462548747622,17.60523734402824],[-61.850964073633065,17.609130635970132],[-61.84829770697354,17.62837956766299],[-61.85289293416156,17.65854651001348],[-61.870082487616685,17.684870875890283],[-61.868323820188095,17.6886543489191],[-61.8628208937692,17.68157378410291],[-61.86457956119773,17.70049069958617],[-61.87473444583799,17.70157160554521],[-61.863785324932735,17.71356922893682],[-61.86883440128656,17.715947041822574],[-61.88670472983938,17.696004868629814],[-61.87150076794603,17.684384423602296],[-61.85397082739172,17.649032034400932],[-61.85016983646875,17.625892461068247],[-61.8595872158773,17.5815513426204],[-61.85465160159009,17.57933400116326],[-61.8325264329485,17.5930702658801],[-61.82242827934158,17.591772395779515],[-61.7741227973292,17.565034199668617],[-61.7666796636355,17.54325998605958],[-61.75716697587518,17.554614751569602],[-61.733030545423276,17.544515471112163],[-61.738969592672504,17.562094595589144],[-61.7318781928243,17.606541876306608],[-61.74278121987737,17.642362141399758],[-61.79561215068014,17.70072377058557],[-61.805540110287836,17.69785258512877],[-61.81573399762584,17.703763799260003],[-61.82185033092799,17.68966100954799],[-61.80651517773322,17.695234699122125],[-61.81617721050981,17.685016135286446],[-61.83496942060225,17.689407656138485],[-61.83904697553743,17.70418602106804],[-61.83239878767387,17.711701408992894],[-61.83106915082061,17.69810592684712],[-61.82043205059864,17.700639324245458],[-61.84177361925708,17.72718718064391]]]},"properties":{"shapeName":"Barbuda","shapeISO":"AG-10","shapeID":"74100532B56248932917605","shapeGroup":"ATG","shapeType":"ADM1"}},
{"type":"Feature","geometry":{"type":"Polygon","coordinates":[[[-61.87553067500062,17.105294713680166],[-61.88144188913185,17.08719233395908],[-61.89992990713944,17.086234466047813],[-61.906755804636646,17.08075092181764],[-61.889836291511585,17.075891949553863],[-61.89568187491858,17.072317054488508],[-61.89041721937912,17.070894018544152],[-61.88947321181922,17.059717604783657],[-61.89760619656869,17.051977024819905],[-61.89056245089637,17.02712169610942],[-61.8606083771748,17.022608502380535],[-61.84416086782977,17.01351235181363],[-61.8323607778276,17.015734352658285],[-61.832324470397964,17.004832405691047],[-61.81050338142586,17.0093113082703],[-61.80813532708362,17.014367675427934],[-61.808454676342194,17.03717862029714],[-61.81544325130494,17.05041986758289],[-61.8235168097529,17.059694283564397],[-61.84384430826816,17.05270800636947],[-61.84237638805985,17.073635548741606],[-61.83420709588074,17.08907039628184],[-61.85715132027718,17.096421326083373],[-61.869500993176246,17.10913988649662],[-61.87553067500062,17.105294713680166]]]},"properties":{"shapeName":"Saint Mary","shapeISO":"AG-05","shapeID":"74100532B19516932260818","shapeGroup":"ATG","shapeType":"ADM1"}},
{"type":"Feature","geometry":{"type":"Polygon","coordinates":[[[-61.746531936899316,17.065031163657352],[-61.76701032726476,17.06122453038779],[-61.79360145184546,17.064971025992122],[-61.81544325130494,17.05041986758289],[-61.808454676342194,17.03717862029714],[-61.80813532708362,17.014367675427934],[-61.7857050391562,17.00667258766981],[-61.781021311484324,17.020456018230732],[-61.773142482339665,17.02198359047037],[-61.769184914052516,17.01226246414143],[-61.77797144152879,17.006429545886874],[-61.77263417023073,17.00132559380114],[-61.76417441411786,17.005249052601755],[-61.765953504250774,17.01014458050804],[-61.754516494840345,16.997645106636412],[-61.74533057844337,16.998790926560048],[-61.739430533892005,17.00370181308824],[-61.742834405783185,17.006685608054397],[-61.73466511270476,17.002182771817502],[-61.73863629672769,17.014009265914922],[-61.73324683327468,17.012761551904134],[-61.73171509087871,17.020301958068956],[-61.73926033989272,17.02697415153591],[-61.743231523915654,17.043626472483766],[-61.746531936899316,17.065031163657352]]]},"properties":{"shapeName":"Saint Paul","shapeISO":"AG-06","shapeID":"74100532B93709990123087","shapeGroup":"ATG","shapeType":"ADM1"}},
{"type":"Feature","geometry":{"type":"Polygon","coordinates":[[[-61.73334894949437,17.089947913365563],[-61.72797536986741,17.110839017007095],[-61.74547581085994,17.11385796917],[-61.7281002695118,17.11981800030054],[-61.71989757291459,17.129988753478244],[-61.72579979652335,17.13176524726839],[-61.73639881855058,17.122255256574874],[-61.74598412206956,17.121526580887064],[-61.749397070818134,17.114898975807137],[-61.7538266428852,17.12378199514302],[-61.745911506310904,17.13262989415432],[-61.75161185730133,17.13714042588998],[-61.76417441411786,17.123018627207955],[-61.76065254128173,17.112192346499626],[-61.77763668778289,17.113490472007754],[-61.7838360698787,17.112092653053537],[-61.78066660448019,17.092279276267618],[-61.79026066289924,17.087775941806342],[-61.791834605271156,17.080118989841385],[-61.79360145184546,17.064971025992122],[-61.76701032726476,17.06122453038779],[-61.746531936899316,17.065031163657352],[-61.74295156496271,17.08176023904383],[-61.73334894949437,17.089947913365563]]]},"properties":{"shapeName":"Saint Peter","shapeISO":"AG-07","shapeID":"74100532B3675352926720","shapeGroup":"ATG","shapeType":"ADM1"}},
{"type":"Feature","geometry":{"type":"MultiPolygon","coordinates":[[[[-61.75662008734713,17.159229605461974],[-61.75974030317241,17.14920122215875],[-61.74595462160846,17.15543514541565],[-61.75662008734713,17.159229605461974]]],[[[-61.791834605271156,17.080118989841385],[-61.79026066289924,17.087775941806342],[-61.78066660448019,17.092279276267618],[-61.7838360698787,17.112092653053537],[-61.77763668778289,17.113490472007754],[-61.776918510780604,17.124857644564713],[-61.7857050391562,17.120208019184815],[-61.7881739812442,17.126488456277286],[-61.77281571007694,17.140783467083395],[-61.787665669135265,17.14810403037677],[-61.790134611223266,17.159205754541972],[-61.80232832279381,17.170613051251337],[-61.80020406026915,17.157837781388537],[-61.81579708326876,17.155056174702736],[-61.81599785241889,17.14265034273916],[-61.809372490248165,17.14249046756106],[-61.80472135310794,17.11313520112867],[-61.80853595437077,17.089468543238752],[-61.80261328287668,17.08182420961964],[-61.791834605271156,17.080118989841385]]]]},"properties":{"shapeName":"Saint George","shapeISO":"AG-03","shapeID":"74100532B88993889644511","shapeGroup":"ATG","shapeType":"ADM1"}}
]}