{"type":"FeatureCollection", "features": [
{"type":"Feature","geometry":{"type":"Polygon","coordinates":[[[49.07912446600005,41.354595791000065],[48.59430365800006,41.842735463000054],[48.51110776400003,41.737220267000055],[48.60186472600003,41.720989340000074],[48.57537608400003,41.634751132000076],[48.64311687400004,41.58895961600007],[48.614335406000066,41.55272307600006],[48.65181627000004,41.48843700400005],[48.71264084000006,41.38371183600003],[48.75041629200007,41.35537524400007],[48.799827221000044,41.36642319100008],[48.800848175000056,41.34794169800006],[48.99938361800008,41.37554833100006],[49.07912446600005,41.354595791000065]]]},"properties":{"shapeISO":"AZE","shapeName":"Khachmaz District","shapeID":"54616110B89497242950609","shapeGroup":"AZE","shapeType":"ADM2"}},
{"type":"Feature","geometry":{"type":"Polygon","coordinates":[[[48.800848175000056,41.34794169800006],[48.81396313000005,41.246265539000035],[48.69965054800008,41.15240188000007],[48.77862833900008,41.08061298300004],[48.713208045000044,41.00000876000007],[48.72922617800003,40.91165460000008],[48.82137674900008,40.86917833000007],[48.88191404300005,40.91041462700008],[48.88519057700006,41.00805073600003],[48.96339134200008,41.03200571800005],[48.98918265200007,41.06589738400004],[48.97260608200003,41.154096012000025],[49.14706711500003,41.18014086200003],[49.07912446600005,41.354595791000065],[48.99938361800008,41.37554833100006],[48.800848175000056,41.34794169800006]]]},"properties":{"shapeISO":"AZE","shapeName":"Shabran District","shapeID":"54616110B33183266084070","shapeGroup":"AZE","shapeType":"ADM2"}},
{"type":"Feature","geometry":{"type":"Polygon","coordinates":[[[48.88191404300005,40.91041462700008],[49.01411126200003,40.92208438200004],[49.04528796400007,40.972339641000076],[49.08401975700008,40.98115788900003],[49.10091510700005,40.92956033300004],[49.22414357200006,40.880205604000025],[49.32625285100005,40.871131785000046],[49.363177033000056,40.89234915700007],[49.20977854100005,41.026800500000036],[49.14706711500003,41.18014086200003],[48.97260608200003,41.154096012000025],[48.98918265200007,41.06589738400004],[48.96339134200008,41.03200571800005],[48.88519057700006,41.00805073600003],[48.88191404300005,40.91041462700008]]]},"properties":{"shapeISO":"AZE","shapeName":"Siazan District","shapeID":"54616110B9592293002412","shapeGroup":"AZE","shapeType":"ADM2"}},
{"type":"Feature","geometry":{"type":"Polygon","coordinates":[[[48.82137674900008,40.86917833000007],[48.80624267200005,40.83179742300007],[48.83314115100006,40.779419621000045],[48.977836069000034,40.71763263400004],[49.04109401200003,40.65298429300003],[49.13224522200005,40.62395731600003],[49.22439261900007,40.53242971900005],[49.29900918200008,40.517339089000075],[49.38901270000008,40.51437516300007],[49.44153173500007,40.538791357000036],[49.44551648800007,40.57708512600004],[49.53181652500007,40.65692892700008],[49.512141547000056,40.71475987400004],[49.54391994700006,40.78960031400004],[49.363177033000056,40.89234915700007],[49.32625285100005,40.871131785000046],[49.22414357200006,40.880205604000025],[49.10091510700005,40.92956033300004],[49.08401975700008,40.98115788900003],[49.04528796400007,40.972339641000076],[49.01411126200003,40.92208438200004],[48.88191404300005,40.91041462700008],[48.82137674900008,40.86917833000007]]]},"properties":{"shapeISO":"AZE","shapeName":"Khizi District","shapeID":"54616110B97026515433008","shapeGroup":"AZE","shapeType":"ADM2"}},
{"type":"Feature","geometry":{"type":"Polygon","coordinates":[[[48.51110776400003,41.737220267000055],[48.358822590000045,41.60300608700004],[48.207788178000044,41.518107858000064],[48.079430322000064,41.50041914800005],[48.042668631000026,41.44329320600008],[48.00460624800007,41.430105076000075],[47.99392687500006,41.37278780200006],[47.950935550000054,41.350919601000044],[47.95915045300006,41.32202572500006],[47.89476752100006,41.29172282400003],[47.89879830000007,41.23327393000005],[47.85110124800008,41.21578520300005],[47.89108724500005,41.18589433900007],[47.96342859600003,41.18301175800008],[48.03970031400007,41.204162075000056],[48.488518792000036,41.442361884000036],[48.65181627000004,41.48843700400005],[48.614335406000066,41.55272307600006],[48.64311687400004,41.58895961600007],[48.57537608400003,41.634751132000076],[48.60186472600003,41.720989340000074],[48.51110776400003,41.737220267000055]]]},"properties":{"shapeISO":"AZE","shapeName":"Qusar District","shapeID":"54616110B21517829058101","shapeGroup":"AZE","shapeType":"ADM2"}},
{"type":"Feature","geometry":{"type":"Polygon","coordinates":[[[48.65181627000004,41.48843700400005],[48.488518792000036,41.442361884000036],[48.03970031400007,41.204162075000056],[47.96342859600003,41.18301175800008],[48.003533220000065,41.11452899200003],[48.08813748400007,41.077535339000065],[48.455570013000056,40.97095128600006],[48.72922617800003,40.91165460000008],[48.713208045000044,41.00000876000007],[48.77862833900008,41.08061298300004],[48.69965054800008,41.15240188000007],[48.81396313000005,41.246265539000035],[48.800848175000056,41.34794169800006],[48.799827221000044,41.36642319100008],[48.75041629200007,41.35537524400007],[48.71264084000006,41.38371183600003],[48.65181627000004,41.48843700400005]]]},"properties":{"shapeISO":"AZE","shapeName":"Quba District","shapeID":"54616110B77048085748362","shapeGroup":"AZE","shapeType":"ADM2"}},
{"type":"Feature","geometry":{"type":"MultiPolygon","coordinates":[[[[49.70242828800008,40.43103252800006],[49.67392717700005,40.43354548800005],[49.64586454600004,40.34184503000006],[49.688835451000045,40.36717162300005],[49.72851776500005,40.35291611100007],[49.764034534000075,40.38729188000008],[49.74846854300006,40.42734668200006],[49.70242828800008,40.43103252800006]]],[[[49.29900918200008,40.517339089000075],[49.253049831000055,40.46626809700007],[49.03692008400003,40.371815199000025],[48.970018406000065,40.31183506900004],[48.876748157000065,40.33657249400005],[48.875839219000056,40.306999166000026],[49.02486055400004,40.17894084200003],[49.19168405200003,40.15581154400007],[49.26432836300006,40.01532359300006],[49.303322328000036,39.98916475800007],[49.39381325900007,40.20569042600005],[49.43424139700005,40.23442754700005],[49.44508348900007,40.42316640000007],[49.49580242600007,40.42667735200007],[49.565158360000055,40.47523551300003],[49.666806102000066,40.477687950000075],[49.769674887000065,40.44958170100006],[49.79267400600003,40.47784761100007],[49.91937824300004,40.498121414000025],[49.80396448300007,40.542957261000026],[49.73266721400006,40.53211007700003],[49.734169774000065,40.573128042000064],[49.71050461400006,40.575198331000024],[49.67224225700005,40.533705362000035],[49.62373502500003,40.54168121300006],[49.53529470400008,40.64952567900008],[49.53181652500007,40.65692892700008],[49.44551648800007,40.57708512600004],[49.44153173500007,40.538791357000036],[49.38901270000008,40.51437516300007],[49.29900918200008,40.517339089000075]]]]},"properties":{"shapeISO":"AZE","shapeName":"Absheron District","shapeID":"54616110B88432173472444","shapeGroup":"AZE","shapeType":"ADM2"}},
{"type":"Feature","geometry":{"type":"Polygon","coordinates":[[[49.71050461400006,40.575198331000024],[49.66661050500005,40.61291740300004],[49.53529470400008,40.64952567900008],[49.62373502500003,40.54168121300006],[49.67224225700005,40.533705362000035],[49.71050461400006,40.575198331000024]]]},"properties":{"shapeISO":"AZE","shapeName":"Sumqayit City","shapeID":"54616110B75219613739908","shapeGroup":"AZE","shapeType":"ADM2"}},
{"type":"Feature","geometry":{"type":"MultiPolygon","coordinates":[[[[50.561832855000034,40.30113414400006],[50.62028897600004,40.31935731000004],[50.52748235100006,40.352791997000054],[50.53622063700004,40.297904205000066],[50.561832855000034,40.30113414400006]]],[[[50.33524005600003,40.43665101100004],[50.324995168000044,40.487744115000055],[50.29968427100005,40.47301859000004],[50.33524005600003,40.43665101100004]]],[[[49.303322328000036,39.98916475800007],[49.34739944900008,39.85400502400006],[49.36159898900007,39.678383290000056],[49.421626580000066,39.70035227300008],[49.386548291000054,39.79120153000008],[49.42887244000008,39.856750102000035],[49.41491306200004,39.93896633400004],[49.49284578500004,40.00419880600003],[49.44274617700006,40.03580408300007],[49.428642239000055,40.08822047600006],[49.49073081100005,40.11340714700003],[49.48971134800007,40.18270611100007],[49.690150886000026,40.277361564000046],[49.829060913000035,40.30274611600004],[49.851160235000066,40.36945222300005],[49.87624121200008,40.37294004900008],[49.95750077100007,40.33744373300004],[50.116627117000064,40.367741512000066],[50.24088003000003,40.34603883700004],[50.33931848000003,40.30375324100004],[50.37549296600008,40.228176861000065],[50.36680560800005,40.35825180200004],[50.33323458900003,40.408547799000075],[50.23012360100006,40.497520759000054],[50.11399528000004,40.528110465000054],[50.06877717300006,40.59447047400005],[49.734169774000065,40.573128042000064],[49.73266721400006,40.53211007700003],[49.80396448300007,40.542957261000026],[49.91937824300004,40.498121414000025],[49.79267400600003,40.47784761100007],[49.769674887000065,40.44958170100006],[49.666806102000066,40.477687950000075],[49.565158360000055,40.47523551300003],[49.49580242600007,40.42667735200007],[49.44508348900007,40.42316640000007],[49.43424139700005,40.23442754700005],[49.39381325900007,40.20569042600005],[49.303322328000036,39.98916475800007]],[[49.70242828800008,40.43103252800006],[49.74846854300006,40.42734668200006],[49.764034534000075,40.38729188000008],[49.72851776500005,40.35291611100007],[49.688835451000045,40.36717162300005],[49.64586454600004,40.34184503000006],[49.67392717700005,40.43354548800005],[49.70242828800008,40.43103252800006]]]]},"properties":{"shapeISO":"AZE","shapeName":"Baku City","shapeID":"54616110B61947743987915","shapeGroup":"AZE","shapeType":"ADM2"}},
{"type":"Feature","geometry":{"type":"Polygon","coordinates":[[[48.83314115100006,40.779419621000045],[48.75329785500003,40.719978154000046],[48.728902007000045,40.60703866700004],[48.75481554500004,40.586137379000036],[48.77376256000008,40.45806885200005],[48.74232883500008,40.40147990200006],[48.68698233900005,40.371692497000026],[48.771881112000074,40.35180778900008],[48.876748157000065,40.33657249400005],[48.970018406000065,40.31183506900004],[49.03692008400003,40.371815199000025],[49.253049831000055,40.46626809700007],[49.29900918200008,40.517339089000075],[49.22439261900007,40.53242971900005],[49.13224522200005,40.62395731600003],[49.04109401200003,40.65298429300003],[48.977836069000034,40.71763263400004],[48.83314115100006,40.779419621000045]]]},"properties":{"shapeISO":"AZE","shapeName":"Gobustan District","shapeID":"54616110B43271825035432","shapeGroup":"AZE","shapeType":"ADM2"}},
{"type":"Feature","geometry":{"type":"Polygon","coordinates":[[[48.72922617800003,40.91165460000008],[48.455570013000056,40.97095128600006],[48.46464418100004,40.93119448900006],[48.54117951500007,40.88913292700005],[48.51933776700008,40.81151436600004],[48.562874570000076,40.742163548000065],[48.539974234000056,40.65823046500003],[48.46735606300007,40.60956475100005],[48.46615078200006,40.58039411400006],[48.50652769000004,40.553049359000056],[48.61711220900003,40.539027935000036],[48.67828021100007,40.499936228000024],[48.561066649000054,40.45046382000004],[48.514940152000065,40.36099046000004],[48.69214094100005,40.28705970100003],[48.74848782000004,40.308516276000034],[48.771881112000074,40.35180778900008],[48.68698233900005,40.371692497000026],[48.74232883500008,40.40147990200006],[48.77376256000008,40.45806885200005],[48.75481554500004,40.586137379000036],[48.728902007000045,40.60703866700004],[48.75329785500003,40.719978154000046],[48.83314115100006,40.779419621000045],[48.80624267200005,40.83179742300007],[48.82137674900008,40.86917833000007],[48.72922617800003,40.91165460000008]]]},"properties":{"shapeISO":"AZE","shapeName":"Shamakhi District","shapeID":"54616110B16651088424667","shapeGroup":"AZE","shapeType":"ADM2"}},
{"type":"Feature","geometry":{"type":"Polygon","coordinates":[[[47.85110124800008,41.21578520300005],[47.746193994000066,41.187554402000046],[47.72642171500007,41.084526803000074],[47.679560396000056,41.041760674000045],[47.674978069000076,40.96968916900005],[47.62601353400004,40.90828113900005],[47.606558076000056,40.82413383200003],[47.61380027300004,40.79234399300003],[47.55366832000004,40.77084119700004],[47.57908818400006,40.67954029600003],[47.63844885200007,40.66092278000008],[47.77331534800004,40.68401736900006],[47.83986082000007,40.77320002100004],[47.95360510100005,40.82301441900006],[47.97379355600003,40.88067164000006],[48.032550997000044,40.897364484000036],[48.03887872200005,40.94399048300005],[47.99759785300006,40.961580894000065],[47.99466902000006,41.003641652000056],[48.01607480800004,41.02248486700006],[48.038830510000025,41.00641735000005],[48.08813748400007,41.077535339000065],[48.003533220000065,41.11452899200003],[47.96342859600003,41.18301175800008],[47.89108724500005,41.18589433900007],[47.85110124800008,41.21578520300005]]]},"properties":{"shapeISO":"AZE","shapeName":"Qabala District","shapeID":"54616110B33746839775993","shapeGroup":"AZE","shapeType":"ADM2"}},
{"type":"Feature","geometry":{"type":"Polygon","coordinates":[[[48.08813748400007,41.077535339000065],[48.038830510000025,41.00641735000005],[48.01607480800004,41.02248486700006],[47.99466902000006,41.003641652000056],[47.99759785300006,40.961580894000065],[48.03887872200005,40.94399048300005],[48.032550997000044,40.897364484000036],[47.97379355600003,40.88067164000006],[47.95360510100005,40.82301441900006],[47.83986082000007,40.77320002100004],[47.77331534800004,40.68401736900006],[48.07204269400006,40.63032295800008],[48.087813124000036,40.58982505900008],[48.05250107400008,40.54747179200007],[48.07951134600006,40.53025690700008],[48.13546488800006,40.541511048000075],[48.18894957900005,40.55714744900007],[48.286657680000076,40.64860422400005],[48.44847600800006,40.72428714400007],[48.51933776700008,40.81151436600004],[48.54117951500007,40.88913292700005],[48.46464418100004,40.93119448900006],[48.455570013000056,40.97095128600006],[48.08813748400007,41.077535339000065]]]},"properties":{"shapeISO":"AZE","shapeName":"Ismailli District","shapeID":"54616110B45290451128830","shapeGroup":"AZE","shapeType":"ADM2"}},
{"type":"Feature","geometry":{"type":"Polygon","coordinates":[[[48.51933776700008,40.81151436600004],[48.44847600800006,40.72428714400007],[48.286657680000076,40.64860422400005],[48.18894957900005,40.55714744900007],[48.13546488800006,40.541511048000075],[48.13422982900005,40.451563606000036],[48.20537487900003,40.46818606800008],[48.20537487900003,40.434937],[48.22881089500004,40.42982028800003],[48.26647592200004,40.459875355000065],[48.357708986000034,40.45348179400003],[48.36691599200003,40.38119195100006],[48.46251693000005,40.31343063000003],[48.514940152000065,40.36099046000004],[48.561066649000054,40.45046382000004],[48.67828021100007,40.499936228000024],[48.61711220900003,40.539027935000036],[48.50652769000004,40.553049359000056],[48.46615078200006,40.58039411400006],[48.46735606300007,40.60956475100005],[48.539974234000056,40.65823046500003],[48.562874570000076,40.742163548000065],[48.51933776700008,40.81151436600004]]]},"properties":{"shapeISO":"AZE","shapeName":"Agsu District","shapeID":"54616110B12323901372431","shapeGroup":"AZE","shapeType":"ADM2"}},
{"type":"Feature","geometry":{"type":"Polygon","coordinates":[[[48.876748157000065,40.33657249400005],[48.771881112000074,40.35180778900008],[48.74848782000004,40.308516276000034],[48.69214094100005,40.28705970100003],[48.514940152000065,40.36099046000004],[48.46251693000005,40.31343063000003],[48.50064369100005,40.16607546700004],[48.67851858900008,40.13429704400005],[48.68351027300008,40.061904576000074],[48.810990203000074,40.02733441200007],[48.89260263300008,39.95960795900004],[48.91473220800003,40.01050668600004],[48.941816207000045,40.00022453200006],[48.94958688000003,39.95141487400008],[49.18488653500003,39.89045113100008],[49.28190896500007,39.90022182300004],[49.34739944900008,39.85400502400006],[49.303322328000036,39.98916475800007],[49.26432836300006,40.01532359300006],[49.19168405200003,40.15581154400007],[49.02486055400004,40.17894084200003],[48.875839219000056,40.306999166000026],[48.876748157000065,40.33657249400005]]]},"properties":{"shapeISO":"AZE","shapeName":"Hajigabul District","shapeID":"54616110B48173541517146","shapeGroup":"AZE","shapeType":"ADM2"}},
{"type":"Feature","geometry":{"type":"Polygon","coordinates":[[[48.89260263300008,39.95960795900004],[48.906498415000044,39.934513699000036],[48.94958688000003,39.95141487400008],[48.941816207000045,40.00022453200006],[48.91473220800003,40.01050668600004],[48.89260263300008,39.95960795900004]]]},"properties":{"shapeISO":"AZE","shapeName":"Shirvan City","shapeID":"54616110B45272408011177","shapeGroup":"AZE","shapeType":"ADM2"}},
{"type":"Feature","geometry":{"type":"Polygon","coordinates":[[[47.746193994000066,41.187554402000046],[47.694168399000034,41.228054995000036],[47.621550228000046,41.234651711000026],[47.54260433300004,41.20143384800008],[47.49680366100006,41.267852574000074],[47.402431688000036,41.266461347000075],[47.38893102500003,41.17343574500006],[47.315710214000035,41.07135694600004],[47.314504932000034,41.02231143200004],[47.38712310400007,40.96637746000005],[47.41635116400005,40.90742387600005],[47.49418594100007,40.85646805600004],[47.606558076000056,40.82413383200003],[47.62601353400004,40.90828113900005],[47.674978069000076,40.96968916900005],[47.679560396000056,41.041760674000045],[47.72642171500007,41.084526803000074],[47.746193994000066,41.187554402000046]]]},"properties":{"shapeISO":"AZE","shapeName":"Oghuz District","shapeID":"54616110B99657283459996","shapeGroup":"AZE","shapeType":"ADM2"}},
{"type":"Feature","geometry":{"type":"Polygon","coordinates":[[[46.39179087100007,40.68940017400007],[46.35021789700005,40.72764423000007],[46.31713503100008,40.670620737000036],[46.359922502000074,40.652722933000064],[46.39179087100007,40.68940017400007]]]},"properties":{"shapeISO":"AZE","shapeName":"Ganja City","shapeID":"54616110B84154267491992","shapeGroup":"AZE","shapeType":"ADM2"}},
{"type":"Feature","geometry":{"type":"Polygon","coordinates":[[[46.74664192200004,39.756087594000064],[46.737127196000074,39.722248372000024],[46.77052714900003,39.73450826200008],[46.74664192200004,39.756087594000064]]]},"properties":{"shapeISO":"AZE","shapeName":"Shusha City","shapeID":"54616110B73470411147872","shapeGroup":"AZE","shapeType":"ADM2"}},
{"type":"Feature","geometry":{"type":"Polygon","coordinates":[[[46.82493425100006,39.85574884400006],[46.76971799000006,39.864763363000066],[46.76605393600005,39.827155237000056],[46.830078455000034,39.82343789200007],[46.82493425100006,39.85574884400006]]]},"properties":{"shapeISO":"AZE","shapeName":"Khankendi City","shapeID":"54616110B15657888815271","shapeGroup":"AZE","shapeType":"ADM2"}},
{"type":"Feature","geometry":{"type":"Polygon","coordinates":[[[47.19397593200006,40.59547740200003],[47.18124815700003,40.63430891300004],[47.13701415600008,40.627328110000064],[47.14902052800005,40.59385819100004],[47.19397593200006,40.59547740200003]]]},"properties":{"shapeISO":"AZE","shapeName":"Yevlakh City","shapeID":"54616110B78344971255813","shapeGroup":"AZE","shapeType":"ADM2"}},
{"type":"Feature","geometry":{"type":"Polygon","coordinates":[[[46.798277806000044,40.466693356000064],[46.776216377000026,40.44752923300007],[46.802099585000065,40.42759776100007],[46.82737615700006,40.450464373000045],[46.798277806000044,40.466693356000064]]]},"properties":{"shapeISO":"AZE","shapeName":"Naftalan City","shapeID":"54616110B32389340464615","shapeGroup":"AZE","shapeType":"ADM2"}},
{"type":"Feature","geometry":{"type":"Polygon","coordinates":[[[47.20746272000008,41.18585529600006],[47.220881821000035,41.22127475700006],[47.16264460000008,41.22768692600005],[47.15293839600008,41.19897990800007],[47.20746272000008,41.18585529600006]]]},"properties":{"shapeISO":"AZE","shapeName":"Shaki City","shapeID":"54616110B24616396985677","shapeGroup":"AZE","shapeType":"ADM2"}},
{"type":"Feature","geometry":{"type":"Polygon","coordinates":[[[49.34739944900008,39.85400502400006],[49.28190896500007,39.90022182300004],[49.18488653500003,39.89045113100008],[48.94958688000003,39.95141487400008],[48.906498415000044,39.934513699000036],[48.88832668200007,39.900594657000056],[48.92492715800006,39.875047779000056],[48.90763798200004,39.83888216200006],[48.94776453900005,39.800630725000076],[48.94586879700006,39.69014167100005],[48.88678481100004,39.666215469000065],[48.88646885400004,39.623713671000075],[48.824225297000055,39.643257998000024],[48.76132818500008,39.62676779200007],[48.73464512800007,39.57039779300004],[48.773356197000055,39.500456463000035],[48.758190254000056,39.44858789700004],[48.85487314000005,39.38482495900007],[48.941129440000054,39.40860401000003],[48.94618475400006,39.47475009000004],[49.02548999600003,39.54523609900008],[48.983783654000035,39.597075569000026],[48.99136662500007,39.62346933200007],[49.02706978300006,39.62078154200003],[49.11932926800006,39.51220475700006],[49.17177815400004,39.50461754600008],[49.29027047200003,39.55046140200005],[49.36159898900007,39.678383290000056],[49.34739944900008,39.85400502400006]]]},"properties":{"shapeISO":"AZE","shapeName":"Salyan District","shapeID":"54616110B55207089168458","shapeGroup":"AZE","shapeType":"ADM2"}},
{"type":"Feature","geometry":{"type":"Polygon","coordinates":[[[48.50064369100005,40.16607546700004],[48.38219632600004,40.106284318000064],[48.33981370200007,40.039829491000035],[48.27527915600007,40.022515234000025],[48.272405572000025,39.99506355600005],[48.42969265600004,40.03282257300003],[48.466600278000044,40.007010352000066],[48.459263220000025,39.95124975200008],[48.58176984600004,39.96562190000003],[48.61378609700006,39.93173982500008],[48.68004194800005,39.913593985000034],[48.71535153700006,39.762901605000025],[48.56631755800004,39.70120894300004],[48.58212912400006,39.66981663800004],[48.671593216000076,39.66643270000003],[48.76132818500008,39.62676779200007],[48.824225297000055,39.643257998000024],[48.88646885400004,39.623713671000075],[48.88678481100004,39.666215469000065],[48.94586879700006,39.69014167100005],[48.94776453900005,39.800630725000076],[48.90763798200004,39.83888216200006],[48.92492715800006,39.875047779000056],[48.88832668200007,39.900594657000056],[48.906498415000044,39.934513699000036],[48.89260263300008,39.95960795900004],[48.810990203000074,40.02733441200007],[48.68351027300008,40.061904576000074],[48.67851858900008,40.13429704400005],[48.50064369100005,40.16607546700004]]]},"properties":{"shapeISO":"AZE","shapeName":"Sabirabad District","shapeID":"54616110B21396185337631","shapeGroup":"AZE","shapeType":"ADM2"}},
{"type":"Feature","geometry":{"type":"Polygon","coordinates":[[[48.86995114600006,38.753268322000054],[48.81292421000006,38.74740709500003],[48.84177836200007,38.71861459300004],[48.86722709000003,38.728780854000036],[48.86995114600006,38.753268322000054]]]},"properties":{"shapeISO":"AZE","shapeName":"Lankaran City","shapeID":"54616110B92317303093203","shapeGroup":"AZE","shapeType":"ADM2"}},
{"type":"Feature","geometry":{"type":"MultiPolygon","coordinates":[[[[49.16957833200007,38.96219128100006],[49.21549417500006,39.01153369000008],[49.19693678200008,39.052396377000036],[49.15654838100005,39.00233540900007],[49.16957833200007,38.96219128100006]]],[[[48.758190254000056,39.44858789700004],[48.74005296300004,39.43883094900008],[48.705113856000025,39.36108215400003],[48.73713397200004,39.258857602000035],[48.72892378200004,39.183592986000065],[48.76861442200004,39.163344926000036],[48.834992999000065,39.167390358000034],[48.928265278000026,39.25606055900005],[49.02405579200007,39.29520893100005],[49.06228205300005,39.234379657000034],[49.21473737800005,39.193447297000034],[49.20035026800008,39.10697404900003],[49.20979045000007,39.093289181000046],[49.23857257600008,39.13147827200004],[49.25296363900003,39.285074415000054],[49.285793252000076,39.33154124400005],[49.39847527500007,39.284403387000054],[49.43675550300003,39.28015339900003],[49.45287349400007,39.301177120000034],[49.40002231400007,39.401008707000074],[49.30063403500003,39.490271420000056],[49.29027047200003,39.55046140200005],[49.17177815400004,39.50461754600008],[49.11932926800006,39.51220475700006],[49.02706978300006,39.62078154200003],[48.99136662500007,39.62346933200007],[48.983783654000035,39.597075569000026],[49.02548999600003,39.54523609900008],[48.94618475400006,39.47475009000004],[48.941129440000054,39.40860401000003],[48.85487314000005,39.38482495900007],[48.758190254000056,39.44858789700004]]]]},"properties":{"shapeISO":"AZE","shapeName":"Neftchala District","shapeID":"54616110B40961788089107","shapeGroup":"AZE","shapeType":"ADM2"}},
{"type":"Feature","geometry":{"type":"MultiPolygon","coordinates":[[[[49.19693678200008,39.052396377000036],[49.06161264200006,38.97242162800006],[49.09179288900003,38.94744446300007],[49.16957833200007,38.96219128100006],[49.15654838100005,39.00233540900007],[49.19693678200008,39.052396377000036]]],[[[48.834992999000065,39.167390358000034],[48.823816442000066,39.10905419000005],[48.87500214000005,39.07307901100006],[48.86688969100004,39.02759438100003],[48.89388934700003,38.98981280300006],[48.91101321100007,38.95310044800004],[48.85578336000003,38.906896595000035],[48.858518444000026,38.86569125400007],[48.889170258000036,38.854261536000024],[48.92925339700008,38.93607220200005],[48.958094396000035,39.14959815000003],[49.06372525900008,39.195172583000044],[49.105374,39.14583810500005],[49.10114876500006,39.11198858700004],[49.16905432000004,39.12750498500003],[49.20035026800008,39.10697404900003],[49.21473737800005,39.193447297000034],[49.06228205300005,39.234379657000034],[49.02405579200007,39.29520893100005],[48.928265278000026,39.25606055900005],[48.834992999000065,39.167390358000034]]]]},"properties":{"shapeISO":"AZE","shapeName":"Lankaran District","shapeID":"54616110B17009633679109","shapeGroup":"AZE","shapeType":"ADM2"}},
{"type":"Feature","geometry":{"type":"Polygon","coordinates":[[[47.606558076000056,40.82413383200003],[47.49418594100007,40.85646805600004],[47.41635116400005,40.90742387600005],[47.38712310400007,40.96637746000005],[47.314504932000034,41.02231143200004],[47.315710214000035,41.07135694600004],[47.38893102500003,41.17343574500006],[47.402431688000036,41.266461347000075],[47.275545643000044,41.32733048100005],[47.21046733900005,41.44832794300004],[47.11709934700008,41.38758979200003],[46.94327319800004,41.33307231800006],[46.84343426000004,41.249111312000025],[46.830729046000044,41.137578087000065],[46.94885319100007,41.09369052900007],[46.97173115900006,41.01777522000003],[46.930417754000075,41.00111176000007],[46.976485945000036,40.93563809400007],[47.16756742600006,40.841171013000064],[47.31599270100003,40.800803348000045],[47.55366832000004,40.77084119700004],[47.61380027300004,40.79234399300003],[47.606558076000056,40.82413383200003]],[[47.20746272000008,41.18585529600006],[47.15293839600008,41.19897990800007],[47.16264460000008,41.22768692600005],[47.220881821000035,41.22127475700006],[47.20746272000008,41.18585529600006]]]},"properties":{"shapeISO":"AZE","shapeName":"Shaki District","shapeID":"54616110B25010354244926","shapeGroup":"AZE","shapeType":"ADM2"}},
{"type":"Feature","geometry":{"type":"Polygon","coordinates":[[[47.05546194900006,40.79784478500005],[46.97724142900006,40.80237442600003],[46.983119111000065,40.75547073400003],[47.02600677800007,40.73636249900005],[47.06793427300005,40.75559242500003],[47.05546194900006,40.79784478500005]]]},"properties":{"shapeISO":"AZE","shapeName":"Mingachevir City","shapeID":"54616110B16521863868797","shapeGroup":"AZE","shapeType":"ADM2"}},
{"type":"Feature","geometry":{"type":"Polygon","coordinates":[[[46.976485945000036,40.93563809400007],[46.949018015000036,40.92641257300005],[46.846957393000025,40.96600382100007],[46.97120948200006,40.88325334700005],[47.17603359800006,40.79117734000005],[47.05546194900006,40.79784478500005],[47.06793427300005,40.75559242500003],[47.02600677800007,40.73636249900005],[46.983119111000065,40.75547073400003],[46.97724142900006,40.80237442600003],[46.89058256800007,40.85105042300006],[46.78945888000004,40.86575399600008],[46.765860272000054,40.76049789700005],[46.855563809000046,40.71366238200005],[46.80367953200005,40.64632276100008],[46.876192496000044,40.660843457000055],[46.92463865700006,40.64179927200007],[46.91713731500005,40.55650945100007],[47.005473420000044,40.53576603400006],[46.97775197000004,40.49108389700007],[47.00032530800007,40.43581820700007],[47.06607794200005,40.499840490000054],[47.15082909200004,40.48656635200007],[47.22429519000008,40.55463428100006],[47.279077019000056,40.626559979000035],[47.251122803000044,40.665678023000055],[47.31599270100003,40.800803348000045],[47.16756742600006,40.841171013000064],[46.976485945000036,40.93563809400007]],[[47.19397593200006,40.59547740200003],[47.14902052800005,40.59385819100004],[47.13701415600008,40.627328110000064],[47.18124815700003,40.63430891300004],[47.19397593200006,40.59547740200003]]]},"properties":{"shapeISO":"AZE","shapeName":"Yevlakh District","shapeID":"54616110B52362464060400","shapeGroup":"AZE","shapeType":"ADM2"}},
{"type":"Feature","geometry":{"type":"Polygon","coordinates":[[[47.21046733900005,41.44832794300004],[47.12170513600006,41.58259594300006],[47.057390455000075,41.553744033000044],[46.96058258200003,41.518967933000056],[46.86619070800003,41.54315870600004],[46.77898761800003,41.53141675100005],[46.65176909400003,41.37491173700005],[46.73687071400008,41.28305774000006],[46.66996422300008,41.21560806700006],[46.65486066700004,41.11907722300003],[46.75884730000007,41.08973602400005],[46.83191452300008,40.97479783400007],[46.846957393000025,40.96600382100007],[46.949018015000036,40.92641257300005],[46.976485945000036,40.93563809400007],[46.930417754000075,41.00111176000007],[46.97173115900006,41.01777522000003],[46.94885319100007,41.09369052900007],[46.830729046000044,41.137578087000065],[46.84343426000004,41.249111312000025],[46.94327319800004,41.33307231800006],[47.11709934700008,41.38758979200003],[47.21046733900005,41.44832794300004]]]},"properties":{"shapeISO":"AZE","shapeName":"Qakh District","shapeID":"54616110B49356278605879","shapeGroup":"AZE","shapeType":"ADM2"}},
{"type":"Feature","geometry":{"type":"Polygon","coordinates":[[[47.057390455000075,41.553744033000044],[46.905572748000054,41.73050369400005],[46.85181313700008,41.72863061900006],[46.77492439200006,41.794623297000044],[46.74627717300007,41.86064928600007],[46.72710334300007,41.808070859000054],[46.58547646300008,41.713365932000045],[46.52769269500004,41.618959981000046],[46.33802061100005,41.57342995700003],[46.30702824700006,41.562176116000046],[46.34734795500003,41.49429805600005],[46.53706937100003,41.39717133000005],[46.65176909400003,41.37491173700005],[46.77898761800003,41.53141675100005],[46.86619070800003,41.54315870600004],[46.96058258200003,41.518967933000056],[47.057390455000075,41.553744033000044]]]},"properties":{"shapeISO":"AZE","shapeName":"Zaqatala District","shapeID":"54616110B4759617374649","shapeGroup":"AZE","shapeType":"ADM2"}},
{"type":"Feature","geometry":{"type":"Polygon","coordinates":[[[46.74627717300007,41.86064928600007],[46.56050133800005,41.81460492600007],[46.53933488700005,41.88488502200005],[46.42075724500006,41.921440723000046],[46.37842434400005,41.835320538000076],[46.17856639400003,41.75708293900004],[46.21303470600003,41.60753445300003],[46.266929496000046,41.61518661300005],[46.33802061100005,41.57342995700003],[46.52769269500004,41.618959981000046],[46.58547646300008,41.713365932000045],[46.72710334300007,41.808070859000054],[46.74627717300007,41.86064928600007]]]},"properties":{"shapeISO":"AZE","shapeName":"Balakan District","shapeID":"54616110B63924922129682","shapeGroup":"AZE","shapeType":"ADM2"}},
{"type":"Feature","geometry":{"type":"Polygon","coordinates":[[[48.72892378200004,39.183592986000065],[48.69669438300008,39.19766909100008],[48.68738822500006,39.174682407000034],[48.646926671000074,39.16995817700007],[48.64045282300003,39.12521962000005],[48.515831235000064,39.031554063000044],[48.46959629600008,39.02940376500004],[48.47132352600005,38.98483218600006],[48.53386769200006,38.96934073400007],[48.57799960400007,38.901498668000045],[48.665215293000074,38.86113453300004],[48.79029005000007,38.935399440000026],[48.83273668100003,38.92217786300006],[48.89388934700003,38.98981280300006],[48.86688969100004,39.02759438100003],[48.87500214000005,39.07307901100006],[48.823816442000066,39.10905419000005],[48.834992999000065,39.167390358000034],[48.76861442200004,39.163344926000036],[48.72892378200004,39.183592986000065]]]},"properties":{"shapeISO":"AZE","shapeName":"Masally District","shapeID":"54616110B86237771899826","shapeGroup":"AZE","shapeType":"ADM2"}},
{"type":"Feature","geometry":{"type":"Polygon","coordinates":[[[48.86995114600006,38.753268322000054],[48.83273668100003,38.92217786300006],[48.79029005000007,38.935399440000026],[48.665215293000074,38.86113453300004],[48.57799960400007,38.901498668000045],[48.54477293600007,38.838094941000065],[48.64236980100003,38.762443448000056],[48.661705029000075,38.689958346000026],[48.69623222200005,38.665058309000074],[48.66364158700003,38.62234302200005],[48.707741286000044,38.601866888000075],[48.87231089800008,38.63641325700007],[48.86722709000003,38.728780854000036],[48.84177836200007,38.71861459300004],[48.81292421000006,38.74740709500003],[48.86995114600006,38.753268322000054]]]},"properties":{"shapeISO":"AZE","shapeName":"Lankaran District","shapeID":"54616110B2076465815790","shapeGroup":"AZE","shapeType":"ADM2"}},
{"type":"Feature","geometry":{"type":"Polygon","coordinates":[[[48.66364158700003,38.62234302200005],[48.56331634000003,38.60578277600007],[48.51126545300008,38.535735067000076],[48.59189564900004,38.415259191000075],[48.63196560700004,38.39601657700007],[48.76071981100006,38.40668179700003],[48.841154360000075,38.44631467800008],[48.88083761400003,38.43766858400005],[48.87231089800008,38.63641325700007],[48.707741286000044,38.601866888000075],[48.66364158700003,38.62234302200005]]]},"properties":{"shapeISO":"AZE","shapeName":"Astara District","shapeID":"54616110B5213879595332","shapeGroup":"AZE","shapeType":"ADM2"}},
{"type":"Feature","geometry":{"type":"Polygon","coordinates":[[[48.53386769200006,38.96934073400007],[48.31360407500006,38.87409170900003],[48.22510897600006,38.738152709000076],[48.25953885800004,38.70798343600006],[48.24162010100008,38.66803033700006],[48.353148918000045,38.591451326000026],[48.45015736400006,38.60599798700008],[48.51126545300008,38.535735067000076],[48.56331634000003,38.60578277600007],[48.66364158700003,38.62234302200005],[48.69623222200005,38.665058309000074],[48.661705029000075,38.689958346000026],[48.64236980100003,38.762443448000056],[48.54477293600007,38.838094941000065],[48.57799960400007,38.901498668000045],[48.53386769200006,38.96934073400007]]]},"properties":{"shapeISO":"AZE","shapeName":"Lerik District","shapeID":"54616110B59366301344355","shapeGroup":"AZE","shapeType":"ADM2"}},
{"type":"Feature","geometry":{"type":"Polygon","coordinates":[[[48.46959629600008,39.02940376500004],[48.38867748900003,39.076422096000044],[48.33615699300003,39.044927158000064],[48.28209177700006,38.97400337500005],[48.080660228000056,38.93975013900007],[48.00836731000004,38.89775511000005],[48.03709911200008,38.807888613000046],[48.22510897600006,38.738152709000076],[48.31360407500006,38.87409170900003],[48.53386769200006,38.96934073400007],[48.47132352600005,38.98483218600006],[48.46959629600008,39.02940376500004]]]},"properties":{"shapeISO":"AZE","shapeName":"Yardymli District","shapeID":"54616110B63590673188827","shapeGroup":"AZE","shapeType":"ADM2"}},
{"type":"Feature","geometry":{"type":"Polygon","coordinates":[[[48.74005296300004,39.43883094900008],[48.68243869500003,39.45355494700004],[48.61953139000008,39.33886118600003],[48.56638312000007,39.35969015400008],[48.53955589800006,39.423709829000074],[48.380111087000046,39.338075065000055],[48.35075299500005,39.33925424300003],[48.33460715100006,39.37527522800008],[48.15385130900006,39.30269038200004],[48.12848186700006,39.266453510000076],[48.16703207900008,39.19489989400006],[48.27714962600004,39.13536372300007],[48.33615699300003,39.044927158000064],[48.38867748900003,39.076422096000044],[48.46959629600008,39.02940376500004],[48.515831235000064,39.031554063000044],[48.64045282300003,39.12521962000005],[48.646926671000074,39.16995817700007],[48.68738822500006,39.174682407000034],[48.69669438300008,39.19766909100008],[48.72892378200004,39.183592986000065],[48.73713397200004,39.258857602000035],[48.705113856000025,39.36108215400003],[48.74005296300004,39.43883094900008]]]},"properties":{"shapeISO":"AZE","shapeName":"Jalilabad District","shapeID":"54616110B78302808254353","shapeGroup":"AZE","shapeType":"ADM2"}},
{"type":"Feature","geometry":{"type":"Polygon","coordinates":[[[48.76132818500008,39.62676779200007],[48.671593216000076,39.66643270000003],[48.58212912400006,39.66981663800004],[48.50811425200004,39.65283105800006],[48.44592043800003,39.69841807800003],[48.39882311300005,39.659276342000055],[48.33347242100007,39.605498441000066],[48.28260080300004,39.59658504300006],[48.026503511000044,39.747787688000074],[47.96845769000004,39.73838925700005],[47.984188344000074,39.70786583300003],[48.03236057500004,39.69185141100007],[48.37457462300006,39.394895157000065],[48.33460715100006,39.37527522800008],[48.35075299500005,39.33925424300003],[48.380111087000046,39.338075065000055],[48.53955589800006,39.423709829000074],[48.56638312000007,39.35969015400008],[48.61953139000008,39.33886118600003],[48.68243869500003,39.45355494700004],[48.74005296300004,39.43883094900008],[48.758190254000056,39.44858789700004],[48.773356197000055,39.500456463000035],[48.73464512800007,39.57039779300004],[48.76132818500008,39.62676779200007]]]},"properties":{"shapeISO":"AZE","shapeName":"Bilasuvar District","shapeID":"54616110B16304773097912","shapeGroup":"AZE","shapeType":"ADM2"}},
{"type":"Feature","geometry":{"type":"Polygon","coordinates":[[[48.272405572000025,39.99506355600005],[48.24955599100008,39.98065592700004],[48.268687198000066,39.936489004000066],[48.23462332300005,39.83443145700005],[48.357250555000064,39.783345275000045],[48.34716862700003,39.69154567900006],[48.39882311300005,39.659276342000055],[48.44592043800003,39.69841807800003],[48.50811425200004,39.65283105800006],[48.58212912400006,39.66981663800004],[48.56631755800004,39.70120894300004],[48.71535153700006,39.762901605000025],[48.68004194800005,39.913593985000034],[48.61378609700006,39.93173982500008],[48.58176984600004,39.96562190000003],[48.459263220000025,39.95124975200008],[48.466600278000044,40.007010352000066],[48.42969265600004,40.03282257300003],[48.272405572000025,39.99506355600005]]]},"properties":{"shapeISO":"AZE","shapeName":"Saatly District","shapeID":"54616110B939777630101","shapeGroup":"AZE","shapeType":"ADM2"}},
{"type":"Feature","geometry":{"type":"Polygon","coordinates":[[[47.55366832000004,40.77084119700004],[47.31599270100003,40.800803348000045],[47.251122803000044,40.665678023000055],[47.279077019000056,40.626559979000035],[47.22429519000008,40.55463428100006],[47.369579413000054,40.369474996000065],[47.45382109900004,40.31275784500008],[47.568451208000056,40.39851029300007],[47.49943972700004,40.45550166800007],[47.49845031500007,40.48629304700006],[47.52385037400006,40.54162977500005],[47.61729237800006,40.55359115400006],[47.647913352000046,40.594681448000074],[47.63844885200007,40.66092278000008],[47.57908818400006,40.67954029600003],[47.55366832000004,40.77084119700004]]]},"properties":{"shapeISO":"AZE","shapeName":"Agdash District","shapeID":"54616110B75800990015815","shapeGroup":"AZE","shapeType":"ADM2"}},
{"type":"Feature","geometry":{"type":"Polygon","coordinates":[[[47.63844885200007,40.66092278000008],[47.647913352000046,40.594681448000074],[47.61729237800006,40.55359115400006],[47.656416111000055,40.51361319700004],[47.69313256800007,40.53012966000006],[47.777000688000044,40.489420976000076],[47.811011722000046,40.516857825000045],[48.02738754300003,40.465830604000075],[48.06879990300007,40.47525559600007],[48.07951134600006,40.53025690700008],[48.05250107400008,40.54747179200007],[48.087813124000036,40.58982505900008],[48.07204269400006,40.63032295800008],[47.77331534800004,40.68401736900006],[47.63844885200007,40.66092278000008]]]},"properties":{"shapeISO":"AZE","shapeName":"Goychay District","shapeID":"54616110B88730523237575","shapeGroup":"AZE","shapeType":"ADM2"}},
{"type":"Feature","geometry":{"type":"Polygon","coordinates":[[[47.568451208000056,40.39851029300007],[47.66298642400005,40.361232839000024],[47.70086234900003,40.31687094200004],[47.963402820000056,40.335605755000074],[48.01280730500008,40.38360595200004],[48.02738754300003,40.465830604000075],[47.811011722000046,40.516857825000045],[47.777000688000044,40.489420976000076],[47.69313256800007,40.53012966000006],[47.656416111000055,40.51361319700004],[47.61729237800006,40.55359115400006],[47.52385037400006,40.54162977500005],[47.49845031500007,40.48629304700006],[47.49943972700004,40.45550166800007],[47.568451208000056,40.39851029300007]]]},"properties":{"shapeISO":"AZE","shapeName":"Ujar District","shapeID":"54616110B8701125158325","shapeGroup":"AZE","shapeType":"ADM2"}},
{"type":"Feature","geometry":{"type":"Polygon","coordinates":[[[48.07951134600006,40.53025690700008],[48.06879990300007,40.47525559600007],[48.02738754300003,40.465830604000075],[48.01280730500008,40.38360595200004],[47.963402820000056,40.335605755000074],[47.97536618100003,40.190759953000054],[47.949398949000056,40.14721210500005],[47.891425595000044,40.135161985000025],[47.880044687000066,40.110931325000024],[47.90833449000007,40.07673473700004],[47.95181450600006,40.091114385000026],[47.98080118300004,40.075806913000065],[47.993482854000035,40.118937267000035],[48.07319621600004,40.15462649400007],[48.102182894000066,40.11430091600005],[48.27527915600007,40.022515234000025],[48.33981370200007,40.039829491000035],[48.38219632600004,40.106284318000064],[48.50064369100005,40.16607546700004],[48.46251693000005,40.31343063000003],[48.36691599200003,40.38119195100006],[48.357708986000034,40.45348179400003],[48.26647592200004,40.459875355000065],[48.22881089500004,40.42982028800003],[48.20537487900003,40.434937],[48.20537487900003,40.46818606800008],[48.13422982900005,40.451563606000036],[48.13546488800006,40.541511048000075],[48.07951134600006,40.53025690700008]]]},"properties":{"shapeISO":"AZE","shapeName":"Kurdamir District","shapeID":"54616110B82810927503709","shapeGroup":"AZE","shapeType":"ADM2"}},
{"type":"Feature","geometry":{"type":"Polygon","coordinates":[[[47.45382109900004,40.31275784500008],[47.49467107700008,40.25554492300006],[47.54162886900008,40.15900060000007],[47.701248838000026,40.17619772200004],[47.71709488800008,40.20643028500007],[47.78057234400006,40.14638331000003],[47.800284403000035,40.112122588000034],[47.880044687000066,40.110931325000024],[47.891425595000044,40.135161985000025],[47.949398949000056,40.14721210500005],[47.97536618100003,40.190759953000054],[47.963402820000056,40.335605755000074],[47.70086234900003,40.31687094200004],[47.66298642400005,40.361232839000024],[47.568451208000056,40.39851029300007],[47.45382109900004,40.31275784500008]]]},"properties":{"shapeISO":"AZE","shapeName":"Zardab District","shapeID":"54616110B34042895235078","shapeGroup":"AZE","shapeType":"ADM2"}},
{"type":"Feature","geometry":{"type":"Polygon","coordinates":[[[48.27527915600007,40.022515234000025],[48.102182894000066,40.11430091600005],[48.07319621600004,40.15462649400007],[47.993482854000035,40.118937267000035],[47.98080118300004,40.075806913000065],[47.95181450600006,40.091114385000026],[47.90833449000007,40.07673473700004],[47.880044687000066,40.110931325000024],[47.800284403000035,40.112122588000034],[47.84672330800004,40.02083769400008],[47.773754180000026,39.97993788700006],[47.802694478000035,39.93253934900008],[47.771976331000076,39.88295201900007],[47.917682694000064,39.79058641200004],[47.814876612000035,39.72108083100005],[47.806704532000026,39.657078574000025],[47.92000162800008,39.660466847000066],[47.984188344000074,39.70786583300003],[47.96845769000004,39.73838925700005],[48.026503511000044,39.747787688000074],[48.28260080300004,39.59658504300006],[48.33347242100007,39.605498441000066],[48.39882311300005,39.659276342000055],[48.34716862700003,39.69154567900006],[48.357250555000064,39.783345275000045],[48.23462332300005,39.83443145700005],[48.268687198000066,39.936489004000066],[48.24955599100008,39.98065592700004],[48.272405572000025,39.99506355600005],[48.27527915600007,40.022515234000025]]]},"properties":{"shapeISO":"AZE","shapeName":"Imishli District","shapeID":"54616110B47039748407948","shapeGroup":"AZE","shapeType":"ADM2"}},
{"type":"Feature","geometry":{"type":"Polygon","coordinates":[[[47.00032530800007,40.43581820700007],[47.02257410400006,40.377195924000034],[47.11571796000004,40.31894181800004],[47.13158793000008,40.18826283200008],[47.24332785100006,40.19705709900006],[47.26297028000005,40.21620850100004],[47.314107609000075,40.17454862000005],[47.349737067000035,40.17779119900007],[47.49467107700008,40.25554492300006],[47.45382109900004,40.31275784500008],[47.369579413000054,40.369474996000065],[47.22429519000008,40.55463428100006],[47.15082909200004,40.48656635200007],[47.06607794200005,40.499840490000054],[47.00032530800007,40.43581820700007]]]},"properties":{"shapeISO":"AZE","shapeName":"Barda District","shapeID":"54616110B76249555634218","shapeGroup":"AZE","shapeType":"ADM2"}},
{"type":"Feature","geometry":{"type":"Polygon","coordinates":[[[47.49467107700008,40.25554492300006],[47.349737067000035,40.17779119900007],[47.314107609000075,40.17454862000005],[47.26297028000005,40.21620850100004],[47.24332785100006,40.19705709900006],[47.238621471000044,40.16344855300008],[47.15320739600003,40.12310971000005],[47.20538341400004,40.08957451800006],[47.133496455000056,40.068792149000046],[47.13426943400003,40.014728071000036],[47.08943670600007,39.97400298600007],[47.119196361000036,39.938906288000055],[47.30393811700003,39.94277376300005],[47.31823821100005,39.91807763500003],[47.28352525500003,39.877879730000075],[47.28577313300008,39.846616625000024],[47.36685853100005,39.80769839200008],[47.34707029200007,39.742338217000054],[47.475732563000065,39.76625746600007],[47.45145324900005,39.799303922000036],[47.486577372000056,39.83039644200005],[47.47420972300006,39.86128416200006],[47.53876885100004,39.90015988500005],[47.688494700000035,39.93831127200008],[47.712457019000055,40.04028021700003],[47.78057234400006,40.14638331000003],[47.71709488800008,40.20643028500007],[47.701248838000026,40.17619772200004],[47.54162886900008,40.15900060000007],[47.49467107700008,40.25554492300006]]]},"properties":{"shapeISO":"AZE","shapeName":"Aghjabadi District","shapeID":"54616110B84161876100413","shapeGroup":"AZE","shapeType":"ADM2"}},
{"type":"Feature","geometry":{"type":"Polygon","coordinates":[[[47.78057234400006,40.14638331000003],[47.712457019000055,40.04028021700003],[47.688494700000035,39.93831127200008],[47.53876885100004,39.90015988500005],[47.47420972300006,39.86128416200006],[47.486577372000056,39.83039644200005],[47.45145324900005,39.799303922000036],[47.475732563000065,39.76625746600007],[47.66375940200004,39.63365120200007],[47.65512334600004,39.549489909000044],[47.806704532000026,39.657078574000025],[47.814876612000035,39.72108083100005],[47.917682694000064,39.79058641200004],[47.771976331000076,39.88295201900007],[47.802694478000035,39.93253934900008],[47.773754180000026,39.97993788700006],[47.84672330800004,40.02083769400008],[47.800284403000035,40.112122588000034],[47.78057234400006,40.14638331000003]]]},"properties":{"shapeISO":"AZE","shapeName":"Beylagan District","shapeID":"54616110B20470092766685","shapeGroup":"AZE","shapeType":"ADM2"}},
{"type":"Feature","geometry":{"type":"Polygon","coordinates":[[[46.39179087100007,40.68940017400007],[46.45336419500006,40.67421525900005],[46.50712191300005,40.693410167000025],[46.57308736500005,40.79706600500003],[46.699864441000045,40.89078968600006],[46.58313607900004,40.919723730000044],[46.43820269400004,40.895386461000044],[46.365929246000064,40.916498828000044],[46.55492238000005,40.944638085000065],[46.53675739600004,41.00410111900004],[46.480181292000054,41.03889803900006],[46.62265458300004,41.060365449000074],[46.66673848700003,41.09874954500003],[46.672173489000045,41.04848008000005],[46.72048461800006,41.00000195400003],[46.83191452300008,40.97479783400007],[46.75884730000007,41.08973602400005],[46.65486066700004,41.11907722300003],[46.627767832000075,41.101749133000055],[46.55504605700003,41.120456895000075],[46.472924868000064,41.065066338000065],[46.46303074900004,41.09856827900006],[46.38659867800004,41.10455563900007],[46.27085294500006,41.19559621800005],[46.13171689400008,41.20347783400007],[46.106753222000066,41.182803222000075],[46.239843042000075,41.13215733800007],[46.341785231000074,41.03116026400005],[46.27665028000007,40.878374337000025],[46.306313275000036,40.822582014000034],[46.35021789700005,40.72764423000007],[46.39179087100007,40.68940017400007]]]},"properties":{"shapeISO":"AZE","shapeName":"Samukh District","shapeID":"54616110B65018719015844","shapeGroup":"AZE","shapeType":"ADM2"}},
{"type":"Feature","geometry":{"type":"Polygon","coordinates":[[[46.78945888000004,40.86575399600008],[46.699864441000045,40.89078968600006],[46.57308736500005,40.79706600500003],[46.50712191300005,40.693410167000025],[46.504415434000066,40.521068531000026],[46.358453471000075,40.38951750100006],[46.34173074200004,40.28333846700008],[46.43847964500003,40.259375059000035],[46.54466752500008,40.30614147500006],[46.586195134000036,40.34716232300008],[46.74405440000004,40.410955683000054],[46.83072765800006,40.41574243300005],[46.97775197000004,40.49108389700007],[47.005473420000044,40.53576603400006],[46.91713731500005,40.55650945100007],[46.92463865700006,40.64179927200007],[46.876192496000044,40.660843457000055],[46.80367953200005,40.64632276100008],[46.855563809000046,40.71366238200005],[46.765860272000054,40.76049789700005],[46.78945888000004,40.86575399600008]],[[46.798277806000044,40.466693356000064],[46.82737615700006,40.450464373000045],[46.802099585000065,40.42759776100007],[46.776216377000026,40.44752923300007],[46.798277806000044,40.466693356000064]]]},"properties":{"shapeISO":"AZE","shapeName":"Goranboy District","shapeID":"54616110B75141866412524","shapeGroup":"AZE","shapeType":"ADM2"}},
{"type":"Feature","geometry":{"type":"Polygon","coordinates":[[[46.97775197000004,40.49108389700007],[46.83072765800006,40.41574243300005],[46.74405440000004,40.410955683000054],[46.586195134000036,40.34716232300008],[46.54466752500008,40.30614147500006],[46.52498419300008,40.245479972000055],[46.55982255500004,40.150554111000076],[46.643650421000075,40.18290058700006],[46.78578701300006,40.06509893800006],[46.86735047600007,40.19000613400004],[46.95662183500008,40.18872562000007],[46.964727098000026,40.23874701500006],[47.01052183100006,40.21731383100007],[47.04861656400004,40.22911845900006],[47.07252708800007,40.185306651000076],[47.13158793000008,40.18826283200008],[47.11571796000004,40.31894181800004],[47.02257410400006,40.377195924000034],[47.00032530800007,40.43581820700007],[46.97775197000004,40.49108389700007]]]},"properties":{"shapeISO":"AZE","shapeName":"Tartar District","shapeID":"54616110B79809370995070","shapeGroup":"AZE","shapeType":"ADM2"}},
{"type":"Feature","geometry":{"type":"Polygon","coordinates":[[[46.34173074200004,40.28333846700008],[46.175438185000075,40.304125731000056],[45.930438765000076,40.29377184900005],[45.98835098100005,40.168122149000055],[45.86670720300003,40.00077358600004],[45.73313247900006,40.03327959300003],[45.622900910000055,40.02689927700004],[45.598001544000056,40.00356612500008],[45.61952912100003,39.97144496900006],[45.696042798000065,39.96885067100004],[45.786303,39.93411743900003],[45.84128910000004,39.82441160400003],[45.92647077300006,39.796876316000066],[46.027515608000044,39.872392201000025],[46.043987369000035,39.912052370000026],[46.08393259200005,39.877355943000055],[46.13705124000006,39.876210005000075],[46.466454733000035,39.95987725100008],[46.54621090200004,39.998547450000046],[46.60530539700005,39.96649576100003],[46.71470416200003,40.03231962700005],[46.78578701300006,40.06509893800006],[46.643650421000075,40.18290058700006],[46.55982255500004,40.150554111000076],[46.52498419300008,40.245479972000055],[46.54466752500008,40.30614147500006],[46.43847964500003,40.259375059000035],[46.34173074200004,40.28333846700008]]]},"properties":{"shapeISO":"AZE","shapeName":"Kalbajar District","shapeID":"54616110B37358032697149","shapeGroup":"AZE","shapeType":"ADM2"}},
{"type":"Feature","geometry":{"type":"Polygon","coordinates":[[[47.13158793000008,40.18826283200008],[47.07252708800007,40.185306651000076],[47.04861656400004,40.22911845900006],[47.01052183100006,40.21731383100007],[46.964727098000026,40.23874701500006],[46.95662183500008,40.18872562000007],[46.86735047600007,40.19000613400004],[46.78578701300006,40.06509893800006],[46.71470416200003,40.03231962700005],[46.766958696000074,40.01102064500003],[46.84233763600008,40.01818767900005],[46.89745342000003,39.934005127000034],[46.95581131000006,39.92776522500003],[46.885527747000026,39.820272190000026],[47.03159551300007,39.899990709000065],[47.16330602700003,39.850030451000066],[47.22004286300006,39.884382069000026],[47.28352525500003,39.877879730000075],[47.31823821100005,39.91807763500003],[47.30393811700003,39.94277376300005],[47.119196361000036,39.938906288000055],[47.08943670600007,39.97400298600007],[47.13426943400003,40.014728071000036],[47.133496455000056,40.068792149000046],[47.20538341400004,40.08957451800006],[47.15320739600003,40.12310971000005],[47.238621471000044,40.16344855300008],[47.24332785100006,40.19705709900006],[47.13158793000008,40.18826283200008]]]},"properties":{"shapeISO":"AZE","shapeName":"Agdam District","shapeID":"54616110B71765796178707","shapeGroup":"AZE","shapeType":"ADM2"}},
{"type":"Feature","geometry":{"type":"Polygon","coordinates":[[[46.35021789700005,40.72764423000007],[46.306313275000036,40.822582014000034],[46.270916638000074,40.79328098900004],[46.25713769200007,40.70916305800006],[46.12257138600006,40.64578692200007],[46.22595776000003,40.57056964700007],[46.16136895100004,40.49664935200008],[46.26205150700008,40.42555049600003],[46.25761894200008,40.38973054200005],[46.19366335500007,40.351953578000064],[46.175438185000075,40.304125731000056],[46.34173074200004,40.28333846700008],[46.358453471000075,40.38951750100006],[46.504415434000066,40.521068531000026],[46.50712191300005,40.693410167000025],[46.45336419500006,40.67421525900005],[46.39179087100007,40.68940017400007],[46.359922502000074,40.652722933000064],[46.31713503100008,40.670620737000036],[46.35021789700005,40.72764423000007]]]},"properties":{"shapeISO":"AZE","shapeName":"Goygol District","shapeID":"54616110B13615645655589","shapeGroup":"AZE","shapeType":"ADM2"}},
{"type":"Feature","geometry":{"type":"Polygon","coordinates":[[[46.239843042000075,41.13215733800007],[46.09827455000004,41.00547620700007],[46.03684918300007,41.00072975900008],[46.14650086100005,40.97261849200004],[46.16595349000005,40.92898745200006],[46.06828507800003,40.94133844400005],[45.96380318100006,40.993175689000054],[45.90449583000003,40.979661607000025],[45.845390363000035,40.91636513800006],[45.74217491200005,40.86687070600004],[45.749032697000075,40.800151855000024],[45.84012194200005,40.685721165000075],[45.92927982800006,40.63263776800005],[45.93970053900006,40.56918165600007],[46.04100276500003,40.66906003100007],[46.12257138600006,40.64578692200007],[46.25713769200007,40.70916305800006],[46.270916638000074,40.79328098900004],[46.306313275000036,40.822582014000034],[46.27665028000007,40.878374337000025],[46.341785231000074,41.03116026400005],[46.239843042000075,41.13215733800007]]]},"properties":{"shapeISO":"AZE","shapeName":"Shamkir District","shapeID":"54616110B57585842497805","shapeGroup":"AZE","shapeType":"ADM2"}},
{"type":"Feature","geometry":{"type":"Polygon","coordinates":[[[46.175438185000075,40.304125731000056],[46.19366335500007,40.351953578000064],[46.25761894200008,40.38973054200005],[46.26205150700008,40.42555049600003],[46.16136895100004,40.49664935200008],[46.22595776000003,40.57056964700007],[46.12257138600006,40.64578692200007],[46.04100276500003,40.66906003100007],[45.93970053900006,40.56918165600007],[45.83789188700007,40.498792958000024],[45.87753170800005,40.41754116200008],[45.85965929300005,40.311694386000056],[45.930438765000076,40.29377184900005],[46.175438185000075,40.304125731000056]]]},"properties":{"shapeISO":"AZE","shapeName":"Dashkasan District","shapeID":"54616110B88384638285498","shapeGroup":"AZE","shapeType":"ADM2"}},
{"type":"Feature","geometry":{"type":"Polygon","coordinates":[[[45.749032697000075,40.800151855000024],[45.70497867100005,40.57926431100003],[45.628000462000045,40.60798887800007],[45.60860831900004,40.66165086600006],[45.528634675000035,40.667959033000045],[45.526762070000075,40.63363039200004],[45.49139992700003,40.63840991600006],[45.48920662000006,40.690240964000054],[45.48244814000003,40.74789896400006],[45.42580885700005,40.74477357300003],[45.37219528700007,40.67837061500006],[45.39215778600004,40.618855137000025],[45.440352964000056,40.58059800600006],[45.45261564200007,40.49770444700005],[45.62500608700003,40.41308633400007],[45.65129598600004,40.37731432800007],[45.85965929300005,40.311694386000056],[45.87753170800005,40.41754116200008],[45.83789188700007,40.498792958000024],[45.93970053900006,40.56918165600007],[45.92927982800006,40.63263776800005],[45.84012194200005,40.685721165000075],[45.749032697000075,40.800151855000024]]]},"properties":{"shapeISO":"AZE","shapeName":"Gadabay District","shapeID":"54616110B46799199998097","shapeGroup":"AZE","shapeType":"ADM2"}},
{"type":"Feature","geometry":{"type":"Polygon","coordinates":[[[46.106753222000066,41.182803222000075],[46.05662384900006,41.19695516300004],[45.95766688600003,41.18295256400006],[45.79149885900006,41.23497309000004],[45.66822846400004,41.17872426400004],[45.635254692000046,41.13460696100003],[45.551037895000036,41.15751128000005],[45.58331940900007,41.03967394800003],[45.48330798600006,40.99903735600003],[45.460137227000075,40.959449636000045],[45.48820949200007,40.92371189800008],[45.59292349700007,40.87773098200006],[45.58351260500007,40.82150941100008],[45.48244814000003,40.74789896400006],[45.48920662000006,40.690240964000054],[45.528634675000035,40.667959033000045],[45.60860831900004,40.66165086600006],[45.628000462000045,40.60798887800007],[45.70497867100005,40.57926431100003],[45.749032697000075,40.800151855000024],[45.74217491200005,40.86687070600004],[45.845390363000035,40.91636513800006],[45.90449583000003,40.979661607000025],[45.81393688800006,41.064132424000036],[46.03684918300007,41.00072975900008],[46.09827455000004,41.00547620700007],[46.239843042000075,41.13215733800007],[46.106753222000066,41.182803222000075]]]},"properties":{"shapeISO":"AZE","shapeName":"Tovuz District","shapeID":"54616110B84187356839814","shapeGroup":"AZE","shapeType":"ADM2"}},
{"type":"Feature","geometry":{"type":"Polygon","coordinates":[[[45.79149885900006,41.23497309000004],[45.693306353000025,41.30026553700003],[45.75633081700005,41.35809041400006],[45.63124436800007,41.39651317900007],[45.576882203000025,41.38376182800005],[45.47796088700005,41.45017543900008],[45.38884258500008,41.43039268100006],[45.25026362500006,41.46995212100006],[45.158917365000036,41.42536219800007],[45.09612282900008,41.332995002000075],[45.245640613000035,41.272311142000035],[45.362608385000044,41.258127251000076],[45.38488796100006,41.23500611000003],[45.35494978100007,41.11822374500008],[45.376519822000034,41.01573725800006],[45.40681596400003,41.02199525700007],[45.408458593000034,40.98452486000008],[45.460137227000075,40.959449636000045],[45.48330798600006,40.99903735600003],[45.58331940900007,41.03967394800003],[45.551037895000036,41.15751128000005],[45.635254692000046,41.13460696100003],[45.66822846400004,41.17872426400004],[45.79149885900006,41.23497309000004]]]},"properties":{"shapeISO":"AZE","shapeName":"Agstafa District","shapeID":"54616110B36354954300290","shapeGroup":"AZE","shapeType":"ADM2"}},
{"type":"Feature","geometry":{"type":"MultiPolygon","coordinates":[[[[45.23239314800003,40.982895893000034],[45.23077079900003,41.01018341400004],[45.185669491000056,41.00747975400003],[45.23239314800003,40.982895893000034]]],[[[45.01562701700004,41.05149249700003],[45.02120384300008,41.07911967700005],[44.990277811000055,41.082572252000034],[44.98977082700003,41.05494653400007],[45.01562701700004,41.05149249700003]]],[[[45.09612282900008,41.332995002000075],[45.02246116400005,41.30323327600007],[45.01402494700005,41.204063020000035],[45.130509619000065,41.20332786000006],[45.18826525000003,41.17023702700004],[45.19205749100007,41.13817188200005],[45.09370257200004,41.11517089200004],[45.045539080000026,41.07566691900007],[45.17482003100008,41.06760977400006],[45.33147812400006,41.00158047000008],[45.376519822000034,41.01573725800006],[45.35494978100007,41.11822374500008],[45.38488796100006,41.23500611000003],[45.362608385000044,41.258127251000076],[45.245640613000035,41.272311142000035],[45.09612282900008,41.332995002000075]]]]},"properties":{"shapeISO":"AZE","shapeName":"Qazakh District","shapeID":"54616110B43488292017990","shapeGroup":"AZE","shapeType":"ADM2"}},
{"type":"Feature","geometry":{"type":"Polygon","coordinates":[[[45.92647077300006,39.796876316000066],[46.03999857100007,39.73593613400004],[46.07666366400008,39.67678990300004],[46.16070135100006,39.63841780000007],[46.17667824600005,39.58502231800003],[46.34509107000008,39.63369128000005],[46.43438516900005,39.61939935300006],[46.42337915200005,39.569916689000024],[46.55732030100006,39.54853816100007],[46.50270553800004,39.516055814000026],[46.51768037100004,39.482481962000065],[46.595801461000065,39.46087492400005],[46.70794180400003,39.523493607000034],[46.719503305000046,39.56236262900006],[46.69063846700004,39.587111133000064],[46.763112051000064,39.61391174600004],[46.73279358900004,39.66017967500005],[46.67132602300006,39.64187969400007],[46.64474545400003,39.59594772600008],[46.60009840400005,39.62871353100007],[46.560642872000074,39.62469895400005],[46.573527942000055,39.778428459000054],[46.56438076400008,39.83778821000004],[46.46987853600007,39.91159367700004],[46.466454733000035,39.95987725100008],[46.13705124000006,39.876210005000075],[46.08393259200005,39.877355943000055],[46.043987369000035,39.912052370000026],[46.027515608000044,39.872392201000025],[45.92647077300006,39.796876316000066]]]},"properties":{"shapeISO":"AZE","shapeName":"Lachin District","shapeID":"54616110B46945931752574","shapeGroup":"AZE","shapeType":"ADM2"}},
{"type":"Feature","geometry":{"type":"Polygon","coordinates":[[[46.77052714900003,39.73450826200008],[46.82240317000003,39.665430309000044],[46.86888870000007,39.64861786700004],[46.93568589800003,39.69635203100006],[46.934488816000055,39.732408114000066],[46.864964505000046,39.77757316000003],[46.885527747000026,39.820272190000026],[46.95581131000006,39.92776522500003],[46.89745342000003,39.934005127000034],[46.84233763600008,40.01818767900005],[46.766958696000074,40.01102064500003],[46.71470416200003,40.03231962700005],[46.60530539700005,39.96649576100003],[46.54621090200004,39.998547450000046],[46.466454733000035,39.95987725100008],[46.46987853600007,39.91159367700004],[46.56438076400008,39.83778821000004],[46.573527942000055,39.778428459000054],[46.68294608800005,39.788859813000045],[46.74664192200004,39.756087594000064],[46.77052714900003,39.73450826200008]],[[46.82493425100006,39.85574884400006],[46.830078455000034,39.82343789200007],[46.76605393600005,39.827155237000056],[46.76971799000006,39.864763363000066],[46.82493425100006,39.85574884400006]]]},"properties":{"shapeISO":"AZE","shapeName":"Khojaly District","shapeID":"54616110B87325868620163","shapeGroup":"AZE","shapeType":"ADM2"}},
{"type":"Feature","geometry":{"type":"Polygon","coordinates":[[[46.74664192200004,39.756087594000064],[46.68294608800005,39.788859813000045],[46.573527942000055,39.778428459000054],[46.560642872000074,39.62469895400005],[46.60009840400005,39.62871353100007],[46.64474545400003,39.59594772600008],[46.67132602300006,39.64187969400007],[46.73279358900004,39.66017967500005],[46.763112051000064,39.61391174600004],[46.82240317000003,39.665430309000044],[46.77052714900003,39.73450826200008],[46.737127196000074,39.722248372000024],[46.74664192200004,39.756087594000064]]]},"properties":{"shapeISO":"AZE","shapeName":"Shusha District","shapeID":"54616110B49912296290484","shapeGroup":"AZE","shapeType":"ADM2"}},
{"type":"Feature","geometry":{"type":"Polygon","coordinates":[[[47.28352525500003,39.877879730000075],[47.22004286300006,39.884382069000026],[47.16330602700003,39.850030451000066],[47.03159551300007,39.899990709000065],[46.885527747000026,39.820272190000026],[46.864964505000046,39.77757316000003],[46.934488816000055,39.732408114000066],[46.93568589800003,39.69635203100006],[46.86888870000007,39.64861786700004],[46.82240317000003,39.665430309000044],[46.763112051000064,39.61391174600004],[46.69063846700004,39.587111133000064],[46.719503305000046,39.56236262900006],[46.70794180400003,39.523493607000034],[46.77495763300004,39.51224274500004],[46.768448223000064,39.44713655800007],[46.812413012000036,39.42085941100004],[46.849442761000034,39.43043228800008],[46.84731461400003,39.500373051000054],[47.019694481000045,39.399067923000075],[47.070344368000065,39.42614116300007],[47.04991416100006,39.47101975600003],[47.08074205500003,39.48275456700003],[47.118014849000076,39.52608813900008],[47.12397366000005,39.59395621200008],[47.04906290200006,39.59263902200007],[47.12482491800006,39.63642203000006],[47.06821622100006,39.63378925500007],[47.04310409200008,39.65846755900003],[47.34707029200007,39.742338217000054],[47.36685853100005,39.80769839200008],[47.28577313300008,39.846616625000024],[47.28352525500003,39.877879730000075]]]},"properties":{"shapeISO":"AZE","shapeName":"Khojavend District","shapeID":"54616110B38461317640181","shapeGroup":"AZE","shapeType":"ADM2"}},
{"type":"Feature","geometry":{"type":"Polygon","coordinates":[[[47.34707029200007,39.742338217000054],[47.04310409200008,39.65846755900003],[47.06821622100006,39.63378925500007],[47.12482491800006,39.63642203000006],[47.04906290200006,39.59263902200007],[47.12397366000005,39.59395621200008],[47.118014849000076,39.52608813900008],[47.08074205500003,39.48275456700003],[47.164834073000065,39.45089399300008],[47.172921029000065,39.42052928900006],[47.244852381000044,39.424160553000036],[47.31431158500004,39.366037437000045],[47.424042317000044,39.46508161600008],[47.65512334600004,39.549489909000044],[47.66375940200004,39.63365120200007],[47.475732563000065,39.76625746600007],[47.34707029200007,39.742338217000054]]]},"properties":{"shapeISO":"AZE","shapeName":"Fuzuli District","shapeID":"54616110B29637726057754","shapeGroup":"AZE","shapeType":"ADM2"}},
{"type":"Feature","geometry":{"type":"Polygon","coordinates":[[[46.768448223000064,39.44713655800007],[46.72687854800006,39.38454966200004],[46.76644504800004,39.301913367000054],[46.83189185600003,39.24742250000003],[46.896032458000036,39.16881529300008],[46.99841301600003,39.13537753600008],[47.06098052300007,39.18110692400006],[47.11460981500005,39.267844024000055],[47.24527801000005,39.31414779100004],[47.31431158500004,39.366037437000045],[47.244852381000044,39.424160553000036],[47.172921029000065,39.42052928900006],[47.164834073000065,39.45089399300008],[47.08074205500003,39.48275456700003],[47.04991416100006,39.47101975600003],[47.070344368000065,39.42614116300007],[47.019694481000045,39.399067923000075],[46.84731461400003,39.500373051000054],[46.849442761000034,39.43043228800008],[46.812413012000036,39.42085941100004],[46.768448223000064,39.44713655800007]]]},"properties":{"shapeISO":"AZE","shapeName":"Jabrayil District","shapeID":"54616110B25171122868047","shapeGroup":"AZE","shapeType":"ADM2"}},
{"type":"Feature","geometry":{"type":"Polygon","coordinates":[[[46.51768037100004,39.482481962000065],[46.45120696200007,39.44899329000003],[46.37139295600008,39.44772612600008],[46.36894133000004,39.41117955500005],[46.41742902100003,39.343567707000034],[46.52000568200003,39.31249461600004],[46.52043131200003,39.26949826100008],[46.59497490500007,39.22472761500006],[46.642161292000026,39.24004695100007],[46.66557090300006,39.225813198000026],[46.668311956000025,39.07417262700005],[46.72578893600007,39.18746689900007],[46.83189185600003,39.24742250000003],[46.76644504800004,39.301913367000054],[46.72687854800006,39.38454966200004],[46.768448223000064,39.44713655800007],[46.77495763300004,39.51224274500004],[46.70794180400003,39.523493607000034],[46.595801461000065,39.46087492400005],[46.51768037100004,39.482481962000065]]]},"properties":{"shapeISO":"AZE","shapeName":"Qubadli District","shapeID":"54616110B66639423042347","shapeGroup":"AZE","shapeType":"ADM2"}},
{"type":"Feature","geometry":{"type":"Polygon","coordinates":[[[46.83189185600003,39.24742250000003],[46.72578893600007,39.18746689900007],[46.668311956000025,39.07417262700005],[46.66557090300006,39.225813198000026],[46.642161292000026,39.24004695100007],[46.59497490500007,39.22472761500006],[46.54709273100008,39.17538245000003],[46.482260876000055,39.208662626000034],[46.429142339000066,39.20039705900007],[46.53490270700007,39.062081840000076],[46.50638554400007,38.95315753600005],[46.53192330300004,38.87301700900008],[46.738779143000045,39.00963331300005],[46.896032458000036,39.16881529300008],[46.83189185600003,39.24742250000003]]]},"properties":{"shapeISO":"AZE","shapeName":"Zangilan District","shapeID":"54616110B64107713492867","shapeGroup":"AZE","shapeType":"ADM2"}},
{"type":"Feature","geometry":{"type":"Polygon","coordinates":[[[45.77908201000008,38.92443933100003],[45.90213381400008,38.880706178000025],[45.962667759000055,38.90081234500008],[46.14199957100004,38.84521071100005],[46.07692558000008,39.03431335300007],[46.033038470000065,39.07561176100006],[46.00125814900008,39.28232645500003],[45.94311954700004,39.30448511600008],[45.84689658900004,39.235265911000056],[45.80603617600008,39.10922247800005],[45.76517576300006,39.07797093500005],[45.77908201000008,38.92443933100003]]]},"properties":{"shapeISO":"AZE","shapeName":"Ordubad District","shapeID":"54616110B24607032839399","shapeGroup":"AZE","shapeType":"ADM2"}},
{"type":"Feature","geometry":{"type":"Polygon","coordinates":[[[45.94311954700004,39.30448511600008],[45.808459638000045,39.36174367000007],[45.73507102100007,39.307215186000064],[45.68300214300007,39.32936361000003],[45.583502990000056,39.278955075000056],[45.556239220000066,39.206977566000035],[45.50788954700005,39.18647855000006],[45.549061153000025,39.14202563400005],[45.52525823700006,39.077274138000064],[45.57266571200006,39.03103056200007],[45.55515758700005,38.970053034000045],[45.77908201000008,38.92443933100003],[45.76517576300006,39.07797093500005],[45.80603617600008,39.10922247800005],[45.84689658900004,39.235265911000056],[45.94311954700004,39.30448511600008]]]},"properties":{"shapeISO":"AZE","shapeName":"Julfa District","shapeID":"54616110B53393721771174","shapeGroup":"AZE","shapeType":"ADM2"}},
{"type":"Feature","geometry":{"type":"Polygon","coordinates":[[[45.808459638000045,39.36174367000007],[45.80097534500004,39.40858739000004],[45.83767150600005,39.45980889700007],[45.81906308100008,39.56461367500003],[45.79147897300004,39.586439932000076],[45.72112400100008,39.59962826700007],[45.62101538400003,39.562454658000036],[45.56770677000003,39.56725238100006],[45.46856386800005,39.49371221400003],[45.38298622600007,39.42485779300006],[45.45666451300008,39.35600626400003],[45.55663632300008,39.320469167000056],[45.583502990000056,39.278955075000056],[45.68300214300007,39.32936361000003],[45.73507102100007,39.307215186000064],[45.808459638000045,39.36174367000007]]]},"properties":{"shapeISO":"AZE","shapeName":"Shahbuz District","shapeID":"54616110B68105682916253","shapeGroup":"AZE","shapeType":"ADM2"}},
{"type":"Feature","geometry":{"type":"Polygon","coordinates":[[[45.41700687600007,39.239595628000075],[45.37492794800005,39.21975625400006],[45.39445377700008,39.186719749000076],[45.44838225900003,39.20914769800004],[45.41700687600007,39.239595628000075]]]},"properties":{"shapeISO":"AZE","shapeName":"Nakhchivan City","shapeID":"54616110B79262118902245","shapeGroup":"AZE","shapeType":"ADM2"}},
{"type":"Feature","geometry":{"type":"Polygon","coordinates":[[[45.583502990000056,39.278955075000056],[45.55663632300008,39.320469167000056],[45.45666451300008,39.35600626400003],[45.38298622600007,39.42485779300006],[45.46856386800005,39.49371221400003],[45.331957964000026,39.550883905000035],[45.236759179000046,39.31482464000004],[45.098882927000034,39.30514192800007],[45.141676130000064,39.21760999800006],[45.30814447800003,39.15872462200008],[45.43784450900006,39.042816679000055],[45.45644053700005,38.988171962000024],[45.55515758700005,38.970053034000045],[45.57266571200006,39.03103056200007],[45.52525823700006,39.077274138000064],[45.549061153000025,39.14202563400005],[45.50788954700005,39.18647855000006],[45.556239220000066,39.206977566000035],[45.583502990000056,39.278955075000056]],[[45.41700687600007,39.239595628000075],[45.44838225900003,39.20914769800004],[45.39445377700008,39.186719749000076],[45.37492794800005,39.21975625400006],[45.41700687600007,39.239595628000075]]]},"properties":{"shapeISO":"AZE","shapeName":"Babek District","shapeID":"54616110B53070579367508","shapeGroup":"AZE","shapeType":"ADM2"}},
{"type":"Feature","geometry":{"type":"Polygon","coordinates":[[[45.331957964000026,39.550883905000035],[45.300295524000035,39.59330678300006],[45.235457739000026,39.56843257000003],[45.164792833000035,39.44480592700006],[45.04490264900005,39.37198566300003],[45.098882927000034,39.30514192800007],[45.236759179000046,39.31482464000004],[45.331957964000026,39.550883905000035]]]},"properties":{"shapeISO":"AZE","shapeName":"Kangarli District","shapeID":"54616110B75082210580506","shapeGroup":"AZE","shapeType":"ADM2"}},
{"type":"Feature","geometry":{"type":"Polygon","coordinates":[[[45.300295524000035,39.59330678300006],[45.273344046000034,39.61999567400005],[45.18606668800004,39.58823369400005],[45.17912417200006,39.699412980000034],[45.101566338000055,39.79281731700007],[44.98858360400004,39.740005878000034],[44.994056502000035,39.71274238600006],[44.93571555600005,39.65361973900008],[44.95285365500007,39.62329071400006],[44.87161331300007,39.58841861500008],[44.93637162300007,39.433751046000054],[45.04490264900005,39.37198566300003],[45.164792833000035,39.44480592700006],[45.235457739000026,39.56843257000003],[45.300295524000035,39.59330678300006]]]},"properties":{"shapeISO":"AZE","shapeName":"Sharur District","shapeID":"54616110B53436270368491","shapeGroup":"AZE","shapeType":"ADM2"}},
{"type":"Feature","geometry":{"type":"MultiPolygon","coordinates":[[[[44.98858360400004,39.740005878000034],[44.933954140000026,39.72744768200005],[44.883571302000064,39.74444674100005],[44.765151796000055,39.71565306000008],[44.81766697900008,39.66672964000003],[44.79132260500006,39.62767503400005],[44.87161331300007,39.58841861500008],[44.95285365500007,39.62329071400006],[44.93571555600005,39.65361973900008],[44.994056502000035,39.71274238600006],[44.98858360400004,39.740005878000034]]],[[[44.96331106900004,39.77613640000004],[44.96291435400008,39.802456723000034],[44.93177220600006,39.80092674900004],[44.96331106900004,39.77613640000004]]]]},"properties":{"shapeISO":"AZE","shapeName":"Sadarak District","shapeID":"54616110B79964383852369","shapeGroup":"AZE","shapeType":"ADM2"}}
]}