{"type":"FeatureCollection", "features": [
{"type":"Feature","geometry":{"type":"Polygon","coordinates":[[[2.034075,7.218944],[1.890228,7.242296],[1.914035,7.201833],[1.901523,7.162711],[1.95186,7.155222],[1.976952,7.11861],[2.030576,7.15202],[2.034075,7.218944]]]},"properties":{"shapeName":"Abomey","shapeISO":"","shapeID":"17685819B36696986957740","shapeGroup":"BEN","shapeType":"ADM2"}},
{"type":"Feature","geometry":{"type":"Polygon","coordinates":[[[2.218737,6.455844],[2.208797,6.404403],[2.272222024159987,6.331820833594598],[2.357786344137701,6.339252236112033],[2.36628,6.405761],[2.415396,6.633396],[2.410883,6.685469],[2.341054,6.693938],[2.312972,6.588668],[2.253124,6.549684],[2.218737,6.455844]]]},"properties":{"shapeName":"Abomey-Calavi","shapeISO":"","shapeID":"17685819B50728061848372","shapeGroup":"BEN","shapeType":"ADM2"}},
{"type":"Feature","geometry":{"type":"Polygon","coordinates":[[[2.537419,7.187003],[2.518208,7.170673],[2.554102,6.998912],[2.507843,6.9607],[2.505782,6.897148],[2.55441,6.864267],[2.66244,6.852469],[2.747872829437256,6.928290843963623],[2.718897306232465,6.953331844612154],[2.654091,6.957736],[2.593863,7.083486],[2.631217,7.172252],[2.601075,7.183797],[2.537419,7.187003]]]},"properties":{"shapeName":"Adja-Ouere","shapeISO":"","shapeID":"17685819B3857845768140","shapeGroup":"BEN","shapeType":"ADM2"}},
{"type":"Feature","geometry":{"type":"Polygon","coordinates":[[[2.658622,6.4436],[2.706281185150146,6.425604820251465],[2.720288991928101,6.507771015167236],[2.699121,6.514307],[2.665963,6.54281],[2.630087,6.511791],[2.658622,6.4436]]]},"properties":{"shapeName":"Adjarra","shapeISO":"","shapeID":"17685819B66402044537068","shapeGroup":"BEN","shapeType":"ADM2"}},
{"type":"Feature","geometry":{"type":"Polygon","coordinates":[[[2.415396,6.633396],[2.506231,6.615393],[2.564182,6.633748],[2.57276,6.642901],[2.579742,6.792254],[2.418793,6.796692],[2.436299,6.746507],[2.410883,6.685469],[2.415396,6.633396]]]},"properties":{"shapeName":"Adjohoun","shapeISO":"","shapeID":"17685819B34979669430532","shapeGroup":"BEN","shapeType":"ADM2"}},
{"type":"Feature","geometry":{"type":"Polygon","coordinates":[[[1.901523,7.162711],[1.855858,7.144366],[1.933471,7.028423],[1.967306,6.997556],[2.014065,7.029794],[2.057402,7.132403],[2.030576,7.15202],[1.976952,7.11861],[1.95186,7.155222],[1.901523,7.162711]]]},"properties":{"shapeName":"Agbangnizoun","shapeISO":"","shapeID":"17685819B54194513987818","shapeGroup":"BEN","shapeType":"ADM2"}},
{"type":"Feature","geometry":{"type":"Polygon","coordinates":[[[2.445716,6.397413],[2.590838,6.450209],[2.580482,6.496084],[2.549254,6.525105],[2.526521,6.548451],[2.500647,6.517225],[2.445716,6.397413]]]},"properties":{"shapeName":"Aguegues","shapeISO":"","shapeID":"17685819B55066990993617","shapeGroup":"BEN","shapeType":"ADM2"}},
{"type":"Feature","geometry":{"type":"Polygon","coordinates":[[[2.564182,6.633748],[2.575893,6.576078],[2.549254,6.525105],[2.580482,6.496084],[2.61014,6.527752],[2.628781,6.625261],[2.57276,6.642901],[2.564182,6.633748]]]},"properties":{"shapeName":"Akpo-Misserete","shapeISO":"","shapeID":"17685819B47795371701587","shapeGroup":"BEN","shapeType":"ADM2"}},
{"type":"Feature","geometry":{"type":"Polygon","coordinates":[[[1.986587,6.627088],[2.01763,6.586148],[2.191622,6.621503],[2.247434,6.627769],[2.20749,6.733027],[2.227695,6.777963],[2.157108,6.782685],[2.104659,6.740393],[2.033642,6.732244],[2.033108,6.723261],[1.986587,6.627088]]]},"properties":{"shapeName":"Allada","shapeISO":"","shapeID":"17685819B11652159225436","shapeGroup":"BEN","shapeType":"ADM2"}},
{"type":"Feature","geometry":{"type":"Polygon","coordinates":[[[1.675678133964539,7.494696140289307],[1.643882036209106,7.485552787780762],[1.636421918869019,7.41777515411377],[1.642031908035278,6.99457311630249],[1.557832002639771,6.997486114501953],[1.606693983078003,6.883471965789795],[1.705196,6.923803],[1.731872,6.965533],[1.745448,7.070593],[1.831633,7.199296],[1.79604,7.275684],[1.747145,7.310155],[1.675678133964539,7.494696140289307]]]},"properties":{"shapeName":"Aplahoue","shapeISO":"","shapeID":"17685819B24804117588339","shapeGroup":"BEN","shapeType":"ADM2"}},
{"type":"Feature","geometry":{"type":"Polygon","coordinates":[[[1.602836966514587,6.666285037994385],[1.609801054000854,6.605819225311279],[1.674293041229248,6.583197116851807],[1.695731997489929,6.500411987304688],[1.727938055992126,6.498353958129883],[1.753024924788337,6.450053165575804],[1.781095,6.477171],[1.760661,6.550727],[1.777304,6.612046],[1.686591,6.625535],[1.661921,6.671341],[1.602836966514587,6.666285037994385]]]},"properties":{"shapeName":"Athieme","shapeISO":"","shapeID":"17685819B69046773697304","shapeGroup":"BEN","shapeType":"ADM2"}},
{"type":"Feature","geometry":{"type":"Polygon","coordinates":[[[2.699121,6.514307],[2.655891,6.616387],[2.628781,6.625261],[2.61014,6.527752],[2.630087,6.511791],[2.665963,6.54281],[2.699121,6.514307]]]},"properties":{"shapeName":"Avrankou","shapeISO":"","shapeID":"17685819B15816629354661","shapeGroup":"BEN","shapeType":"ADM2"}},
{"type":"Feature","geometry":{"type":"Polygon","coordinates":[[[2.309592962265015,11.680806159973145],[2.185440063476562,11.597241401672363],[2.019248962402344,11.427713394165039],[2.203256,11.010392],[2.335594,10.949238],[2.407849,11.021451],[2.467498,11.020286000000112],[2.506555,11.0604],[2.532781,11.040083],[2.555672,11.146342],[2.630932,11.161747],[2.636729,11.183686],[2.672208,11.276458],[2.75038,11.288174],[2.807867,11.259013],[2.808878,11.297099],[2.905221,11.313796],[2.841846,11.430594],[2.772599,11.415635],[2.638853,11.512562],[2.628751,11.628964],[2.574343,11.610538],[2.509399,11.673471],[2.383746,11.683756],[2.341255,11.657435],[2.309592962265015,11.680806159973145]]]},"properties":{"shapeName":"Banikoara","shapeISO":"","shapeID":"17685819B57139564746449","shapeGroup":"BEN","shapeType":"ADM2"}},
{"type":"Feature","geometry":{"type":"Polygon","coordinates":[[[2.12325,8.477983],[1.992833,8.507804],[1.801538,8.62591],[1.630164211229097,8.59369684937105],[1.650187015533447,8.477664947509766],[1.619738936424255,8.374102592468262],[1.63389051422502,8.208286618180564],[1.792539,8.12317],[1.814834,8.071205],[2.02602,8.072404],[2.118946,8.126477],[2.087748,8.247864],[2.12325,8.477983]]]},"properties":{"shapeName":"Bante","shapeISO":"","shapeID":"17685819B31481778008604","shapeGroup":"BEN","shapeType":"ADM2"}},
{"type":"Feature","geometry":{"type":"Polygon","coordinates":[[[2.12325,8.477983],[2.156275,8.509423],[2.222868,8.509906],[2.224417,8.64648],[2.185246,8.764182],[2.238555,8.889412],[2.208338,8.891872],[2.186981,8.950889],[2.22436,8.987936],[2.225377,9.039846],[2.182869,9.07293],[2.072207,9.07404],[1.980136,9.132999],[1.972545,9.353319],[1.886954,9.396246],[1.818544,9.370331],[1.773716,9.438212],[1.660518,9.390341],[1.591668,9.398113],[1.539355,9.459481],[1.440695,9.388011],[1.401589274233234,9.413521146069202],[1.420920014381409,9.307435035705566],[1.559118032455444,9.170153617858887],[1.617600083351135,9.0709228515625],[1.630164211229097,8.59369684937105],[1.801538,8.62591],[1.992833,8.507804],[2.12325,8.477983]]]},"properties":{"shapeName":"Bassila","shapeISO":"","shapeID":"17685819B94511677610410","shapeGroup":"BEN","shapeType":"ADM2"}},
{"type":"Feature","geometry":{"type":"Polygon","coordinates":[[[3.103864,10.537814],[2.856433,10.535655000000133],[2.813229,10.581588],[2.701726,10.56373],[2.688233,10.52998],[2.54501,10.52997],[2.523904,10.339704],[2.467533,10.234825],[2.485355,10.150422],[2.460406,10.129389],[2.561621,10.009442],[2.524558,9.977834],[2.683442,9.904134],[2.76405,9.916176],[2.853645,9.9592],[2.851999,10.028901],[2.810866,10.039146],[2.810196,10.123545],[2.910416,10.133564],[3.018545,10.238842],[3.054907,10.302053],[2.984151,10.369523],[3.002841,10.415978],[3.080916,10.438662],[3.103864,10.537814]]]},"properties":{"shapeName":"Bembereke","shapeISO":"","shapeID":"17685819B44038505687321","shapeGroup":"BEN","shapeType":"ADM2"}},
{"type":"Feature","geometry":{"type":"Polygon","coordinates":[[[2.030576,7.15202],[2.057402,7.132403],[2.200436,7.123672],[2.160521,7.197603],[2.107636,7.190483],[2.083585,7.274268],[2.034075,7.218944],[2.030576,7.15202]]]},"properties":{"shapeName":"Bohicon","shapeISO":"","shapeID":"17685819B15106537416311","shapeGroup":"BEN","shapeType":"ADM2"}},
{"type":"Feature","geometry":{"type":"Polygon","coordinates":[[[2.507843,6.9607],[2.41011,6.955179],[2.388246,6.921744],[2.436434,6.824648],[2.418793,6.796692],[2.579742,6.792254],[2.55441,6.864267],[2.505782,6.897148],[2.507843,6.9607]]]},"properties":{"shapeName":"Bonou","shapeISO":"","shapeID":"17685819B32706375807456","shapeGroup":"BEN","shapeType":"ADM2"}},
{"type":"Feature","geometry":{"type":"Polygon","coordinates":[[[2.033108,6.723261],[1.921119,6.778563],[1.902344,6.767061],[1.8249,6.720797],[1.823503,6.665368],[1.940572,6.546951],[1.944128,6.502646],[1.974679,6.487296],[1.986587,6.627088],[2.033108,6.723261]]]},"properties":{"shapeName":"Bopa","shapeISO":"","shapeID":"17685819B20513081200557","shapeGroup":"BEN","shapeType":"ADM2"}},
{"type":"Feature","geometry":{"type":"Polygon","coordinates":[[[0.909686469420295,10.285733628070835],[1.355205059051514,10],[1.379796103098999,10.000300184450131],[1.378666,10.017334],[1.370833,10.064267],[1.292046,10.093091],[1.308621,10.133392],[1.288024,10.173582],[1.198649,10.243775],[1.231899,10.343805],[1.204942,10.405521],[1.201201,10.440081],[1.156855,10.411821],[1.08157,10.435018],[1.007392,10.42378],[0.962906,10.327671],[0.909686469420295,10.285733628070835]]]},"properties":{"shapeName":"Boukombe","shapeISO":"","shapeID":"17685819B99804537894120","shapeGroup":"BEN","shapeType":"ADM2"}},
{"type":"Feature","geometry":{"type":"Polygon","coordinates":[[[1.08157,10.435018],[1.041175,10.537575],[1.023908,10.527867],[0.875639,10.654754],[0.805739661846179,10.643665409059885],[0.774574995040894,10.38476276397705],[0.909686469420295,10.285733628070835],[0.962906,10.327671],[1.007392,10.42378],[1.08157,10.435018]]]},"properties":{"shapeName":"Kobli","shapeISO":"","shapeID":"17685819B4092451643280","shapeGroup":"BEN","shapeType":"ADM2"}},
{"type":"Feature","geometry":{"type":"Polygon","coordinates":[[[1.944128,6.502646],[1.822123,6.440392],[1.832715,6.374841],[1.960806,6.345184],[1.941729,6.403804],[1.974679,6.487296],[1.944128,6.502646]]]},"properties":{"shapeName":"Come","shapeISO":"","shapeID":"17685819B27582361148713","shapeGroup":"BEN","shapeType":"ADM2"}},
{"type":"Feature","geometry":{"type":"Polygon","coordinates":[[[1.355205059051514,10],[1.361991330274577,9.828079399805016],[1.409202,9.821391],[1.462193,9.720508],[1.515698,9.747555],[1.568217,9.70896],[1.584326,9.759521],[1.728224,9.849697],[1.74728,10.036653],[1.655377,9.94034],[1.544036,9.940833],[1.379796103098999,10.000300184450131],[1.355205059051514,10]]]},"properties":{"shapeName":"Copargo","shapeISO":"","shapeID":"17685819B95850649576266","shapeGroup":"BEN","shapeType":"ADM2"}},
{"type":"Feature","geometry":{"type":"Polygon","coordinates":[[[2.357786344137701,6.339252236112033],[2.497966410213512,6.34742609495372],[2.445716,6.397413],[2.36628,6.405761],[2.357786344137701,6.339252236112033]]]},"properties":{"shapeName":"Cotonou","shapeISO":"","shapeID":"17685819B58605420666587","shapeGroup":"BEN","shapeType":"ADM2"}},
{"type":"Feature","geometry":{"type":"Polygon","coordinates":[[[2.272562,7.520128],[2.133904,7.560788],[2.190904,7.518854],[2.23828,7.338733],[2.31316,7.121302],[2.334613,7.083205],[2.370307,7.234919],[2.322353,7.266917],[2.315059,7.410472],[2.272562,7.520128]]]},"properties":{"shapeName":"Cove","shapeISO":"","shapeID":"17685819B69592983793811","shapeGroup":"BEN","shapeType":"ADM2"}},
{"type":"Feature","geometry":{"type":"Polygon","coordinates":[[[2.415396,6.633396],[2.435303,6.548737],[2.500647,6.517225],[2.526521,6.548451],[2.549254,6.525105],[2.575893,6.576078],[2.564182,6.633748],[2.506231,6.615393],[2.415396,6.633396]]]},"properties":{"shapeName":"Dangbo","shapeISO":"","shapeID":"17685819B52071067315918","shapeGroup":"BEN","shapeType":"ADM2"}},
{"type":"Feature","geometry":{"type":"Polygon","coordinates":[[[2.272562,7.520128],[2.40551,7.442769],[2.465976,7.558489],[2.487136,7.685601],[2.452664,7.776234],[2.394938,7.820886],[2.374246,7.914153],[2.297064,7.897251],[2.210542,7.829555],[2.148801,7.937706],[2.118922306060366,7.944868792591225],[2.042729,7.696436],[2.133904,7.560788],[2.272562,7.520128]]]},"properties":{"shapeName":"Dassa-Zoume","shapeISO":"","shapeID":"17685819B57031298313635","shapeGroup":"BEN","shapeType":"ADM2"}},
{"type":"Feature","geometry":{"type":"Polygon","coordinates":[[[1.606693983078003,6.883471965789795],[1.607911109924316,6.781617164611816],[1.758509,6.826482],[1.770023,6.852885],[1.760418,6.955479000000139],[1.731872,6.965533],[1.705196,6.923803],[1.606693983078003,6.883471965789795]]]},"properties":{"shapeName":"Djakotomey","shapeISO":"","shapeID":"17685819B33333613616473","shapeGroup":"BEN","shapeType":"ADM2"}},
{"type":"Feature","geometry":{"type":"Polygon","coordinates":[[[2.034075,7.218944],[2.083585,7.274268],[2.122318,7.334514],[2.23828,7.338733],[2.190904,7.518854],[2.133904,7.560788],[1.986654,7.580361],[1.91475,7.649162],[1.631448984146118,7.661110877990723],[1.675678133964539,7.494696140289307],[1.747145,7.310155],[1.79604,7.275684],[1.831633,7.199296],[1.852506,7.195713],[1.855858,7.144366],[1.901523,7.162711],[1.914035,7.201833],[1.890228,7.242296],[2.034075,7.218944]]]},"properties":{"shapeName":"Djidja","shapeISO":"","shapeID":"17685819B67930032483199","shapeGroup":"BEN","shapeType":"ADM2"}},
{"type":"Feature","geometry":{"type":"Polygon","coordinates":[[[1.921119,6.778563],[1.851033,6.832463],[1.770023,6.852885],[1.758509,6.826482],[1.607911109924316,6.781617164611816],[1.626101970672607,6.760241985321045],[1.591549726915629,6.712905140499474],[1.902344,6.767061],[1.921119,6.778563]]]},"properties":{"shapeName":"Dogbo","shapeISO":"","shapeID":"17685819B88590181370069","shapeGroup":"BEN","shapeType":"ADM2"}},
{"type":"Feature","geometry":{"type":"Polygon","coordinates":[[[2.118946,8.126477],[2.118922306060366,7.944868792591225],[2.148801,7.937706],[2.210542,7.829555],[2.297064,7.897251],[2.374246,7.914153],[2.372596,8.056465],[2.33824,8.115786],[2.366908,8.141964],[2.330384,8.249383],[2.336221,8.438314],[2.222868,8.509906],[2.156275,8.509423],[2.12325,8.477983],[2.087748,8.247864],[2.118946,8.126477]]]},"properties":{"shapeName":"Glazoue","shapeISO":"","shapeID":"17685819B86631365550325","shapeGroup":"BEN","shapeType":"ADM2"}},
{"type":"Feature","geometry":{"type":"Polygon","coordinates":[[[2.335594,10.949238],[2.240686,10.861961],[2.240351,10.544471],[2.241478,10.52849300000014],[2.418456,10.531707],[2.417919,10.564745],[2.54501,10.52997],[2.688233,10.52998],[2.701726,10.56373],[2.813229,10.581588],[2.856433,10.535655000000133],[3.103864,10.537814],[3.106329348600184,10.537865186854713],[3.217357000000106,10.686804],[3.16987,10.831267],[3.193621,10.90465],[2.993565,10.954448],[2.993226,10.992697],[2.855925,10.989778],[2.819792,10.936477],[2.727083,10.909275],[2.617016,11.108703],[2.636729,11.183686],[2.630932,11.161747],[2.555672,11.146342],[2.532781,11.040083],[2.506555,11.0604],[2.467498,11.020286000000112],[2.407849,11.021451],[2.335594,10.949238]]]},"properties":{"shapeName":"Gogounou","shapeISO":"","shapeID":"17685819B47850119626851","shapeGroup":"BEN","shapeType":"ADM2"}},
{"type":"Feature","geometry":{"type":"Polygon","coordinates":[[[1.753024924788337,6.450053165575804],[1.806692957878113,6.284240245819092],[1.627816081047058,6.225748062133789],[1.961919503119766,6.286007530487401],[1.979457,6.317407],[1.960806,6.345184],[1.832715,6.374841],[1.822123,6.440392],[1.816659,6.476559],[1.781095,6.477171],[1.753024924788337,6.450053165575804]]]},"properties":{"shapeName":"Grand-Popo","shapeISO":"","shapeID":"17685819B53348586225757","shapeGroup":"BEN","shapeType":"ADM2"}},
{"type":"Feature","geometry":{"type":"Polygon","coordinates":[[[1.781095,6.477171],[1.816659,6.476559],[1.822123,6.440392],[1.944128,6.502646],[1.940572,6.546951],[1.823503,6.665368],[1.777304,6.612046],[1.760661,6.550727],[1.781095,6.477171]]]},"properties":{"shapeName":"Houeyogbe","shapeISO":"","shapeID":"17685819B14284481019860","shapeGroup":"BEN","shapeType":"ADM2"}},
{"type":"Feature","geometry":{"type":"Polygon","coordinates":[[[2.720288991928101,6.507771015167236],[2.753123044967651,6.570466995239258],[2.731427907943726,6.63078498840332],[2.786590099334717,6.694789886474609],[2.77871298789978,6.759200096130371],[2.663735,6.694527],[2.655891,6.616387],[2.699121,6.514307],[2.720288991928101,6.507771015167236]]]},"properties":{"shapeName":"Ifangni","shapeISO":"","shapeID":"17685819B36498320143439","shapeGroup":"BEN","shapeType":"ADM2"}},
{"type":"Feature","geometry":{"type":"Polygon","coordinates":[[[3.018545,10.238842],[3.055936,10.077999],[3.251497,10.123314],[3.335336,10.106723],[3.377482,10.15845],[3.616920688306142,10.07778357886023],[3.662934064865112,10.107061386108398],[3.678951025009155,10.169748306274414],[3.584625005722046,10.275145530700684],[3.631808996200562,10.417265892028809],[3.687709093093872,10.456360816955566],[3.786001920700073,10.405383110046387],[3.849127138511173,10.64775302457825],[3.106329348600184,10.537865186854713],[3.103864,10.537814],[3.080916,10.438662],[3.002841,10.415978],[2.984151,10.369523],[3.054907,10.302053],[3.018545,10.238842]]]},"properties":{"shapeName":"Kalale","shapeISO":"","shapeID":"17685819B22505126398074","shapeGroup":"BEN","shapeType":"ADM2"}},
{"type":"Feature","geometry":{"type":"Polygon","coordinates":[[[2.636729,11.183686],[2.617016,11.108703],[2.727083,10.909275],[2.819792,10.936477],[2.855925,10.989778],[2.993226,10.992697],[2.993565,10.954448],[3.193621,10.90465],[3.232542,10.919809],[3.247092,10.975159],[3.213638,11.101933],[3.265625,11.196306],[3.258462,11.298821],[3.114317,11.478893],[2.91508,11.652633],[2.855869,11.616487],[2.867222,11.526331],[2.839563,11.495802],[2.875971,11.462193],[2.841846,11.430594],[2.905221,11.313796],[2.808878,11.297099],[2.807867,11.259013],[2.75038,11.288174],[2.672208,11.276458],[2.636729,11.183686]]]},"properties":{"shapeName":"Kandi","shapeISO":"","shapeID":"17685819B31910055772004","shapeGroup":"BEN","shapeType":"ADM2"}},
{"type":"Feature","geometry":{"type":"Polygon","coordinates":[[[2.019248962402344,11.427713394165039],[1.952972909165171,11.42156408136814],[1.889228,11.345429],[1.870549,11.271795],[1.828967,11.245248],[1.828867,11.201861],[1.75669,11.174568],[1.743748,11.035984],[1.659012,10.902211],[1.750416,10.838106],[1.808097,10.870165],[1.937574,10.775551],[1.974281,10.792504],[1.9226,10.615832],[1.866186,10.602982],[1.835014,10.536411],[1.866808,10.500543],[1.96767,10.548329],[2.008932,10.525156],[2.083983,10.510062],[2.240351,10.544471],[2.240686,10.861961],[2.335594,10.949238],[2.203256,11.010392],[2.019248962402344,11.427713394165039]]]},"properties":{"shapeName":"Kerou","shapeISO":"","shapeID":"17685819B98321853839803","shapeGroup":"BEN","shapeType":"ADM2"}},
{"type":"Feature","geometry":{"type":"Polygon","coordinates":[[[2.601075,7.183797],[2.645735,7.207209],[2.780088951857064,7.201803134127414],[2.749460220336914,7.261152744293213],[2.747578144073486,7.417438983917236],[2.799187898635864,7.426483154296875],[2.798191070556641,7.482554912567139],[2.730280876159668,7.580173969268799],[2.729452693238327,7.68975693601551],[2.487136,7.685601],[2.465976,7.558489],[2.40551,7.442769],[2.439755,7.31399],[2.537419,7.187003],[2.601075,7.183797]]]},"properties":{"shapeName":"Ketou","shapeISO":"","shapeID":"17685819B61468565661274","shapeGroup":"BEN","shapeType":"ADM2"}},
{"type":"Feature","geometry":{"type":"Polygon","coordinates":[[[1.855858,7.144366],[1.852506,7.195713],[1.831633,7.199296],[1.745448,7.070593],[1.731872,6.965533],[1.760418,6.955479000000139],[1.865193,6.935852],[1.914251,6.96217],[1.933471,7.028423],[1.855858,7.144366]]]},"properties":{"shapeName":"Klouekanme","shapeISO":"","shapeID":"17685819B74075406499118","shapeGroup":"BEN","shapeType":"ADM2"}},
{"type":"Feature","geometry":{"type":"Polygon","coordinates":[[[1.379796103098999,10.000300184450131],[1.544036,9.940833],[1.655377,9.94034],[1.74728,10.036653],[1.769385,10.039431],[1.813154,10.100922],[1.856626,10.331155],[1.922355,10.460222],[2.008932,10.525156],[1.96767,10.548329],[1.866808,10.500543],[1.835014,10.536411],[1.866186,10.602982],[1.9226,10.615832],[1.974281,10.792504],[1.937574,10.775551],[1.808097,10.870165],[1.750416,10.838106],[1.659012,10.902211],[1.561425,10.822679],[1.578669,10.792603],[1.55387,10.736636],[1.637681,10.674107],[1.620319,10.583038],[1.649186,10.480613],[1.641954,10.444294],[1.608909,10.441286],[1.627809,10.399411],[1.573941,10.355022],[1.548335,10.287588],[1.543251,10.169112],[1.57572,10.13049],[1.555306,10.085786],[1.472062,10.027117],[1.42436,10.040963],[1.378666,10.017334],[1.379796103098999,10.000300184450131]]]},"properties":{"shapeName":"Kouande","shapeISO":"","shapeID":"17685819B73911627176990","shapeGroup":"BEN","shapeType":"ADM2"}},
{"type":"Feature","geometry":{"type":"Polygon","coordinates":[[[1.986587,6.627088],[1.974679,6.487296],[1.941729,6.403804],[1.960806,6.345184],[2.05739,6.351882],[2.081085,6.483493],[2.01763,6.586148],[1.986587,6.627088]]]},"properties":{"shapeName":"Kpomasse","shapeISO":"","shapeID":"17685819B13654727190048","shapeGroup":"BEN","shapeType":"ADM2"}},
{"type":"Feature","geometry":{"type":"Polygon","coordinates":[[[1.933471,7.028423],[1.914251,6.96217],[1.865193,6.935852],[1.851033,6.832463],[1.921119,6.778563],[2.033108,6.723261],[2.033642,6.732244],[2.068685,6.867433],[2.099669,6.893425],[2.084309,6.931667],[1.99022,6.924367],[1.967306,6.997556],[1.933471,7.028423]]]},"properties":{"shapeName":"Lalo","shapeISO":"","shapeID":"17685819B4559503573339","shapeGroup":"BEN","shapeType":"ADM2"}},
{"type":"Feature","geometry":{"type":"Polygon","coordinates":[[[1.777304,6.612046],[1.823503,6.665368],[1.8249,6.720797],[1.902344,6.767061],[1.591549726915629,6.712905140499474],[1.573919892311096,6.688241958618164],[1.602836966514587,6.666285037994385],[1.661921,6.671341],[1.686591,6.625535],[1.777304,6.612046]]]},"properties":{"shapeName":"Lokossa","shapeISO":"","shapeID":"17685819B68764251362376","shapeGroup":"BEN","shapeType":"ADM2"}},
{"type":"Feature","geometry":{"type":"Polygon","coordinates":[[[2.524558,9.977834],[2.406815,9.985885],[2.386977,9.924418],[2.294543,9.96471],[2.124624,9.982505],[2.082204,9.956027],[2.091639,9.895584],[2.051305,9.849095],[2.076697,9.758562],[2.119274,9.705503],[2.171639,9.706231],[2.15974,9.685915],[2.198959,9.667576],[2.191323,9.639738],[2.224213,9.632686],[2.293952,9.53026],[2.556402,9.448699],[2.619618,9.434264],[2.676016,9.38004],[2.751103,9.424613],[2.809421,9.532488],[2.761116,9.668698],[2.771468,9.780486],[2.793513,9.873285],[2.76405,9.916176],[2.683442,9.904134],[2.524558,9.977834]]]},"properties":{"shapeName":"N'dali","shapeISO":"","shapeID":"17685819B79860756135863","shapeGroup":"BEN","shapeType":"ADM2"}},
{"type":"Feature","geometry":{"type":"Polygon","coordinates":[[[1.378666,10.017334],[1.42436,10.040963],[1.472062,10.027117],[1.555306,10.085786],[1.57572,10.13049],[1.543251,10.169112],[1.548335,10.287588],[1.573941,10.355022],[1.627809,10.399411],[1.608909,10.441286],[1.511148,10.425293],[1.480378,10.357044],[1.447118,10.363459],[1.424811,10.423378],[1.355811,10.393601],[1.204942,10.405521],[1.231899,10.343805],[1.198649,10.243775],[1.288024,10.173582],[1.308621,10.133392],[1.292046,10.093091],[1.370833,10.064267],[1.378666,10.017334]]]},"properties":{"shapeName":"Natitingou","shapeISO":"","shapeID":"17685819B66349454131554","shapeGroup":"BEN","shapeType":"ADM2"}},
{"type":"Feature","geometry":{"type":"Polygon","coordinates":[[[2.76405,9.916176],[2.793513,9.873285],[2.771468,9.780486],[2.971198,9.843272],[3.107196,9.786941],[3.126769,9.701366],[3.256057977676392,9.639735221862793],[3.348598003387451,9.685225486755371],[3.32334303855896,9.776753425598145],[3.346855163574219,9.817594528198242],[3.529645919799805,9.862081527709961],[3.56267786026001,9.895522117614746],[3.602311134338379,9.957433700561523],[3.616920688306142,10.07778357886023],[3.377482,10.15845],[3.335336,10.106723],[3.251497,10.123314],[3.055936,10.077999],[3.018545,10.238842],[2.910416,10.133564],[2.810196,10.123545],[2.810866,10.039146],[2.851999,10.028901],[2.853645,9.9592],[2.76405,9.916176]]]},"properties":{"shapeName":"Nikki","shapeISO":"","shapeID":"17685819B92421826245631","shapeGroup":"BEN","shapeType":"ADM2"}},
{"type":"Feature","geometry":{"type":"Polygon","coordinates":[[[1.539355,9.459481],[1.536064,9.531102],[1.576267,9.575831],[1.491797,9.633897],[1.462193,9.720508],[1.409202,9.821391],[1.361991330274577,9.828079399805016],[1.366062998771667,9.611394882202148],[1.341588973999023,9.546259880065918],[1.361088991165161,9.486377716064453],[1.390208005905151,9.49730396270752],[1.401589274233234,9.413521146069202],[1.440695,9.388011],[1.539355,9.459481]]]},"properties":{"shapeName":"Ouake","shapeISO":"","shapeID":"17685819B25851007312804","shapeGroup":"BEN","shapeType":"ADM2"}},
{"type":"Feature","geometry":{"type":"Polygon","coordinates":[[[2.222868,8.509906],[2.336221,8.438314],[2.330384,8.249383],[2.366908,8.141964],[2.412795,8.12784],[2.497499,8.157587],[2.498671,8.300981],[2.695631980895996,8.324169158935547],[2.706947088241577,8.420316696166992],[2.761837244033813,8.505328178405762],[2.728413105010986,8.772683143615723],[2.185246,8.764182],[2.224417,8.64648],[2.222868,8.509906]]]},"properties":{"shapeName":"Ouesse","shapeISO":"","shapeID":"17685819B6698534807541","shapeGroup":"BEN","shapeType":"ADM2"}},
{"type":"Feature","geometry":{"type":"Polygon","coordinates":[[[2.218737,6.455844],[2.178339,6.435807],[2.154656,6.468912],[2.081085,6.483493],[2.05739,6.351882],[1.960806,6.345184],[1.979457,6.317407],[1.961919503119766,6.286007530487401],[2.272222024159987,6.331820833594598],[2.208797,6.404403],[2.218737,6.455844]]]},"properties":{"shapeName":"Ouidah","shapeISO":"","shapeID":"17685819B59667857223414","shapeGroup":"BEN","shapeType":"ADM2"}},
{"type":"Feature","geometry":{"type":"Polygon","coordinates":[[[2.518208,7.170673],[2.456508,7.199135],[2.427151,7.186453],[2.408771,7.098059],[2.433138,7.061164],[2.409142,7.055173],[2.403883,6.996909],[2.400968,6.975783],[2.41011,6.955179],[2.507843,6.9607],[2.554102,6.998912],[2.518208,7.170673]]]},"properties":{"shapeName":"Ouinhi","shapeISO":"","shapeID":"17685819B27727011440945","shapeGroup":"BEN","shapeType":"ADM2"}},
{"type":"Feature","geometry":{"type":"Polygon","coordinates":[[[2.556402,9.448699],[2.467365,9.386707],[2.463646,9.347039],[2.575136,9.248922],[2.683135,9.282248],[2.735051,9.271364],[2.751103,9.424613],[2.676016,9.38004],[2.619618,9.434264],[2.556402,9.448699]]]},"properties":{"shapeName":"Parakou","shapeISO":"","shapeID":"17685819B32176770628240","shapeGroup":"BEN","shapeType":"ADM2"}},
{"type":"Feature","geometry":{"type":"Polygon","coordinates":[[[2.240351,10.544471],[2.083983,10.510062],[2.008932,10.525156],[1.922355,10.460222],[1.856626,10.331155],[1.813154,10.100922],[1.769385,10.039431],[2.069565,10.034946],[2.108986,10.070055],[2.235698,10.094665],[2.262191,10.15081],[2.234329,10.278577],[2.154877,10.381038],[2.161618,10.435817],[2.241478,10.52849300000014],[2.240351,10.544471]]]},"properties":{"shapeName":"Pehunco","shapeISO":"","shapeID":"17685819B12843899137908","shapeGroup":"BEN","shapeType":"ADM2"}},
{"type":"Feature","geometry":{"type":"Polygon","coordinates":[[[2.809421,9.532488],[2.858618,9.390987],[2.903422,9.379723],[2.911772,9.351187],[3.151516130381923,9.339490320580488],[3.136214971542358,9.462843894958496],[3.194885969161987,9.515108108520508],[3.256057977676392,9.639735221862793],[3.126769,9.701366],[3.107196,9.786941],[2.971198,9.843272],[2.771468,9.780486],[2.761116,9.668698],[2.809421,9.532488]]]},"properties":{"shapeName":"Perere","shapeISO":"","shapeID":"17685819B73457125885179","shapeGroup":"BEN","shapeType":"ADM2"}},
{"type":"Feature","geometry":{"type":"Polygon","coordinates":[[[2.718897306232465,6.953331844612154],[2.729186058044434,6.998007297515869],[2.792603015899658,7.041275978088379],[2.745093107223511,7.092677116394043],[2.775346040725708,7.128221035003662],[2.780088951857064,7.201803134127414],[2.645735,7.207209],[2.601075,7.183797],[2.631217,7.172252],[2.593863,7.083486],[2.654091,6.957736],[2.718897306232465,6.953331844612154]]]},"properties":{"shapeName":"Pobe","shapeISO":"","shapeID":"17685819B21167128046214","shapeGroup":"BEN","shapeType":"ADM2"}},
{"type":"Feature","geometry":{"type":"Polygon","coordinates":[[[2.630087,6.511791],[2.61014,6.527752],[2.580482,6.496084],[2.590838,6.450209],[2.658622,6.4436],[2.630087,6.511791]]]},"properties":{"shapeName":"Porto-Novo","shapeISO":"","shapeID":"17685819B68474195135253","shapeGroup":"BEN","shapeType":"ADM2"}},
{"type":"Feature","geometry":{"type":"Polygon","coordinates":[[[2.55441,6.864267],[2.579742,6.792254],[2.57276,6.642901],[2.628781,6.625261],[2.655891,6.616387],[2.663735,6.694527],[2.77871298789978,6.759200096130371],[2.729321956634521,6.790153980255127],[2.747872829437256,6.928290843963623],[2.66244,6.852469],[2.55441,6.864267]]]},"properties":{"shapeName":"Sakete","shapeISO":"","shapeID":"17685819B6397671477640","shapeGroup":"BEN","shapeType":"ADM2"}},
{"type":"Feature","geometry":{"type":"Polygon","coordinates":[[[1.63389051422502,8.208286618180564],[1.631448984146118,7.661110877990723],[1.91475,7.649162],[1.986654,7.580361],[2.133904,7.560788],[2.042729,7.696436],[2.118922306060366,7.944868792591225],[2.118946,8.126477],[2.02602,8.072404],[1.814834,8.071205],[1.792539,8.12317],[1.63389051422502,8.208286618180564]]]},"properties":{"shapeName":"Savalou","shapeISO":"","shapeID":"17685819B6734193751411","shapeGroup":"BEN","shapeType":"ADM2"}},
{"type":"Feature","geometry":{"type":"Polygon","coordinates":[[[2.487136,7.685601],[2.729452693238327,7.68975693601551],[2.729464054107666,7.792222023010254],[2.668431997299194,7.88978099822998],[2.754101991653442,8.211312294006348],[2.695631980895996,8.324169158935547],[2.498671,8.300981],[2.497499,8.157587],[2.412795,8.12784],[2.366908,8.141964],[2.33824,8.115786],[2.372596,8.056465],[2.374246,7.914153],[2.394938,7.820886],[2.452664,7.776234],[2.487136,7.685601]]]},"properties":{"shapeName":"Save","shapeISO":"","shapeID":"17685819B5479142895221","shapeGroup":"BEN","shapeType":"ADM2"}},
{"type":"Feature","geometry":{"type":"Polygon","coordinates":[[[3.106329348600184,10.537865186854713],[3.849127138511173,10.64775302457825],[3.840978860855216,10.70492172241211],[3.749383926391658,10.825559616088924],[3.771224021911621,10.930769920349064],[3.751768112182674,11.01063442230236],[3.716902017593441,11.024342536926383],[3.72591423988348,11.12409496307373],[3.691926956176758,11.128138542175293],[3.502343957811125,11.403269026908532],[3.387071,11.393219],[3.348041,11.338505],[3.299632,11.34365],[3.258462,11.298821],[3.265625,11.196306],[3.213638,11.101933],[3.247092,10.975159],[3.232542,10.919809],[3.193621,10.90465],[3.16987,10.831267],[3.217357000000106,10.686804],[3.106329348600184,10.537865186854713]]]},"properties":{"shapeName":"Segbana","shapeISO":"","shapeID":"17685819B25902777071239","shapeGroup":"BEN","shapeType":"ADM2"}},
{"type":"Feature","geometry":{"type":"Polygon","coordinates":[[[2.658622,6.4436],[2.590838,6.450209],[2.445716,6.397413],[2.497966410213512,6.34742609495372],[2.709604024887085,6.368820190429688],[2.706281185150146,6.425604820251465],[2.658622,6.4436]]]},"properties":{"shapeName":"Seme-Kpodji","shapeISO":"","shapeID":"17685819B13440574347317","shapeGroup":"BEN","shapeType":"ADM2"}},
{"type":"Feature","geometry":{"type":"Polygon","coordinates":[[[2.54501,10.52997],[2.417919,10.564745],[2.418456,10.531707],[2.241478,10.52849300000014],[2.161618,10.435817],[2.154877,10.381038],[2.234329,10.278577],[2.262191,10.15081],[2.235698,10.094665],[2.108986,10.070055],[2.069565,10.034946],[2.082204,9.956027],[2.124624,9.982505],[2.294543,9.96471],[2.386977,9.924418],[2.406815,9.985885],[2.524558,9.977834],[2.561621,10.009442],[2.460406,10.129389],[2.485355,10.150422],[2.467533,10.234825],[2.523904,10.339704],[2.54501,10.52997]]]},"properties":{"shapeName":"Sinende","shapeISO":"","shapeID":"17685819B44866040554021","shapeGroup":"BEN","shapeType":"ADM2"}},
{"type":"Feature","geometry":{"type":"Polygon","coordinates":[[[2.36628,6.405761],[2.445716,6.397413],[2.500647,6.517225],[2.435303,6.548737],[2.415396,6.633396],[2.36628,6.405761]]]},"properties":{"shapeName":"So-Ava","shapeISO":"","shapeID":"17685819B57130091553848","shapeGroup":"BEN","shapeType":"ADM2"}},
{"type":"Feature","geometry":{"type":"Polygon","coordinates":[[[2.185246,8.764182],[2.728413105010986,8.772683143615723],[2.763381004333496,8.809782981872559],[2.780915021896362,9.065206527709961],[3.083539009094238,9.09791088104248],[3.157170057296753,9.282456398010254],[3.151516130381923,9.339490320580488],[2.911772,9.351187],[2.903422,9.379723],[2.858618,9.390987],[2.809421,9.532488],[2.751103,9.424613],[2.735051,9.271364],[2.683135,9.282248],[2.575136,9.248922],[2.463646,9.347039],[2.467365,9.386707],[2.556402,9.448699],[2.293952,9.53026],[2.224213,9.632686],[2.191323,9.639738],[2.198959,9.667576],[2.15974,9.685915],[2.101994,9.370294],[1.972545,9.353319],[1.980136,9.132999],[2.072207,9.07404],[2.182869,9.07293],[2.225377,9.039846],[2.22436,8.987936],[2.186981,8.950889],[2.208338,8.891872],[2.238555,8.889412],[2.185246,8.764182]]]},"properties":{"shapeName":"Tchaourou","shapeISO":"","shapeID":"17685819B56321809459452","shapeGroup":"BEN","shapeType":"ADM2"}},
{"type":"Feature","geometry":{"type":"Polygon","coordinates":[[[2.227695,6.777963],[2.318441,6.864234],[2.295591,6.899137],[2.342636,6.907734],[2.336459,6.930087],[2.31801,6.962988],[2.253183,6.936658],[2.084309,6.931667],[2.099669,6.893425],[2.068685,6.867433],[2.033642,6.732244],[2.104659,6.740393],[2.157108,6.782685],[2.227695,6.777963]]]},"properties":{"shapeName":"Toffo","shapeISO":"","shapeID":"17685819B42315243749993","shapeGroup":"BEN","shapeType":"ADM2"}},
{"type":"Feature","geometry":{"type":"Polygon","coordinates":[[[2.253124,6.549684],[2.191622,6.621503],[2.01763,6.586148],[2.081085,6.483493],[2.154656,6.468912],[2.178339,6.435807],[2.218737,6.455844],[2.253124,6.549684]]]},"properties":{"shapeName":"Tori-Bossito","shapeISO":"","shapeID":"17685819B70132266072899","shapeGroup":"BEN","shapeType":"ADM2"}},
{"type":"Feature","geometry":{"type":"Polygon","coordinates":[[[1.204942,10.405521],[1.355811,10.393601],[1.424811,10.423378],[1.447118,10.363459],[1.480378,10.357044],[1.511148,10.425293],[1.608909,10.441286],[1.641954,10.444294],[1.649186,10.480613],[1.620319,10.583038],[1.637681,10.674107],[1.55387,10.736636],[1.201201,10.440081],[1.204942,10.405521]]]},"properties":{"shapeName":"Toucountouna","shapeISO":"","shapeID":"17685819B76954688832254","shapeGroup":"BEN","shapeType":"ADM2"}},
{"type":"Feature","geometry":{"type":"Polygon","coordinates":[[[1.770023,6.852885],[1.851033,6.832463],[1.865193,6.935852],[1.760418,6.955479000000139],[1.770023,6.852885]]]},"properties":{"shapeName":"Toviklin","shapeISO":"","shapeID":"17685819B54561297103056","shapeGroup":"BEN","shapeType":"ADM2"}},
{"type":"Feature","geometry":{"type":"Polygon","coordinates":[[[2.537419,7.187003],[2.439755,7.31399],[2.40551,7.442769],[2.272562,7.520128],[2.315059,7.410472],[2.322353,7.266917],[2.370307,7.234919],[2.334613,7.083205],[2.403883,6.996909],[2.409142,7.055173],[2.433138,7.061164],[2.408771,7.098059],[2.427151,7.186453],[2.456508,7.199135],[2.518208,7.170673],[2.537419,7.187003]]]},"properties":{"shapeName":"Zagnanado","shapeISO":"","shapeID":"17685819B16235974739823","shapeGroup":"BEN","shapeType":"ADM2"}},
{"type":"Feature","geometry":{"type":"Polygon","coordinates":[[[2.200436,7.123672],[2.31316,7.121302],[2.23828,7.338733],[2.122318,7.334514],[2.083585,7.274268],[2.107636,7.190483],[2.160521,7.197603],[2.200436,7.123672]]]},"properties":{"shapeName":"Za-Kpota","shapeISO":"","shapeID":"17685819B78854505931864","shapeGroup":"BEN","shapeType":"ADM2"}},
{"type":"Feature","geometry":{"type":"Polygon","coordinates":[[[2.410883,6.685469],[2.436299,6.746507],[2.418793,6.796692],[2.436434,6.824648],[2.388246,6.921744],[2.41011,6.955179],[2.400968,6.975783],[2.336459,6.930087],[2.342636,6.907734],[2.295591,6.899137],[2.318441,6.864234],[2.227695,6.777963],[2.20749,6.733027],[2.247434,6.627769],[2.191622,6.621503],[2.253124,6.549684],[2.312972,6.588668],[2.341054,6.693938],[2.410883,6.685469]]]},"properties":{"shapeName":"Ze","shapeISO":"","shapeID":"17685819B72435311571007","shapeGroup":"BEN","shapeType":"ADM2"}},
{"type":"Feature","geometry":{"type":"Polygon","coordinates":[[[1.967306,6.997556],[1.99022,6.924367],[2.084309,6.931667],[2.253183,6.936658],[2.31801,6.962988],[2.336459,6.930087],[2.400968,6.975783],[2.403883,6.996909],[2.334613,7.083205],[2.31316,7.121302],[2.200436,7.123672],[2.057402,7.132403],[2.014065,7.029794],[1.967306,6.997556]]]},"properties":{"shapeName":"Zogbodomey","shapeISO":"","shapeID":"17685819B53288119636086","shapeGroup":"BEN","shapeType":"ADM2"}},
{"type":"Feature","geometry":{"type":"Polygon","coordinates":[[[1.972545,9.353319],[2.101994,9.370294],[2.15974,9.685915],[2.171639,9.706231],[2.119274,9.705503],[2.076697,9.758562],[2.051305,9.849095],[2.091639,9.895584],[2.082204,9.956027],[2.069565,10.034946],[1.769385,10.039431],[1.74728,10.036653],[1.728224,9.849697],[1.584326,9.759521],[1.568217,9.70896],[1.515698,9.747555],[1.462193,9.720508],[1.491797,9.633897],[1.576267,9.575831],[1.536064,9.531102],[1.539355,9.459481],[1.591668,9.398113],[1.660518,9.390341],[1.773716,9.438212],[1.818544,9.370331],[1.886954,9.396246],[1.972545,9.353319]]]},"properties":{"shapeName":"Djougou","shapeISO":"","shapeID":"17685819B31222842827733","shapeGroup":"BEN","shapeType":"ADM2"}},
{"type":"Feature","geometry":{"type":"Polygon","coordinates":[[[1.201201,10.440081],[1.55387,10.736636],[1.578669,10.792603],[1.561425,10.822679],[1.659012,10.902211],[1.743748,11.035984],[1.75669,11.174568],[1.828867,11.201861],[1.828967,11.245248],[1.870549,11.271795],[1.889228,11.345429],[1.952972909165171,11.42156408136814],[1.841669917106628,11.44438362121582],[1.620471000671387,11.390403747558594],[1.554365992546082,11.471488952636719],[1.531787991523743,11.447311401367188],[1.434505105018616,11.472213745117188],[1.384436964988708,11.442225456237793],[1.388262987136841,11.39946174621582],[1.32004702091217,11.36275577545166],[1.325121998786926,11.289875984191895],[1.259089112281799,11.320992469787598],[1.27625298500061,11.264238357543945],[1.252071022987366,11.24532413482666],[1.129247069358826,11.256487846374512],[1.160053014755249,11.1643705368042],[1.118335962295532,11.171607971191406],[1.050938129425049,11.127711296081543],[1.086619019508362,11.113338470458984],[1.110175967216492,11.030404090881348],[1.107572,10.927543],[1.224522,10.840497],[1.263756,10.757166],[1.233802,10.694797],[1.178246,10.679732],[1.162554,10.600248],[1.123189,10.602104],[1.041175,10.537575],[1.08157,10.435018],[1.156855,10.411821],[1.201201,10.440081]]]},"properties":{"shapeName":"Tanguieta","shapeISO":"","shapeID":"17685819B98348434447391","shapeGroup":"BEN","shapeType":"ADM2"}},
{"type":"Feature","geometry":{"type":"Polygon","coordinates":[[[1.041175,10.537575],[1.123189,10.602104],[1.162554,10.600248],[1.178246,10.679732],[1.233802,10.694797],[1.263756,10.757166],[1.224522,10.840497],[1.107572,10.927543],[1.110175967216492,11.030404090881348],[0.971924066543579,11.082148551940918],[0.912155032157898,10.996489524841309],[0.873821079730988,10.80495834350586],[0.801826059818268,10.718287467956543],[0.805739661846179,10.643665409059885],[0.875639,10.654754],[1.023908,10.527867],[1.041175,10.537575]]]},"properties":{"shapeName":"Materi","shapeISO":"","shapeID":"17685819B2600041724770","shapeGroup":"BEN","shapeType":"ADM2"}},
{"type":"Feature","geometry":{"type":"Polygon","coordinates":[[[2.841846,11.430594],[2.875971,11.462193],[2.839563,11.495802],[2.867222,11.526331],[2.855869,11.616487],[2.91508,11.652633],[2.992685,11.763544],[3.025772,11.959156],[3.072896,11.98618],[3.124435,11.941014],[3.21478,11.909143],[3.231828,11.924993],[3.242136,11.898775],[3.303606444557709,11.916664453151016],[3.25945000000138,11.9900000000016],[3.270280000000639,12.014720000001034],[2.826670000002196,12.408610000002227],[2.839070000001811,12.395800000002055],[2.793880000001081,12.39017000000058],[2.762860000000728,12.35193000000072],[2.723140000001877,12.35222000000067],[2.695170000000871,12.282450000000608],[2.663430000002336,12.306070000002364],[2.546450000001641,12.274060000001555],[2.522360000000845,12.295130000002246],[2.504760000001625,12.26629000000139],[2.374000000001615,12.241120000000592],[2.391480000002048,12.111770000001343],[2.465320000001157,11.979880000000776],[2.391770000001998,11.930770000000848],[2.402608156204224,11.870588302612305],[2.372374057769775,11.793143272399902],[2.303668975830078,11.73529052734375],[2.309592962265015,11.680806159973145],[2.341255,11.657435],[2.383746,11.683756],[2.509399,11.673471],[2.574343,11.610538],[2.628751,11.628964],[2.638853,11.512562],[2.772599,11.415635],[2.841846,11.430594]]]},"properties":{"shapeName":"Karimama","shapeISO":"","shapeID":"17685819B85973060374162","shapeGroup":"BEN","shapeType":"ADM2"}},
{"type":"Feature","geometry":{"type":"Polygon","coordinates":[[[3.258462,11.298821],[3.299632,11.34365],[3.348041,11.338505],[3.387071,11.393219],[3.502343957811125,11.403269026908532],[3.4711264324365,11.448573157355547],[3.605073928833008,11.696974754333496],[3.556390000001556,11.724170000001322],[3.564720000002126,11.772500000000946],[3.522780000001148,11.787780000000566],[3.481390000000829,11.861390000001848],[3.321390000000974,11.881670000000668],[3.303606444557709,11.916664453151016],[3.242136,11.898775],[3.231828,11.924993],[3.21478,11.909143],[3.124435,11.941014],[3.072896,11.98618],[3.025772,11.959156],[2.992685,11.763544],[2.91508,11.652633],[3.114317,11.478893],[3.258462,11.298821]]]},"properties":{"shapeName":"Malanville","shapeISO":"","shapeID":"17685819B18003775101914","shapeGroup":"BEN","shapeType":"ADM2"}}
]}