{"type":"FeatureCollection", "features": [
{"type":"Feature","geometry":{"type":"Polygon","coordinates":[[[18.61044149371702,44.054169271665046],[18.770952790113483,44.12198926394052],[18.80626072464122,44.19554115893288],[18.707714266923745,44.14958325493808],[18.657443061404138,44.18432225331412],[18.622339891490697,44.17445441706684],[18.543770817578547,44.21949211509184],[18.54043249562477,44.294930805109516],[18.403771196766968,44.354974826452235],[18.4441154650346,44.36878666472546],[18.387181156812176,44.41812538894101],[18.324376006966588,44.43009453454988],[18.331316737601412,44.46622889290353],[18.293904504843965,44.51320635476645],[18.3128645502498,44.52913869477891],[18.2999287104455,44.5779776619367],[18.222296476966676,44.5975257842984],[18.106843342853267,44.56991527871463],[18.10887477686714,44.609578659505985],[18.068923252041543,44.65796263778566],[18.07780738808043,44.68985923439055],[17.945175098849006,44.714573758490474],[17.894071851255376,44.64192073163059],[17.976598834935828,44.51568852553743],[17.96443139516083,44.4855029845221],[17.936128871698543,44.45416896855727],[17.804138600315582,44.420173314453734],[17.73732246664008,44.381930972820214],[17.8146555007404,44.32930801809687],[17.832938401474905,44.28775726252769],[17.808141371050908,44.20436363772785],[17.898391187398374,44.15315913022306],[17.92449321031728,44.10517772947571],[17.961934424522383,44.082967312646815],[18.000700946622374,44.08795285941869],[17.97598517240897,44.060101375206784],[18.110418666430178,43.965210808859524],[18.09448545664486,43.946492373101876],[18.173940905912332,43.9020623370447],[18.24826668649075,43.90046859306983],[18.224295507849888,43.971897377388075],[18.325561009692194,43.9706205081946],[18.33978104329742,44.007524896878806],[18.381086856567265,44.00484614336659],[18.377330820701275,44.0551819157572],[18.414891178462597,44.06791692483023],[18.42732312807118,44.04491588553765],[18.446367816336533,44.092238878071726],[18.49698690522962,44.102765966345714],[18.548002970426467,44.061804462061446],[18.585245916567033,44.071900328864274],[18.61044149371702,44.054169271665046]]]},"properties":{"shapeName":"Zenica-Doboj Canton","shapeISO":"","shapeID":"40542155B47418273206970","shapeGroup":"BIH","shapeType":"ADM2"}},
{"type":"Feature","geometry":{"type":"Polygon","coordinates":[[[19.005874524067053,44.852420851760996],[18.900001715107237,44.843697305086664],[18.837841968332157,44.8611364473893],[18.759102761883014,44.921236601887756],[18.760626336636278,44.937656144115806],[18.813612892421077,44.939213958757364],[18.78548503150904,44.96656163980788],[18.745016706403067,44.949242414092964],[18.663625390258687,44.91716095172603],[18.575292945103854,44.83252063386254],[18.52244753822214,44.809507274465375],[18.579436017551075,44.72666486954739],[18.636966212437642,44.7288201224473],[18.65646797340088,44.71226879935972],[18.728277790738673,44.74565604185892],[18.80187357592206,44.75287410190532],[18.8337579399589,44.775292458539866],[18.91281455832194,44.77000465244214],[18.956321090426,44.827303449344925],[18.998290505365787,44.82011359143638],[19.005874524067053,44.852420851760996]]]},"properties":{"shapeName":"Brcko District","shapeISO":"","shapeID":"40542155B79782904339110","shapeGroup":"BIH","shapeType":"ADM2"}},
{"type":"Feature","geometry":{"type":"MultiPolygon","coordinates":[[[[18.78548503150904,44.96656163980788],[18.787563144423643,44.99177141381972],[18.72472413611007,44.99736448558258],[18.724229821049448,45.02339285579569],[18.675697606459437,45.04682537968756],[18.674639568461373,45.0882984899834],[18.649246650212774,45.085123685309895],[18.6526852746058,45.058784678470204],[18.61724099357707,45.06513703884332],[18.62940843325265,45.085123685309895],[18.572274367867806,45.09744841101542],[18.575448482761317,45.07111508699171],[18.53444950044417,45.09390065659011],[18.53233342444804,45.060279415562604],[18.489928401574502,45.062185525042025],[18.577810870475332,45.0020377289581],[18.745016706403067,44.949242414092964],[18.78548503150904,44.96656163980788]]],[[[18.45898068221277,45.073074025346045],[18.430497242853505,45.104729953624485],[18.32369886211285,45.10553646743409],[18.265464437533808,45.1394594606856],[18.20079713987616,45.12536714537754],[18.217048606907724,45.10326625123656],[18.189276715647964,45.08123730016132],[18.29449362058415,45.03527570590916],[18.308903255380983,45.00632758415077],[18.45898068221277,45.073074025346045]]]]},"properties":{"shapeName":"Posavina Canton","shapeISO":"","shapeID":"40542155B39002736091850","shapeGroup":"BIH","shapeType":"ADM2"}},
{"type":"Feature","geometry":{"type":"MultiPolygon","coordinates":[[[[19.421350060956627,43.543405424620744],[19.418980055085626,43.56720597987214],[19.399512151964416,43.55457077312286],[19.421350060956627,43.543405424620744]]],[[[18.61044149371702,44.054169271665046],[18.517572097307493,43.95788012421957],[18.56797873283938,43.920647346354144],[18.483504958902813,43.80090691194374],[18.43728984811372,43.81251308684699],[18.412154245353975,43.84335744161899],[18.324376006966588,43.78550997917779],[18.40868726578674,43.7072372003409],[18.55003440444034,43.70577359469286],[18.62919087427821,43.66588363095212],[18.700191191727868,43.67272282935744],[18.79786928316105,43.7600841418834],[18.908751691192606,43.76301844419669],[18.96038395755528,43.677742821928916],[19.005414065618766,43.65300611248597],[18.878896391133935,43.57810692902069],[18.8145651266899,43.56385576090412],[18.762985762114226,43.564814080691065],[18.679400740895687,43.60332589769331],[18.581521622671517,43.59602395808213],[18.52971443025848,43.63670120250026],[18.43728984811372,43.662069258492465],[18.371154332226865,43.580149636135786],[18.32840501659291,43.54780310093821],[18.33368674305268,43.48435422595526],[18.290688069002897,43.46961311281086],[18.228390777211587,43.48189762404155],[18.211123592585636,43.46088959381751],[18.168294204254607,43.48079212032911],[18.008488107647167,43.47907240717342],[17.975646600073333,43.45892355671032],[17.946444745332258,43.3795760001845],[17.993791956161544,43.326876421049974],[17.994089529387566,43.26669204149778],[17.891673913588818,43.173803699345],[17.93815311110518,43.14464107782521],[17.92981069062347,43.10905806825775],[17.990049463296828,43.101701665821395],[17.994179502849818,43.07491056328138],[17.937828081770704,43.0257921498403],[17.920967183588175,42.97705253709347],[17.955813039173393,42.954070801704404],[17.990374492631247,42.862132462578415],[18.11496907711205,42.757066909589184],[18.196564986644717,42.7222541350265],[18.30119380482057,42.62346628478031],[18.365851106243667,42.60847927180106],[18.439131681482024,42.55719021065977],[18.553975384656326,42.58535530800111],[18.530139898837433,42.620603585387244],[18.588320152753,42.64770407518296],[18.556636563126972,42.67497696501499],[18.575258036029652,42.73394346022269],[18.549018687562466,42.72362214884322],[18.499756426717852,42.74214954276738],[18.456080607833826,42.80924942112392],[18.461328477527275,42.84376508109369],[18.50868796178014,42.886711383423744],[18.48203555559644,42.97769657633603],[18.521472449693988,42.994181671946706],[18.52721463534715,43.02080210363437],[18.659054664541316,43.036102637426836],[18.652283220094716,43.15366203417568],[18.71813552113747,43.22376860963368],[18.691896171771077,43.25583278155767],[18.846962257602286,43.320279982735144],[18.855426563385322,43.346015121800406],[18.908243832586948,43.349708266023754],[18.95820355275191,43.324610159931126],[18.948344329227552,43.28873772786403],[19.003890490453898,43.24880477222263],[19.0793920997657,43.29872303364107],[19.084132111507927,43.325821963113185],[19.036393425416406,43.36866286759738],[19.01438622984068,43.44331586853252],[18.966816830332505,43.451673242226434],[18.95276608258871,43.496021724323214],[18.92314101144865,43.50940586578821],[18.980190433541736,43.5203320009212],[18.99441046786899,43.5524850960104],[19.04062557830781,43.49737255190172],[19.248847505607955,43.527696818953075],[19.2576503836583,43.58327217127379],[19.374288520299103,43.60779243956961],[19.41407075765943,43.57321597283891],[19.519204210006308,43.59121292773449],[19.501760967694622,43.6261760849585],[19.543236067290763,43.67480434084774],[19.52749245821053,43.71531820277289],[19.31977838976104,43.88808126204066],[19.33264413411962,43.90174411060235],[19.25494180551999,43.96586877172649],[19.240891057776196,44.00521143485986],[19.408315030014705,43.9494175176045],[19.48323429502676,43.94415215429859],[19.619313249007405,44.00948761676017],[19.597644625699104,44.02951046003972],[19.622780229024443,44.04937080032232],[19.580648299679467,44.06861632088669],[19.56676683761964,44.050125167842396],[19.496470776804983,44.089959119817706],[19.472400406953398,44.14388983065123],[19.443833373811344,44.13022191351058],[19.36379278091215,44.17944196017851],[19.324275052152075,44.26656929533681],[19.229316119343537,44.254256009907124],[19.206864548060537,44.285091195302584],[19.157602287215752,44.27987989743946],[19.099706434004815,44.380388416192545],[19.147614405780246,44.41099109716146],[19.127744447248574,44.50248427393029],[19.182825918881235,44.52032816601212],[19.1797787684755,44.56533235460461],[19.217868145398768,44.57823598200514],[19.247662502222738,44.643915635698136],[19.275763998609705,44.6468062438131],[19.326380548523673,44.731052264450625],[19.29796756565065,44.79582378184216],[19.337296117521817,44.83010326455411],[19.34943054578315,44.822419054096144],[19.372595658962666,44.87626859122258],[19.247038260307534,44.906490969582705],[19.207890844487054,44.89056473607383],[19.18117537874076,44.916793829571645],[19.053829895833076,44.85503147342382],[19.005874524067053,44.852420851760996],[18.998290505365787,44.82011359143638],[18.956321090426,44.827303449344925],[18.91281455832194,44.77000465244214],[18.8337579399589,44.775292458539866],[18.80187357592206,44.75287410190532],[18.818522189346822,44.714333161535876],[18.736208507037475,44.668442683345916],[18.740312002272105,44.62006262725873],[18.800239288612147,44.5591568959199],[18.914845991437346,44.53058687304781],[18.959876099501002,44.607529847446926],[18.995764756298854,44.61644768005601],[19.032838416720608,44.60258829615452],[19.034869850734538,44.55194332335145],[19.010323363138014,44.5282939068],[19.025908266443366,44.510407183753784],[18.9358848704631,44.413071014156856],[18.885722007156744,44.41353535770094],[18.873912608006265,44.38334535736641],[18.754024177823055,44.311625286181936],[18.761811339746146,44.23987082716883],[18.80626072464122,44.19554115893288],[18.770952790113483,44.12198926394052],[18.61044149371702,44.054169271665046]]],[[[18.2999287104455,44.5779776619367],[18.40461762715671,44.58522927473456],[18.429841259424563,44.61403759000882],[18.35230821612288,44.64283162075628],[18.330470307211442,44.67775080390612],[18.165585626467873,44.72323458010328],[18.158814181551577,44.75774469463852],[18.225851485143608,44.7850255623099],[18.32234457295283,44.783463569629134],[18.409071968408853,44.9227873704221],[18.469644658347875,44.92503478688468],[18.5261650615152,44.83678769474267],[18.575292945103854,44.83252063386254],[18.663625390258687,44.91716095172603],[18.745016706403067,44.949242414092964],[18.577810870475332,45.0020377289581],[18.489928401574502,45.062185525042025],[18.45898068221277,45.073074025346045],[18.308903255380983,45.00632758415077],[18.29449362058415,45.03527570590916],[18.189276715647964,45.08123730016132],[18.10074904253446,45.08832836995845],[18.071970402512136,45.10876240845852],[18.077556844472895,45.136354673629285],[18.01322811908244,45.14972793779418],[17.860254410312905,45.04982082087429],[17.667376577267362,45.13277201651539],[17.59475283177784,45.10852345589285],[17.55717131280602,45.117364026328914],[17.55429344898357,45.13934004870447],[17.49167112782027,45.114234142791474],[17.492646215950174,45.139917999815964],[17.448767253705853,45.12723039676547],[17.442375009299383,45.15497131177665],[17.39855021951712,45.13372741398905],[17.340315794038702,45.140892382877325],[17.264692298710656,45.18521873355775],[17.237281490648343,45.14435035168742],[17.167183493823302,45.14733053317764],[17.070758120191215,45.186898674334486],[17.022762119176605,45.231933153892044],[16.989385668214084,45.22179396511939],[16.970594908728117,45.24504083386745],[16.971610625529934,45.22394022865876],[16.938769118300343,45.22799406037757],[16.95908345253946,45.25421774715147],[16.927596234378825,45.270541837136136],[16.876471826513637,45.22727869915275],[16.843779291081603,45.23048344675374],[16.832965294213125,45.1831473736525],[16.72953147509753,45.20712566551708],[16.69431996199671,45.19388517186326],[16.603582601555956,45.230101938153894],[16.50490369145234,45.212445997185114],[16.46750364757537,45.17849847222686],[16.472216573536116,45.1479370575492],[16.390471691615403,45.10934066893691],[16.401956062022805,45.084484520044725],[16.362688453609394,45.0072372223201],[16.296981774333517,45.00155604807048],[16.197079228904954,44.97537214132154],[16.237586011390874,44.89390024184689],[16.318335490533627,44.86247135535268],[16.3552398643385,44.8232211418445],[16.41821430080097,44.86739074912447],[16.604598319018635,44.85251129530843],[16.649120568129547,44.81949878578382],[16.76435151383896,44.79941943637414],[16.807202062884926,44.7288047883149],[16.804342396552215,44.68662414808273],[16.847462956714537,44.670600104477785],[16.854180230524094,44.623041175090975],[16.887874939090125,44.5971255858384],[16.89188363511289,44.54340650948359],[16.826193849363108,44.51694843158555],[16.48238432034651,44.53416945141544],[16.44204301562081,44.50857067372334],[16.444022319371584,44.47908223960144],[16.572054754776786,44.37823473950385],[16.71972642289944,44.321213379562835],[16.829410285204176,44.246177093641734],[16.883243271299307,44.237809016196024],[16.918454784324297,44.181263012178874],[17.040097017894652,44.11373480529073],[17.08113874533558,44.06448064279215],[17.146313900632265,44.04854341945679],[17.242786616254932,44.065269479308256],[17.28622887858444,44.11769021096768],[17.286493388418194,44.18127059976064],[17.238066977539177,44.246540895872215],[17.232819107684236,44.29708754332296],[17.194560445435116,44.33027678054299],[17.22977195756181,44.38232423725657],[17.2213076518658,44.449070881254386],[17.30607936913424,44.43349864354667],[17.352883595086723,44.45708985864047],[17.520436225511787,44.35436960609678],[17.654510831797268,44.34976973085236],[17.73732246664008,44.381930972820214],[17.804138600315582,44.420173314453734],[17.936128871698543,44.45416896855727],[17.96443139516083,44.4855029845221],[17.976598834935828,44.51568852553743],[17.894071851255376,44.64192073163059],[17.945175098849006,44.714573758490474],[18.07780738808043,44.68985923439055],[18.068923252041543,44.65796263778566],[18.10887477686714,44.609578659505985],[18.106843342853267,44.56991527871463],[18.222296476966676,44.5975257842984],[18.2999287104455,44.5779776619367]]]]},"properties":{"shapeName":"Republika Srpska","shapeISO":"","shapeID":"40542155B67901979992547","shapeGroup":"BIH","shapeType":"ADM2"}},
{"type":"Feature","geometry":{"type":"Polygon","coordinates":[[[18.62919087427821,43.66588363095212],[18.52971443025848,43.63670120250026],[18.581521622671517,43.59602395808213],[18.679400740895687,43.60332589769331],[18.762985762114226,43.564814080691065],[18.8145651266899,43.56385576090412],[18.878896391133935,43.57810692902069],[19.005414065618766,43.65300611248597],[18.96038395755528,43.677742821928916],[18.908751691192606,43.76301844419669],[18.79786928316105,43.7600841418834],[18.700191191727868,43.67272282935744],[18.62919087427821,43.66588363095212]]]},"properties":{"shapeName":"Bosnian-Podrinje Canton Goražde","shapeISO":"","shapeID":"40542155B3404914170098","shapeGroup":"BIH","shapeType":"ADM2"}},
{"type":"Feature","geometry":{"type":"Polygon","coordinates":[[[18.371154332226865,43.580149636135786],[18.332626064467377,43.62450659168667],[18.2994909470346,43.62053903120494],[18.27308231293955,43.5901388533735],[18.212139309592658,43.603869868258414],[18.21671003477627,43.63634595232503],[18.148338756343605,43.69603652860093],[18.068923252041543,43.67981926223132],[18.047146285737313,43.701832941323346],[18.066973076035083,43.72469980573817],[18.002159195190302,43.79317851755917],[17.980623612598777,43.81224922389788],[17.95277943115383,43.79168389254767],[17.92396016260392,43.801380976111545],[17.89658998260876,43.85268967581311],[17.83587720848584,43.87812004541149],[17.680750180173504,43.82411700665938],[17.59199685378303,43.85945231309029],[17.51160626147771,43.85101476681831],[17.442522085933433,43.87280841839362],[17.374310562484823,43.82758247720619],[17.358598694890645,43.760817731115935],[17.423435278749935,43.75189178736184],[17.480653987303242,43.70259172121149],[17.487764003656707,43.664028677676015],[17.54016366121334,43.64681540080829],[17.57816279211937,43.62102923089486],[17.55886417437779,43.593817111421004],[17.58391852002876,43.56573405279738],[17.566143477348362,43.546473034114456],[17.531609108994758,43.5555522430854],[17.49690545492234,43.53481528812364],[17.618649260103552,43.447361964761285],[17.619407661883713,43.419195916929766],[17.66331370982897,43.4234010040355],[17.72276699561769,43.38983578358159],[17.677479572327627,43.36825922099058],[17.68007980700287,43.32397961876359],[17.7202751031557,43.31357474326944],[17.718974985818022,43.29007839715371],[17.605925715557078,43.29404108525688],[17.561742037883334,43.27962335042491],[17.56935991408767,43.23203291423221],[17.65416167910422,43.18740624584501],[17.63194287642756,43.17467622690435],[17.6504585450254,43.14090953987494],[17.62694065251975,43.097976920190376],[17.71745818254925,42.97317825377354],[17.596784265381586,42.936786728524794],[17.643321155047317,42.89483967551075],[17.688097198227183,42.925914161509354],[17.787569721365628,42.89500635765745],[17.835139120873805,42.91447432822781],[17.905900719342753,42.838799986130425],[17.89269640181766,42.82203984456322],[18.000870232675084,42.784157607587645],[18.008995966191037,42.76079569036892],[18.252429405692624,42.60361991372815],[18.30119380482057,42.62346628478031],[18.196564986644717,42.7222541350265],[18.11496907711205,42.757066909589184],[17.990374492631247,42.862132462578415],[17.955813039173393,42.954070801704404],[17.920967183588175,42.97705253709347],[17.937828081770704,43.0257921498403],[17.994179502849818,43.07491056328138],[17.990049463296828,43.101701665821395],[17.92981069062347,43.10905806825775],[17.93815311110518,43.14464107782521],[17.891673913588818,43.173803699345],[17.994089529387566,43.26669204149778],[17.993791956161544,43.326876421049974],[17.946444745332258,43.3795760001845],[17.975646600073333,43.45892355671032],[18.008488107647167,43.47907240717342],[18.168294204254607,43.48079212032911],[18.211123592585636,43.46088959381751],[18.228390777211587,43.48189762404155],[18.290688069002897,43.46961311281086],[18.33368674305268,43.48435422595526],[18.32840501659291,43.54780310093821],[18.371154332226865,43.580149636135786]]]},"properties":{"shapeName":"Herzegovina-Neretva Canton","shapeISO":"","shapeID":"40542155B93668077064367","shapeGroup":"BIH","shapeType":"ADM2"}},
{"type":"Feature","geometry":{"type":"Polygon","coordinates":[[[18.80626072464122,44.19554115893288],[18.761811339746146,44.23987082716883],[18.754024177823055,44.311625286181936],[18.873912608006265,44.38334535736641],[18.885722007156744,44.41353535770094],[18.9358848704631,44.413071014156856],[19.025908266443366,44.510407183753784],[19.010323363138014,44.5282939068],[19.034869850734538,44.55194332335145],[19.032838416720608,44.60258829615452],[18.995764756298854,44.61644768005601],[18.959876099501002,44.607529847446926],[18.914845991437346,44.53058687304781],[18.800239288612147,44.5591568959199],[18.740312002272105,44.62006262725873],[18.736208507037475,44.668442683345916],[18.818522189346822,44.714333161535876],[18.80187357592206,44.75287410190532],[18.728277790738673,44.74565604185892],[18.65646797340088,44.71226879935972],[18.636966212437642,44.7288201224473],[18.579436017551075,44.72666486954739],[18.52244753822214,44.809507274465375],[18.575292945103854,44.83252063386254],[18.5261650615152,44.83678769474267],[18.469644658347875,44.92503478688468],[18.409071968408853,44.9227873704221],[18.32234457295283,44.783463569629134],[18.225851485143608,44.7850255623099],[18.158814181551577,44.75774469463852],[18.165585626467873,44.72323458010328],[18.330470307211442,44.67775080390612],[18.35230821612288,44.64283162075628],[18.429841259424563,44.61403759000882],[18.40461762715671,44.58522927473456],[18.2999287104455,44.5779776619367],[18.3128645502498,44.52913869477891],[18.293904504843965,44.51320635476645],[18.331316737601412,44.46622889290353],[18.324376006966588,44.43009453454988],[18.387181156812176,44.41812538894101],[18.4441154650346,44.36878666472546],[18.403771196766968,44.354974826452235],[18.54043249562477,44.294930805109516],[18.543770817578547,44.21949211509184],[18.622339891490697,44.17445441706684],[18.657443061404138,44.18432225331412],[18.707714266923745,44.14958325493808],[18.80626072464122,44.19554115893288]]]},"properties":{"shapeName":"Tuzla Canton","shapeISO":"","shapeID":"40542155B95280327338373","shapeGroup":"BIH","shapeType":"ADM2"}},
{"type":"Feature","geometry":{"type":"Polygon","coordinates":[[[17.54016366121334,43.64681540080829],[17.43990893387479,43.56845555541548],[17.40129053857521,43.59604694558806],[17.318763554894986,43.54293664195524],[17.077398580005593,43.550425706746296],[17.05234079143935,43.53500346344572],[17.140856116116936,43.48825019329189],[17.19329418527849,43.49862511056051],[17.26215850830863,43.46871470971621],[17.282261235667647,43.42838801829254],[17.24972655913342,43.40129643987899],[17.316662324706556,43.267128371677074],[17.42038135751369,43.22608766171629],[17.42753200289974,43.18115143219296],[17.62694065251975,43.097976920190376],[17.6504585450254,43.14090953987494],[17.63194287642756,43.17467622690435],[17.65416167910422,43.18740624584501],[17.56935991408767,43.23203291423221],[17.561742037883334,43.27962335042491],[17.605925715557078,43.29404108525688],[17.718974985818022,43.29007839715371],[17.7202751031557,43.31357474326944],[17.68007980700287,43.32397961876359],[17.677479572327627,43.36825922099058],[17.72276699561769,43.38983578358159],[17.66331370982897,43.4234010040355],[17.619407661883713,43.419195916929766],[17.618649260103552,43.447361964761285],[17.49690545492234,43.53481528812364],[17.531609108994758,43.5555522430854],[17.566143477348362,43.546473034114456],[17.58391852002876,43.56573405279738],[17.55886417437779,43.593817111421004],[17.57816279211937,43.62102923089486],[17.54016366121334,43.64681540080829]]]},"properties":{"shapeName":"West Herzegovina Canton","shapeISO":"","shapeID":"40542155B82966258059888","shapeGroup":"BIH","shapeType":"ADM2"}},
{"type":"Feature","geometry":{"type":"Polygon","coordinates":[[[16.296981774333517,45.00155604807048],[16.195772340221424,45.030212754814954],[16.176346757397027,45.07074147713746],[16.092232716766546,45.10865039969622],[16.045943543559872,45.17861302876838],[16.014466905923086,45.18215551676377],[16.024782779102054,45.207319478411364],[15.97993253735683,45.232286037071106],[15.934563857136368,45.210703648854405],[15.916958101035561,45.22799406037757],[15.820478555840793,45.21651858336611],[15.763447331529164,45.17749430272005],[15.78196300099188,45.10977047742563],[15.741757548072371,45.05560823343325],[15.786269216651135,45.003047980579936],[15.778482055402662,44.96820556633389],[15.737514814657118,44.93801564360717],[15.790691816274318,44.845197653948674],[15.72694501250237,44.81555853000225],[15.82842146078184,44.71709996549106],[15.915095954015158,44.74584283587831],[15.928713329256766,44.71026692288018],[15.956882539197977,44.71011293016778],[15.985918495042597,44.667826262572135],[16.04911765845327,44.64530826466478],[16.059962550631326,44.61085913024482],[16.01975709681267,44.5750706373002],[16.130427898029154,44.49823564186141],[16.13911566105901,44.43210607713394],[16.17021013628886,44.40587321727514],[16.12503105653809,44.392791083441864],[16.20845525600538,44.347406707353855],[16.181383020210376,44.31138302011033],[16.193910192301644,44.24835987470857],[16.21669188445577,44.24272994971625],[16.247235320710786,44.25466523103398],[16.2430031669644,44.29757219288308],[16.31018859556002,44.331313641877216],[16.29087939835938,44.48984311777184],[16.444022319371584,44.47908223960144],[16.44204301562081,44.50857067372334],[16.48238432034651,44.53416945141544],[16.826193849363108,44.51694843158555],[16.89188363511289,44.54340650948359],[16.887874939090125,44.5971255858384],[16.854180230524094,44.623041175090975],[16.847462956714537,44.670600104477785],[16.804342396552215,44.68662414808273],[16.807202062884926,44.7288047883149],[16.76435151383896,44.79941943637414],[16.649120568129547,44.81949878578382],[16.604598319018635,44.85251129530843],[16.41821430080097,44.86739074912447],[16.3552398643385,44.8232211418445],[16.318335490533627,44.86247135535268],[16.237586011390874,44.89390024184689],[16.197079228904954,44.97537214132154],[16.296981774333517,45.00155604807048]]]},"properties":{"shapeName":"Una-Sana Canton","shapeISO":"","shapeID":"40542155B45322737222684","shapeGroup":"BIH","shapeType":"ADM2"}},
{"type":"Feature","geometry":{"type":"Polygon","coordinates":[[[16.444022319371584,44.47908223960144],[16.29087939835938,44.48984311777184],[16.31018859556002,44.331313641877216],[16.2430031669644,44.29757219288308],[16.247235320710786,44.25466523103398],[16.21669188445577,44.24272994971625],[16.224212407976324,44.224708766996116],[16.174977232913136,44.20956706876518],[16.222648204551035,44.20886812736234],[16.310886901209585,44.120409436746286],[16.3726763350449,44.11469739906573],[16.392821382700674,44.08053518614997],[16.43209576300916,44.07226520767318],[16.439036494039044,44.02237761043847],[16.51641406395794,44.002870022034074],[16.54171868227138,43.9471944204862],[16.70295355436309,43.853300053854525],[16.730560734790117,43.77557074199626],[16.86983797744074,43.697242854873934],[16.970727087485272,43.57645238826717],[17.05234079143935,43.53500346344572],[17.077398580005593,43.550425706746296],[17.318763554894986,43.54293664195524],[17.40129053857521,43.59604694558806],[17.43990893387479,43.56845555541548],[17.54016366121334,43.64681540080829],[17.487764003656707,43.664028677676015],[17.480653987303242,43.70259172121149],[17.423435278749935,43.75189178736184],[17.358598694890645,43.760817731115935],[17.374310562484823,43.82758247720619],[17.442522085933433,43.87280841839362],[17.40345951633725,43.940763548517],[17.368586575647782,43.92406148451937],[17.339638649484755,43.93369317415227],[17.290714960908872,44.030045997720094],[17.262782750854285,44.06691342932669],[17.242786616254932,44.065269479308256],[17.146313900632265,44.04854341945679],[17.08113874533558,44.06448064279215],[17.040097017894652,44.11373480529073],[16.918454784324297,44.181263012178874],[16.883243271299307,44.237809016196024],[16.829410285204176,44.246177093641734],[16.71972642289944,44.321213379562835],[16.572054754776786,44.37823473950385],[16.444022319371584,44.47908223960144]]]},"properties":{"shapeName":"Canton 10","shapeISO":"","shapeID":"40542155B38690784165963","shapeGroup":"BIH","shapeType":"ADM2"}},
{"type":"Feature","geometry":{"type":"Polygon","coordinates":[[[17.73732246664008,44.381930972820214],[17.654510831797268,44.34976973085236],[17.520436225511787,44.35436960609678],[17.352883595086723,44.45708985864047],[17.30607936913424,44.43349864354667],[17.2213076518658,44.449070881254386],[17.22977195756181,44.38232423725657],[17.194560445435116,44.33027678054299],[17.232819107684236,44.29708754332296],[17.238066977539177,44.246540895872215],[17.286493388418194,44.18127059976064],[17.28622887858444,44.11769021096768],[17.242786616254932,44.065269479308256],[17.262782750854285,44.06691342932669],[17.290714960908872,44.030045997720094],[17.339638649484755,43.93369317415227],[17.368586575647782,43.92406148451937],[17.40345951633725,43.940763548517],[17.442522085933433,43.87280841839362],[17.51160626147771,43.85101476681831],[17.59199685378303,43.85945231309029],[17.680750180173504,43.82411700665938],[17.83587720848584,43.87812004541149],[17.89658998260876,43.85268967581311],[17.92396016260392,43.801380976111545],[17.95277943115383,43.79168389254767],[17.980623612598777,43.81224922389788],[18.002159195190302,43.79317851755917],[18.050504922193056,43.80982554154798],[18.075532182739664,43.80067720849388],[18.120238885622882,43.836249314476106],[18.143578430939556,43.83095615570721],[18.182175666422438,43.860257918623006],[18.173940905912332,43.9020623370447],[18.09448545664486,43.946492373101876],[18.110418666430178,43.965210808859524],[17.97598517240897,44.060101375206784],[18.000700946622374,44.08795285941869],[17.961934424522383,44.082967312646815],[17.92449321031728,44.10517772947571],[17.898391187398374,44.15315913022306],[17.808141371050908,44.20436363772785],[17.832938401474905,44.28775726252769],[17.8146555007404,44.32930801809687],[17.73732246664008,44.381930972820214]]]},"properties":{"shapeName":"Central Bosnia Canton","shapeISO":"","shapeID":"40542155B88107484912427","shapeGroup":"BIH","shapeType":"ADM2"}},
{"type":"Feature","geometry":{"type":"Polygon","coordinates":[[[18.173940905912332,43.9020623370447],[18.182175666422438,43.860257918623006],[18.143578430939556,43.83095615570721],[18.120238885622882,43.836249314476106],[18.075532182739664,43.80067720849388],[18.050504922193056,43.80982554154798],[18.002159195190302,43.79317851755917],[18.066973076035083,43.72469980573817],[18.047146285737313,43.701832941323346],[18.068923252041543,43.67981926223132],[18.148338756343605,43.69603652860093],[18.21671003477627,43.63634595232503],[18.212139309592658,43.603869868258414],[18.27308231293955,43.5901388533735],[18.2994909470346,43.62053903120494],[18.332626064467377,43.62450659168667],[18.371154332226865,43.580149636135786],[18.43728984811372,43.662069258492465],[18.52971443025848,43.63670120250026],[18.62919087427821,43.66588363095212],[18.55003440444034,43.70577359469286],[18.40868726578674,43.7072372003409],[18.324376006966588,43.78550997917779],[18.412154245353975,43.84335744161899],[18.43728984811372,43.81251308684699],[18.483504958902813,43.80090691194374],[18.56797873283938,43.920647346354144],[18.517572097307493,43.95788012421957],[18.61044149371702,44.054169271665046],[18.585245916567033,44.071900328864274],[18.548002970426467,44.061804462061446],[18.49698690522962,44.102765966345714],[18.446367816336533,44.092238878071726],[18.42732312807118,44.04491588553765],[18.414891178462597,44.06791692483023],[18.377330820701275,44.0551819157572],[18.381086856567265,44.00484614336659],[18.33978104329742,44.007524896878806],[18.325561009692194,43.9706205081946],[18.224295507849888,43.971897377388075],[18.24826668649075,43.90046859306983],[18.173940905912332,43.9020623370447]]]},"properties":{"shapeName":"Sarajevo Canton","shapeISO":"","shapeID":"40542155B32867494329538","shapeGroup":"BIH","shapeType":"ADM2"}}
]}