{"type":"FeatureCollection", "features": [
{"type":"Feature","geometry":{"type":"Polygon","coordinates":[[[114.25434074300006,4.585149226000055],[114.18858922000004,4.576586016000022],[114.17140791700001,4.588442741000051],[114.08054525900002,4.588113390000046],[114.1601739890001,4.572963089000041],[114.19982314900005,4.531133426000054],[114.23748985000009,4.520922667000036],[114.23756972365771,4.520955682171825],[114.275817372,4.552542612000025],[114.27119163600003,4.577244728000039],[114.25434074300006,4.585149226000055]]]},"properties":{"shapeName":"Kuala Belait","shapeISO":"","shapeID":"61948251B95286488605038","shapeGroup":"BRN","shapeType":"ADM2"}},
{"type":"Feature","geometry":{"type":"Polygon","coordinates":[[[114.275817372,4.552542612000025],[114.40527187900011,4.551159269000038],[114.42017110000006,4.569004429000074],[114.43614535800009,4.56085579300003],[114.437625593,4.598586670000032],[114.398716551,4.640109404000043],[114.25434074300006,4.585149226000055],[114.27119163600003,4.577244728000039],[114.275817372,4.552542612000025]]]},"properties":{"shapeName":"Seria","shapeISO":"","shapeID":"61948251B99242136568828","shapeGroup":"BRN","shapeType":"ADM2"}},
{"type":"Feature","geometry":{"type":"Polygon","coordinates":[[[114.23756972365771,4.520955682171825],[114.27779983000005,4.479089996000027],[114.31678817000011,4.394099744000073],[114.31311208700004,4.361191759000064],[114.33264783400011,4.349953686000049],[114.42251926300003,4.35390717100006],[114.42017110000006,4.569004429000074],[114.40527187900011,4.551159269000038],[114.275817372,4.552542612000025],[114.23756972365771,4.520955682171825]]]},"properties":{"shapeName":"Kuala Balai","shapeISO":"","shapeID":"61948251B1587498973826","shapeGroup":"BRN","shapeType":"ADM2"}},
{"type":"Feature","geometry":{"type":"Polygon","coordinates":[[[114.42017110000006,4.569004429000074],[114.42251926300003,4.35390717100006],[114.33264783400011,4.349953686000049],[114.31311208700004,4.361191759000064],[114.32071178500007,4.316533563000064],[114.48868300100003,4.171645962000071],[114.4911164990001,4.439986494000038],[114.48901420800007,4.53220390000007],[114.47504930000002,4.56151184600003],[114.43614535800009,4.56085579300003],[114.42017110000006,4.569004429000074]]]},"properties":{"shapeName":"Labi","shapeISO":"","shapeID":"61948251B59256449924949","shapeGroup":"BRN","shapeType":"ADM2"}},
{"type":"Feature","geometry":{"type":"Polygon","coordinates":[[[114.43614535800009,4.56085579300003],[114.47504930000002,4.56151184600003],[114.50140457100008,4.610941156000024],[114.54425457400009,4.649020106000023],[114.52721782600008,4.697387695000032],[114.398716551,4.640109404000043],[114.437625593,4.598586670000032],[114.43614535800009,4.56085579300003]]]},"properties":{"shapeName":"Liang","shapeISO":"","shapeID":"61948251B55263008271312","shapeGroup":"BRN","shapeType":"ADM2"}},
{"type":"Feature","geometry":{"type":"Polygon","coordinates":[[[114.48868300100003,4.171645962000071],[114.53099301500004,4.132180675000029],[114.65763929800005,4.273771730000021],[114.84885098500001,4.268655594000052],[114.86382267300007,4.326314713000045],[114.80651724600011,4.314474357000051],[114.78380158200002,4.360290356000064],[114.76418350800009,4.358746042000064],[114.67258869900002,4.489019106000057],[114.59433228900002,4.439046147000056],[114.4911164990001,4.439986494000038],[114.48868300100003,4.171645962000071]]]},"properties":{"shapeName":"Sukang","shapeISO":"","shapeID":"61948251B35844628801375","shapeGroup":"BRN","shapeType":"ADM2"}},
{"type":"Feature","geometry":{"type":"Polygon","coordinates":[[[114.53099301500004,4.132180675000029],[114.54712629900007,4.124134961000038],[114.55680627000004,4.077468221000061],[114.62698605700007,4.026775417000067],[114.61085277300003,4.003439571000058],[114.67619257500007,4.010681802000022],[114.80364552200001,4.135398937000048],[114.80283885800009,4.17079896100006],[114.84885098500001,4.268655594000052],[114.65763929800005,4.273771730000021],[114.53099301500004,4.132180675000029]]]},"properties":{"shapeName":"Melilas","shapeISO":"","shapeID":"61948251B89020850377024","shapeGroup":"BRN","shapeType":"ADM2"}},
{"type":"Feature","geometry":{"type":"Polygon","coordinates":[[[114.4911164990001,4.439986494000038],[114.59433228900002,4.439046147000056],[114.67258869900002,4.489019106000057],[114.66148991300008,4.504311179000069],[114.63563349800006,4.511617576000049],[114.63666602800004,4.530145294000022],[114.59381602400003,4.560509138000043],[114.55317541500006,4.639960793000057],[114.54425457400009,4.649020106000023],[114.50140457100008,4.610941156000024],[114.47504930000002,4.56151184600003],[114.48901420800007,4.53220390000007],[114.4911164990001,4.439986494000038]]]},"properties":{"shapeName":"Bukit Sawat","shapeISO":"","shapeID":"61948251B25749467674718","shapeGroup":"BRN","shapeType":"ADM2"}},
{"type":"Feature","geometry":{"type":"Polygon","coordinates":[[[114.54425457400009,4.649020106000023],[114.55317541500006,4.639960793000057],[114.58866685500004,4.702991312000051],[114.62241711100012,4.735976451000056],[114.61581344400008,4.758489019000024],[114.59499310900003,4.769562353000026],[114.52721782600008,4.697387695000032],[114.54425457400009,4.649020106000023]]]},"properties":{"shapeName":"Telisai","shapeISO":"","shapeID":"61948251B12096717980097","shapeGroup":"BRN","shapeType":"ADM2"}},
{"type":"Feature","geometry":{"type":"Polygon","coordinates":[[[114.66148991300008,4.504311179000069],[114.65611889700006,4.590418842000076],[114.63563349800006,4.650357978000045],[114.66272709000009,4.663530733000073],[114.653475619,4.67769116900007],[114.66515890500011,4.70207279300007],[114.58866685500004,4.702991312000051],[114.55317541500006,4.639960793000057],[114.59381602400003,4.560509138000043],[114.63666602800004,4.530145294000022],[114.63563349800006,4.511617576000049],[114.66148991300008,4.504311179000069]]]},"properties":{"shapeName":"Ukong","shapeISO":"","shapeID":"61948251B26721653634836","shapeGroup":"BRN","shapeType":"ADM2"}},
{"type":"Feature","geometry":{"type":"Polygon","coordinates":[[[114.86382267300007,4.326314713000045],[114.88395701200011,4.413309878000064],[114.88085942100008,4.429266470000073],[114.84265580400006,4.421030852000058],[114.82561905500006,4.435443123000027],[114.81942387400011,4.586754816000052],[114.804803246,4.63125704600003],[114.67263938000008,4.631915707000076],[114.66272709000009,4.663530733000073],[114.63563349800006,4.650357978000045],[114.65611889700006,4.590418842000076],[114.66148991300008,4.504311179000069],[114.67258869900002,4.489019106000057],[114.76418350800009,4.358746042000064],[114.78380158200002,4.360290356000064],[114.80651724600011,4.314474357000051],[114.86382267300007,4.326314713000045]]]},"properties":{"shapeName":"Rambai","shapeISO":"","shapeID":"61948251B89864279297653","shapeGroup":"BRN","shapeType":"ADM2"}},
{"type":"Feature","geometry":{"type":"Polygon","coordinates":[[[114.66272709000009,4.663530733000073],[114.67263938000008,4.631915707000076],[114.804803246,4.63125704600003],[114.78696112400007,4.703376810000066],[114.71211755700006,4.713272370000027],[114.68880880300003,4.722599259000049],[114.66515890500011,4.70207279300007],[114.653475619,4.67769116900007],[114.66272709000009,4.663530733000073]]]},"properties":{"shapeName":"Lamunin","shapeISO":"","shapeID":"61948251B75187950654832","shapeGroup":"BRN","shapeType":"ADM2"}},
{"type":"Feature","geometry":{"type":"Polygon","coordinates":[[[114.58866685500004,4.702991312000051],[114.66515890500011,4.70207279300007],[114.68880880300003,4.722599259000049],[114.71211755700006,4.713272370000027],[114.70643996400008,4.754669356000022],[114.65289409800005,4.790793065000059],[114.61581344400008,4.758489019000024],[114.62241711100012,4.735976451000056],[114.58866685500004,4.702991312000051]]]},"properties":{"shapeName":"Tanjong Maya","shapeISO":"","shapeID":"61948251B77268510442515","shapeGroup":"BRN","shapeType":"ADM2"}},
{"type":"Feature","geometry":{"type":"Polygon","coordinates":[[[114.61581344400008,4.758489019000024],[114.65289409800005,4.790793065000059],[114.70643996400008,4.754669356000022],[114.7180950290001,4.795234554000047],[114.67561306700009,4.808743828000047],[114.67594347700003,4.827839866000033],[114.72484410700008,4.844959994000021],[114.7337651680001,4.859445918000063],[114.72154001100012,4.871956238000053],[114.59499310900003,4.769562353000026],[114.61581344400008,4.758489019000024]]]},"properties":{"shapeName":"Pekan Tutong","shapeISO":"","shapeID":"61948251B61598017150996","shapeGroup":"BRN","shapeType":"ADM2"}},
{"type":"Feature","geometry":{"type":"Polygon","coordinates":[[[114.78696112400007,4.703376810000066],[114.78270271300005,4.742779148000068],[114.77638801500007,4.793927568000072],[114.7180950290001,4.795234554000047],[114.70643996400008,4.754669356000022],[114.71211755700006,4.713272370000027],[114.78696112400007,4.703376810000066]]]},"properties":{"shapeName":"Kiudang","shapeISO":"","shapeID":"61948251B13205484087176","shapeGroup":"BRN","shapeType":"ADM2"}},
{"type":"Feature","geometry":{"type":"Polygon","coordinates":[[[114.79361197957071,4.925547209731021],[114.72154001100012,4.871956238000053],[114.7337651680001,4.859445918000063],[114.72484410700008,4.844959994000021],[114.67594347700003,4.827839866000033],[114.67561306700009,4.808743828000047],[114.7180950290001,4.795234554000047],[114.77638801500007,4.793927568000072],[114.8001538210001,4.839445075000071],[114.79361197957071,4.925547209731021]]]},"properties":{"shapeName":"Keriam","shapeISO":"","shapeID":"61948251B38946270105586","shapeGroup":"BRN","shapeType":"ADM2"}},
{"type":"Feature","geometry":{"type":"Polygon","coordinates":[[[114.78270271300005,4.742779148000068],[114.86266458700004,4.811443645000054],[114.86203251600011,4.819536208000045],[114.84088398200004,4.843050463000054],[114.84680492300004,4.856956995000075],[114.8001538210001,4.839445075000071],[114.77638801500007,4.793927568000072],[114.78270271300005,4.742779148000068]]]},"properties":{"shapeName":"Pangkalan Batu","shapeISO":"","shapeID":"61948251B94337667782138","shapeGroup":"BRN","shapeType":"ADM2"}},
{"type":"Feature","geometry":{"type":"Polygon","coordinates":[[[114.8001538210001,4.839445075000071],[114.84680492300004,4.856956995000075],[114.8579913530001,4.901121250000074],[114.86184316753204,4.969760612792185],[114.79361197957071,4.925547209731021],[114.8001538210001,4.839445075000071]]]},"properties":{"shapeName":"Sengkurong","shapeISO":"","shapeID":"61948251B32686789537536","shapeGroup":"BRN","shapeType":"ADM2"}},
{"type":"Feature","geometry":{"type":"Polygon","coordinates":[[[114.86203251600011,4.819536208000045],[114.91652615300006,4.861685410000064],[114.90469481100001,4.879038293000065],[114.87898100900009,4.871217214000069],[114.8579913530001,4.901121250000074],[114.84680492300004,4.856956995000075],[114.84088398200004,4.843050463000054],[114.86203251600011,4.819536208000045]]]},"properties":{"shapeName":"Kilanas","shapeISO":"","shapeID":"61948251B41564153380884","shapeGroup":"BRN","shapeType":"ADM2"}},
{"type":"Feature","geometry":{"type":"Polygon","coordinates":[[[114.91652615300006,4.861685410000064],[114.91808198600006,4.863900176000072],[114.91918459100009,4.865469758000074],[114.93192399700001,4.891984492000063],[114.93661605200009,4.886876137000058],[114.94357138700002,4.886838529000045],[114.94846821500005,4.887079074000042],[114.97452808300011,4.924167844000067],[114.95416203600007,4.924504438000042],[114.92286336500001,4.912204054000028],[114.92927517600003,4.891511377000029],[114.90469481100001,4.879038293000065],[114.91652615300006,4.861685410000064]]]},"properties":{"shapeName":"Kianggeh","shapeISO":"","shapeID":"61948251B48556534442907","shapeGroup":"BRN","shapeType":"ADM2"}},
{"type":"Feature","geometry":{"type":"Polygon","coordinates":[[[114.86266458700004,4.811443645000054],[114.98552411700007,4.836307799000053],[114.94869505500003,4.861161355000036],[114.93818537100003,4.87287662500006],[114.91808198600006,4.863900176000072],[114.91652615300006,4.861685410000064],[114.86203251600011,4.819536208000045],[114.86266458700004,4.811443645000054]]]},"properties":{"shapeName":"Lumapas","shapeISO":"","shapeID":"61948251B34239578933012","shapeGroup":"BRN","shapeType":"ADM2"}},
{"type":"Feature","geometry":{"type":"Polygon","coordinates":[[[114.94846821500005,4.887079074000042],[114.94633672700002,4.876893321000068],[114.94869505500003,4.861161355000036],[114.98552411700007,4.836307799000053],[115.02549047000002,4.902256585000032],[114.99049347800008,4.900926611000045],[115.01881693400003,4.942144905000021],[115.0011129500001,4.951334987000052],[114.97452808300011,4.924167844000067],[114.94846821500005,4.887079074000042]]]},"properties":{"shapeName":"Kota Batu","shapeISO":"","shapeID":"61948251B45101535974167","shapeGroup":"BRN","shapeType":"ADM2"}},
{"type":"Feature","geometry":{"type":"Polygon","coordinates":[[[114.8579913530001,4.901121250000074],[114.87898100900009,4.871217214000069],[114.90469481100001,4.879038293000065],[114.92927517600003,4.891511377000029],[114.92286336500001,4.912204054000028],[114.90347678900002,4.937862014000075],[114.92377715900011,4.978521497000031],[114.88650694900002,4.981286462000071],[114.86184316753204,4.969760612792185],[114.8579913530001,4.901121250000074]]]},"properties":{"shapeName":"Gadong","shapeISO":"","shapeID":"61948251B55236805074249","shapeGroup":"BRN","shapeType":"ADM2"}},
{"type":"Feature","geometry":{"type":"Polygon","coordinates":[[[114.95416203600007,4.924504438000042],[114.9520623410001,4.946187931000054],[114.93852876100004,4.948614900000052],[114.97071408600004,4.997397534000072],[114.98224222400006,5.018858277000049],[114.88650694900002,4.981286462000071],[114.92377715900011,4.978521497000031],[114.90347678900002,4.937862014000075],[114.92286336500001,4.912204054000028],[114.95416203600007,4.924504438000042]]]},"properties":{"shapeName":"Berakas A","shapeISO":"","shapeID":"61948251B12831334132987","shapeGroup":"BRN","shapeType":"ADM2"}},
{"type":"Feature","geometry":{"type":"Polygon","coordinates":[[[114.97452808300011,4.924167844000067],[115.0011129500001,4.951334987000052],[114.99572840700012,4.980578352000066],[114.97071408600004,4.997397534000072],[114.93852876100004,4.948614900000052],[114.9520623410001,4.946187931000054],[114.95416203600007,4.924504438000042],[114.97452808300011,4.924167844000067]]]},"properties":{"shapeName":"Berakas B","shapeISO":"","shapeID":"61948251B67977220530704","shapeGroup":"BRN","shapeType":"ADM2"}},
{"type":"Feature","geometry":{"type":"Polygon","coordinates":[[[115.01881693400003,4.942144905000021],[115.04564478900011,4.973080549000031],[115.01640321100001,5.009644586000036],[115.016805943,5.032111050000026],[114.98224222400006,5.018858277000049],[114.97071408600004,4.997397534000072],[114.99572840700012,4.980578352000066],[115.0011129500001,4.951334987000052],[115.01881693400003,4.942144905000021]]]},"properties":{"shapeName":"Mentiri","shapeISO":"","shapeID":"61948251B3233226483045","shapeGroup":"BRN","shapeType":"ADM2"}},
{"type":"Feature","geometry":{"type":"Polygon","coordinates":[[[115.04564478900011,4.973080549000031],[115.10349874700012,5.039979130000063],[115.016805943,5.032111050000026],[115.01640321100001,5.009644586000036],[115.04564478900011,4.973080549000031]]]},"properties":{"shapeName":"Serasa","shapeISO":"","shapeID":"61948251B30330170332135","shapeGroup":"BRN","shapeType":"ADM2"}},
{"type":"Feature","geometry":{"type":"Polygon","coordinates":[[[114.94869505500003,4.861161355000036],[114.94633672700002,4.876893321000068],[114.94565069200007,4.878993191000063],[114.93868111300003,4.876807011000039],[114.93818537100003,4.87287662500006],[114.94869505500003,4.861161355000036]]]},"properties":{"shapeName":"Sungai Kebun","shapeISO":"","shapeID":"61948251B19223628537644","shapeGroup":"BRN","shapeType":"ADM2"}},
{"type":"Feature","geometry":{"type":"Polygon","coordinates":[[[114.94357138700002,4.886838529000045],[114.94565069200007,4.878993191000063],[114.94633672700002,4.876893321000068],[114.94846821500005,4.887079074000042],[114.94357138700002,4.886838529000045]]]},"properties":{"shapeName":"Saba","shapeISO":"","shapeID":"61948251B45352761075123","shapeGroup":"BRN","shapeType":"ADM2"}},
{"type":"Feature","geometry":{"type":"Polygon","coordinates":[[[114.93661605200009,4.886876137000058],[114.93719611427828,4.884047784633193],[114.93868111300003,4.876807011000039],[114.94565069200007,4.878993191000063],[114.94357138700002,4.886838529000045],[114.93661605200009,4.886876137000058]]]},"properties":{"shapeName":"Peramu","shapeISO":"","shapeID":"61948251B80715943730918","shapeGroup":"BRN","shapeType":"ADM2"}},
{"type":"Feature","geometry":{"type":"Polygon","coordinates":[[[114.91918459100009,4.865469758000074],[114.93341921900003,4.881645943000024],[114.93192399700001,4.891984492000063],[114.91918459100009,4.865469758000074]]]},"properties":{"shapeName":"Tamoi","shapeISO":"","shapeID":"61948251B57548256602068","shapeGroup":"BRN","shapeType":"ADM2"}},
{"type":"Feature","geometry":{"type":"Polygon","coordinates":[[[114.93192399700001,4.891984492000063],[114.93341921900003,4.881645943000024],[114.93719611427828,4.884047784633193],[114.93661605200009,4.886876137000058],[114.93192399700001,4.891984492000063]]]},"properties":{"shapeName":"Sungai Kedayan","shapeISO":"","shapeID":"61948251B47128581689451","shapeGroup":"BRN","shapeType":"ADM2"}},
{"type":"Feature","geometry":{"type":"Polygon","coordinates":[[[114.91808198600006,4.863900176000072],[114.93818537100003,4.87287662500006],[114.93868111300003,4.876807011000039],[114.93719611427828,4.884047784633193],[114.93341921900003,4.881645943000024],[114.91918459100009,4.865469758000074],[114.91808198600006,4.863900176000072]]]},"properties":{"shapeName":"Burong Pingai Ayer","shapeISO":"","shapeID":"61948251B71669865620299","shapeGroup":"BRN","shapeType":"ADM2"}},
{"type":"Feature","geometry":{"type":"Polygon","coordinates":[[[115.06141491700009,4.792831712000066],[115.03778217600006,4.817853239000044],[115.02793520000012,4.739351264000049],[115.0427056630001,4.728556541000046],[115.04024392000008,4.67899679900006],[115.05993787000011,4.675071125000045],[115.07933158644954,4.641202945576048],[115.14117541700011,4.635322434000045],[115.16117221000002,4.661458470000071],[115.14166776600007,4.688320188000034],[115.085047658,4.702059692000034],[115.090463494,4.743276576000028],[115.09489463300008,4.762412151000035],[115.06732310200005,4.770262489000061],[115.06141491700009,4.792831712000066]]]},"properties":{"shapeName":"Bangar","shapeISO":"","shapeID":"61948251B45112766204024","shapeGroup":"BRN","shapeType":"ADM2"}},
{"type":"Feature","geometry":{"type":"Polygon","coordinates":[[[115.090463494,4.743276576000028],[115.124849132,4.743178443000033],[115.13839857000005,4.717742024000074],[115.20078900600004,4.713973586000066],[115.22158581800011,4.693560860000048],[115.27294764200008,4.694188952000047],[115.23765608200006,4.81351624000007],[115.1559458800001,4.913024712000038],[115.145114207,4.865440657000022],[115.06141491700009,4.792831712000066],[115.06732310200005,4.770262489000061],[115.09489463300008,4.762412151000035],[115.090463494,4.743276576000028]]]},"properties":{"shapeName":"Labu","shapeISO":"","shapeID":"61948251B75204442156496","shapeGroup":"BRN","shapeType":"ADM2"}},
{"type":"Feature","geometry":{"type":"Polygon","coordinates":[[[115.16117221000002,4.661458470000071],[115.18660936200001,4.663411742000051],[115.20236452200004,4.644567885000072],[115.17495054300002,4.610333593000064],[115.18944529100008,4.583007790000067],[115.22253112800001,4.557251479000058],[115.28460646100007,4.554738618000044],[115.29784079500007,4.613474423000071],[115.27294764200008,4.694188952000047],[115.22158581800011,4.693560860000048],[115.20078900600004,4.713973586000066],[115.13839857000005,4.717742024000074],[115.124849132,4.743178443000033],[115.090463494,4.743276576000028],[115.085047658,4.702059692000034],[115.14166776600007,4.688320188000034],[115.16117221000002,4.661458470000071]]]},"properties":{"shapeName":"Batu Apoi","shapeISO":"","shapeID":"61948251B1597109499272","shapeGroup":"BRN","shapeType":"ADM2"}},
{"type":"Feature","geometry":{"type":"Polygon","coordinates":[[[115.07933158644954,4.641202945576048],[115.05993787000011,4.675071125000045],[115.04024392000008,4.67899679900006],[115.0518964360001,4.647331683000061],[115.03959480700007,4.628638153000054],[115.06964304900009,4.577982241000029],[115.07891968800004,4.507620867000071],[115.09888462700007,4.473040774000026],[115.0916246490001,4.433030374000055],[115.10553960700008,4.409505660000036],[115.09176329500008,4.38415795100002],[115.14314481200006,4.365365753000049],[115.14363716100002,4.452744470000027],[115.1239432100001,4.504283243000032],[115.14363716100002,4.541585222000037],[115.07520068200006,4.598025333000066],[115.09292523800002,4.609803577000037],[115.07933158644954,4.641202945576048]]]},"properties":{"shapeName":"Bunkok","shapeISO":"","shapeID":"61948251B95137919607383","shapeGroup":"BRN","shapeType":"ADM2"}},
{"type":"Feature","geometry":{"type":"Polygon","coordinates":[[[115.07933158644954,4.641202945576048],[115.09292523800002,4.609803577000037],[115.07520068200006,4.598025333000066],[115.14363716100002,4.541585222000037],[115.1239432100001,4.504283243000032],[115.14363716100002,4.452744470000027],[115.14314481200006,4.365365753000049],[115.35193146200004,4.30399820100007],[115.37270242600005,4.316272109000067],[115.3719331310001,4.353092641000046],[115.29269575100011,4.432864262000066],[115.28460646100007,4.554738618000044],[115.22253112800001,4.557251479000058],[115.18944529100008,4.583007790000067],[115.17495054300002,4.610333593000064],[115.20236452200004,4.644567885000072],[115.18660936200001,4.663411742000051],[115.16117221000002,4.661458470000071],[115.14117541700011,4.635322434000045],[115.07933158644954,4.641202945576048]]]},"properties":{"shapeName":"Amo","shapeISO":"","shapeID":"61948251B53229815406537","shapeGroup":"BRN","shapeType":"ADM2"}}
]}