{"type":"FeatureCollection", "features": [
{"type":"Feature","geometry":{"type":"Polygon","coordinates":[[[28.00996,-21.561641],[27.94242,-21.555731],[27.79254,-21.556649],[27.465531,-21.665212],[27.116429,-21.67137],[27.08242,-21.747789],[27.1457,-21.7663],[27.116031,-21.84646],[27.16565,-21.86369],[27.259568,-21.832019],[27.316522,-21.844021],[27.326308,-21.86911],[27.314479,-21.91503],[27.243851,-21.999611],[27.233529,-22.146839],[27.493469,-22.241521],[27.676381,-22.209569],[27.750781,-22.23317],[28.085689,-22.426919],[28.083599,-22.49138],[28.122841,-22.55314],[28.79329,-22.29446],[28.920099,-22.168818],[29.171763,-22.076965],[29.106621,-22.06231],[29.036695,-21.997209],[29.027179,-21.893601],[29.076812,-21.819901],[29.05116,-21.797819],[28.794559,-21.735429],[28.580785,-21.631382],[28.497873,-21.668468],[28.366517,-21.607258],[28.200295,-21.610843],[28.0305,-21.581752],[28.00996,-21.561641]]]},"properties":{"shapeName":"Bobonong","shapeISO":"","shapeID":"55941954B50535260459809","shapeGroup":"BWA","shapeType":"ADM2"}},
{"type":"Feature","geometry":{"type":"Polygon","coordinates":[[[27.849039,-22.86354],[27.748839,-22.852131],[27.620469,-22.96676],[27.34435,-22.9294],[27.22454,-22.956091],[27.203059,-22.89937],[27.290131,-22.840179],[27.25264,-22.766351],[27.12695,-22.747931],[27.01377,-22.771121],[26.926591,-22.732549],[26.924239,-22.758948],[26.82011,-22.786179],[26.81203,-22.80529],[26.848262,-23.03724],[26.832021,-23.159579],[26.74488,-23.350389],[26.73975,-23.41136],[26.769992,-23.499711],[26.887399,-23.598049],[27.17723,-23.4466],[27.28279,-23.31586],[27.397399,-23.28923],[27.564111,-23.135441],[27.64879,-23.108039],[27.758489,-23.0271],[27.849039,-22.86354]]]},"properties":{"shapeName":"Machaneng","shapeISO":"","shapeID":"55941954B28903282369970","shapeGroup":"BWA","shapeType":"ADM2"}},
{"type":"Feature","geometry":{"type":"Polygon","coordinates":[[[25.821582,-25.047608],[25.889509,-24.887818],[25.86866,-24.755211],[25.933679,-24.721211],[26.182212,-24.683719],[26.14139,-24.62278],[25.949681,-24.506571],[25.847441,-24.607282],[25.685738,-24.770611],[25.686671,-24.84528],[25.626109,-24.87028],[25.639998,-24.888611],[25.595831,-25.01],[25.667031,-25.0059],[25.821582,-25.047608]]]},"properties":{"shapeName":"Gaborone","shapeISO":"","shapeID":"55941954B98371115502172","shapeGroup":"BWA","shapeType":"ADM2"}},
{"type":"Feature","geometry":{"type":"Polygon","coordinates":[[[24.50167,-20.391669],[24.381109,-20.394721],[24.328889,-20.326951],[24.278329,-20.30694],[24.25917,-20.234172],[24.213611,-20.24944],[24.15361,-20.19583],[24.026671,-20.24472],[23.99139,-20.303891],[23.91444,-20.31695],[23.879441,-20.293329],[23.881251,-20.992942],[24.998269,-22.40382],[26.061819,-21.65395],[26.15981,-21.333112],[26.225269,-21.302419],[26.251089,-21.110671],[26.18623,-21.127559],[26.16058,-21.195128],[26.14157,-21.19375],[26.153169,-21.14893],[26.09477,-21.187879],[25.99385,-21.176841],[25.96581,-21.153391],[25.974051,-21.1196],[25.94509,-21.129941],[25.89107,-21.107869],[25.842251,-21.00926],[25.652479,-20.92511],[25.580089,-20.97751],[25.511209,-20.993361],[25.486521,-20.96164],[25.50016,-20.880961],[25.444419,-20.965079],[25.316459,-21.009541],[25.3284,-20.969549],[25.405279,-20.962659],[25.39699,-20.941971],[25.33889,-20.92818],[25.370559,-20.893699],[25.24695,-20.819559],[25.28913,-20.802331],[25.30688,-20.770961],[25.29277,-20.743379],[25.189391,-20.71509],[25.04839,-20.86229],[25.10235,-20.958139],[25.042049,-20.945378],[24.990919,-20.991921],[24.985009,-20.93917],[24.921941,-20.96226],[24.933179,-20.85538],[24.96596,-20.81849],[24.941879,-20.80608],[24.940299,-20.76333],[24.981859,-20.788499],[24.972891,-20.759198],[24.912239,-20.72257],[24.909321,-20.674619],[24.84499,-20.808849],[24.812451,-20.7922],[24.779889,-20.825179],[24.767509,-20.800191],[24.74947,-20.812692],[24.75204,-20.83513],[24.699659,-20.82958],[24.69808,-20.788891],[24.549521,-20.830259],[24.54432,-20.61889],[24.445611,-20.61649],[24.42449,-20.591379],[24.508471,-20.48294],[24.50167,-20.391669]]]},"properties":{"shapeName":"Lethlakane","shapeISO":"","shapeID":"55941954B49792364057910","shapeGroup":"BWA","shapeType":"ADM2"}},
{"type":"Feature","geometry":{"type":"Polygon","coordinates":[[[26.926591,-22.732549],[26.927371,-22.72382],[26.82501,-22.7142],[26.71674,-22.751828],[26.54213,-22.70963],[26.460239,-22.72088],[26.29399,-22.85542],[26.171529,-22.92141],[25.910851,-22.923919],[25.49394,-22.873769],[25.43644,-22.94243],[25.735829,-23.318889],[25.861389,-23.355829],[26.01723,-23.558649],[26.712781,-23.950831],[26.79305,-23.865829],[26.83806,-23.856671],[26.886111,-23.77722],[26.901671,-23.791941],[26.95521,-23.749041],[26.95937,-23.707461],[26.87116,-23.61893],[26.887399,-23.598049],[26.769992,-23.499711],[26.73975,-23.41136],[26.74488,-23.350389],[26.832021,-23.159579],[26.848262,-23.03724],[26.81203,-22.80529],[26.82011,-22.786179],[26.924239,-22.758948],[26.926591,-22.732549]]]},"properties":{"shapeName":"Mahalapye","shapeISO":"","shapeID":"55941954B87089695796057","shapeGroup":"BWA","shapeType":"ADM2"}},
{"type":"Feature","geometry":{"type":"Polygon","coordinates":[[[27.233529,-22.146839],[27.217489,-22.174179],[27.073739,-22.20861],[27.0032,-22.35282],[26.880951,-22.44603],[26.887688,-22.507669],[26.91182,-22.524731],[27.042791,-22.556901],[27.034499,-22.584191],[26.95844,-22.634001],[26.927371,-22.72382],[26.926591,-22.732549],[27.01377,-22.771121],[27.12695,-22.747931],[27.25264,-22.766351],[27.290131,-22.840179],[27.203059,-22.89937],[27.22454,-22.956091],[27.34435,-22.9294],[27.620469,-22.96676],[27.748839,-22.852131],[27.849039,-22.86354],[28.002858,-22.60636],[28.122841,-22.55314],[28.083599,-22.49138],[28.085689,-22.426919],[27.750781,-22.23317],[27.676381,-22.209569],[27.493469,-22.241521],[27.233529,-22.146839]]]},"properties":{"shapeName":"Palapye","shapeISO":"","shapeID":"55941954B44678367556360","shapeGroup":"BWA","shapeType":"ADM2"}},
{"type":"Feature","geometry":{"type":"Polygon","coordinates":[[[25.667031,-25.0059],[25.589491,-25.252751],[25.53707,-25.418989],[25.65257,-25.462748],[25.708468,-25.281441],[25.821582,-25.047608],[25.667031,-25.0059]]]},"properties":{"shapeName":"South East","shapeISO":"","shapeID":"55941954B89738474745599","shapeGroup":"BWA","shapeType":"ADM2"}},
{"type":"Feature","geometry":{"type":"Polygon","coordinates":[[[27.94242,-21.555731],[27.856109,-21.531112],[27.747219,-21.558612],[27.624171,-21.530831],[27.573891,-21.48111],[27.502782,-21.472499],[27.401939,-21.33083],[27.349719,-21.095831],[27.30823,-21.09563],[27.19988,-21.040799],[27.04685,-21.0556],[27.00493,-21.09215],[26.7559,-21.067289],[26.643379,-21.10141],[26.51365,-21.19862],[26.225269,-21.302419],[26.15981,-21.333112],[26.061819,-21.65395],[24.998269,-22.40382],[25.43644,-22.94243],[25.49394,-22.873769],[25.910851,-22.923919],[26.171529,-22.92141],[26.29399,-22.85542],[26.460239,-22.72088],[26.54213,-22.70963],[26.71674,-22.751828],[26.82501,-22.7142],[26.927371,-22.72382],[26.95844,-22.634001],[27.034499,-22.584191],[27.042791,-22.556901],[26.91182,-22.524731],[26.887688,-22.507669],[26.880951,-22.44603],[27.0032,-22.35282],[27.073739,-22.20861],[27.217489,-22.174179],[27.233529,-22.146839],[27.243851,-21.999611],[27.314479,-21.91503],[27.326308,-21.86911],[27.316522,-21.844021],[27.259568,-21.832019],[27.16565,-21.86369],[27.116031,-21.84646],[27.1457,-21.7663],[27.08242,-21.747789],[27.116429,-21.67137],[27.465531,-21.665212],[27.79254,-21.556649],[27.94242,-21.555731]]]},"properties":{"shapeName":"Serowe","shapeISO":"","shapeID":"55941954B86221332842775","shapeGroup":"BWA","shapeType":"ADM2"}},
{"type":"Feature","geometry":{"type":"Polygon","coordinates":[[[25.53707,-25.418989],[25.353311,-25.453871],[25.169038,-25.761265],[25.331399,-25.77053],[25.42078,-25.737439],[25.583929,-25.633169],[25.65257,-25.462748],[25.53707,-25.418989]]]},"properties":{"shapeName":"Barolong","shapeISO":"","shapeID":"55941954B82526344478572","shapeGroup":"BWA","shapeType":"ADM2"}},
{"type":"Feature","geometry":{"type":"Polygon","coordinates":[[[28.122841,-22.55314],[28.002858,-22.60636],[27.849039,-22.86354],[27.758489,-23.0271],[27.64879,-23.108039],[27.564111,-23.135441],[27.397399,-23.28923],[27.28279,-23.31586],[27.17723,-23.4466],[26.887399,-23.598049],[26.87116,-23.61893],[26.95937,-23.707461],[26.95521,-23.749041],[26.96656,-23.749862],[27.010051,-23.64295],[27.033599,-23.683999],[27.06201,-23.67408],[27.082609,-23.649869],[27.063802,-23.616359],[27.120789,-23.569692],[27.151831,-23.573819],[27.142031,-23.52564],[27.20744,-23.5363],[27.19503,-23.50514],[27.309071,-23.457501],[27.333469,-23.406059],[27.37662,-23.431451],[27.379699,-23.403299],[27.40616,-23.39598],[27.40017,-23.422158],[27.41975,-23.42813],[27.449721,-23.38979],[27.53409,-23.383479],[27.607531,-23.22267],[27.65224,-23.233391],[27.69151,-23.206839],[27.719958,-23.240842],[27.74442,-23.236388],[27.78657,-23.178802],[27.767041,-23.144368],[27.816129,-23.13829],[27.823789,-23.113311],[27.934851,-23.05839],[27.940651,-22.96351],[28.045179,-22.909171],[28.0459,-22.83849],[28.155171,-22.76922],[28.16132,-22.71198],[28.27926,-22.617911],[28.346269,-22.576941],[28.51284,-22.587022],[28.629021,-22.559301],[28.70715,-22.513991],[28.829492,-22.48459],[28.830251,-22.462989],[28.866261,-22.446351],[28.916361,-22.459591],[28.97222,-22.372949],[28.965289,-22.308251],[29.033381,-22.217079],[29.15072,-22.214151],[29.200109,-22.18152],[29.360781,-22.196626],[29.248461,-22.06068],[29.171763,-22.076965],[28.920099,-22.168818],[28.79329,-22.29446],[28.122841,-22.55314]]]},"properties":{"shapeName":"Tuli","shapeISO":"","shapeID":"55941954B92705944270684","shapeGroup":"BWA","shapeType":"ADM2"}},
{"type":"Feature","geometry":{"type":"Polygon","coordinates":[[[26.225269,-21.302419],[26.51365,-21.19862],[26.643379,-21.10141],[26.7559,-21.067289],[27.00493,-21.09215],[27.04685,-21.0556],[27.19988,-21.040799],[27.30823,-21.09563],[27.349719,-21.095831],[27.355,-21.049439],[27.31695,-20.943051],[27.280001,-20.887219],[27.219439,-20.854999],[27.20695,-20.818059],[27.219171,-20.72139],[27.30472,-20.614719],[27.284971,-20.497813],[27.29786,-20.299879],[27.281259,-20.225801],[27.201678,-20.08701],[27.117601,-20.086507],[27.056294,-20.022515],[26.967935,-20.020043],[26.808625,-19.982254],[26.793129,-19.948526],[26.71718,-19.943858],[26.695129,-19.894911],[26.61623,-19.887561],[26.568609,-19.80068],[26.430747,-19.750605],[26.384396,-19.674767],[26.319773,-19.660388],[26.345769,-19.617148],[26.303498,-19.580735],[26.244259,-19.589434],[26.165991,-19.546071],[26.070511,-19.270911],[25.96253,-19.10737],[25.987279,-18.99912],[24.986939,-19.00167],[24.990281,-19.99778],[25.17,-20.069441],[25.160828,-20.342502],[24.50167,-20.391669],[24.508471,-20.48294],[24.42449,-20.591379],[24.445611,-20.61649],[24.54432,-20.61889],[24.549521,-20.830259],[24.69808,-20.788891],[24.699659,-20.82958],[24.75204,-20.83513],[24.74947,-20.812692],[24.767509,-20.800191],[24.779889,-20.825179],[24.812451,-20.7922],[24.84499,-20.808849],[24.909321,-20.674619],[24.912239,-20.72257],[24.972891,-20.759198],[24.981859,-20.788499],[24.940299,-20.76333],[24.941879,-20.80608],[24.96596,-20.81849],[24.933179,-20.85538],[24.921941,-20.96226],[24.985009,-20.93917],[24.990919,-20.991921],[25.042049,-20.945378],[25.10235,-20.958139],[25.04839,-20.86229],[25.189391,-20.71509],[25.29277,-20.743379],[25.30688,-20.770961],[25.28913,-20.802331],[25.24695,-20.819559],[25.370559,-20.893699],[25.33889,-20.92818],[25.39699,-20.941971],[25.405279,-20.962659],[25.3284,-20.969549],[25.316459,-21.009541],[25.444419,-20.965079],[25.50016,-20.880961],[25.486521,-20.96164],[25.511209,-20.993361],[25.580089,-20.97751],[25.652479,-20.92511],[25.842251,-21.00926],[25.89107,-21.107869],[25.94509,-21.129941],[25.974051,-21.1196],[25.96581,-21.153391],[25.99385,-21.176841],[26.09477,-21.187879],[26.153169,-21.14893],[26.14157,-21.19375],[26.16058,-21.195128],[26.18623,-21.127559],[26.251089,-21.110671],[26.225269,-21.302419]]]},"properties":{"shapeName":"Tutume","shapeISO":"","shapeID":"55941954B61152089533455","shapeGroup":"BWA","shapeType":"ADM2"}},
{"type":"Feature","geometry":{"type":"Polygon","coordinates":[[[23.881251,-20.992942],[22.651698,-21.000169],[20.99711,-20.992951],[21.001741,-22.003839],[19.999999,-22.001778],[19.999999,-23.30889],[21.400551,-23.31111],[23.056669,-23.31139],[25.236081,-23.316931],[25.43644,-22.94243],[24.998269,-22.40382],[23.881251,-20.992942]]]},"properties":{"shapeName":"Ghanzi","shapeISO":"","shapeID":"55941954B82416766201839","shapeGroup":"BWA","shapeType":"ADM2"}},
{"type":"Feature","geometry":{"type":"Polygon","coordinates":[[[19.999999,-24.140531],[20.000241,-24.752991],[20.127891,-24.883189],[20.26261,-24.92392],[20.290881,-24.974079],[20.37914,-25.02891],[20.4377,-25.15256],[20.465932,-25.153401],[20.457909,-25.211501],[20.54046,-25.288299],[20.520109,-25.311701],[20.545241,-25.32219],[20.563641,-25.38142],[20.606181,-25.396681],[20.626012,-25.454701],[20.675489,-25.45156],[20.632152,-25.51495],[20.69406,-25.58687],[20.655041,-25.6314],[20.6857,-25.63354],[20.679179,-25.685459],[20.75698,-25.78195],[20.745509,-25.824301],[20.78598,-25.803361],[20.80202,-25.912101],[20.838051,-25.95612],[20.81678,-26.0039],[20.839669,-26.07907],[20.8249,-26.1068],[20.856421,-26.12151],[20.857861,-26.14604],[20.819779,-26.17997],[20.785811,-26.276181],[20.61426,-26.469589],[21.047939,-26.4486],[21.861192,-25.37553],[22.178671,-25.370728],[22.176451,-24.87735],[21.879981,-24.881179],[19.999999,-24.140531]]]},"properties":{"shapeName":"Gemsbok","shapeISO":"","shapeID":"55941954B31216508800768","shapeGroup":"BWA","shapeType":"ADM2"}},
{"type":"Feature","geometry":{"type":"Polygon","coordinates":[[[19.999999,-23.30889],[19.999999,-24.140531],[21.879981,-24.881179],[22.176451,-24.87735],[23.098379,-24.88223],[23.0992,-24.85052],[23.04889,-24.837219],[23.054171,-24.0002],[23.05472,-23.569719],[22.95556,-23.569999],[22.954719,-23.424169],[23.056669,-23.415002],[23.056669,-23.31139],[21.400551,-23.31111],[19.999999,-23.30889]]]},"properties":{"shapeName":"Hukunsti","shapeISO":"","shapeID":"55941954B76527564067138","shapeGroup":"BWA","shapeType":"ADM2"}},
{"type":"Feature","geometry":{"type":"Polygon","coordinates":[[[20.61426,-26.469589],[20.631969,-26.79808],[20.688392,-26.855221],[20.693331,-26.907249],[20.71534,-26.87553],[20.901019,-26.79594],[21.142772,-26.87403],[21.395361,-26.825501],[21.52338,-26.8615],[21.58677,-26.84723],[21.62689,-26.86596],[21.699719,-26.860861],[21.783489,-26.794671],[21.779881,-26.6855],[21.81258,-26.665551],[21.951739,-26.671301],[22.047278,-26.634299],[22.1608,-26.507759],[22.198121,-26.39832],[22.24508,-26.357959],[22.365781,-26.322411],[22.3614,-26.297019],[22.400729,-26.275632],[22.40118,-26.249688],[22.470382,-26.20845],[22.56291,-26.22073],[22.581779,-26.145179],[22.606109,-26.15004],[22.67046,-26.075091],[22.667561,-26.026969],[22.724701,-26.018748],[22.74927,-25.92145],[22.71806,-25.899599],[22.78591,-25.822211],[22.743971,-25.797449],[22.824819,-25.69558],[22.8123,-25.634898],[22.854081,-25.61375],[22.818859,-25.58401],[22.856631,-25.528549],[22.849671,-25.48928],[22.902652,-25.48569],[22.91286,-25.418159],[22.970869,-25.38044],[23.01187,-25.293409],[23.03287,-25.30838],[23.06323,-25.289789],[23.054661,-25.31713],[23.076718,-25.328471],[23.19888,-25.272529],[23.35777,-25.282129],[23.416679,-25.30934],[23.46499,-25.274469],[23.498361,-25.3493],[23.530291,-25.3395],[23.590891,-25.393201],[23.612618,-25.38121],[23.63879,-25.432172],[23.662559,-25.41459],[23.675231,-25.444901],[23.724039,-25.445249],[23.76628,-25.503661],[23.82159,-25.51866],[23.812371,-25.544929],[23.878429,-25.57903],[23.908648,-25.626128],[24.00955,-25.622869],[24.01134,-25.6508],[24.060359,-25.653549],[24.06556,-25.62926],[24.087449,-25.642429],[24.157409,-25.6113],[24.15854,-25.62985],[24.192841,-25.62141],[24.23,-25.64636],[24.26253,-25.700879],[24.286021,-25.69927],[24.279229,-25.721339],[24.323239,-25.714101],[24.35708,-25.757981],[24.44649,-25.735331],[24.47872,-25.750182],[24.50028,-25.743611],[24.490829,-25.65444],[24.39861,-25.651939],[24.25028,-25.513612],[24.235871,-25.002119],[24.076669,-24.847781],[23.0992,-24.85052],[23.098379,-24.88223],[22.176451,-24.87735],[22.178671,-25.370728],[21.861192,-25.37553],[21.047939,-26.4486],[20.61426,-26.469589]]]},"properties":{"shapeName":"Tshabong","shapeISO":"","shapeID":"55941954B45615354641166","shapeGroup":"BWA","shapeType":"ADM2"}},
{"type":"Feature","geometry":{"type":"Polygon","coordinates":[[[26.182212,-24.683719],[26.421551,-24.63555],[26.595989,-24.40731],[26.66875,-24.390328],[26.712209,-24.317401],[26.78616,-24.305401],[26.865401,-24.260071],[26.884149,-24.158679],[26.870399,-24.100999],[26.917721,-24.01784],[26.96656,-23.749862],[26.95521,-23.749041],[26.901671,-23.791941],[26.886111,-23.77722],[26.83806,-23.856671],[26.79305,-23.865829],[26.712781,-23.950831],[26.01723,-23.558649],[25.948609,-24.294999],[25.882501,-24.375829],[25.873061,-24.454719],[25.949681,-24.506571],[26.14139,-24.62278],[26.182212,-24.683719]]]},"properties":{"shapeName":"Kgatleng","shapeISO":"","shapeID":"55941954B56458887922680","shapeGroup":"BWA","shapeType":"ADM2"}},
{"type":"Feature","geometry":{"type":"Polygon","coordinates":[[[25.595831,-25.01],[25.403021,-25.06815],[25.0555,-25.05807],[25.05176,-25.01068],[25.103,-24.915729],[25.0836,-24.8747],[24.922171,-24.844289],[24.80281,-24.789271],[24.69859,-24.709882],[24.601959,-24.69274],[24.47015,-24.71952],[24.4218,-24.753871],[24.331168,-24.880329],[24.26588,-25.02659],[24.353889,-25.012011],[24.37908,-25.02806],[24.41094,-25.22751],[24.43816,-25.26535],[24.52572,-25.223731],[24.571528,-25.151671],[24.658849,-25.125972],[24.712529,-25.151799],[24.76097,-25.271139],[24.8436,-25.316111],[25.057119,-25.265409],[25.160361,-25.171379],[25.311411,-25.26143],[25.589491,-25.252751],[25.667031,-25.0059],[25.595831,-25.01]]]},"properties":{"shapeName":"Ngwaketse Central","shapeISO":"","shapeID":"55941954B20262478145890","shapeGroup":"BWA","shapeType":"ADM2"}},
{"type":"Feature","geometry":{"type":"Polygon","coordinates":[[[25.949681,-24.506571],[25.873061,-24.454719],[25.882501,-24.375829],[25.948609,-24.294999],[26.01723,-23.558649],[25.861389,-23.355829],[25.735829,-23.318889],[25.43644,-22.94243],[25.236081,-23.316931],[25.212321,-23.9777],[25.462281,-24.32788],[25.773939,-24.533859],[25.847441,-24.607282],[25.949681,-24.506571]]]},"properties":{"shapeName":"Kweneng North","shapeISO":"","shapeID":"55941954B84762067272179","shapeGroup":"BWA","shapeType":"ADM2"}},
{"type":"Feature","geometry":{"type":"Polygon","coordinates":[[[22.651698,-21.000169],[22.720061,-20.437111],[22.69205,-20.3371],[22.597899,-20.249629],[22.53998,-20.15197],[22.569531,-19.0842],[22.607269,-19.070589],[22.702022,-19.09397],[22.835381,-19.06962],[23.0759,-19.116039],[23.182302,-19.04341],[23.204202,-17.99793],[22.988411,-18.018289],[21.468941,-18.31803],[20.998826,-18.317877],[20.997271,-19.999451],[20.99711,-20.992951],[22.651698,-21.000169]]]},"properties":{"shapeName":"Ngamiland West","shapeISO":"","shapeID":"55941954B78250687153975","shapeGroup":"BWA","shapeType":"ADM2"}},
{"type":"Feature","geometry":{"type":"Polygon","coordinates":[[[25.847441,-24.607282],[25.773939,-24.533859],[25.462281,-24.32788],[25.212321,-23.9777],[25.236081,-23.316931],[23.056669,-23.31139],[23.056669,-23.415002],[22.954719,-23.424169],[22.95556,-23.569999],[23.05472,-23.569719],[23.054171,-24.0002],[25.41389,-24.67917],[25.588891,-24.76722],[25.685738,-24.770611],[25.847441,-24.607282]]]},"properties":{"shapeName":"Kweneng South","shapeISO":"","shapeID":"55941954B98579419812372","shapeGroup":"BWA","shapeType":"ADM2"}},
{"type":"Feature","geometry":{"type":"Polygon","coordinates":[[[28.00996,-21.561641],[27.995848,-21.519771],[27.96659,-21.513761],[27.984928,-21.490286],[27.960569,-21.479387],[27.974911,-21.456301],[27.913031,-21.320191],[27.812831,-21.182231],[27.748757,-21.152415],[27.686029,-21.065849],[27.712373,-20.967625],[27.689441,-20.941718],[27.69009,-20.879899],[27.734326,-20.758059],[27.706267,-20.664956],[27.722071,-20.51928],[27.68385,-20.49034],[27.64564,-20.501451],[27.62389,-20.48363],[27.57178,-20.495311],[27.475772,-20.473379],[27.358209,-20.47352],[27.284971,-20.497813],[27.30472,-20.614719],[27.219171,-20.72139],[27.20695,-20.818059],[27.219439,-20.854999],[27.280001,-20.887219],[27.31695,-20.943051],[27.355,-21.049439],[27.349719,-21.095831],[27.401939,-21.33083],[27.502782,-21.472499],[27.573891,-21.48111],[27.624171,-21.530831],[27.747219,-21.558612],[27.856109,-21.531112],[27.94242,-21.555731],[28.00996,-21.561641]]]},"properties":{"shapeName":"Masungu","shapeISO":"","shapeID":"55941954B39393851070434","shapeGroup":"BWA","shapeType":"ADM2"}},
{"type":"Feature","geometry":{"type":"Polygon","coordinates":[[[25.987279,-18.99912],[25.94086,-18.910379],[25.819629,-18.843728],[25.79002,-18.75711],[25.783687,-18.634538],[25.710228,-18.597805],[25.643454,-18.499606],[25.609289,-18.487948],[25.522338,-18.385652],[25.420531,-18.158807],[25.292045,-18.029548],[25.237177,-17.917688],[25.268709,-17.78914],[25.15764,-17.781781],[25.141852,-17.8113],[25.06877,-17.84381],[25.0505,-17.811809],[24.987824,-17.830657],[24.966056,-17.80717],[24.980553,-17.791679],[24.961365,-17.792577],[24.736191,-17.89022],[24.706551,-17.942531],[24.661928,-17.944849],[24.575154,-18.0651],[24.4894,-18.046986],[24.455627,-17.961958],[24.367979,-17.951071],[24.296282,-18.030583],[24.271861,-18.010096],[24.19486,-18.019119],[24.117397,-18.104356],[24.062169,-18.112064],[24.057663,-18.135038],[23.93526,-18.205759],[23.92489,-18.248762],[23.88694,-18.270282],[23.884171,-18.993331],[24.986939,-19.00167],[25.987279,-18.99912]]]},"properties":{"shapeName":"Chobe","shapeISO":"","shapeID":"55941954B34591946516146","shapeGroup":"BWA","shapeType":"ADM2"}},
{"type":"Feature","geometry":{"type":"Polygon","coordinates":[[[24.50167,-20.391669],[25.160828,-20.342502],[25.17,-20.069441],[24.990281,-19.99778],[24.986939,-19.00167],[23.884171,-18.993331],[23.88694,-18.270282],[23.76522,-18.40551],[23.683889,-18.43837],[23.61286,-18.50405],[23.57145,-18.4845],[23.562482,-18.365989],[23.52489,-18.273858],[23.499669,-18.242597],[23.456641,-18.235201],[23.451871,-18.20258],[23.40163,-18.209169],[23.404795,-18.178859],[23.327838,-18.079728],[23.319702,-18.014481],[23.204202,-17.99793],[23.182302,-19.04341],[23.0759,-19.116039],[22.835381,-19.06962],[22.702022,-19.09397],[22.607269,-19.070589],[22.569531,-19.0842],[22.53998,-20.15197],[22.597899,-20.249629],[22.69205,-20.3371],[22.720061,-20.437111],[22.651698,-21.000169],[23.881251,-20.992942],[23.879441,-20.293329],[23.91444,-20.31695],[23.99139,-20.303891],[24.026671,-20.24472],[24.15361,-20.19583],[24.213611,-20.24944],[24.25917,-20.234172],[24.278329,-20.30694],[24.328889,-20.326951],[24.381109,-20.394721],[24.50167,-20.391669]]]},"properties":{"shapeName":"Ngamiland East","shapeISO":"","shapeID":"55941954B40687665076650","shapeGroup":"BWA","shapeType":"ADM2"}},
{"type":"Feature","geometry":{"type":"Polygon","coordinates":[[[25.685738,-24.770611],[25.588891,-24.76722],[25.41389,-24.67917],[23.054171,-24.0002],[23.04889,-24.837219],[23.0992,-24.85052],[24.076669,-24.847781],[24.235871,-25.002119],[24.26588,-25.02659],[24.331168,-24.880329],[24.4218,-24.753871],[24.47015,-24.71952],[24.601959,-24.69274],[24.69859,-24.709882],[24.80281,-24.789271],[24.922171,-24.844289],[25.0836,-24.8747],[25.103,-24.915729],[25.05176,-25.01068],[25.0555,-25.05807],[25.403021,-25.06815],[25.595831,-25.01],[25.639998,-24.888611],[25.626109,-24.87028],[25.686671,-24.84528],[25.685738,-24.770611]]]},"properties":{"shapeName":"Ngwaketse North","shapeISO":"","shapeID":"55941954B26927140411587","shapeGroup":"BWA","shapeType":"ADM2"}},
{"type":"Feature","geometry":{"type":"Polygon","coordinates":[[[25.589491,-25.252751],[25.311411,-25.26143],[25.160361,-25.171379],[25.057119,-25.265409],[24.8436,-25.316111],[24.76097,-25.271139],[24.712529,-25.151799],[24.658849,-25.125972],[24.571528,-25.151671],[24.52572,-25.223731],[24.43816,-25.26535],[24.41094,-25.22751],[24.37908,-25.02806],[24.353889,-25.012011],[24.26588,-25.02659],[24.235871,-25.002119],[24.25028,-25.513612],[24.39861,-25.651939],[24.490829,-25.65444],[24.50028,-25.743611],[24.47872,-25.750182],[24.684129,-25.823989],[24.734801,-25.80783],[24.798678,-25.82576],[24.904601,-25.813339],[25.01444,-25.726472],[25.049668,-25.721781],[25.169038,-25.761265],[25.353311,-25.453871],[25.53707,-25.418989],[25.589491,-25.252751]]]},"properties":{"shapeName":"Ngwaketse South","shapeISO":"","shapeID":"55941954B49613130605683","shapeGroup":"BWA","shapeType":"ADM2"}}
]}