{"type":"FeatureCollection", "features": [
{"type":"Feature","geometry":{"type":"Polygon","coordinates":[[[13.35322,5.98675],[13.3978,6.06615],[13.34068,6.15669],[13.33929,6.35727],[13.29333,6.46035],[13.39816,6.63314],[13.34068,6.7459],[13.20139,6.75425],[13.04867,6.86055],[12.87823,6.77097],[12.82591,7.00005],[12.59825,6.97573],[12.49518,7.03005],[12.42698,6.9074],[12.33638,6.87962],[12.23505,6.96369],[12.19152,6.82251],[12.03272,6.70132],[12.08719,6.55944],[12.15809,6.50631],[12.07379,6.4029],[12.07619,6.32495],[11.97906,6.2518],[12.0594,6.16786],[12.30658,6.19404],[12.47529,6.06262],[12.51028,5.99519],[12.87822,5.98945],[13.35322,5.98675]]]},"properties":{"shapeName":"Djerem","shapeISO":"","shapeID":"32672807B72380332498823","shapeGroup":"CMR","shapeType":"ADM2"}},
{"type":"Feature","geometry":{"type":"Polygon","coordinates":[[[12.82591,7.00005],[12.82391,7.12895],[12.92268,7.24036],[13.00637,7.25239],[13.02317,7.37089],[13.12191,7.40892],[13.13747,7.51008],[13.25506,7.59744],[12.8179,7.67088],[12.6341,7.75372],[12.61598,7.92199],[12.48615,7.93998],[12.25634,8.16905],[12.20611,8.08871],[12.21056,7.9694],[12.04232,7.73185],[12.03943,7.52309],[11.95071,7.48784],[11.8492,7.37282],[11.80219,7.25412],[12.0265,7.19488],[12.15915,6.98806],[12.23505,6.96369],[12.33638,6.87962],[12.42698,6.9074],[12.49518,7.03005],[12.59825,6.97573],[12.82591,7.00005]]]},"properties":{"shapeName":"Faro-et-Deo","shapeISO":"","shapeID":"32672807B79440248069412","shapeGroup":"CMR","shapeType":"ADM2"}},
{"type":"Feature","geometry":{"type":"Polygon","coordinates":[[[12.23505,6.96369],[12.15915,6.98806],[12.0265,7.19488],[11.80219,7.25412],[11.84693,7.07965],[11.7184,7.05891],[11.632,6.98225],[11.55935,6.8668],[11.60035,6.80078],[11.52092,6.60988],[11.43336,6.59961],[11.42953,6.53062],[11.35264,6.50245],[11.18575,6.54374],[11.19602,6.2638],[11.30087,6.2408],[11.268,6.13718],[11.30943,6.03951],[11.26711,5.97682],[11.66398,6.08266],[11.79439,6.18825],[11.97906,6.2518],[12.07619,6.32495],[12.07379,6.4029],[12.15809,6.50631],[12.08719,6.55944],[12.03272,6.70132],[12.19152,6.82251],[12.23505,6.96369]]]},"properties":{"shapeName":"Mayo-Banyo","shapeISO":"","shapeID":"32672807B95498803014525","shapeGroup":"CMR","shapeType":"ADM2"}},
{"type":"Feature","geometry":{"type":"Polygon","coordinates":[[[13.35322,5.98675],[13.83585,6.00045],[13.9809,6.06296],[14.04459,6.03027],[14.25469,6.05602],[14.3909,6.11836],[14.4257,6.08375],[14.56198,6.19011],[14.75068,6.261],[14.96686,6.7434],[15.06651,6.77616],[15.14866,7.02794],[15.22533,7.13747],[15.21619,7.2248],[15.00413,7.07587],[14.77641,7.00563],[14.71008,6.94138],[14.62807,6.93057],[14.57183,6.83803],[14.54135,6.85981],[14.40423,6.80105],[14.26149,6.85863],[14.04821,6.69947],[13.89018,6.76527],[13.90761,6.65257],[13.77245,6.52666],[13.6917,6.52442],[13.52366,6.61573],[13.39816,6.63314],[13.29333,6.46035],[13.33929,6.35727],[13.34068,6.15669],[13.3978,6.06615],[13.35322,5.98675]]]},"properties":{"shapeName":"Mbere","shapeISO":"","shapeID":"32672807B16068661668461","shapeGroup":"CMR","shapeType":"ADM2"}},
{"type":"Feature","geometry":{"type":"Polygon","coordinates":[[[13.39816,6.63314],[13.52366,6.61573],[13.6917,6.52442],[13.77245,6.52666],[13.90761,6.65257],[13.89018,6.76527],[14.04821,6.69947],[14.26149,6.85863],[14.40423,6.80105],[14.54135,6.85981],[14.57183,6.83803],[14.62807,6.93057],[14.71008,6.94138],[14.77641,7.00563],[14.63276,7.00563],[14.52611,7.15799],[14.32806,7.16669],[14.33116,7.30337],[14.1498,7.48951],[14.12116,7.57065],[14.01298,7.55156],[13.72449,7.71235],[13.72661,7.9302],[13.45297,7.90633],[13.35673,7.94734],[13.25506,7.59744],[13.13747,7.51008],[13.12191,7.40892],[13.02317,7.37089],[13.00637,7.25239],[12.92268,7.24036],[12.82391,7.12895],[12.82591,7.00005],[12.87823,6.77097],[13.04867,6.86055],[13.20139,6.75425],[13.34068,6.7459],[13.39816,6.63314]]]},"properties":{"shapeName":"Vina","shapeISO":"","shapeID":"32672807B59264134581656","shapeGroup":"CMR","shapeType":"ADM2"}},
{"type":"Feature","geometry":{"type":"Polygon","coordinates":[[[13.19212,4.5645],[13.2373,4.81179],[13.18089,4.94257],[13.04498,4.97463],[13.0578,5.05668],[12.82884,5.28859],[12.53612,5.1982],[12.41581,4.99786],[12.28999,4.91321],[12.00713,4.84739],[11.97093,4.66085],[11.854,4.60517],[11.81502,4.50772],[11.72871,4.4409],[11.71887,4.37718],[11.73769,4.32674],[11.89089,4.25203],[11.96011,4.26561],[12.02798,4.19367],[12.11621,4.20996],[12.13928,4.18688],[12.11078,4.0715],[12.27719,4.12907],[12.4693,4.32953],[12.66246,4.36132],[12.79568,4.31061],[12.89807,4.52721],[12.97881,4.57175],[13.19212,4.5645]]]},"properties":{"shapeName":"Haute-Sanaga","shapeISO":"","shapeID":"32672807B25561230915667","shapeGroup":"CMR","shapeType":"ADM2"}},
{"type":"Feature","geometry":{"type":"Polygon","coordinates":[[[11.71887,4.37718],[11.62291,4.35459],[11.42531,4.49772],[11.29093,4.38641],[11.0943,4.19106],[11.09143,4.17175],[11.19992,4.00189],[11.17012,3.82989],[11.23332,3.77843],[11.39799,3.83779],[11.52954,3.88848],[11.59256,4.04272],[11.75617,4.22543],[11.73769,4.32674],[11.71887,4.37718]]]},"properties":{"shapeName":"Lekie","shapeISO":"","shapeID":"32672807B3101876589222","shapeGroup":"CMR","shapeType":"ADM2"}},
{"type":"Feature","geometry":{"type":"Polygon","coordinates":[[[11.29093,4.38641],[11.28821,4.4475],[11.40902,4.60767],[11.38609,4.72307],[11.29093,4.79227],[11.38051,5.01759],[11.22035,5.24563],[11.08054,5.19405],[10.99416,5.13153],[10.95702,4.97008],[10.8715,4.94429],[10.80363,5.02031],[10.64482,4.91715],[10.51584,4.91016],[10.37063,4.77326],[10.35977,4.70947],[10.43817,4.74295],[10.49822,4.72168],[10.39235,4.51401],[10.5235,4.46039],[10.61917,4.44805],[10.71269,4.52581],[10.74517,4.48742],[10.81549,4.62013],[10.91748,4.61993],[10.89865,4.46107],[11.0943,4.19106],[11.29093,4.38641]]]},"properties":{"shapeName":"Mbam-et-Inoubou","shapeISO":"","shapeID":"32672807B45233775776188","shapeGroup":"CMR","shapeType":"ADM2"}},
{"type":"Feature","geometry":{"type":"Polygon","coordinates":[[[11.97906,6.2518],[11.79439,6.18825],[11.66398,6.08266],[11.26711,5.97682],[11.27833,5.80751],[11.31397,5.78477],[11.20718,5.67135],[11.18777,5.39087],[11.07955,5.29565],[11.08054,5.19405],[11.22035,5.24563],[11.38051,5.01759],[11.29093,4.79227],[11.38609,4.72307],[11.40902,4.60767],[11.28821,4.4475],[11.29093,4.38641],[11.42531,4.49772],[11.62291,4.35459],[11.71887,4.37718],[11.72871,4.4409],[11.81502,4.50772],[11.854,4.60517],[11.97093,4.66085],[12.00713,4.84739],[12.28999,4.91321],[12.41581,4.99786],[12.53612,5.1982],[12.82884,5.28859],[12.96778,5.32145],[13.07405,5.52469],[12.87227,5.90567],[12.87822,5.98945],[12.51028,5.99519],[12.47529,6.06262],[12.30658,6.19404],[12.0594,6.16786],[11.97906,6.2518]]]},"properties":{"shapeName":"Mbam-et-Kim","shapeISO":"","shapeID":"32672807B95944109326060","shapeGroup":"CMR","shapeType":"ADM2"}},
{"type":"Feature","geometry":{"type":"Polygon","coordinates":[[[11.73769,4.32674],[11.75617,4.22543],[11.59256,4.04272],[11.52954,3.88848],[11.5858,3.85689],[11.59638,3.78967],[11.54477,3.72149],[11.49471,3.71904],[11.51182,3.61509],[11.65814,3.54714],[11.76058,3.64122],[11.72936,3.68737],[11.77822,3.74709],[11.85016,3.80274],[11.93839,3.7661],[12.12435,4.02943],[12.11078,4.0715],[12.13928,4.18688],[12.11621,4.20996],[12.02798,4.19367],[11.96011,4.26561],[11.89089,4.25203],[11.73769,4.32674]]]},"properties":{"shapeName":"Mefou-et-Afamba","shapeISO":"","shapeID":"32672807B57773393916452","shapeGroup":"CMR","shapeType":"ADM2"}},
{"type":"Feature","geometry":{"type":"Polygon","coordinates":[[[11.23332,3.77843],[11.25871,3.54404],[11.18815,3.46942],[11.33012,3.42042],[11.3683,3.34803],[11.45563,3.3781],[11.43617,3.42811],[11.51182,3.61509],[11.49471,3.71904],[11.39799,3.83779],[11.23332,3.77843]]]},"properties":{"shapeName":"Mefou-et-Akono","shapeISO":"","shapeID":"32672807B65731125326388","shapeGroup":"CMR","shapeType":"ADM2"}},
{"type":"Feature","geometry":{"type":"Polygon","coordinates":[[[11.39799,3.83779],[11.49471,3.71904],[11.54477,3.72149],[11.59638,3.78967],[11.5858,3.85689],[11.52954,3.88848],[11.39799,3.83779]]]},"properties":{"shapeName":"Mfoundi","shapeISO":"","shapeID":"32672807B36529963659187","shapeGroup":"CMR","shapeType":"ADM2"}},
{"type":"Feature","geometry":{"type":"Polygon","coordinates":[[[11.09143,4.17175],[10.70183,4.0525],[10.65161,3.94798],[10.66654,3.84211],[10.60138,3.72266],[10.44936,3.82582],[10.39642,3.80817],[10.3322,3.62306],[10.29055,3.54756],[10.25199,3.54583],[10.28919,3.35346],[10.80499,3.48648],[10.85493,3.4099],[10.9638,3.43218],[11.06289,3.39553],[11.18815,3.46942],[11.25871,3.54404],[11.23332,3.77843],[11.17012,3.82989],[11.19992,4.00189],[11.09143,4.17175]]]},"properties":{"shapeName":"Nyong-et-Kelle","shapeISO":"","shapeID":"32672807B27096701160694","shapeGroup":"CMR","shapeType":"ADM2"}},
{"type":"Feature","geometry":{"type":"Polygon","coordinates":[[[12.11078,4.0715],[12.12435,4.02943],[11.93839,3.7661],[11.99726,3.67019],[11.91803,3.53263],[11.83252,3.55027],[11.82166,3.49869],[11.88402,3.45094],[12.12803,3.3521],[12.13524,3.29857],[12.2279,3.33872],[12.25982,3.47154],[12.45956,3.6651],[12.50281,3.6651],[12.57076,3.55905],[12.60988,3.74953],[12.51825,3.801],[12.50239,3.88279],[12.65621,3.93897],[12.788,4.03884],[12.76535,4.11091],[12.79568,4.31061],[12.66246,4.36132],[12.4693,4.32953],[12.27719,4.12907],[12.11078,4.0715]]]},"properties":{"shapeName":"Nyong-et-Mfoumou","shapeISO":"","shapeID":"32672807B17257894448554","shapeGroup":"CMR","shapeType":"ADM2"}},
{"type":"Feature","geometry":{"type":"Polygon","coordinates":[[[11.51182,3.61509],[11.43617,3.42811],[11.45563,3.3781],[11.3683,3.34803],[11.33012,3.42042],[11.18815,3.46942],[11.06289,3.39553],[11.12538,3.24153],[11.2122,3.13356],[11.53661,3.14171],[11.64466,3.17937],[11.69946,3.21376],[11.76047,3.34054],[11.86034,3.38711],[11.88402,3.45094],[11.82166,3.49869],[11.83252,3.55027],[11.91803,3.53263],[11.99726,3.67019],[11.93839,3.7661],[11.85016,3.80274],[11.77822,3.74709],[11.72936,3.68737],[11.76058,3.64122],[11.65814,3.54714],[11.51182,3.61509]]]},"properties":{"shapeName":"Nyong-et-So","shapeISO":"","shapeID":"32672807B23369878558765","shapeGroup":"CMR","shapeType":"ADM2"}},
{"type":"Feature","geometry":{"type":"Polygon","coordinates":[[[14.41468,3.72773],[14.48382,3.58793],[14.51238,3.40003],[14.37993,3.02872],[14.53644,2.83933],[14.5214,2.78671],[14.58808,2.74507],[14.59388,2.20074],[14.65093,2.12907],[14.77207,2.09541],[14.77496,2.0616],[14.87822,2.10776],[14.92299,1.99773],[14.98711,2.03318],[15.04253,1.97737],[15.06638,2.00144],[15.10771,1.97832],[15.15247,2.03888],[15.21444,2.03569],[15.34486,1.9111],[15.4937,1.97564],[15.75006,1.91582],[15.88057,1.77988],[16.03254,1.76247],[16.03235,1.65741],[16.14885,1.689],[16.1148,1.88698],[16.05572,2.00126],[16.08632,2.1923],[16.14749,2.17516],[16.19199,2.22051],[16.07563,2.46519],[16.07319,2.9034],[15.88825,3.09625],[15.79816,3.09998],[15.24779,3.71397],[15.06709,4.01244],[14.95148,3.90182],[14.88368,3.88256],[14.81603,3.76381],[14.41468,3.72773]]]},"properties":{"shapeName":"Boumba-Et-Ngoko","shapeISO":"","shapeID":"32672807B40314964499081","shapeGroup":"CMR","shapeType":"ADM2"}},
{"type":"Feature","geometry":{"type":"Polygon","coordinates":[[[12.79568,4.31061],[12.76535,4.11091],[12.788,4.03884],[12.65621,3.93897],[12.50239,3.88279],[12.51825,3.801],[12.60988,3.74953],[12.57076,3.55905],[12.5512,3.40873],[12.70769,3.24194],[12.75505,3.15648],[12.76432,2.97321],[12.84154,2.88982],[13.10923,2.84143],[13.20704,2.8682],[13.27191,2.78377],[13.29353,2.84761],[13.44237,2.77401],[13.62815,2.90423],[13.67137,2.17069],[14.30989,2.19056],[14.43366,2.15594],[14.59388,2.20074],[14.58808,2.74507],[14.5214,2.78671],[14.53644,2.83933],[14.37993,3.02872],[14.51238,3.40003],[14.48382,3.58793],[14.41468,3.72773],[14.00129,3.67512],[13.9111,3.80289],[13.74875,3.88857],[13.52627,3.94569],[13.55333,4.00282],[13.52928,4.06896],[13.66006,4.19373],[13.74803,4.345],[13.57802,4.48013],[13.19212,4.5645],[12.97881,4.57175],[12.89807,4.52721],[12.79568,4.31061]]]},"properties":{"shapeName":"Haut-Nyong","shapeISO":"","shapeID":"32672807B24706785822934","shapeGroup":"CMR","shapeType":"ADM2"}},
{"type":"Feature","geometry":{"type":"Polygon","coordinates":[[[15.06709,4.01244],[15.18347,4.05423],[15.1069,4.13591],[15.09312,4.29216],[15.01618,4.41663],[14.89085,4.46691],[14.73201,4.60929],[14.67638,5.17921],[14.52787,5.27802],[14.46307,5.24208],[14.5127,5.06691],[14.42862,4.97077],[14.35336,4.95681],[14.31789,4.89136],[14.26061,4.87994],[14.23665,4.69665],[13.97804,4.55671],[13.93685,4.49129],[13.95918,4.40358],[13.93518,4.3787],[13.74803,4.345],[13.66006,4.19373],[13.52928,4.06896],[13.55333,4.00282],[13.52627,3.94569],[13.74875,3.88857],[13.9111,3.80289],[14.00129,3.67512],[14.41468,3.72773],[14.81603,3.76381],[14.88368,3.88256],[14.95148,3.90182],[15.06709,4.01244]]]},"properties":{"shapeName":"Kadei","shapeISO":"","shapeID":"32672807B29047919086815","shapeGroup":"CMR","shapeType":"ADM2"}},
{"type":"Feature","geometry":{"type":"Polygon","coordinates":[[[12.87822,5.98945],[12.87227,5.90567],[13.07405,5.52469],[12.96778,5.32145],[12.82884,5.28859],[13.0578,5.05668],[13.04498,4.97463],[13.18089,4.94257],[13.2373,4.81179],[13.19212,4.5645],[13.57802,4.48013],[13.74803,4.345],[13.93518,4.3787],[13.95918,4.40358],[13.93685,4.49129],[13.97804,4.55671],[14.23665,4.69665],[14.26061,4.87994],[14.31789,4.89136],[14.35336,4.95681],[14.42862,4.97077],[14.5127,5.06691],[14.46307,5.24208],[14.52787,5.27802],[14.63101,5.5066],[14.59513,5.58741],[14.62267,5.88603],[14.6,5.92058],[14.49361,5.9144],[14.4257,6.08375],[14.3909,6.11836],[14.25469,6.05602],[14.04459,6.03027],[13.9809,6.06296],[13.83585,6.00045],[13.35322,5.98675],[12.87822,5.98945]]]},"properties":{"shapeName":"Lom-Et-Djerem","shapeISO":"","shapeID":"32672807B76674513300734","shapeGroup":"CMR","shapeType":"ADM2"}},
{"type":"Feature","geometry":{"type":"Polygon","coordinates":[[[13.92598,10.20123],[14.03386,10.12045],[14.02866,10.3075],[14.20596,10.36301],[14.33407,10.50265],[14.47325,10.43399],[14.65325,10.4377],[14.68989,10.54753],[14.61613,10.62142],[14.70706,10.67894],[14.75271,10.95158],[14.44628,11.10885],[14.37762,11.04101],[14.38126,10.96808],[14.21875,10.87387],[14.25138,10.76459],[14.2089,10.71567],[14.12758,10.79433],[13.9865,10.7437],[14.0293,10.45253],[13.93029,10.36554],[13.92598,10.20123]]]},"properties":{"shapeName":"Diamare","shapeISO":"","shapeID":"32672807B30054475581978","shapeGroup":"CMR","shapeType":"ADM2"}},
{"type":"Feature","geometry":{"type":"Polygon","coordinates":[[[14.75271,10.95158],[14.8266,11.01639],[14.96974,10.96029],[15.05065,10.99449],[15.02658,11.2828],[15.14249,11.53736],[15.06564,11.71073],[15.11895,11.79355],[15.05179,11.85883],[15.05204,11.96583],[15.08666,11.9936],[15.03971,12.02417],[15.03809,12.09624],[14.96722,12.09199],[14.89129,12.1609],[14.91047,12.37923],[14.87801,12.46417],[14.84896,12.45638],[14.83153,12.6285],[14.76523,12.63546],[14.74768,12.68632],[14.71861,12.65736],[14.71675,12.71833],[14.55548,12.78096],[14.55215,12.95074],[14.45988,13.0745],[14.08543,13.07806],[14.196969986000056,12.515259743000058],[14.17308044400005,12.405099869000026],[14.224789619000035,12.359239578000029],[14.485960007000074,12.34883022300005],[14.549969673000078,12.232629776000067],[14.680069923000076,12.156029701000023],[14.623940468000058,12.042840004000027],[14.65857982600005,11.957770348000054],[14.60523986800007,11.864520073000051],[14.610159874000033,11.780300140000065],[14.552479744000038,11.717729568000038],[14.64005,11.63763],[14.63724,11.5288],[14.45153,11.45863],[14.41564,11.40707],[14.4016,11.23252],[14.44628,11.10885],[14.75271,10.95158]]]},"properties":{"shapeName":"Logone-Et-Chari","shapeISO":"","shapeID":"32672807B53801841297301","shapeGroup":"CMR","shapeType":"ADM2"}},
{"type":"Feature","geometry":{"type":"Polygon","coordinates":[[[14.70706,10.67894],[14.92052,10.40443],[14.85284,10.24039],[14.89442,10.11044],[14.79098,9.93213],[14.98548,10.0011],[15.10145,9.96386],[15.13283,9.99462],[15.21259,9.96453],[15.2361,9.99644],[15.43501,9.93331],[15.68369,9.98506],[15.48617,10.11898],[15.31021,10.30745],[15.24111,10.47072],[15.14594,10.53835],[15.15452,10.64646],[15.06941,10.80538],[15.09213,10.89253],[15.05065,10.99449],[14.96974,10.96029],[14.8266,11.01639],[14.75271,10.95158],[14.70706,10.67894]]]},"properties":{"shapeName":"Mayo-Danay","shapeISO":"","shapeID":"32672807B23743986432811","shapeGroup":"CMR","shapeType":"ADM2"}},
{"type":"Feature","geometry":{"type":"Polygon","coordinates":[[[14.03386,10.12045],[14.05502,10.08655],[14.19651,10.05527],[14.19237,9.96516],[14.23641,9.99741],[14.4847,10.01021],[14.79098,9.93213],[14.89442,10.11044],[14.85284,10.24039],[14.92052,10.40443],[14.70706,10.67894],[14.61613,10.62142],[14.68989,10.54753],[14.65325,10.4377],[14.47325,10.43399],[14.33407,10.50265],[14.20596,10.36301],[14.02866,10.3075],[14.03386,10.12045]]]},"properties":{"shapeName":"Mayo-Kani","shapeISO":"","shapeID":"32672807B89855431664933","shapeGroup":"CMR","shapeType":"ADM2"}},
{"type":"Feature","geometry":{"type":"Polygon","coordinates":[[[14.44628,11.10885],[14.4016,11.23252],[14.41564,11.40707],[14.13717,11.25266],[13.98038,11.30761],[13.85743,11.09542],[13.9865,10.7437],[14.12758,10.79433],[14.2089,10.71567],[14.25138,10.76459],[14.21875,10.87387],[14.38126,10.96808],[14.37762,11.04101],[14.44628,11.10885]]]},"properties":{"shapeName":"Mayo-Sava","shapeISO":"","shapeID":"32672807B4790524999002","shapeGroup":"CMR","shapeType":"ADM2"}},
{"type":"Feature","geometry":{"type":"Polygon","coordinates":[[[13.9865,10.7437],[13.85743,11.09542],[13.79149,11.00628],[13.69474,10.96683],[13.67461967500003,10.858869553000034],[13.539079666000077,10.639399529000059],[13.55323028600003,10.489459991000047],[13.45961,10.18685],[13.41041,10.12847],[13.32653,10.11472],[13.43895,10.05996],[13.56014,10.07126],[13.67194,10.11449],[13.64716,10.17893],[13.68847,10.2285],[13.92598,10.20123],[13.93029,10.36554],[14.0293,10.45253],[13.9865,10.7437]]]},"properties":{"shapeName":"Mayo-Tsanaga","shapeISO":"","shapeID":"32672807B48868778994443","shapeGroup":"CMR","shapeType":"ADM2"}},
{"type":"Feature","geometry":{"type":"Polygon","coordinates":[[[9.50064,4.10474],[9.6,4.10356],[9.6321,4.14661],[9.7555,4.18042],[9.78873,4.2533],[9.85129,4.38554],[9.78023,4.46014],[9.77555,4.53849],[9.87813,4.69769],[9.94366,4.63381],[9.99196,4.67651],[10.04623,4.79299],[10.01579,4.89226],[10.0803,4.97811],[10.07245,5.04918],[10.01525,5.07016],[9.99236,5.13309],[10.00769,5.2041],[9.96067,5.28031],[9.86301,5.26947],[9.87088,5.35495],[9.7496,5.28841],[9.86301,5.0715],[9.81127,5.05013],[9.77204,4.96763],[9.79943,4.91272],[9.71566,4.82517],[9.64806,4.65029],[9.5649,4.61929],[9.466,4.35326],[9.41898,4.22357],[9.53052,4.19569],[9.54533,4.14675],[9.50064,4.10474]]]},"properties":{"shapeName":"Moungo","shapeISO":"","shapeID":"32672807B47378783864223","shapeGroup":"CMR","shapeType":"ADM2"}},
{"type":"Feature","geometry":{"type":"Polygon","coordinates":[[[10.51584,4.91016],[10.42875,4.9547],[10.38035,5.08964],[10.25116,5.09388],[10.1453,4.93508],[10.0803,4.97811],[10.01579,4.89226],[10.04623,4.79299],[9.99196,4.67651],[9.94366,4.63381],[9.87813,4.69769],[9.77555,4.53849],[9.78023,4.46014],[9.85129,4.38554],[9.78873,4.2533],[9.83917,4.19764],[9.85512,4.07088],[10.05843,4.08487],[10.10741,4.12874],[10.32036,4.11017],[10.43472,4.33054],[10.52332,4.39821],[10.5235,4.46039],[10.39235,4.51401],[10.49822,4.72168],[10.43817,4.74295],[10.35977,4.70947],[10.37063,4.77326],[10.51584,4.91016]]]},"properties":{"shapeName":"Nkam","shapeISO":"","shapeID":"32672807B89475673783386","shapeGroup":"CMR","shapeType":"ADM2"}},
{"type":"Feature","geometry":{"type":"Polygon","coordinates":[[[9.64186,3.63087],[9.63423,3.62821],[9.63279,3.60623],[9.64186,3.63087]]]},"properties":{"shapeName":"Sanaga-Maritime","shapeISO":"","shapeID":"32672807B64707946298331","shapeGroup":"CMR","shapeType":"ADM2"}},
{"type":"Feature","geometry":{"type":"Polygon","coordinates":[[[11.0943,4.19106],[10.89865,4.46107],[10.91748,4.61993],[10.81549,4.62013],[10.74517,4.48742],[10.71269,4.52581],[10.61917,4.44805],[10.5235,4.46039],[10.52332,4.39821],[10.43472,4.33054],[10.32036,4.11017],[10.10741,4.12874],[10.05843,4.08487],[9.85512,4.07088],[9.82317,4.05122],[9.86987,3.93286],[9.78477,3.89079],[9.77183,3.79925],[9.65771,3.75434],[9.57238,3.77961],[9.66276,3.62035],[9.6296,3.55423],[9.77933,3.43323],[9.90018,3.26661],[10.03536,3.33852],[10.06574,3.49331],[10.13118,3.58548],[10.20232,3.60593],[10.25199,3.54583],[10.29055,3.54756],[10.3322,3.62306],[10.39642,3.80817],[10.44936,3.82582],[10.60138,3.72266],[10.66654,3.84211],[10.65161,3.94798],[10.70183,4.0525],[11.09143,4.17175],[11.0943,4.19106]]]},"properties":{"shapeName":"Sanaga-Maritime","shapeISO":"","shapeID":"32672807B95558278906476","shapeGroup":"CMR","shapeType":"ADM2"}},
{"type":"Feature","geometry":{"type":"Polygon","coordinates":[[[9.50064,4.10474],[9.47578,4.11234],[9.3966,3.96836],[9.32934,3.91871],[9.4073,3.88164],[9.47689,3.90468],[9.45524,3.98673],[9.52758,3.9541],[9.52822,4.02473],[9.62451,4.02072],[9.69174,4.06559],[9.69773,4.1199],[9.71189,4.07256],[9.62611,3.96205],[9.69477,3.93055],[9.71863,3.86438],[9.67869,3.81869],[9.61022,3.86399],[9.58459,3.79465],[9.54555,3.81429],[9.57238,3.77961],[9.65771,3.75434],[9.77183,3.79925],[9.78477,3.89079],[9.86987,3.93286],[9.82317,4.05122],[9.85512,4.07088],[9.83917,4.19764],[9.78873,4.2533],[9.7555,4.18042],[9.6321,4.14661],[9.6,4.10356],[9.50064,4.10474]]]},"properties":{"shapeName":"Wouri","shapeISO":"","shapeID":"32672807B59545531100821","shapeGroup":"CMR","shapeType":"ADM2"}},
{"type":"Feature","geometry":{"type":"Polygon","coordinates":[[[13.46092,8.39157],[13.56752,8.45202],[13.64047,8.71718],[13.81729,8.85135],[13.84137,9.04108],[14.02257,9.21879],[14.22298,9.25863],[14.24525,9.33658],[14.31741,9.36674],[14.25047,9.39151],[14.02207,9.64709],[13.91607,9.67001],[13.82102,9.62351],[13.68015,9.63269],[13.62569,9.69589],[13.53715,9.95926],[13.27653,9.9692],[13.22521,9.88777],[13.29795,9.79699],[13.23588,9.56888],[13.17634,9.52353],[13.04682,9.5103],[12.85477,9.38497],[12.90244,9.35238],[12.90469,9.24612],[12.95342,9.04862],[12.89296,8.90226],[13.01614,8.82057],[13.08864,8.71453],[13.15131,8.7089],[13.29228,8.5968],[13.47365,8.61271],[13.42274,8.45361],[13.46092,8.39157]]]},"properties":{"shapeName":"Benoue","shapeISO":"","shapeID":"32672807B41938793250317","shapeGroup":"CMR","shapeType":"ADM2"}},
{"type":"Feature","geometry":{"type":"Polygon","coordinates":[[[13.25506,7.59744],[13.35673,7.94734],[13.06796,8.02565],[13.01492,8.16188],[13.12365,8.09247],[13.30024,8.0702],[13.3766,8.1577],[13.46092,8.39157],[13.42274,8.45361],[13.47365,8.61271],[13.29228,8.5968],[13.15131,8.7089],[13.08864,8.71453],[13.01614,8.82057],[12.89296,8.90226],[12.95342,9.04862],[12.90469,9.24612],[12.87833,9.03134],[12.7903,8.91727],[12.801199913000062,8.77233123800005],[12.722590446000027,8.748620033000066],[12.678970337000067,8.64539432500004],[12.588800430000049,8.597906113000022],[12.480330467000044,8.622396469000023],[12.405059814000026,8.478930473000048],[12.24295,8.4372],[12.25634,8.16905],[12.48615,7.93998],[12.61598,7.92199],[12.6341,7.75372],[12.8179,7.67088],[13.25506,7.59744]]]},"properties":{"shapeName":"Faro","shapeISO":"","shapeID":"32672807B99512491314233","shapeGroup":"CMR","shapeType":"ADM2"}},
{"type":"Feature","geometry":{"type":"Polygon","coordinates":[[[13.92598,10.20123],[13.68847,10.2285],[13.64716,10.17893],[13.67194,10.11449],[13.56014,10.07126],[13.43895,10.05996],[13.32653,10.11472],[13.24799,10.01575],[13.27653,9.9692],[13.53715,9.95926],[13.62569,9.69589],[13.68015,9.63269],[13.82102,9.62351],[13.91607,9.67001],[14.02207,9.64709],[14.03856,9.73749],[14.16698,9.88394],[14.19237,9.96516],[14.19651,10.05527],[14.05502,10.08655],[14.03386,10.12045],[13.92598,10.20123]]]},"properties":{"shapeName":"Mayo-Louti","shapeISO":"","shapeID":"32672807B2656917895115","shapeGroup":"CMR","shapeType":"ADM2"}},
{"type":"Feature","geometry":{"type":"Polygon","coordinates":[[[15.21619,7.2248],[15.57392,7.59052],[15.59733,7.76746],[15.51076,7.7962],[15.45323,7.89471],[15.20761,8.6108],[15.10694,8.67342],[14.98836,8.67742],[14.98727,8.72269],[14.91062,8.75566],[14.8979,8.809],[14.75357,8.82017],[14.50416,9.03927],[14.49326,9.0919],[14.38076,9.1969],[14.39227,9.27438],[14.31741,9.36674],[14.24525,9.33658],[14.22298,9.25863],[14.02257,9.21879],[13.84137,9.04108],[13.81729,8.85135],[13.64047,8.71718],[13.56752,8.45202],[13.46092,8.39157],[13.3766,8.1577],[13.30024,8.0702],[13.12365,8.09247],[13.01492,8.16188],[13.06796,8.02565],[13.35673,7.94734],[13.45297,7.90633],[13.72661,7.9302],[13.72449,7.71235],[14.01298,7.55156],[14.12116,7.57065],[14.1498,7.48951],[14.33116,7.30337],[14.32806,7.16669],[14.52611,7.15799],[14.63276,7.00563],[14.77641,7.00563],[15.00413,7.07587],[15.21619,7.2248]]]},"properties":{"shapeName":"Mayo-Rey","shapeISO":"","shapeID":"32672807B45774164265008","shapeGroup":"CMR","shapeType":"ADM2"}},
{"type":"Feature","geometry":{"type":"Polygon","coordinates":[[[10.41144,6.16444],[10.44701,6.18402],[10.57379,6.46694],[10.52996,6.48686],[10.51524,6.63137],[10.45169,6.70158],[10.402,6.6446],[10.33086,6.65225],[10.36861,6.50717],[10.30048,6.30611],[10.15924,6.34101],[10.07433,6.22647],[10.10473,6.15861],[10.33374,6.11402],[10.41144,6.16444]]]},"properties":{"shapeName":"Boyo","shapeISO":"","shapeID":"32672807B40523536040617","shapeGroup":"CMR","shapeType":"ADM2"}},
{"type":"Feature","geometry":{"type":"Polygon","coordinates":[[[10.44701,6.18402],[10.50918,6.15461],[10.55574,6.06036],[10.68693,6.01815],[10.84042,6.01023],[10.97855,6.08205],[11.0185,6.23026],[10.95615,6.32351],[10.76064,6.37476],[10.60404,6.49384],[10.57379,6.46694],[10.44701,6.18402]]]},"properties":{"shapeName":"Bui","shapeISO":"","shapeID":"32672807B1542757875740","shapeGroup":"CMR","shapeType":"ADM2"}},
{"type":"Feature","geometry":{"type":"Polygon","coordinates":[[[11.18575,6.54374],[11.10094,6.54108],[11.10572,6.67713],[11.07206,6.71705],[10.99784,6.68428],[10.9219,6.70574],[10.91095,6.76798],[10.81968,6.84408],[10.84478,6.93304],[10.60123,7.07584],[10.58352,7.15849],[10.54315,6.94109],[10.49373,6.89997],[10.42003,6.91054],[10.45169,6.70158],[10.51524,6.63137],[10.52996,6.48686],[10.57379,6.46694],[10.60404,6.49384],[10.76064,6.37476],[10.95615,6.32351],[11.0185,6.23026],[11.10974,6.22127],[11.19602,6.2638],[11.18575,6.54374]]]},"properties":{"shapeName":"Donga-Mantung","shapeISO":"","shapeID":"32672807B54432963078560","shapeGroup":"CMR","shapeType":"ADM2"}},
{"type":"Feature","geometry":{"type":"Polygon","coordinates":[[[10.45169,6.70158],[10.42003,6.91054],[10.21749,6.89109],[10.1549,7.03955],[9.87995,6.76982],[9.78404,6.79642],[9.70689,6.51328],[9.74234,6.47916],[9.75348,6.22921],[9.76537,6.28866],[9.80103,6.28866],[9.83196,6.18939],[9.90353,6.18022],[9.9873,6.28866],[10.07433,6.22647],[10.15924,6.34101],[10.30048,6.30611],[10.36861,6.50717],[10.33086,6.65225],[10.402,6.6446],[10.45169,6.70158]]]},"properties":{"shapeName":"Menchum","shapeISO":"","shapeID":"32672807B61384913593218","shapeGroup":"CMR","shapeType":"ADM2"}},
{"type":"Feature","geometry":{"type":"Polygon","coordinates":[[[10.07433,6.22647],[9.9873,6.28866],[9.90353,6.18022],[9.92974,6.09552],[10.04112,6.04602],[10.00399,5.90635],[9.9315,5.86746],[9.97954,5.76527],[10.09289,5.73625],[10.17194,5.78436],[10.29291,5.72484],[10.32215,5.80423],[10.28594,5.90311],[10.38111,5.97894],[10.41144,6.16444],[10.33374,6.11402],[10.10473,6.15861],[10.07433,6.22647]]]},"properties":{"shapeName":"Mezam","shapeISO":"","shapeID":"32672807B13167032786609","shapeGroup":"CMR","shapeType":"ADM2"}},
{"type":"Feature","geometry":{"type":"Polygon","coordinates":[[[9.75348,6.22921],[9.70694,6.11883],[9.59433,6.04133],[9.62129,5.97368],[9.59582,5.92087],[9.68754,5.83975],[9.92262,5.73064],[9.97954,5.76527],[9.9315,5.86746],[10.00399,5.90635],[10.04112,6.04602],[9.92974,6.09552],[9.90353,6.18022],[9.83196,6.18939],[9.80103,6.28866],[9.76537,6.28866],[9.75348,6.22921]]]},"properties":{"shapeName":"Momo","shapeISO":"","shapeID":"32672807B23500574999001","shapeGroup":"CMR","shapeType":"ADM2"}},
{"type":"Feature","geometry":{"type":"Polygon","coordinates":[[[10.41144,6.16444],[10.38111,5.97894],[10.28594,5.90311],[10.32215,5.80423],[10.56786,5.83107],[10.62063,5.86029],[10.68693,6.01815],[10.55574,6.06036],[10.50918,6.15461],[10.44701,6.18402],[10.41144,6.16444]]]},"properties":{"shapeName":"Ngo-ketunjia","shapeISO":"","shapeID":"32672807B14234433619225","shapeGroup":"CMR","shapeType":"ADM2"}},
{"type":"Feature","geometry":{"type":"Polygon","coordinates":[[[10.09289,5.73625],[10.11714,5.68006],[10.09239,5.66238],[10.15686,5.50244],[10.30524,5.51623],[10.36586,5.60181],[10.51844,5.58451],[10.46002,5.6513],[10.56786,5.83107],[10.32215,5.80423],[10.29291,5.72484],[10.17194,5.78436],[10.09289,5.73625]]]},"properties":{"shapeName":"Bamboutos","shapeISO":"","shapeID":"32672807B7261733805593","shapeGroup":"CMR","shapeType":"ADM2"}},
{"type":"Feature","geometry":{"type":"Polygon","coordinates":[[[10.0803,4.97811],[10.1453,4.93508],[10.25116,5.09388],[10.38035,5.08964],[10.40907,5.1322],[10.33957,5.24671],[10.27129,5.27693],[10.26681,5.38439],[10.00769,5.2041],[9.99236,5.13309],[10.01525,5.07016],[10.07245,5.04918],[10.0803,4.97811]]]},"properties":{"shapeName":"Haut-Nkam","shapeISO":"","shapeID":"32672807B36469761565883","shapeGroup":"CMR","shapeType":"ADM2"}},
{"type":"Feature","geometry":{"type":"Polygon","coordinates":[[[10.40907,5.1322],[10.44038,5.20037],[10.37538,5.30491],[10.40292,5.46601],[10.35953,5.47974],[10.26681,5.38439],[10.27129,5.27693],[10.33957,5.24671],[10.40907,5.1322]]]},"properties":{"shapeName":"Hauts-Plateaux","shapeISO":"","shapeID":"32672807B20400591725657","shapeGroup":"CMR","shapeType":"ADM2"}},
{"type":"Feature","geometry":{"type":"Polygon","coordinates":[[[10.44038,5.20037],[10.51742,5.17601],[10.49864,5.25532],[10.59151,5.27828],[10.56114,5.3611],[10.50538,5.37863],[10.55844,5.48817],[10.40292,5.46601],[10.37538,5.30491],[10.44038,5.20037]]]},"properties":{"shapeName":"Koung-Khi","shapeISO":"","shapeID":"32672807B81686658173178","shapeGroup":"CMR","shapeType":"ADM2"}},
{"type":"Feature","geometry":{"type":"Polygon","coordinates":[[[10.00769,5.2041],[10.26681,5.38439],[10.35953,5.47974],[10.30524,5.51623],[10.15686,5.50244],[10.09239,5.66238],[9.96742,5.58075],[9.91988,5.41398],[9.87088,5.35495],[9.86301,5.26947],[9.96067,5.28031],[10.00769,5.2041]]]},"properties":{"shapeName":"Menoua","shapeISO":"","shapeID":"32672807B11213510980510","shapeGroup":"CMR","shapeType":"ADM2"}},
{"type":"Feature","geometry":{"type":"Polygon","coordinates":[[[10.30524,5.51623],[10.35953,5.47974],[10.40292,5.46601],[10.55844,5.48817],[10.57178,5.55724],[10.51844,5.58451],[10.36586,5.60181],[10.30524,5.51623]]]},"properties":{"shapeName":"Mifi","shapeISO":"","shapeID":"32672807B3469332008383","shapeGroup":"CMR","shapeType":"ADM2"}},
{"type":"Feature","geometry":{"type":"Polygon","coordinates":[[[10.8715,4.94429],[10.88521,4.98882],[10.82358,5.05045],[10.84047,5.10453],[10.7602,5.1384],[10.75847,5.17222],[10.69201,5.17292],[10.66155,5.24777],[10.59151,5.27828],[10.49864,5.25532],[10.51742,5.17601],[10.44038,5.20037],[10.40907,5.1322],[10.38035,5.08964],[10.42875,4.9547],[10.51584,4.91016],[10.64482,4.91715],[10.80363,5.02031],[10.8715,4.94429]]]},"properties":{"shapeName":"Nde","shapeISO":"","shapeID":"32672807B46712188555835","shapeGroup":"CMR","shapeType":"ADM2"}},
{"type":"Feature","geometry":{"type":"Polygon","coordinates":[[[11.19602,6.2638],[11.10974,6.22127],[11.0185,6.23026],[10.97855,6.08205],[10.84042,6.01023],[10.68693,6.01815],[10.62063,5.86029],[10.56786,5.83107],[10.46002,5.6513],[10.51844,5.58451],[10.57178,5.55724],[10.55844,5.48817],[10.50538,5.37863],[10.56114,5.3611],[10.59151,5.27828],[10.66155,5.24777],[10.69201,5.17292],[10.75847,5.17222],[10.7602,5.1384],[10.84047,5.10453],[10.82358,5.05045],[10.88521,4.98882],[10.8715,4.94429],[10.95702,4.97008],[10.99416,5.13153],[11.08054,5.19405],[11.07955,5.29565],[11.18777,5.39087],[11.20718,5.67135],[11.31397,5.78477],[11.27833,5.80751],[11.26711,5.97682],[11.30943,6.03951],[11.268,6.13718],[11.30087,6.2408],[11.19602,6.2638]]]},"properties":{"shapeName":"Noun","shapeISO":"","shapeID":"32672807B7266662414716","shapeGroup":"CMR","shapeType":"ADM2"}},
{"type":"Feature","geometry":{"type":"Polygon","coordinates":[[[11.88402,3.45094],[11.86034,3.38711],[11.76047,3.34054],[11.69946,3.21376],[11.64466,3.17937],[11.66678,3.13486],[11.62473,3.02986],[11.8171,2.7292],[11.97977,2.65816],[12.26479,2.60222],[12.10641,2.45533],[11.98595,2.39973],[11.93523,2.28351],[12.12532,2.29099],[12.24179,2.24988],[12.30079,2.2771],[12.57644,2.26903],[12.74298,2.22325],[12.82052,2.25772],[12.86352,2.2285],[13.08792,2.23713],[13.16275,2.28399],[13.28694,2.25008],[13.29897,2.17056],[13.67137,2.17069],[13.62815,2.90423],[13.44237,2.77401],[13.29353,2.84761],[13.27191,2.78377],[13.20704,2.8682],[13.10923,2.84143],[12.84154,2.88982],[12.76432,2.97321],[12.75505,3.15648],[12.70769,3.24194],[12.5512,3.40873],[12.57076,3.55905],[12.50281,3.6651],[12.45956,3.6651],[12.25982,3.47154],[12.2279,3.33872],[12.13524,3.29857],[12.12803,3.3521],[11.88402,3.45094]]]},"properties":{"shapeName":"Dja-Et-Lobo","shapeISO":"","shapeID":"32672807B39721432011370","shapeGroup":"CMR","shapeType":"ADM2"}},
{"type":"Feature","geometry":{"type":"Polygon","coordinates":[[[11.12538,3.24153],[11.04705,3.23511],[11.00604,3.1913],[10.79363,3.24056],[10.65964,3.19161],[10.62228,3.10947],[10.64266,3.04608],[10.78971,2.82068],[10.86003,2.85102],[10.98613,2.79263],[11.03629,2.84014],[11.35196,2.68373],[11.66508,2.4489],[11.76024,2.27622],[11.93523,2.28351],[11.98595,2.39973],[12.10641,2.45533],[12.26479,2.60222],[11.97977,2.65816],[11.8171,2.7292],[11.62473,3.02986],[11.66678,3.13486],[11.64466,3.17937],[11.53661,3.14171],[11.2122,3.13356],[11.12538,3.24153]]]},"properties":{"shapeName":"Mvila","shapeISO":"","shapeID":"32672807B58704883317804","shapeGroup":"CMR","shapeType":"ADM2"}},
{"type":"Feature","geometry":{"type":"Polygon","coordinates":[[[10.25199,3.54583],[10.20232,3.60593],[10.13118,3.58548],[10.06574,3.49331],[10.03536,3.33852],[9.90018,3.26661],[9.97547,3.0842],[9.91153,2.9676],[9.82688,2.56756],[9.8312,2.29096],[9.90769,2.19177],[10.19396,2.17267],[10.56066,2.65577],[10.61632,2.78472],[10.7097,2.77354],[10.78971,2.82068],[10.64266,3.04608],[10.62228,3.10947],[10.65964,3.19161],[10.79363,3.24056],[11.00604,3.1913],[11.04705,3.23511],[11.12538,3.24153],[11.06289,3.39553],[10.9638,3.43218],[10.85493,3.4099],[10.80499,3.48648],[10.28919,3.35346],[10.25199,3.54583]]]},"properties":{"shapeName":"Ocean","shapeISO":"","shapeID":"32672807B78470526928215","shapeGroup":"CMR","shapeType":"ADM2"}},
{"type":"Feature","geometry":{"type":"Polygon","coordinates":[[[10.78971,2.82068],[10.7097,2.77354],[10.61632,2.78472],[10.56066,2.65577],[10.19396,2.17267],[11.35744,2.17415],[11.39098,2.30337],[11.69521,2.32261],[11.76024,2.27622],[11.66508,2.4489],[11.35196,2.68373],[11.03629,2.84014],[10.98613,2.79263],[10.86003,2.85102],[10.78971,2.82068]]]},"properties":{"shapeName":"Vallee-du-Ntem","shapeISO":"","shapeID":"32672807B18543980764744","shapeGroup":"CMR","shapeType":"ADM2"}},
{"type":"Feature","geometry":{"type":"Polygon","coordinates":[[[9.466,4.35326],[9.29836,4.47311],[9.18475,4.24365],[8.97788,4.3379],[8.93386,4.25467],[8.99789,4.19399],[8.97953,4.09659],[9.12712,4.00727],[9.21216,4.00855],[9.21611,3.94322],[9.2889,3.96791],[9.32934,3.91871],[9.3966,3.96836],[9.47578,4.11234],[9.50064,4.10474],[9.54533,4.14675],[9.53052,4.19569],[9.41898,4.22357],[9.466,4.35326]]]},"properties":{"shapeName":"Fako","shapeISO":"","shapeID":"32672807B90592144632468","shapeGroup":"CMR","shapeType":"ADM2"}},
{"type":"Feature","geometry":{"type":"Polygon","coordinates":[[[9.87088,5.35495],[9.91988,5.41398],[9.8219,5.41179],[9.79641,5.4486],[9.65838,5.4615],[9.36566,5.33133],[9.23011,5.32967],[9.30373,5.17677],[9.36786,5.12549],[9.43137,5.1079],[9.49592,4.96445],[9.46966,4.84776],[9.51715,4.80891],[9.5649,4.61929],[9.64806,4.65029],[9.71566,4.82517],[9.79943,4.91272],[9.77204,4.96763],[9.81127,5.05013],[9.86301,5.0715],[9.7496,5.28841],[9.87088,5.35495]]]},"properties":{"shapeName":"Kupe-Manenguba","shapeISO":"","shapeID":"32672807B45405319599490","shapeGroup":"CMR","shapeType":"ADM2"}},
{"type":"Feature","geometry":{"type":"Polygon","coordinates":[[[9.97954,5.76527],[9.92262,5.73064],[9.79641,5.4486],[9.8219,5.41179],[9.91988,5.41398],[9.96742,5.58075],[10.09239,5.66238],[10.11714,5.68006],[10.09289,5.73625],[9.97954,5.76527]]]},"properties":{"shapeName":"Lebialem","shapeISO":"","shapeID":"32672807B23253489436904","shapeGroup":"CMR","shapeType":"ADM2"}},
{"type":"Feature","geometry":{"type":"Polygon","coordinates":[[[9.70689,6.51328],[9.599216461000026,6.530364990000066],[9.584773064000046,6.471444130000066],[9.466175079000038,6.449894905000065],[9.433844566000062,6.315772057000061],[9.350651741000036,6.351415157000076],[9.265647888000046,6.184101105000025],[9.186837196000056,6.149497986000029],[8.842865944000039,5.826613903000066],[8.86944580100004,5.793393135000031],[8.819605827000032,5.695440769000072],[8.907,5.57557],[8.84314,5.38626],[8.96091,5.33414],[9.06023,5.46559],[9.19047,5.42028],[9.23011,5.32967],[9.36566,5.33133],[9.65838,5.4615],[9.79641,5.4486],[9.92262,5.73064],[9.68754,5.83975],[9.59582,5.92087],[9.62129,5.97368],[9.59433,6.04133],[9.70694,6.11883],[9.75348,6.22921],[9.74234,6.47916],[9.70689,6.51328]]]},"properties":{"shapeName":"Manyu","shapeISO":"","shapeID":"32672807B1261524164639","shapeGroup":"CMR","shapeType":"ADM2"}},
{"type":"Feature","geometry":{"type":"Polygon","coordinates":[[[9.5649,4.61929],[9.51715,4.80891],[9.46966,4.84776],[9.49592,4.96445],[9.43137,5.1079],[9.36786,5.12549],[9.29951,5.07951],[9.31563,4.88513],[9.25496,4.83897],[9.2557,4.6792],[9.14698,4.61006],[9.17072,4.55063],[9.14549,4.46688],[9.02745,4.41554],[8.97788,4.3379],[9.18475,4.24365],[9.29836,4.47311],[9.466,4.35326],[9.5649,4.61929]]]},"properties":{"shapeName":"Meme","shapeISO":"","shapeID":"32672807B73139620026087","shapeGroup":"CMR","shapeType":"ADM2"}},
{"type":"Feature","geometry":{"type":"Polygon","coordinates":[[[8.97788,4.3379],[9.02745,4.41554],[9.14549,4.46688],[9.17072,4.55063],[9.14698,4.61006],[9.2557,4.6792],[9.25496,4.83897],[9.31563,4.88513],[9.29951,5.07951],[9.36786,5.12549],[9.30373,5.17677],[9.23011,5.32967],[9.19047,5.42028],[9.06023,5.46559],[8.96091,5.33414],[8.84314,5.38626],[8.81642,5.18483],[8.60489,4.88488],[8.62945,4.82616],[8.53908,4.79368],[8.52748,4.72663],[8.56687,4.68994],[8.53758,4.66162],[8.516,4.66519],[8.52503,4.55942],[8.49476,4.5572],[8.5132,4.49702],[8.69996,4.48711],[8.64445,4.7162],[8.71907,4.56472],[8.76835,4.52677],[8.82464,4.55578],[8.90842,4.49451],[8.88196,4.4164],[8.93386,4.25467],[8.97788,4.3379]]]},"properties":{"shapeName":"Ndian","shapeISO":"","shapeID":"32672807B48556267066765","shapeGroup":"CMR","shapeType":"ADM2"}},
{"type":"Feature","geometry":{"type":"Polygon","coordinates":[[[8.52815,4.66664],[8.54259,4.66832],[8.54136,4.68556],[8.52815,4.66664]]]},"properties":{"shapeName":"Ndian","shapeISO":"","shapeID":"32672807B79900399400197","shapeGroup":"CMR","shapeType":"ADM2"}}
]}