{"type":"FeatureCollection", "features": [
{"type":"Feature","geometry":{"type":"Polygon","coordinates":[[[14.429059999994934,2.155940000000555],[14.396810000005644,2.182590000000346],[14.309890000004089,2.190559999999095],[14.245649999997113,2.171630000000732],[13.298970000003465,2.170559999998659],[13.28658,2.03921999999875],[13.209709999995539,1.981799999999566],[13.216560000000754,1.946389999999155],[13.158219999997527,1.893319999999221],[13.201390000001993,1.806839999999283],[13.137109999996028,1.70183],[13.151020000004792,1.624809999999343],[13.130890000000363,1.586900000000242],[13.217910000006668,1.47926],[13.257169999997132,1.3889],[13.243889999997918,1.344779999999446],[13.263999999995576,1.336489999999685],[13.223979999995208,1.28505000000041],[13.188800000003539,1.292429999999513],[13.156329999997979,1.234309999999823],[13.309389999994892,1.221089999999094],[13.321989999996731,1.262210000000778],[13.436709999994491,1.300240000000485],[13.488549999994575,1.270080000000235],[13.556649999998626,1.27873],[13.633480000004056,1.344129999999495],[13.73131000000285,1.369969999999739],[13.778600000005099,1.361399999999776],[13.810230000002775,1.437659999999596],[13.983420000004116,1.416230000000724],[14.011559999999008,1.438239999999496],[14.05855000000156,1.385060000000522],[14.09385000000475,1.37709],[14.323789999994915,1.66345],[14.429059999994934,2.155940000000555]]]},"properties":{"shapeName":"Boko-Songho","shapeISO":"","shapeID":"1427508B92601755498307","shapeGroup":"COG","shapeType":"ADM2"}},
{"type":"Feature","geometry":{"type":"Polygon","coordinates":[[[14.085009999995236,0.461539999999786],[14.066359999997076,0.41973999999982],[13.97766999999294,0.362189999999828],[13.941680000003544,0.31574],[13.941980000003241,0.267969999999877],[13.89592999999877,0.23529],[13.88868000000366,0.202669999999898],[13.926439999995637,0.13131],[13.92381999999634,0.05049],[13.958520000000135,0.03079],[13.887629999997444,-0.15847],[13.895369999998366,-0.21217],[13.939549999995506,-0.250129999999899],[13.96089000000211,-0.22319],[14.018670000004931,-0.2356],[14.150179999996908,-0.3125],[14.1767300000065,-0.439629999999852],[14.25293000000238,-0.43289999999979],[14.400789999999688,-0.477089999999862],[14.49254999999539,-0.615010000000439],[14.652010000005248,-0.593810000000303],[14.691990000006626,-0.56293],[14.71078999999736,-0.40454],[14.776370000006864,-0.33369],[14.917390000002342,-0.25299],[14.93978000000061,-0.21452],[14.887312889099121,-0.017139969393611],[14.904389999996056,0.03466],[14.866539001464844,0.058769296854734],[14.708128929138184,0.035693988204002],[14.45968246459961,0.107336692512035],[14.277634620666504,0.202368661761284],[14.085009999995236,0.461539999999786]]]},"properties":{"shapeName":"Loudima","shapeISO":"","shapeID":"1427508B48531502218736","shapeGroup":"COG","shapeType":"ADM2"}},
{"type":"Feature","geometry":{"type":"Polygon","coordinates":[[[14.49254999999539,-0.615010000000439],[14.498720000003232,-0.680889999999636],[14.410250000000815,-0.908970000000409],[14.463669999997364,-1.17844999999943],[14.636578559875488,-1.145305871963501],[14.67494010925293,-1.106303811073303],[14.748926162719727,-1.12291419506073],[14.925191879272461,-1.110750675201416],[15.023679733276367,-1.080528616905212],[15.047380000003614,-1.047179999999571],[15.13707447052002,-0.949535012245178],[15.185383796691895,-0.857638776302338],[15.007972717285156,-0.685923635959625],[15.112106323242188,-0.572217881679535],[15.154175758361816,-0.46961185336113],[15.141789999994216,-0.440410000000156],[15.088629999998375,-0.25398],[14.969440000000759,-0.23804],[14.93978000000061,-0.21452],[14.917390000002342,-0.25299],[14.776370000006864,-0.33369],[14.71078999999736,-0.40454],[14.691990000006626,-0.56293],[14.652010000005248,-0.593810000000303],[14.49254999999539,-0.615010000000439]]]},"properties":{"shapeName":"Madingou","shapeISO":"","shapeID":"1427508B79538566138262","shapeGroup":"COG","shapeType":"ADM2"}},
{"type":"Feature","geometry":{"type":"Polygon","coordinates":[[[14.014009999998962,-2.463569999999891],[13.986780000006547,-2.443110000000161],[13.922569999995176,-2.464970000000903],[13.871899999998277,-2.436170000000857],[13.916580000004615,-2.333869999998569],[13.813880000001518,-2.153439999998227],[13.758159999997588,-2.11337999999887],[13.503100000001723,-2.431169999999838],[13.384799999999814,-2.424620000001596],[13.250119999996969,-2.37416999999914],[13.215930000005756,-2.337920000001759],[13.166410000005271,-2.378759999999602],[13.029850000006263,-2.321560000000318],[13.032130000006873,-2.388879999998608],[13.18477000000712,-2.54781],[13.471669999998994,-2.595890000000509],[13.489879999993718,-2.618510000000242],[13.473299999997835,-2.692040000001725],[13.500880000006873,-2.73203999999896],[13.542860000001383,-2.754590000000462],[13.667780000003404,-2.761839999999211],[13.663419999997132,-2.805169999999634],[13.804445266723633,-2.688456773757935],[13.89927864074707,-2.555518627166748],[14.014009999998962,-2.463569999999891]]]},"properties":{"shapeName":"Nkayi District","shapeISO":"","shapeID":"1427508B61361969612670","shapeGroup":"COG","shapeType":"ADM2"}},
{"type":"Feature","geometry":{"type":"Polygon","coordinates":[[[13.032130000006873,-2.388879999998608],[13.03863999999885,-2.570159999999305],[13.047778129577637,-2.736666679382324],[13.078055381774902,-2.823055505752563],[12.994444847106934,-2.864444494247437],[13.017499923706055,-2.916666746139526],[13.068888664245605,-2.92555570602417],[13.132499694824219,-2.988333463668823],[13.106111526489258,-3.155277967453003],[13.031143188476562,-3.211983203887939],[13.161970138549805,-3.272564649581909],[13.212787628173828,-3.339637756347656],[13.424253463745117,-3.302897453308105],[13.479307174682617,-3.191659688949585],[13.63956069946289,-3.116310596466064],[13.632501602172852,-2.909719467163086],[13.663419999997132,-2.805169999999634],[13.667780000003404,-2.761839999999211],[13.542860000001383,-2.754590000000462],[13.500880000006873,-2.73203999999896],[13.473299999997835,-2.692040000001725],[13.489879999993718,-2.618510000000242],[13.471669999998994,-2.595890000000509],[13.18477000000712,-2.54781],[13.032130000006873,-2.388879999998608]]]},"properties":{"shapeName":"Mouyondzi","shapeISO":"","shapeID":"1427508B15475197726652","shapeGroup":"COG","shapeType":"ADM2"}},
{"type":"Feature","geometry":{"type":"Polygon","coordinates":[[[11.70766,-3.6804000000011],[11.631599999993341,-3.57021000000168],[11.537389999997686,-3.51390000000174],[11.458419999995385,-3.583900000001449],[11.345499999995809,-3.603520000000572],[11.249580000003334,-3.718150000000605],[11.249190000002272,-3.826529999998456],[11.205010000005132,-3.978810000000522],[11.367159999994328,-4.134930000000168],[11.389039999994566,-4.202629999999772],[11.639590000006137,-4.422299999998359],[11.695430000007036,-4.365660000003118],[11.828760147094727,-4.258355140686035],[11.902644157409668,-4.129741668701172],[11.842287063598633,-4.037040710449219],[11.668601989746094,-3.947626352310181],[11.62217903137207,-3.894794225692749],[11.70766,-3.6804000000011]]]},"properties":{"shapeName":"Mfouati","shapeISO":"","shapeID":"1427508B75141491859674","shapeGroup":"COG","shapeType":"ADM2"}},
{"type":"Feature","geometry":{"type":"Polygon","coordinates":[[[14.904389999996056,0.03466],[15.11011791229248,0.044647000730038],[15.206103324890137,0.082287080585957],[15.2481107711792,0.137114927172661],[15.241650581359863,0.180361598730087],[15.126566886901855,0.281471341848373],[15.28917000000365,0.408820000000105],[15.26722240447998,0.401111125946045],[15.258610725402832,0.433333337306976],[15.208054542541504,0.440833330154419],[15.200555801391602,0.469722211360931],[15.17055606842041,0.474166661500931],[15.173334121704102,0.49722221493721],[15.089166641235352,0.531388878822327],[15.094721794128418,0.819722235202789],[15.06944465637207,0.889722228050232],[15.150277137756348,0.945555567741394],[15.136666297912598,1.003611087799072],[15.075833320617676,1.0522221326828],[14.949999809265137,1.059999942779541],[14.842222213745117,1.120277762413025],[14.795000076293945,1.17638885974884],[14.719165802001953,1.174444437026978],[14.57277774810791,1.223611116409302],[14.529999732971191,1.256666660308838],[14.500310000003083,1.391390000000683],[14.235906600952148,1.3635493516922],[14.305415153503418,1.299769163131714],[14.296154975891113,1.233603596687317],[14.398685455322266,1.089760422706604],[14.43796443939209,0.969964325428009],[14.502346992492676,0.90590113401413],[14.465378761291504,0.874387323856354],[14.4887113571167,0.825230181217194],[14.368041038513184,0.698515176773071],[14.359619140625,0.672544062137604],[14.384535789489746,0.637415528297424],[14.2951078414917,0.580350279808044],[14.28921127319336,0.543816685676575],[14.119595527648926,0.558322072029114],[14.070832252502441,0.493936151266098],[14.085009999995236,0.461539999999786],[14.277634620666504,0.202368661761284],[14.45968246459961,0.107336692512035],[14.708128929138184,0.035693988204002],[14.866539001464844,0.058769296854734],[14.904389999996056,0.03466]]]},"properties":{"shapeName":"Boundji","shapeISO":"","shapeID":"1427508B27104831936236","shapeGroup":"COG","shapeType":"ADM2"}},
{"type":"Feature","geometry":{"type":"Polygon","coordinates":[[[16.68186000001151,2.481059999998251],[16.743060000007972,2.378609999999753],[16.737779999995837,2.181939999998576],[16.763890000001993,2.145000000000437],[16.721669999998994,2.051940000001196],[16.763609999994515,1.812780000000203],[16.703059999999823,1.66806],[16.73305999999866,1.533610000000408],[16.694719999999506,1.471939999999449],[16.72111000001314,1.454719999999725],[16.715280000003986,1.40056],[16.777780000003986,1.29306],[16.802499999990687,1.183890000000247],[16.773890000011306,1.129440000000614],[16.779719999991357,1.066670000000158],[16.6919399999897,0.99167000000034],[16.69167000000016,0.882499999999709],[16.732500000012806,0.799439999999777],[17.049720000009984,0.39417],[17.0977783203125,0.373888909816742],[17.2097225189209,0.200555562973022],[17.17166519165039,0.178611114621162],[17.191944122314453,0.093888893723488],[17.142499923706055,0.054999999701977],[17.18638801574707,-0.151666671037674],[17.15138816833496,-0.206111118197441],[17.15333366394043,-0.286944448947906],[17.17361068725586,-0.306388914585114],[17.128889083862305,-0.33666667342186],[17.175832748413086,-0.369166672229767],[17.141666412353516,-0.424444437026978],[17.14472198486328,-0.461944431066513],[17.17860984802246,-0.444166660308838],[17.220001220703125,-0.49166664481163],[17.194442749023438,-0.565555572509766],[17.214723587036133,-0.620555579662323],[17.204723358154297,-0.699166655540466],[17.240556716918945,-0.701388895511627],[17.24138832092285,-0.746666669845581],[17.553592681884766,-0.759301781654358],[17.558699999994133,-0.753789999999753],[17.6613826751709,0.558688879013062],[17.780319999990752,2.066429999998945],[17.12322999999742,2.431540000001405],[16.873909999994794,2.498419999999896],[16.68186000001151,2.481059999998251]]]},"properties":{"shapeName":"Loukela","shapeISO":"","shapeID":"1427508B73097317113528","shapeGroup":"COG","shapeType":"ADM2"}},
{"type":"Feature","geometry":{"type":"Polygon","coordinates":[[[16.74234999998589,0.23443],[16.35026000000653,0.04041],[16.356969833374023,-0.032144550234079],[16.287353515625,-0.063926659524441],[16.20697021484375,-0.063411027193069],[16.512691497802734,-0.634378015995026],[16.257400512695312,-0.980459690093994],[16.24185562133789,-1.028526782989502],[16.30853271484375,-1.100807070732117],[16.152666091918945,-1.258633136749268],[16.189998626708984,-1.271666646003723],[16.207223892211914,-1.310277819633484],[16.269166946411133,-1.304166793823242],[16.349563598632812,-1.495361804962158],[16.40888786315918,-1.495277762413025],[16.400554656982422,-1.515555500984192],[16.444442749023438,-1.527222156524658],[16.438610076904297,-1.547777891159058],[16.56305503845215,-1.525555491447449],[16.604999542236328,-1.538055658340454],[16.595277786254883,-1.590833425521851],[16.66738999998779,-1.59023999999954],[16.81591999999364,-1.30102000000079],[16.96129999999539,-1.163560000000871],[17.054176330566406,-0.955567121505737],[16.78985595703125,0.130627423524857],[16.74234999998589,0.23443]]]},"properties":{"shapeName":"Makoua","shapeISO":"","shapeID":"1427508B79819029922134","shapeGroup":"COG","shapeType":"ADM2"}},
{"type":"Feature","geometry":{"type":"Polygon","coordinates":[[[14.93978000000061,-0.21452],[14.969440000000759,-0.23804],[15.088629999998375,-0.25398],[15.14710807800293,-0.22932730615139],[15.281442642211914,-0.222146734595299],[15.412890434265137,-0.24795038998127],[15.49450969696045,-0.177973613142967],[15.625053405761719,-0.236912339925766],[15.803010940551758,-0.271016448736191],[15.960123062133789,-0.220438152551651],[16.066001892089844,-0.234640091657639],[16.142696380615234,-0.080526225268841],[16.20697021484375,-0.063411027193069],[16.287353515625,-0.063926659524441],[16.356969833374023,-0.032144550234079],[16.35026000000653,0.04041],[16.226667404174805,0.120555557310581],[16.184999465942383,0.102777779102325],[16.12555503845215,0.118055559694767],[16.128610610961914,0.165555566549301],[16.106666564941406,0.184444442391396],[16.10527801513672,0.257777780294418],[16.081111907958984,0.302500009536743],[15.96500015258789,0.35361111164093],[15.957777976989746,0.393055558204651],[15.87833309173584,0.443611115217209],[15.790555953979492,0.457777768373489],[15.751944541931152,0.44305557012558],[15.735278129577637,0.467500001192093],[15.66249942779541,0.455833315849304],[15.588888168334961,0.427777767181396],[15.533333778381348,0.35249999165535],[15.390277862548828,0.392777770757675],[15.366111755371094,0.375833332538605],[15.291666984558105,0.381666660308838],[15.28917000000365,0.408820000000105],[15.126566886901855,0.281471341848373],[15.241650581359863,0.180361598730087],[15.2481107711792,0.137114927172661],[15.206103324890137,0.082287080585957],[15.11011791229248,0.044647000730038],[14.904389999996056,0.03466],[14.887312889099121,-0.017139969393611],[14.93978000000061,-0.21452]]]},"properties":{"shapeName":"Mossaka","shapeISO":"","shapeID":"1427508B15105578077856","shapeGroup":"COG","shapeType":"ADM2"}},
{"type":"Feature","geometry":{"type":"Polygon","coordinates":[[[17.558699999994133,-0.753789999999753],[17.70965000000433,-0.54065],[17.741849999991246,-0.380970000000161],[17.713690000004135,-0.12813],[17.771390000008978,0],[17.7580200000084,0.01809],[17.78693000000203,0.14337],[17.96001999999862,0.38875],[17.955080000014277,0.48994],[17.876259999989998,0.5944],[17.895279999997,0.775069999999687],[17.844899999996414,0.919179999999869],[17.850119999988237,1.012440000000424],[17.941770000004908,1.164450000000215],[17.97625999999582,1.338229999999385],[18.066419999988284,1.514020000000528],[18.088040000002366,1.677960000000894],[18.058279999997467,1.80379],[18.067539999989094,1.880479999999807],[17.780319999990752,2.066429999998945],[17.6613826751709,0.558688879013062],[17.558699999994133,-0.753789999999753]]]},"properties":{"shapeName":"Owando","shapeISO":"","shapeID":"1427508B2711916711363","shapeGroup":"COG","shapeType":"ADM2"}},
{"type":"Feature","geometry":{"type":"Polygon","coordinates":[[[16.349563598632812,-1.495361804962158],[16.320772171020508,-1.564539670944214],[16.280458450317383,-1.582158923149109],[16.146909713745117,-1.532400250434875],[16.130821228027344,-1.464675188064575],[16.103750228881836,-1.457177042961121],[16.00348663330078,-1.456986904144287],[15.708131790161133,-1.513550162315369],[15.602312088012695,-1.615403294563293],[15.544001579284668,-1.807518005371094],[15.54536247253418,-1.87460732460022],[15.338594436645508,-1.941622495651245],[15.311159133911133,-1.996256232261658],[15.380538940429688,-2.076617240905762],[15.463125228881836,-2.228427886962891],[15.549541473388672,-2.227076292037964],[15.792546272277832,-2.301789522171021],[15.947382926940918,-2.504351377487183],[16.097545623779297,-2.537370920181274],[16.232560000004014,-2.59516000000076],[16.184279999986757,-2.382890000000771],[16.200890000007348,-2.197609999999258],[16.24202000000514,-2.122599999998783],[16.35922000001301,-2.038339999999152],[16.487880000000587,-1.89559],[16.66738999998779,-1.59023999999954],[16.595277786254883,-1.590833425521851],[16.604999542236328,-1.538055658340454],[16.56305503845215,-1.525555491447449],[16.438610076904297,-1.547777891159058],[16.444442749023438,-1.527222156524658],[16.400554656982422,-1.515555500984192],[16.40888786315918,-1.495277762413025],[16.349563598632812,-1.495361804962158]]]},"properties":{"shapeName":"Ewo","shapeISO":"","shapeID":"1427508B71494423838128","shapeGroup":"COG","shapeType":"ADM2"}},
{"type":"Feature","geometry":{"type":"Polygon","coordinates":[[[16.152666091918945,-1.258633136749268],[16.030832290649414,-1.192222237586975],[15.952777862548828,-1.190000057220459],[15.945833206176758,-1.146666646003723],[15.925000190734863,-1.158611059188843],[15.902777671813965,-1.119444489479065],[15.845555305480957,-1.106388926506042],[15.7877779006958,-1.061111092567444],[15.749444961547852,-1.062222123146057],[15.721110343933105,-0.959444403648376],[15.650127410888672,-0.950488746166229],[15.573333740234375,-0.938333332538605],[15.543611526489258,-0.961388885974884],[15.490833282470703,-0.955555558204651],[15.416389465332031,-0.982222199440002],[15.381111145019531,-1.056944370269775],[15.342499732971191,-1.06333327293396],[15.32361125946045,-1.099444508552551],[15.241944313049316,-1.140833377838135],[15.202361106872559,-1.1998610496521],[15.159443855285645,-1.244166731834412],[15.095555305480957,-1.4477778673172],[15.00361156463623,-1.56166672706604],[14.942289352416992,-1.590496301651001],[14.993942260742188,-1.736934185028076],[15.311159133911133,-1.996256232261658],[15.338594436645508,-1.941622495651245],[15.54536247253418,-1.87460732460022],[15.544001579284668,-1.807518005371094],[15.602312088012695,-1.615403294563293],[15.708131790161133,-1.513550162315369],[16.00348663330078,-1.456986904144287],[16.103750228881836,-1.457177042961121],[16.130821228027344,-1.464675188064575],[16.146909713745117,-1.532400250434875],[16.280458450317383,-1.582158923149109],[16.320772171020508,-1.564539670944214],[16.349563598632812,-1.495361804962158],[16.269166946411133,-1.304166793823242],[16.207223892211914,-1.310277819633484],[16.189998626708984,-1.271666646003723],[16.152666091918945,-1.258633136749268]]]},"properties":{"shapeName":"Kelle","shapeISO":"","shapeID":"1427508B49132157501482","shapeGroup":"COG","shapeType":"ADM2"}},
{"type":"Feature","geometry":{"type":"Polygon","coordinates":[[[15.141789999994216,-0.440410000000156],[15.4419584274292,-0.410114288330078],[15.452141761779785,-0.445244312286377],[15.378439903259277,-0.648734629154205],[15.458661079406738,-0.733059048652649],[15.593493461608887,-0.787007927894592],[15.650127410888672,-0.950488746166229],[15.721110343933105,-0.959444403648376],[15.749444961547852,-1.062222123146057],[15.7877779006958,-1.061111092567444],[15.845555305480957,-1.106388926506042],[15.902777671813965,-1.119444489479065],[15.925000190734863,-1.158611059188843],[15.945833206176758,-1.146666646003723],[15.952777862548828,-1.190000057220459],[16.030832290649414,-1.192222237586975],[16.152666091918945,-1.258633136749268],[16.30853271484375,-1.100807070732117],[16.24185562133789,-1.028526782989502],[16.257400512695312,-0.980459690093994],[16.512691497802734,-0.634378015995026],[16.20697021484375,-0.063411027193069],[16.142696380615234,-0.080526225268841],[16.066001892089844,-0.234640091657639],[15.960123062133789,-0.220438152551651],[15.803010940551758,-0.271016448736191],[15.625053405761719,-0.236912339925766],[15.49450969696045,-0.177973613142967],[15.412890434265137,-0.24795038998127],[15.281442642211914,-0.222146734595299],[15.14710807800293,-0.22932730615139],[15.088629999998375,-0.25398],[15.141789999994216,-0.440410000000156]]]},"properties":{"shapeName":"Mbomo","shapeISO":"","shapeID":"1427508B97285860455499","shapeGroup":"COG","shapeType":"ADM2"}},
{"type":"Feature","geometry":{"type":"Polygon","coordinates":[[[15.311159133911133,-1.996256232261658],[14.993942260742188,-1.736934185028076],[14.942289352416992,-1.590496301651001],[14.865278244018555,-1.594444513320923],[14.75777816772461,-1.658055543899536],[14.736945152282715,-1.720555543899536],[14.630779266357422,-1.87111234664917],[14.653441429138184,-1.952744841575623],[14.768475532531738,-2.02159857749939],[14.813535690307617,-2.074735641479492],[14.817874908447266,-2.18004322052002],[14.464612007141113,-2.586400747299194],[14.444999694824219,-2.654120683670044],[14.452201843261719,-2.773355960845947],[14.439330101013184,-2.78748345375061],[14.38786506652832,-2.749245166778564],[14.305320739746094,-2.748553991317749],[14.345555305480957,-2.878055572509766],[14.26070785522461,-2.981898069381714],[14.285555839538574,-3.019999980926514],[14.43416690826416,-3.033333301544189],[14.517499923706055,-3.08388876914978],[14.732499122619629,-2.851388931274414],[14.790555953979492,-2.820833206176758],[14.801944732666016,-2.765000104904175],[14.876827239990234,-2.715238094329834],[14.897500038146973,-2.720277786254883],[14.932222366333008,-2.795277833938599],[14.944999694824219,-2.901944637298584],[15.110555648803711,-2.891944646835327],[15.158055305480957,-2.981944561004639],[15.248333930969238,-3.024444341659546],[15.390832901000977,-3.033055543899536],[15.47209358215332,-3.007303476333618],[15.585832595825195,-2.92638897895813],[15.665833473205566,-2.898611307144165],[15.710000038146973,-2.8519446849823],[15.79555606842041,-2.828055381774902],[15.807222366333008,-2.842777729034424],[15.82611083984375,-2.820277690887451],[15.94861125946045,-2.881388902664185],[15.9975004196167,-2.942500114440918],[16.0836124420166,-2.92805552482605],[16.180729999992764,-2.94198999999935],[16.232560000004014,-2.59516000000076],[16.097545623779297,-2.537370920181274],[15.947382926940918,-2.504351377487183],[15.792546272277832,-2.301789522171021],[15.549541473388672,-2.227076292037964],[15.463125228881836,-2.228427886962891],[15.380538940429688,-2.076617240905762],[15.311159133911133,-1.996256232261658]]]},"properties":{"shapeName":"Okoyo","shapeISO":"","shapeID":"1427508B68234406405678","shapeGroup":"COG","shapeType":"ADM2"}},
{"type":"Feature","geometry":{"type":"Polygon","coordinates":[[[14.463669999997364,-1.17844999999943],[14.485608100891113,-1.260061383247375],[14.452271461486816,-1.365026473999023],[14.501670837402344,-1.425276637077332],[14.462571144104004,-1.469813823699951],[14.480050086975098,-1.544690370559692],[14.374528884887695,-1.609971880912781],[14.451237678527832,-1.692426204681396],[14.420770645141602,-1.728656053543091],[14.400609016418457,-1.872003078460693],[14.376381874084473,-1.89171314239502],[14.376388549804688,-2.006388902664185],[14.435832977294922,-2.026388883590698],[14.488611221313477,-2.015555620193481],[14.630779266357422,-1.87111234664917],[14.736945152282715,-1.720555543899536],[14.75777816772461,-1.658055543899536],[14.865278244018555,-1.594444513320923],[14.942289352416992,-1.590496301651001],[15.00361156463623,-1.56166672706604],[15.095555305480957,-1.4477778673172],[15.159443855285645,-1.244166731834412],[15.202361106872559,-1.1998610496521],[15.122489929199219,-1.109459638595581],[15.058147430419922,-1.080312013626099],[15.047380000003614,-1.047179999999571],[15.023679733276367,-1.080528616905212],[14.925191879272461,-1.110750675201416],[14.748926162719727,-1.12291419506073],[14.67494010925293,-1.106303811073303],[14.636578559875488,-1.145305871963501],[14.463669999997364,-1.17844999999943]]]},"properties":{"shapeName":"Kakamoeka","shapeISO":"","shapeID":"1427508B78448203427797","shapeGroup":"COG","shapeType":"ADM2"}},
{"type":"Feature","geometry":{"type":"Polygon","coordinates":[[[15.047380000003614,-1.047179999999571],[15.058147430419922,-1.080312013626099],[15.122489929199219,-1.109459638595581],[15.202361106872559,-1.1998610496521],[15.241944313049316,-1.140833377838135],[15.32361125946045,-1.099444508552551],[15.342499732971191,-1.06333327293396],[15.381111145019531,-1.056944370269775],[15.416389465332031,-0.982222199440002],[15.490833282470703,-0.955555558204651],[15.543611526489258,-0.961388885974884],[15.573333740234375,-0.938333332538605],[15.650127410888672,-0.950488746166229],[15.593493461608887,-0.787007927894592],[15.458661079406738,-0.733059048652649],[15.378439903259277,-0.648734629154205],[15.452141761779785,-0.445244312286377],[15.4419584274292,-0.410114288330078],[15.141789999994216,-0.440410000000156],[15.154175758361816,-0.46961185336113],[15.112106323242188,-0.572217881679535],[15.007972717285156,-0.685923635959625],[15.185383796691895,-0.857638776302338],[15.13707447052002,-0.949535012245178],[15.047380000003614,-1.047179999999571]]]},"properties":{"shapeName":"Loandjili (Pointe Noire)","shapeISO":"","shapeID":"1427508B18064452172812","shapeGroup":"COG","shapeType":"ADM2"}},
{"type":"Feature","geometry":{"type":"Polygon","coordinates":[[[15.47209358215332,-3.007303476333618],[15.51314640045166,-3.074424982070923],[15.49820613861084,-3.189159393310547],[15.31167984008789,-3.264208793640137],[15.26336669921875,-3.36724853515625],[15.25703239440918,-3.446690797805786],[15.308506965637207,-3.505921363830566],[15.462226867675781,-3.576105117797852],[15.54622745513916,-3.651982307434082],[15.576898574829102,-3.634564399719238],[15.65322494506836,-3.510226726531982],[15.687666893005371,-3.512949466705322],[15.797334671020508,-3.606137990951538],[15.894235610961914,-3.780646562576294],[15.966599999999744,-3.798760000001494],[16.22239000000991,-3.296269999998913],[16.184069999988424,-3.250489999998535],[16.180729999992764,-2.94198999999935],[16.0836124420166,-2.92805552482605],[15.9975004196167,-2.942500114440918],[15.94861125946045,-2.881388902664185],[15.82611083984375,-2.820277690887451],[15.807222366333008,-2.842777729034424],[15.79555606842041,-2.828055381774902],[15.710000038146973,-2.8519446849823],[15.665833473205566,-2.898611307144165],[15.585832595825195,-2.92638897895813],[15.47209358215332,-3.007303476333618]]]},"properties":{"shapeName":"Madingo-Kayes","shapeISO":"","shapeID":"1427508B65324977052506","shapeGroup":"COG","shapeType":"ADM2"}},
{"type":"Feature","geometry":{"type":"Polygon","coordinates":[[[14.876827239990234,-2.715238094329834],[14.769050598144531,-2.976859331130981],[14.666787147521973,-3.129879236221313],[14.738402366638184,-3.218817949295044],[14.745349884033203,-3.312450885772705],[14.729913711547852,-3.506288528442383],[14.649628639221191,-3.592489957809448],[14.827380180358887,-3.769117593765259],[14.790923118591309,-3.848300695419312],[14.840210914611816,-3.98895788192749],[14.81751823425293,-4.011233806610107],[14.921005249023438,-4.029844284057617],[15.00283145904541,-4.058565616607666],[14.996367454528809,-4.102088928222656],[15.04464340209961,-4.232903957366943],[15.111794471740723,-4.033763885498047],[15.096982955932617,-3.895498991012573],[15.186893463134766,-3.780928134918213],[15.25703239440918,-3.446690797805786],[15.26336669921875,-3.36724853515625],[15.31167984008789,-3.264208793640137],[15.49820613861084,-3.189159393310547],[15.51314640045166,-3.074424982070923],[15.47209358215332,-3.007303476333618],[15.390832901000977,-3.033055543899536],[15.248333930969238,-3.024444341659546],[15.158055305480957,-2.981944561004639],[15.110555648803711,-2.891944646835327],[14.944999694824219,-2.901944637298584],[14.932222366333008,-2.795277833938599],[14.897500038146973,-2.720277786254883],[14.876827239990234,-2.715238094329834]]]},"properties":{"shapeName":"Mvouti","shapeISO":"","shapeID":"1427508B61990320035466","shapeGroup":"COG","shapeType":"ADM2"}},
{"type":"Feature","geometry":{"type":"Polygon","coordinates":[[[14.26070785522461,-2.981898069381714],[14.171944618225098,-3.035277843475342],[14.087777137756348,-3.252777814865112],[13.920278549194336,-3.415000200271606],[13.871601104736328,-3.532261371612549],[13.862309455871582,-3.537059307098389],[13.965277671813965,-3.578611135482788],[14.026944160461426,-3.575000047683716],[14.144721984863281,-3.450000047683716],[14.23888874053955,-3.493333339691162],[14.286389350891113,-3.557222127914429],[14.308610916137695,-3.634722232818604],[14.203611373901367,-3.685277938842773],[14.26722240447998,-3.766111135482788],[14.290000915527344,-3.850000143051147],[14.342777252197266,-3.880277872085571],[14.372859001159668,-3.950043916702271],[14.461804389953613,-3.982693195343018],[14.559796333312988,-3.951049566268921],[14.643662452697754,-4.006525993347168],[14.81751823425293,-4.011233806610107],[14.840210914611816,-3.98895788192749],[14.790923118591309,-3.848300695419312],[14.827380180358887,-3.769117593765259],[14.649628639221191,-3.592489957809448],[14.729913711547852,-3.506288528442383],[14.745349884033203,-3.312450885772705],[14.738402366638184,-3.218817949295044],[14.666787147521973,-3.129879236221313],[14.769050598144531,-2.976859331130981],[14.876827239990234,-2.715238094329834],[14.801944732666016,-2.765000104904175],[14.790555953979492,-2.820833206176758],[14.732499122619629,-2.851388931274414],[14.517499923706055,-3.08388876914978],[14.43416690826416,-3.033333301544189],[14.285555839538574,-3.019999980926514],[14.26070785522461,-2.981898069381714]]]},"properties":{"shapeName":"Bambama","shapeISO":"","shapeID":"1427508B17240885664000","shapeGroup":"COG","shapeType":"ADM2"}},
{"type":"Feature","geometry":{"type":"Polygon","coordinates":[[[13.663419999997132,-2.805169999999634],[13.632501602172852,-2.909719467163086],[13.63956069946289,-3.116310596466064],[13.479307174682617,-3.191659688949585],[13.424253463745117,-3.302897453308105],[13.72222900390625,-3.399719953536987],[13.871601104736328,-3.532261371612549],[13.920278549194336,-3.415000200271606],[14.087777137756348,-3.252777814865112],[14.171944618225098,-3.035277843475342],[14.26070785522461,-2.981898069381714],[14.345555305480957,-2.878055572509766],[14.305320739746094,-2.748553991317749],[14.277777671813965,-2.763888835906982],[14.298334121704102,-2.684444427490234],[14.206944465637207,-2.698611259460449],[14.140277862548828,-2.675833463668823],[14.131388664245605,-2.661388874053955],[14.193888664245605,-2.60361123085022],[14.174722671508789,-2.590555429458618],[14.154443740844727,-2.606389045715332],[14.11833381652832,-2.577777624130249],[14.15666675567627,-2.550277709960938],[14.119166374206543,-2.523333311080933],[14.111307144165039,-2.46139931678772],[14.083022117614746,-2.481633424758911],[14.050200462341309,-2.455532073974609],[14.014009999998962,-2.463569999999891],[13.89927864074707,-2.555518627166748],[13.804445266723633,-2.688456773757935],[13.663419999997132,-2.805169999999634]]]},"properties":{"shapeName":"Komono","shapeISO":"","shapeID":"1427508B55030741074917","shapeGroup":"COG","shapeType":"ADM2"}},
{"type":"Feature","geometry":{"type":"Polygon","coordinates":[[[14.630779266357422,-1.87111234664917],[14.488611221313477,-2.015555620193481],[14.435832977294922,-2.026388883590698],[14.376388549804688,-2.006388902664185],[14.376381874084473,-1.89171314239502],[14.257282257080078,-1.983205914497375],[14.253232955932617,-2.105577230453491],[14.157983779907227,-2.18760347366333],[14.22022819519043,-2.30374813079834],[14.111307144165039,-2.46139931678772],[14.119166374206543,-2.523333311080933],[14.15666675567627,-2.550277709960938],[14.11833381652832,-2.577777624130249],[14.154443740844727,-2.606389045715332],[14.174722671508789,-2.590555429458618],[14.193888664245605,-2.60361123085022],[14.131388664245605,-2.661388874053955],[14.140277862548828,-2.675833463668823],[14.206944465637207,-2.698611259460449],[14.298334121704102,-2.684444427490234],[14.277777671813965,-2.763888835906982],[14.305320739746094,-2.748553991317749],[14.38786506652832,-2.749245166778564],[14.439330101013184,-2.78748345375061],[14.452201843261719,-2.773355960845947],[14.444999694824219,-2.654120683670044],[14.464612007141113,-2.586400747299194],[14.817874908447266,-2.18004322052002],[14.813535690307617,-2.074735641479492],[14.768475532531738,-2.02159857749939],[14.653441429138184,-1.952744841575623],[14.630779266357422,-1.87111234664917]]]},"properties":{"shapeName":"Sibiti","shapeISO":"","shapeID":"1427508B97911920098137","shapeGroup":"COG","shapeType":"ADM2"}},
{"type":"Feature","geometry":{"type":"Polygon","coordinates":[[[15.25703239440918,-3.446690797805786],[15.186893463134766,-3.780928134918213],[15.096982955932617,-3.895498991012573],[15.111794471740723,-4.033763885498047],[15.04464340209961,-4.232903957366943],[14.974922180175781,-4.368077754974365],[15.086009999999078,-4.512949999996636],[15.20755672454834,-4.338101863861084],[15.302176475524902,-4.281692981719971],[15.39720630645752,-4.299826145172119],[15.463756561279297,-4.269550800323486],[15.503941535949707,-4.200986862182617],[15.514398574829102,-4.106581211090088],[15.561500549316406,-4.046949863433838],[15.892866134643555,-3.958508968353271],[15.966599999999744,-3.798760000001494],[15.894235610961914,-3.780646562576294],[15.797334671020508,-3.606137990951538],[15.687666893005371,-3.512949466705322],[15.65322494506836,-3.510226726531982],[15.576898574829102,-3.634564399719238],[15.54622745513916,-3.651982307434082],[15.462226867675781,-3.576105117797852],[15.308506965637207,-3.505921363830566],[15.25703239440918,-3.446690797805786]]]},"properties":{"shapeName":"Zanaga","shapeISO":"","shapeID":"1427508B80151114352270","shapeGroup":"COG","shapeType":"ADM2"}},
{"type":"Feature","geometry":{"type":"Polygon","coordinates":[[[14.921005249023438,-4.029844284057617],[14.90476131439209,-4.050171852111816],[14.763496398925781,-4.081406593322754],[14.673296928405762,-4.070326805114746],[14.648685455322266,-4.085090160369873],[14.630550384521484,-4.291368007659912],[14.691147804260254,-4.415341377258301],[14.839388847351074,-4.459929943084717],[14.893362998962402,-4.577456474304199],[14.967000000004191,-4.631209999999555],[15.086009999999078,-4.512949999996636],[14.974922180175781,-4.368077754974365],[15.04464340209961,-4.232903957366943],[14.996367454528809,-4.102088928222656],[15.00283145904541,-4.058565616607666],[14.921005249023438,-4.029844284057617]]]},"properties":{"shapeName":"Dongou","shapeISO":"","shapeID":"1427508B98957874622899","shapeGroup":"COG","shapeType":"ADM2"}},
{"type":"Feature","geometry":{"type":"Polygon","coordinates":[[[14.81751823425293,-4.011233806610107],[14.643662452697754,-4.006525993347168],[14.559796333312988,-3.951049566268921],[14.461804389953613,-3.982693195343018],[14.372859001159668,-3.950043916702271],[14.31916618347168,-4.010555744171143],[14.236666679382324,-3.994166612625122],[14.156110763549805,-4.071944236755371],[14.164443969726562,-4.146666526794434],[14.145277976989746,-4.179999828338623],[14.094999313354492,-4.183888912200928],[14.039444923400879,-4.246666431427002],[13.970555305480957,-4.272222518920898],[13.951866149902344,-4.321811199188232],[13.90049,-4.508410000002186],[13.95969000000332,-4.518219999998109],[14.025829999998678,-4.424789999997301],[14.178459999995539,-4.399590000000899],[14.400370000003022,-4.280189999997674],[14.414850000001024,-4.288869999996678],[14.387340000001132,-4.341220000002068],[14.436449999993783,-4.409699999996519],[14.599045753479004,-4.333481311798096],[14.630550384521484,-4.291368007659912],[14.648685455322266,-4.085090160369873],[14.673296928405762,-4.070326805114746],[14.763496398925781,-4.081406593322754],[14.90476131439209,-4.050171852111816],[14.921005249023438,-4.029844284057617],[14.81751823425293,-4.011233806610107]]]},"properties":{"shapeName":"Epena","shapeISO":"","shapeID":"1427508B94586768331104","shapeGroup":"COG","shapeType":"ADM2"}},
{"type":"Feature","geometry":{"type":"Polygon","coordinates":[[[13.862309455871582,-3.537059307098389],[13.816944122314453,-3.599166631698608],[13.785000801086426,-3.606944561004639],[13.78083324432373,-3.651666879653931],[13.725555419921875,-3.692500114440918],[13.719444274902344,-3.738055467605591],[13.647500038146973,-3.731388807296753],[13.624444961547852,-3.766111135482788],[13.569722175598145,-3.765833377838135],[13.56916618347168,-3.796111106872559],[13.602499961853027,-3.82194447517395],[13.567500114440918,-3.862777948379517],[13.56944465637207,-3.900555610656738],[13.522500038146973,-3.945833444595337],[13.51708984375,-4.002985954284668],[13.613548278808594,-4.04690408706665],[13.875534057617188,-4.314849853515625],[13.951866149902344,-4.321811199188232],[13.970555305480957,-4.272222518920898],[14.039444923400879,-4.246666431427002],[14.094999313354492,-4.183888912200928],[14.145277976989746,-4.179999828338623],[14.164443969726562,-4.146666526794434],[14.156110763549805,-4.071944236755371],[14.236666679382324,-3.994166612625122],[14.31916618347168,-4.010555744171143],[14.372859001159668,-3.950043916702271],[14.342777252197266,-3.880277872085571],[14.290000915527344,-3.850000143051147],[14.26722240447998,-3.766111135482788],[14.203611373901367,-3.685277938842773],[14.308610916137695,-3.634722232818604],[14.286389350891113,-3.557222127914429],[14.23888874053955,-3.493333339691162],[14.144721984863281,-3.450000047683716],[14.026944160461426,-3.575000047683716],[13.965277671813965,-3.578611135482788],[13.862309455871582,-3.537059307098389]]]},"properties":{"shapeName":"Impfondo","shapeISO":"","shapeID":"1427508B40681064196886","shapeGroup":"COG","shapeType":"ADM2"}},
{"type":"Feature","geometry":{"type":"Polygon","coordinates":[[[13.031143188476562,-3.211983203887939],[13.00777816772461,-3.243055582046509],[12.92388916015625,-3.246944427490234],[12.918334007263184,-3.299999952316284],[12.895833015441895,-3.282500028610229],[12.862500190734863,-3.30388879776001],[12.730833053588867,-3.299166679382324],[12.679444313049316,-3.323055505752563],[12.6497220993042,-3.404444456100464],[12.598888397216797,-3.423888921737671],[12.628055572509766,-3.491944551467896],[12.657499313354492,-3.501666784286499],[12.654621124267578,-3.528206825256348],[12.721110343933105,-3.525555610656738],[12.717777252197266,-3.562777757644653],[12.774999618530273,-3.556111097335815],[12.805000305175781,-3.57444429397583],[12.813611030578613,-3.626944541931152],[12.886944770812988,-3.732222318649292],[12.894166946411133,-3.836388826370239],[12.984167098999023,-3.872777938842773],[13.021944046020508,-3.925000190734863],[13.161665916442871,-3.931388854980469],[13.229999542236328,-3.905277967453003],[13.27388858795166,-3.931666851043701],[13.340555191040039,-3.920833349227905],[13.362222671508789,-3.947499990463257],[13.3521089553833,-3.967186212539673],[13.373611450195312,-4.033888816833496],[13.400040626525879,-4.044722080230713],[13.485833168029785,-4.043889045715332],[13.51708984375,-4.002985954284668],[13.522500038146973,-3.945833444595337],[13.56944465637207,-3.900555610656738],[13.567500114440918,-3.862777948379517],[13.602499961853027,-3.82194447517395],[13.56916618347168,-3.796111106872559],[13.569722175598145,-3.765833377838135],[13.624444961547852,-3.766111135482788],[13.647500038146973,-3.731388807296753],[13.719444274902344,-3.738055467605591],[13.725555419921875,-3.692500114440918],[13.78083324432373,-3.651666879653931],[13.785000801086426,-3.606944561004639],[13.816944122314453,-3.599166631698608],[13.862309455871582,-3.537059307098389],[13.871601104736328,-3.532261371612549],[13.72222900390625,-3.399719953536987],[13.424253463745117,-3.302897453308105],[13.212787628173828,-3.339637756347656],[13.161970138549805,-3.272564649581909],[13.031143188476562,-3.211983203887939]]]},"properties":{"shapeName":"Divenie","shapeISO":"","shapeID":"1427508B11102510825408","shapeGroup":"COG","shapeType":"ADM2"}},
{"type":"Feature","geometry":{"type":"Polygon","coordinates":[[[14.630550384521484,-4.291368007659912],[14.599045753479004,-4.333481311798096],[14.436449999993783,-4.409699999996519],[14.482250000000931,-4.437010000001465],[14.43185999999696,-4.520179999999527],[14.38173999999708,-4.524870000001101],[14.349340000000666,-4.564120000002731],[14.381590000004508,-4.595970000002126],[14.385450000001583,-4.637829999999667],[14.429109999997308,-4.655140000002575],[14.401110000006156,-4.806429999996908],[14.416206359863281,-4.897478103637695],[14.489867210388184,-4.848158836364746],[14.64625072479248,-4.923173904418945],[14.690509796142578,-4.917223930358887],[14.843789100646973,-4.824484825134277],[14.912360000002082,-4.682189999999537],[14.967000000004191,-4.631209999999555],[14.893362998962402,-4.577456474304199],[14.839388847351074,-4.459929943084717],[14.691147804260254,-4.415341377258301],[14.630550384521484,-4.291368007659912]]]},"properties":{"shapeName":"Kibangou","shapeISO":"","shapeID":"1427508B61088264973461","shapeGroup":"COG","shapeType":"ADM2"}},
{"type":"Feature","geometry":{"type":"Polygon","coordinates":[[[13.755999999993946,-4.445829999996931],[13.680636405944824,-4.352312088012695],[13.60655403137207,-4.28896427154541],[13.483221054077148,-4.316261291503906],[13.268160000006901,-4.41240999999718],[13.392219999994268,-4.632219999999506],[13.565830000006827,-4.727500000000873],[13.578649999995832,-4.820590000002994],[13.630669999998645,-4.742310000001453],[13.690180000005057,-4.768349999998463],[13.684930000003078,-4.711759999998321],[13.729200000001583,-4.70908000000054],[13.70948999999382,-4.651169999997364],[13.750209999998333,-4.557840000001306],[13.728759999998147,-4.464489999998477],[13.755999999993946,-4.445829999996931]]]},"properties":{"shapeName":"Kimongo","shapeISO":"","shapeID":"1427508B96831343191841","shapeGroup":"COG","shapeType":"ADM2"}},
{"type":"Feature","geometry":{"type":"Polygon","coordinates":[[[13.51708984375,-4.002985954284668],[13.485833168029785,-4.043889045715332],[13.400040626525879,-4.044722080230713],[13.439697265625,-4.108718395233154],[13.454224586486816,-4.276334285736084],[13.483221054077148,-4.316261291503906],[13.60655403137207,-4.28896427154541],[13.680636405944824,-4.352312088012695],[13.875534057617188,-4.314849853515625],[13.613548278808594,-4.04690408706665],[13.51708984375,-4.002985954284668]]]},"properties":{"shapeName":"Louvakou (Loubomo)","shapeISO":"","shapeID":"1427508B57341338749174","shapeGroup":"COG","shapeType":"ADM2"}},
{"type":"Feature","geometry":{"type":"Polygon","coordinates":[[[12.654621124267578,-3.528206825256348],[12.616111755371094,-3.589166641235352],[12.651110649108887,-3.761388778686523],[12.597777366638184,-3.814444303512573],[12.666666984558105,-3.860000133514404],[12.723888397216797,-3.951944589614868],[12.858611106872559,-4.08305549621582],[13.010959999999614,-4.335619999998016],[13.05666732788086,-4.378055572509766],[13.185249999994994,-4.394030000003113],[13.176421165466309,-4.297032356262207],[13.138745307922363,-4.227939605712891],[13.136194229125977,-4.136762142181396],[13.319533348083496,-4.014689445495605],[13.3521089553833,-3.967186212539673],[13.362222671508789,-3.947499990463257],[13.340555191040039,-3.920833349227905],[13.27388858795166,-3.931666851043701],[13.229999542236328,-3.905277967453003],[13.161665916442871,-3.931388854980469],[13.021944046020508,-3.925000190734863],[12.984167098999023,-3.872777938842773],[12.894166946411133,-3.836388826370239],[12.886944770812988,-3.732222318649292],[12.813611030578613,-3.626944541931152],[12.805000305175781,-3.57444429397583],[12.774999618530273,-3.556111097335815],[12.717777252197266,-3.562777757644653],[12.721110343933105,-3.525555610656738],[12.654621124267578,-3.528206825256348]]]},"properties":{"shapeName":"Mayoko","shapeISO":"","shapeID":"1427508B56162922568882","shapeGroup":"COG","shapeType":"ADM2"}},
{"type":"Feature","geometry":{"type":"Polygon","coordinates":[[[13.03863999999885,-2.570159999999305],[12.979761123657227,-2.636201620101929],[12.76147747039795,-2.676490783691406],[12.726629257202148,-2.665656089782715],[12.672877311706543,-2.600521326065063],[12.516789999994216,-2.560669999998936],[12.45669999999518,-2.570919999998296],[12.40753173828125,-2.669347763061523],[12.435105323791504,-2.677992820739746],[12.41710090637207,-2.722809553146362],[12.33473000000231,-2.87039999999979],[12.283150672912598,-3.057931900024414],[12.274114608764648,-3.186051607131958],[12.34680461883545,-3.315771102905273],[12.504220000002533,-3.500499999998283],[12.548062324523926,-3.483344554901123],[12.654621124267578,-3.528206825256348],[12.657499313354492,-3.501666784286499],[12.628055572509766,-3.491944551467896],[12.598888397216797,-3.423888921737671],[12.6497220993042,-3.404444456100464],[12.679444313049316,-3.323055505752563],[12.730833053588867,-3.299166679382324],[12.862500190734863,-3.30388879776001],[12.895833015441895,-3.282500028610229],[12.918334007263184,-3.299999952316284],[12.92388916015625,-3.246944427490234],[13.00777816772461,-3.243055582046509],[13.031143188476562,-3.211983203887939],[13.106111526489258,-3.155277967453003],[13.132499694824219,-2.988333463668823],[13.068888664245605,-2.92555570602417],[13.017499923706055,-2.916666746139526],[12.994444847106934,-2.864444494247437],[13.078055381774902,-2.823055505752563],[13.047778129577637,-2.736666679382324],[13.03863999999885,-2.570159999999305]]]},"properties":{"shapeName":"Mossendjo","shapeISO":"","shapeID":"1427508B80480986798258","shapeGroup":"COG","shapeType":"ADM2"}},
{"type":"Feature","geometry":{"type":"Polygon","coordinates":[[[12.654621124267578,-3.528206825256348],[12.548062324523926,-3.483344554901123],[12.504220000002533,-3.500499999998283],[12.522924423217773,-3.528590440750122],[12.471489906311035,-3.565077304840088],[12.348532676696777,-3.57245659828186],[12.30152416229248,-3.719279527664185],[12.22504997253418,-3.795049428939819],[12.17106999999669,-3.894029999999475],[12.210277557373047,-3.918055534362793],[12.210277557373047,-3.948889017105103],[12.382499694824219,-3.990833282470703],[12.390832901000977,-4.025833606719971],[12.445555686950684,-4.041388988494873],[12.556388854980469,-4.172222137451172],[12.545000076293945,-4.247499942779541],[12.592777252197266,-4.32444429397583],[12.701944351196289,-4.331110954284668],[12.764768600463867,-4.374490737915039],[12.777489999993122,-4.381359999999404],[12.787565231323242,-4.336797714233398],[12.82160758972168,-4.318233489990234],[13.010959999999614,-4.335619999998016],[12.858611106872559,-4.08305549621582],[12.723888397216797,-3.951944589614868],[12.666666984558105,-3.860000133514404],[12.597777366638184,-3.814444303512573],[12.651110649108887,-3.761388778686523],[12.616111755371094,-3.589166641235352],[12.654621124267578,-3.528206825256348]]]},"properties":{"shapeName":"Abala","shapeISO":"","shapeID":"1427508B96787194302936","shapeGroup":"COG","shapeType":"ADM2"}},
{"type":"Feature","geometry":{"type":"Polygon","coordinates":[[[12.17106999999669,-3.894029999999475],[12.149126052856445,-3.957581520080566],[12.221383094787598,-4.149205207824707],[12.214116096496582,-4.277780055999756],[12.182512283325195,-4.318378448486328],[12.076251983642578,-4.33903694152832],[12.135404586791992,-4.489633560180664],[12.241260528564453,-4.584626197814941],[12.21440315246582,-4.633469581604004],[12.209264755249023,-4.769150733947754],[12.2538480758667,-4.817365646362305],[12.301560401916504,-4.813610076904297],[12.462396621704102,-4.59613037109375],[12.616116523742676,-4.564340591430664],[12.662843704223633,-4.487369537353516],[12.760083198547363,-4.486015796661377],[12.723010063171387,-4.426958084106445],[12.734380722045898,-4.385974884033203],[12.764768600463867,-4.374490737915039],[12.701944351196289,-4.331110954284668],[12.592777252197266,-4.32444429397583],[12.545000076293945,-4.247499942779541],[12.556388854980469,-4.172222137451172],[12.445555686950684,-4.041388988494873],[12.390832901000977,-4.025833606719971],[12.382499694824219,-3.990833282470703],[12.210277557373047,-3.948889017105103],[12.210277557373047,-3.918055534362793],[12.17106999999669,-3.894029999999475]]]},"properties":{"shapeName":"Djambala","shapeISO":"","shapeID":"1427508B96128266527522","shapeGroup":"COG","shapeType":"ADM2"}},
{"type":"Feature","geometry":{"type":"Polygon","coordinates":[[[11.639590000006137,-4.422299999998359],[11.714022636413574,-4.463320255279541],[11.698406219482422,-4.476637363433838],[11.804220199584961,-4.589117050170898],[11.815410614013672,-4.62664270401001],[11.773141860961914,-4.667066097259521],[11.846667289733887,-4.757619857788086],[11.842724800109863,-4.789595603942871],[11.820929527282715,-4.787027359008789],[11.901106834411621,-4.892539978027344],[11.930927276611328,-4.902480602264404],[12.010878562927246,-5.027764320373535],[12.17322826385498,-4.898014068603516],[12.209264755249023,-4.769150733947754],[12.21440315246582,-4.633469581604004],[12.241260528564453,-4.584626197814941],[12.135404586791992,-4.489633560180664],[12.076251983642578,-4.33903694152832],[11.897978782653809,-4.340178489685059],[11.755392074584961,-4.376260757446289],[11.695430000007036,-4.365660000003118],[11.639590000006137,-4.422299999998359]]]},"properties":{"shapeName":"Gamboma","shapeISO":"","shapeID":"1427508B88245699970735","shapeGroup":"COG","shapeType":"ADM2"}},
{"type":"Feature","geometry":{"type":"Polygon","coordinates":[[[11.695430000007036,-4.365660000003118],[11.755392074584961,-4.376260757446289],[11.897978782653809,-4.340178489685059],[12.076251983642578,-4.33903694152832],[12.182512283325195,-4.318378448486328],[12.214116096496582,-4.277780055999756],[12.221383094787598,-4.149205207824707],[12.149126052856445,-3.957581520080566],[12.17106999999669,-3.894029999999475],[12.053333282470703,-3.86305570602417],[11.91722297668457,-3.755555629730225],[11.863859999997658,-3.747660000000906],[11.70766,-3.6804000000011],[11.62217903137207,-3.894794225692749],[11.668601989746094,-3.947626352310181],[11.842287063598633,-4.037040710449219],[11.902644157409668,-4.129741668701172],[11.828760147094727,-4.258355140686035],[11.695430000007036,-4.365660000003118]]]},"properties":{"shapeName":"Lekana","shapeISO":"","shapeID":"1427508B16336577504654","shapeGroup":"COG","shapeType":"ADM2"}},
{"type":"Feature","geometry":{"type":"Polygon","coordinates":[[[13.029850000006263,-2.321560000000318],[13.025540000002366,-2.22984],[12.885209999993094,-2.099490000000515],[12.828980000005686,-1.92602000000079],[12.733259999993606,-1.864830000000438],[12.65008000000671,-1.882019999999102],[12.561780000003637,-1.859200000000783],[12.520720000000438,-1.901359999999841],[12.44543999999587,-1.869989999999234],[12.475250000003143,-2.018960000001243],[12.523660000006203,-2.095229999998992],[12.510760000004666,-2.158729999999196],[12.532149999999092,-2.21389999999883],[12.497050000005402,-2.268009999999776],[12.529200000004494,-2.326379999998608],[12.503249999994296,-2.421259999999165],[12.516789999994216,-2.560669999998936],[12.672877311706543,-2.600521326065063],[12.726629257202148,-2.665656089782715],[12.76147747039795,-2.676490783691406],[12.979761123657227,-2.636201620101929],[13.03863999999885,-2.570159999999305],[13.032130000006873,-2.388879999998608],[13.029850000006263,-2.321560000000318]]]},"properties":{"shapeName":"Boko","shapeISO":"","shapeID":"1427508B75307715996039","shapeGroup":"COG","shapeType":"ADM2"}},
{"type":"Feature","geometry":{"type":"Polygon","coordinates":[[[12.516789999994216,-2.560669999998936],[12.503249999994296,-2.421259999999165],[12.176640000005136,-2.42127999999866],[12.092250000001513,-2.439340000000811],[11.99670000000333,-2.33986],[11.90411000000313,-2.378609999999753],[11.831139999994775,-2.38076],[11.771299999993062,-2.456959999999526],[11.678979999996955,-2.353520000000572],[11.608720000003814,-2.322759999999107],[11.65321999999287,-2.430380000001605],[11.636159999994561,-2.520789999998669],[11.703840000001946,-2.673030000001745],[11.696540000004461,-2.691210000000865],[11.641390000004321,-2.69816],[11.62274000000616,-2.798940000000584],[12.066739999994752,-2.970120000001771],[12.33473000000231,-2.87039999999979],[12.41710090637207,-2.722809553146362],[12.435105323791504,-2.677992820739746],[12.40753173828125,-2.669347763061523],[12.45669999999518,-2.570919999998296],[12.516789999994216,-2.560669999998936]]]},"properties":{"shapeName":"Kindamba","shapeISO":"","shapeID":"1427508B11009078407103","shapeGroup":"COG","shapeType":"ADM2"}},
{"type":"Feature","geometry":{"type":"Polygon","coordinates":[[[12.33473000000231,-2.87039999999979],[12.066739999994752,-2.970120000001771],[12.0107699999935,-3.142299999999523],[11.935039999996661,-3.187949999999546],[12.001759999999194,-3.241939999999886],[12.045450000005076,-3.352569999999105],[11.958840000006603,-3.478309999998601],[11.88057999999728,-3.535690000000614],[11.87789000000339,-3.576890000000276],[11.947830000004615,-3.626280000000406],[11.895749999996042,-3.734260000001086],[11.863859999997658,-3.747660000000906],[11.91722297668457,-3.755555629730225],[12.053333282470703,-3.86305570602417],[12.17106999999669,-3.894029999999475],[12.22504997253418,-3.795049428939819],[12.30152416229248,-3.719279527664185],[12.348532676696777,-3.57245659828186],[12.471489906311035,-3.565077304840088],[12.522924423217773,-3.528590440750122],[12.504220000002533,-3.500499999998283],[12.34680461883545,-3.315771102905273],[12.274114608764648,-3.186051607131958],[12.283150672912598,-3.057931900024414],[12.33473000000231,-2.87039999999979]]]},"properties":{"shapeName":"Kinkala","shapeISO":"","shapeID":"1427508B20778125990981","shapeGroup":"COG","shapeType":"ADM2"}},
{"type":"Feature","geometry":{"type":"Polygon","coordinates":[[[15.28917000000365,0.408820000000105],[15.291666984558105,0.381666660308838],[15.366111755371094,0.375833332538605],[15.390277862548828,0.392777770757675],[15.533333778381348,0.35249999165535],[15.588888168334961,0.427777767181396],[15.66249942779541,0.455833315849304],[15.735278129577637,0.467500001192093],[15.751944541931152,0.44305557012558],[15.790555953979492,0.457777768373489],[15.87833309173584,0.443611115217209],[15.957777976989746,0.393055558204651],[15.96500015258789,0.35361111164093],[16.081111907958984,0.302500009536743],[16.10527801513672,0.257777780294418],[16.106666564941406,0.184444442391396],[16.128610610961914,0.165555566549301],[16.12555503845215,0.118055559694767],[16.184999465942383,0.102777779102325],[16.226667404174805,0.120555557310581],[16.35026000000653,0.04041],[16.74234999998589,0.23443],[17.049720000009984,0.39417],[16.732500000012806,0.799439999999777],[16.69167000000016,0.882499999999709],[16.6919399999897,0.99167000000034],[16.779719999991357,1.066670000000158],[16.773890000011306,1.129440000000614],[16.802499999990687,1.183890000000247],[16.777780000003986,1.29306],[16.715280000003986,1.40056],[16.72111000001314,1.454719999999725],[16.694719999999506,1.471939999999449],[16.73305999999866,1.533610000000408],[16.703059999999823,1.66806],[16.763609999994515,1.812780000000203],[16.721669999998994,2.051940000001196],[16.763890000001993,2.145000000000437],[16.737779999995837,2.181939999998576],[16.743060000007972,2.378609999999753],[16.68186000001151,2.481059999998251],[16.617778778076172,2.516111135482788],[16.558332443237305,2.504444360733032],[16.557777404785156,2.550555467605591],[16.483612060546875,2.61305570602417],[16.491111755371094,2.671666860580444],[16.45275541211595,2.715971578832978],[16.188469999993686,2.208569999998872],[16.147490000003017,2.175159999998868],[16.13237000000663,2.196420000000217],[16.08632000000216,2.192299999998795],[16.08871999999974,2.08396],[16.065830000006827,2.064890000001469],[16.08454999999958,2.039570000000822],[16.055660000012722,1.969680000000153],[16.091069999994943,1.89010000000053],[16.11480000001029,1.886979999999312],[16.144720000011148,1.682109999999739],[16.113959999987856,1.695270000000164],[16.064689999999246,1.653229999999894],[16.03234999999404,1.6574099999998],[16.018190000002505,1.718619999999646],[16.0325399999856,1.762469999999666],[15.880569999993895,1.77988],[15.868619999993825,1.824989999999161],[15.807449999992969,1.852600000000166],[15.75006000000576,1.915820000000167],[15.525640000007115,1.953680000000531],[15.493700000006356,1.975640000000567],[15.434429999993881,1.957210000000487],[15.36040000000503,1.606139999999868],[15.640700000003562,1.445159999999305],[14.661340000006021,1.44276],[14.500310000003083,1.391390000000683],[14.529999732971191,1.256666660308838],[14.57277774810791,1.223611116409302],[14.719165802001953,1.174444437026978],[14.795000076293945,1.17638885974884],[14.842222213745117,1.120277762413025],[14.949999809265137,1.059999942779541],[15.075833320617676,1.0522221326828],[15.136666297912598,1.003611087799072],[15.150277137756348,0.945555567741394],[15.06944465637207,0.889722228050232],[15.094721794128418,0.819722235202789],[15.089166641235352,0.531388878822327],[15.173334121704102,0.49722221493721],[15.17055606842041,0.474166661500931],[15.200555801391602,0.469722211360931],[15.208054542541504,0.440833330154419],[15.258610725402832,0.433333337306976],[15.26722240447998,0.401111125946045],[15.28917000000365,0.408820000000105]]]},"properties":{"shapeName":"Mayama","shapeISO":"","shapeID":"1427508B81001765289527","shapeGroup":"COG","shapeType":"ADM2"}},
{"type":"Feature","geometry":{"type":"Polygon","coordinates":[[[14.09385000000475,1.37709],[14.187220573425293,1.395620465278625],[14.235906600952148,1.3635493516922],[14.500310000003083,1.391390000000683],[14.661340000006021,1.44276],[15.640700000003562,1.445159999999305],[15.36040000000503,1.606139999999868],[15.434429999993881,1.957210000000487],[15.344859999997425,1.911099999999351],[15.335120000003371,1.939870000000155],[15.306979999993928,1.934450000000652],[15.290890000003856,1.982780000000275],[15.243400000006659,2.009150000001682],[15.251910000006319,2.025679999998829],[15.205059999992955,2.035950000001321],[15.178469999998924,2.014419999999518],[15.162309999999707,2.040000000000873],[15.107709999996587,1.978320000000167],[15.075240000005579,1.980030000000625],[15.066380000003846,2.00144],[15.042530000006082,1.977370000000519],[14.987110000001849,2.033179999998538],[14.968059999999241,2.00448999999935],[14.922990000006394,1.997729999999137],[14.897889999992913,2.018260000000737],[14.91765000000305,2.054769999998825],[14.883390000002692,2.071420000000217],[14.878219999998691,2.107759999998962],[14.866940000007162,2.079280000001745],[14.77495999999519,2.061600000000908],[14.772070000006352,2.095410000001721],[14.744370000000345,2.087439999999333],[14.756750000000466,2.100740000001679],[14.729590000002645,2.122200000001612],[14.723140000001877,2.103820000000269],[14.650930000003427,2.129069999999047],[14.583180000001448,2.211800000000949],[14.429059999994934,2.155940000000555],[14.323789999994915,1.66345],[14.09385000000475,1.37709]]]},"properties":{"shapeName":"Mindouli","shapeISO":"","shapeID":"1427508B59827830762916","shapeGroup":"COG","shapeType":"ADM2"}},
{"type":"Feature","geometry":{"type":"Polygon","coordinates":[[[17.780319999990752,2.066429999998945],[18.067539999989094,1.880479999999807],[18.092531204223633,1.962113976478577],[18.065284729003906,2.027014970779419],[18.08882713317871,2.089550971984863],[18.098594665527344,2.250696897506714],[18.185283660888672,2.345020055770874],[18.241748809814453,2.506999015808105],[18.338796615600586,2.598862886428833],[18.43296000000555,2.777930000000197],[18.467849999986356,2.958170000001701],[18.516910000005737,3.013999999999214],[18.532780000008643,3.07028],[18.60140000001411,3.114509999999427],[18.64173999999184,3.208940000000439],[18.635099411010742,3.471088886260986],[18.59499000001233,3.477019999998447],[18.544220000010682,3.596130000001722],[18.49090000000433,3.65168999999878],[18.448629999998957,3.601200000000972],[18.414010000007693,3.603930000001128],[18.41052999999374,3.577900000000227],[18.345930000010412,3.607579999999871],[18.267679999989923,3.591570000000502],[18.2415500000061,3.500439999999799],[18.18900000001304,3.481169999999111],[18.123519999993732,3.566070000000764],[18,3.578870000001189],[17.99574000001303,3.551159999999072],[17.937719999987166,3.602449999998498],[17.859139999985928,3.53298],[17.828979999991134,3.6267399999997],[17.733050000009825,3.651219999999739],[17.70504999998957,3.634500000000116],[17.606319999991683,3.641250000000582],[17.47406000000774,3.703079999999318],[17.394209999998566,3.66164999999819],[17.362679999991087,3.606970000000729],[17.298810000007506,3.630150000000867],[17.252479999995558,3.610710000000836],[17.239349999988917,3.579209999999875],[17.0580600000103,3.548129999999219],[17.035299999988638,3.513429999999062],[16.957280000002356,3.559860000001208],[16.873660000012023,3.557509999998729],[16.851789999986067,3.510610000001179],[16.754530000005616,3.55706999999893],[16.66284999999334,3.537680000001274],[16.59653999999864,3.477279999999155],[16.558359999995446,3.253430000000662],[16.505769999988843,3.159869999999501],[16.5445400000026,3.065689999999449],[16.49337999999989,3.004329999999754],[16.49025000000256,2.909309999999095],[16.524769999989076,2.880489999999554],[16.45275541211595,2.715971578832978],[16.491111755371094,2.671666860580444],[16.483612060546875,2.61305570602417],[16.557777404785156,2.550555467605591],[16.558332443237305,2.504444360733032],[16.617778778076172,2.516111135482788],[16.68186000001151,2.481059999998251],[16.873909999994794,2.498419999999896],[17.12322999999742,2.431540000001405],[17.780319999990752,2.066429999998945]]]},"properties":{"shapeName":"Ngabe","shapeISO":"","shapeID":"1427508B65710782923529","shapeGroup":"COG","shapeType":"ADM2"}},
{"type":"Feature","geometry":{"type":"Polygon","coordinates":[[[17.049720000009984,0.39417],[16.74234999998589,0.23443],[16.78985595703125,0.130627423524857],[17.054176330566406,-0.955567121505737],[16.96129999999539,-1.163560000000871],[17.130280000012135,-1.064039999999295],[17.23749999998836,-1.047140000000581],[17.33006999999634,-0.99931000000015],[17.553592681884766,-0.759301781654358],[17.24138832092285,-0.746666669845581],[17.240556716918945,-0.701388895511627],[17.204723358154297,-0.699166655540466],[17.214723587036133,-0.620555579662323],[17.194442749023438,-0.565555572509766],[17.220001220703125,-0.49166664481163],[17.17860984802246,-0.444166660308838],[17.14472198486328,-0.461944431066513],[17.141666412353516,-0.424444437026978],[17.175832748413086,-0.369166672229767],[17.128889083862305,-0.33666667342186],[17.17361068725586,-0.306388914585114],[17.15333366394043,-0.286944448947906],[17.15138816833496,-0.206111118197441],[17.18638801574707,-0.151666671037674],[17.142499923706055,0.054999999701977],[17.191944122314453,0.093888893723488],[17.17166519165039,0.178611114621162],[17.2097225189209,0.200555562973022],[17.0977783203125,0.373888909816742],[17.049720000009984,0.39417]]]},"properties":{"shapeName":"Ngamaba (Brazzaville)","shapeISO":"","shapeID":"1427508B77398983922778","shapeGroup":"COG","shapeType":"ADM2"}},
{"type":"Feature","geometry":{"type":"Polygon","coordinates":[[[13.268160000006901,-4.41240999999718],[13.185249999994994,-4.394030000003113],[13.05666732788086,-4.378055572509766],[13.010959999999614,-4.335619999998016],[12.82160758972168,-4.318233489990234],[12.787565231323242,-4.336797714233398],[12.777489999993122,-4.381359999999404],[12.813120000006165,-4.419399999998859],[12.902990000002319,-4.409299999999348],[12.906130000003031,-4.467510000002221],[13.013349999993807,-4.592199999999139],[13.099289999998291,-4.646520000002056],[13.10239,-4.600910000001022],[13.13289999999688,-4.590329999999085],[13.246719999995548,-4.695950000001176],[13.28461000000243,-4.771419999997306],[13.372730000002775,-4.798560000002908],[13.379170000000158,-4.866869999998016],[13.430973052978516,-4.919864177703857],[13.425068855285645,-4.868803024291992],[13.488169999996899,-4.870219999997062],[13.51075000000128,-4.829660000003059],[13.578649999995832,-4.820590000002994],[13.565830000006827,-4.727500000000873],[13.392219999994268,-4.632219999999506],[13.268160000006901,-4.41240999999718]]]},"properties":{"shapeName":"Ouesso","shapeISO":"","shapeID":"1427508B53261587685070","shapeGroup":"COG","shapeType":"ADM2"}},
{"type":"Feature","geometry":{"type":"Polygon","coordinates":[[[13.951866149902344,-4.321811199188232],[13.875534057617188,-4.314849853515625],[13.680636405944824,-4.352312088012695],[13.755999999993946,-4.445829999996931],[13.819189999994705,-4.422530000003462],[13.90049,-4.508410000002186],[13.951866149902344,-4.321811199188232]]]},"properties":{"shapeName":"Sembe","shapeISO":"","shapeID":"1427508B36736410961843","shapeGroup":"COG","shapeType":"ADM2"}},
{"type":"Feature","geometry":{"type":"Polygon","coordinates":[[[13.3521089553833,-3.967186212539673],[13.319533348083496,-4.014689445495605],[13.136194229125977,-4.136762142181396],[13.138745307922363,-4.227939605712891],[13.176421165466309,-4.297032356262207],[13.185249999994994,-4.394030000003113],[13.268160000006901,-4.41240999999718],[13.483221054077148,-4.316261291503906],[13.454224586486816,-4.276334285736084],[13.439697265625,-4.108718395233154],[13.400040626525879,-4.044722080230713],[13.373611450195312,-4.033888816833496],[13.3521089553833,-3.967186212539673]]]},"properties":{"shapeName":"Souanke","shapeISO":"","shapeID":"1427508B74488627772391","shapeGroup":"COG","shapeType":"ADM2"}}
]}