{"type":"FeatureCollection", "features": [
{"type":"Feature","geometry":{"type":"Polygon","coordinates":[[[43.778034,-12.380748],[43.778547,-12.379377],[43.77758,-12.374371],[43.775946,-12.372342],[43.775778,-12.370084],[43.778853,-12.367992],[43.779553,-12.368663],[43.783253,-12.368304],[43.78447,-12.370876],[43.789446,-12.373758],[43.79438,-12.374674],[43.80676,-12.373207],[43.808675,-12.374542],[43.815231,-12.374741],[43.815669,-12.376069],[43.814564,-12.37738],[43.814617,-12.380888],[43.817411,-12.37855],[43.817885,-12.377179],[43.819186,-12.377204],[43.819683,-12.378241],[43.820391,-12.37783],[43.820664,-12.378913],[43.820819,-12.377954],[43.821237,-12.378558],[43.82208,-12.3775],[43.822984,-12.378171],[43.824382,-12.377726],[43.826104,-12.380301],[43.833885,-12.381776],[43.836305,-12.383366],[43.839479,-12.382422],[43.840364,-12.382915],[43.840307,-12.383949],[43.845201,-12.383972],[43.847875,-12.386711],[43.851253,-12.384883],[43.852205,-12.385057],[43.852312,-12.385904],[43.853486,-12.385072],[43.857478,-12.385326],[43.858121,-12.386579],[43.865031,-12.391378],[43.868458,-12.390425],[43.869538,-12.391747],[43.868406,-12.387238],[43.866782,-12.385989],[43.86745,-12.384093],[43.869432,-12.38508],[43.869946,-12.384574],[43.867401,-12.383726],[43.867438,-12.382212],[43.868326,-12.378229],[43.870914,-12.374461],[43.869403,-12.369603],[43.869886,-12.367499],[43.871032,-12.367259],[43.869,-12.365379],[43.869288,-12.363462],[43.868452,-12.362255],[43.867608,-12.362787],[43.864693,-12.36173],[43.862968,-12.356597],[43.860704,-12.35622],[43.859829,-12.355031],[43.860709,-12.352017],[43.857861,-12.350405],[43.859043,-12.347976],[43.858634,-12.346949],[43.856043,-12.348281],[43.855022,-12.347487],[43.855029,-12.3457],[43.85361,-12.344556],[43.853151,-12.342683],[43.850518,-12.341665],[43.848869,-12.342635],[43.845166,-12.340662],[43.838974,-12.336233],[43.837185,-12.333893],[43.836155,-12.33386],[43.835842,-12.332053],[43.835425,-12.332635],[43.834269,-12.332206],[43.834393,-12.33042],[43.83245,-12.330054],[43.831983,-12.328858],[43.830973,-12.328834],[43.830382,-12.329837],[43.828544,-12.328193],[43.827983,-12.329591],[43.826545,-12.329387],[43.826183,-12.327167],[43.824696,-12.326267],[43.821608,-12.326459],[43.82078,-12.324584],[43.819869,-12.325558],[43.818819,-12.325243],[43.818993,-12.32451],[43.817877,-12.325144],[43.814604,-12.324443],[43.813106,-12.322781],[43.813678,-12.32159],[43.812649,-12.322243],[43.81291,-12.32105],[43.812144,-12.322053],[43.810454,-12.322355],[43.810298,-12.321781],[43.810203,-12.32337],[43.808291,-12.324216],[43.804629,-12.323739],[43.803162,-12.321777],[43.794348,-12.334291],[43.785382,-12.333975],[43.779327,-12.329503],[43.763527,-12.328826],[43.74446,-12.340594],[43.74641,-12.344892],[43.752188,-12.346725],[43.764556,-12.352517],[43.767466,-12.355531],[43.778034,-12.380748]]]},"properties":{"shapeName":"Djando","shapeISO":"","shapeID":"10938185B42418571168375","shapeGroup":"COM","shapeType":"ADM2"}},
{"type":"Feature","geometry":{"type":"Polygon","coordinates":[[[44.524887,-12.280312],[44.526192,-12.27669],[44.52878,-12.27457],[44.529158,-12.268549],[44.532602,-12.264666],[44.532408,-12.262743],[44.533337,-12.262722],[44.532449,-12.261728],[44.532661,-12.260347],[44.534754,-12.261084],[44.540672,-12.259873],[44.539228,-12.258974],[44.535105,-12.258954],[44.533868,-12.257604],[44.530595,-12.25798],[44.531078,-12.256121],[44.53214,-12.256298],[44.532883,-12.255189],[44.531869,-12.253546],[44.532059,-12.251984],[44.534655,-12.251612],[44.532285,-12.251201],[44.532021,-12.250423],[44.532063,-12.246036],[44.532564,-12.245231],[44.53377,-12.245769],[44.534445,-12.24519],[44.533194,-12.244279],[44.531351,-12.244879],[44.530556,-12.243851],[44.530256,-12.240011],[44.52656,-12.231461],[44.527256,-12.2291],[44.528742,-12.227604],[44.528377,-12.226126],[44.525209,-12.223294],[44.524417,-12.22075],[44.521859,-12.219606],[44.521917,-12.217655],[44.52116,-12.217146],[44.522024,-12.215214],[44.521099,-12.214541],[44.519102,-12.207016],[44.519115,-12.204698],[44.520943,-12.201551],[44.521072,-12.199273],[44.517851,-12.194513],[44.518049,-12.193657],[44.519828,-12.192961],[44.519801,-12.191495],[44.517748,-12.18998],[44.518346,-12.18754],[44.517029,-12.18694],[44.515082,-12.184026],[44.513624,-12.178458],[44.510517,-12.176197],[44.507053,-12.171983],[44.503082,-12.162418],[44.503083,-12.159002],[44.500315,-12.153645],[44.501889,-12.149956],[44.500146,-12.148345],[44.500185,-12.14662],[44.498722,-12.143905],[44.499774,-12.141669],[44.498232,-12.140628],[44.499741,-12.137186],[44.498,-12.135035],[44.498216,-12.131906],[44.493486,-12.130684],[44.495486,-12.129171],[44.494803,-12.127073],[44.495564,-12.125631],[44.493257,-12.124628],[44.495246,-12.123972],[44.495287,-12.122839],[44.493764,-12.121613],[44.491746,-12.122144],[44.490325,-12.120343],[44.487052,-12.11847],[44.486315,-12.113658],[44.488575,-12.109388],[44.492091,-12.105545],[44.492789,-12.103214],[44.492302,-12.095913],[44.490703,-12.094488],[44.488007,-12.08818],[44.484674,-12.085353],[44.481888,-12.081084],[44.481898,-12.079208],[44.479712,-12.07827],[44.477666,-12.074296],[44.473159,-12.070435],[44.465946,-12.06798],[44.454397,-12.071481],[44.452116,-12.073451],[44.449802,-12.077221],[44.443466,-12.080896],[44.442649,-12.082326],[44.438158,-12.083629],[44.435023,-12.085651],[44.439763,-12.092197],[44.44034,-12.099353],[44.439649,-12.108129],[44.445891,-12.114245],[44.456115,-12.128668],[44.458415,-12.133442],[44.462443,-12.147854],[44.465103,-12.152534],[44.466832,-12.161886],[44.473761,-12.172392],[44.484528,-12.18125],[44.490472,-12.187333],[44.492686,-12.188164],[44.492306,-12.191121],[44.488153,-12.194262],[44.486503,-12.198935],[44.474765,-12.207788],[44.474738,-12.211509],[44.458534,-12.229514],[44.456005,-12.231513],[44.451927,-12.232369],[44.455652,-12.245335],[44.459046,-12.265424],[44.457525,-12.277805],[44.464516,-12.281855],[44.490629,-12.289417],[44.501153,-12.289335],[44.508636,-12.284598],[44.520159,-12.27502],[44.521239,-12.280266],[44.524887,-12.280312]]]},"properties":{"shapeName":"Domoni","shapeISO":"","shapeID":"10938185B41806506469500","shapeGroup":"COM","shapeType":"ADM2"}},
{"type":"Feature","geometry":{"type":"Polygon","coordinates":[[[43.803162,-12.321777],[43.802247,-12.321208],[43.800801,-12.321784],[43.7994,-12.319719],[43.799923,-12.318828],[43.799001,-12.318974],[43.797609,-12.31704],[43.796921,-12.317799],[43.795784,-12.317154],[43.793779,-12.313431],[43.79436,-12.312455],[43.792933,-12.31259],[43.792019,-12.311152],[43.790454,-12.311083],[43.790461,-12.308187],[43.789306,-12.309442],[43.789053,-12.308736],[43.787626,-12.308833],[43.787575,-12.307497],[43.786905,-12.307466],[43.785091,-12.308943],[43.782059,-12.307453],[43.779842,-12.304707],[43.778212,-12.306156],[43.777152,-12.305183],[43.776036,-12.305479],[43.773427,-12.300549],[43.773677,-12.298115],[43.771178,-12.29564],[43.770748,-12.293758],[43.768747,-12.293043],[43.767902,-12.293585],[43.766105,-12.292815],[43.766133,-12.292081],[43.762823,-12.293213],[43.759044,-12.292246],[43.756986,-12.293168],[43.755615,-12.29129],[43.75398,-12.291663],[43.752923,-12.290347],[43.753164,-12.2889],[43.751181,-12.286757],[43.749636,-12.286514],[43.738391,-12.279354],[43.737425,-12.275184],[43.733972,-12.270824],[43.732845,-12.270462],[43.729974,-12.272048],[43.724661,-12.272888],[43.72233,-12.272162],[43.720922,-12.272739],[43.717366,-12.271133],[43.715958,-12.271729],[43.713345,-12.271115],[43.705203,-12.267721],[43.69985,-12.263212],[43.695474,-12.260878],[43.689502,-12.260954],[43.685483,-12.258787],[43.677813,-12.258165],[43.673514,-12.254823],[43.668046,-12.25736],[43.664428,-12.25697],[43.662824,-12.258172],[43.66004,-12.256211],[43.661305,-12.25248],[43.659787,-12.25256],[43.659834,-12.250974],[43.658348,-12.249255],[43.657603,-12.249988],[43.65678,-12.248946],[43.654543,-12.252952],[43.652898,-12.25292],[43.650658,-12.250185],[43.648711,-12.250551],[43.6471,-12.252749],[43.645556,-12.252327],[43.645392,-12.254351],[43.644265,-12.25372],[43.645135,-12.256066],[43.641958,-12.258114],[43.640641,-12.25718],[43.640162,-12.257693],[43.635985,-12.257056],[43.634677,-12.257742],[43.633527,-12.256418],[43.632699,-12.257892],[43.631763,-12.256933],[43.6314,-12.258449],[43.630229,-12.259187],[43.630413,-12.260521],[43.626529,-12.26331],[43.627128,-12.266026],[43.634188,-12.269419],[43.645871,-12.271807],[43.655243,-12.278891],[43.659575,-12.284249],[43.663094,-12.286106],[43.664286,-12.288643],[43.668755,-12.290044],[43.676034,-12.295553],[43.679457,-12.296259],[43.683076,-12.301798],[43.688214,-12.305734],[43.688122,-12.307804],[43.690974,-12.308415],[43.691357,-12.310396],[43.701063,-12.318264],[43.707671,-12.320135],[43.70915,-12.324329],[43.713139,-12.324551],[43.710479,-12.323185],[43.70986,-12.321617],[43.711659,-12.316242],[43.713417,-12.315789],[43.717174,-12.317924],[43.721119,-12.31762],[43.723066,-12.316386],[43.724302,-12.317128],[43.725589,-12.319389],[43.725787,-12.326292],[43.729874,-12.325851],[43.736533,-12.329517],[43.737345,-12.333248],[43.740628,-12.33561],[43.742962,-12.339533],[43.74446,-12.340594],[43.763527,-12.328826],[43.779327,-12.329503],[43.785382,-12.333975],[43.794348,-12.334291],[43.803162,-12.321777]]]},"properties":{"shapeName":"Fomboni","shapeISO":"","shapeID":"10938185B23268545061954","shapeGroup":"COM","shapeType":"ADM2"}},
{"type":"Feature","geometry":{"type":"Polygon","coordinates":[[[43.404634,-11.559837],[43.405207,-11.558502],[43.404385,-11.55675],[43.405771,-11.55555],[43.405133,-11.554951],[43.406256,-11.5515],[43.40521,-11.551218],[43.405666,-11.55029],[43.40468,-11.549318],[43.405487,-11.546626],[43.404305,-11.545157],[43.404993,-11.543968],[43.402406,-11.54241],[43.403815,-11.540746],[43.403003,-11.54026],[43.403863,-11.540101],[43.403336,-11.536595],[43.404756,-11.535497],[43.404117,-11.535396],[43.404853,-11.533778],[43.403983,-11.532806],[43.404778,-11.530498],[43.403199,-11.530183],[43.403457,-11.52904],[43.405957,-11.528133],[43.404826,-11.524255],[43.406862,-11.523303],[43.405481,-11.522196],[43.406496,-11.520634],[43.405767,-11.519142],[43.407571,-11.517817],[43.408042,-11.514673],[43.40632,-11.5105],[43.405454,-11.510365],[43.404164,-11.507833],[43.402587,-11.506228],[43.400125,-11.505688],[43.400296,-11.504065],[43.401407,-11.50297],[43.39987,-11.501908],[43.399955,-11.499509],[43.399054,-11.499036],[43.399777,-11.496691],[43.399136,-11.494534],[43.401005,-11.492964],[43.400403,-11.491343],[43.401138,-11.490535],[43.400297,-11.488742],[43.398933,-11.488619],[43.399955,-11.484364],[43.401472,-11.483711],[43.401854,-11.480404],[43.403509,-11.47809],[43.406079,-11.477079],[43.406459,-11.475083],[43.407696,-11.47457],[43.406312,-11.472848],[43.408462,-11.47051],[43.40825,-11.468872],[43.409327,-11.468933],[43.407965,-11.468205],[43.408842,-11.468134],[43.408208,-11.466443],[43.409466,-11.463321],[43.408839,-11.461808],[43.409558,-11.461474],[43.409301,-11.458547],[43.411204,-11.456046],[43.41055,-11.452336],[43.411439,-11.450651],[43.413002,-11.450588],[43.414656,-11.449174],[43.413785,-11.446365],[43.415835,-11.446115],[43.414164,-11.444338],[43.415331,-11.443375],[43.414673,-11.441512],[43.417061,-11.435836],[43.416098,-11.434952],[43.415514,-11.435775],[43.414598,-11.435551],[43.413389,-11.433922],[43.413099,-11.431415],[43.414308,-11.425475],[43.413734,-11.421602],[43.412288,-11.41891],[43.412832,-11.418343],[43.409687,-11.412081],[43.410033,-11.410505],[43.410935,-11.410093],[43.409664,-11.408013],[43.407257,-11.407223],[43.404012,-11.403205],[43.400066,-11.405044],[43.366947,-11.412459],[43.355333,-11.453056],[43.351861,-11.453944],[43.344985,-11.464198],[43.344847,-11.472875],[43.347333,-11.488482],[43.347086,-11.508718],[43.35049,-11.512409],[43.351103,-11.52345],[43.344339,-11.559346],[43.3845,-11.560361],[43.388941,-11.561114],[43.404634,-11.559837]]]},"properties":{"shapeName":"Hamahamet-Mboinkou","shapeISO":"","shapeID":"10938185B70444296254874","shapeGroup":"COM","shapeType":"ADM2"}},
{"type":"Feature","geometry":{"type":"Polygon","coordinates":[[[43.363211,-11.77887],[43.362237,-11.777135],[43.35804,-11.775164],[43.35653,-11.772929],[43.356362,-11.771313],[43.357538,-11.769981],[43.357003,-11.768958],[43.290471,-11.797105],[43.279806,-11.800583],[43.276833,-11.8035],[43.263923,-11.800966],[43.264289,-11.805729],[43.266884,-11.807704],[43.267072,-11.810105],[43.265913,-11.810511],[43.26601,-11.812824],[43.268314,-11.81803],[43.268259,-11.820076],[43.269809,-11.821557],[43.269249,-11.822377],[43.27002,-11.822555],[43.269905,-11.824245],[43.272177,-11.825014],[43.272857,-11.829846],[43.275685,-11.832245],[43.275185,-11.833244],[43.276602,-11.835377],[43.278883,-11.836987],[43.278679,-11.837688],[43.279968,-11.837846],[43.280645,-11.839555],[43.281843,-11.839544],[43.28177,-11.840433],[43.283303,-11.840245],[43.283189,-11.841302],[43.284328,-11.840649],[43.284731,-11.84221],[43.286263,-11.842318],[43.287949,-11.846587],[43.288978,-11.846165],[43.289824,-11.847359],[43.299652,-11.851339],[43.301237,-11.85306],[43.305079,-11.854146],[43.305041,-11.854849],[43.308595,-11.855865],[43.309243,-11.856814],[43.309983,-11.856514],[43.311172,-11.857884],[43.312687,-11.858357],[43.316137,-11.856914],[43.318932,-11.858352],[43.323064,-11.858824],[43.324541,-11.859965],[43.325481,-11.859314],[43.327231,-11.859752],[43.335861,-11.858691],[43.336671,-11.859639],[43.340736,-11.857967],[43.344473,-11.857605],[43.34494,-11.8585],[43.345268,-11.857235],[43.346511,-11.858042],[43.346856,-11.857006],[43.352382,-11.855737],[43.354024,-11.856034],[43.354401,-11.856947],[43.355378,-11.855928],[43.358916,-11.855486],[43.361556,-11.8525],[43.3605,-11.849],[43.361444,-11.842472],[43.363211,-11.77887]]]},"properties":{"shapeName":"Hambou","shapeISO":"","shapeID":"10938185B8813398551192","shapeGroup":"COM","shapeType":"ADM2"}},
{"type":"Feature","geometry":{"type":"Polygon","coordinates":[[[43.347086,-11.508718],[43.34142,-11.507646],[43.326857,-11.5088],[43.325553,-11.509645],[43.323484,-11.520923],[43.321674,-11.526532],[43.320619,-11.527437],[43.312379,-11.527261],[43.307003,-11.520631],[43.299514,-11.516776],[43.287439,-11.513828],[43.274828,-11.513402],[43.274784,-11.515273],[43.272425,-11.518512],[43.271641,-11.522984],[43.268834,-11.526937],[43.267987,-11.531347],[43.265009,-11.536782],[43.266722,-11.541151],[43.264943,-11.549047],[43.266117,-11.559169],[43.267283,-11.562381],[43.269904,-11.563536],[43.269667,-11.566269],[43.270614,-11.567168],[43.269288,-11.568155],[43.269153,-11.571501],[43.26781,-11.573404],[43.268101,-11.578954],[43.264447,-11.58713],[43.264726,-11.591058],[43.263057,-11.592084],[43.26341,-11.594474],[43.262517,-11.594755],[43.262434,-11.596074],[43.26033,-11.598909],[43.259885,-11.602045],[43.260807,-11.603364],[43.259966,-11.605391],[43.260639,-11.607331],[43.259753,-11.607984],[43.259651,-11.610802],[43.260631,-11.611088],[43.261638,-11.613843],[43.260615,-11.615233],[43.261868,-11.618174],[43.260366,-11.619449],[43.25944,-11.623649],[43.260981,-11.626566],[43.260858,-11.628065],[43.262969,-11.629336],[43.261746,-11.63092],[43.262286,-11.631984],[43.261603,-11.634181],[43.262862,-11.638612],[43.261929,-11.642277],[43.260012,-11.643722],[43.260933,-11.645328],[43.261107,-11.650079],[43.262459,-11.651607],[43.26113,-11.654263],[43.262226,-11.656008],[43.264825,-11.656635],[43.265131,-11.662628],[43.263886,-11.663242],[43.263762,-11.665066],[43.265332,-11.66587],[43.265826,-11.669821],[43.26513,-11.670497],[43.266139,-11.672639],[43.265138,-11.67444],[43.26401,-11.674028],[43.262195,-11.675264],[43.260999,-11.674736],[43.26123,-11.677135],[43.259997,-11.677101],[43.25934,-11.679148],[43.258324,-11.679731],[43.270042,-11.683692],[43.27564,-11.69036],[43.273381,-11.697026],[43.269106,-11.699691],[43.262935,-11.707664],[43.274556,-11.712167],[43.346557,-11.713756],[43.343098,-11.702807],[43.334367,-11.665122],[43.333042,-11.633327],[43.326432,-11.625424],[43.318817,-11.623111],[43.312799,-11.61678],[43.324501,-11.592498],[43.333412,-11.583068],[43.344339,-11.559346],[43.351103,-11.52345],[43.35049,-11.512409],[43.347086,-11.508718]]]},"properties":{"shapeName":"Itsandra-Hamanvou","shapeISO":"","shapeID":"10938185B82482804134728","shapeGroup":"COM","shapeType":"ADM2"}},
{"type":"Feature","geometry":{"type":"Polygon","coordinates":[[[43.363211,-11.77887],[43.366409,-11.77951],[43.370859,-11.778081],[43.372084,-11.776249],[43.372607,-11.771945],[43.374979,-11.770803],[43.376278,-11.768947],[43.378318,-11.763691],[43.376617,-11.759532],[43.37154,-11.757514],[43.367725,-11.759204],[43.366335,-11.757849],[43.366538,-11.754806],[43.364057,-11.749767],[43.360835,-11.748366],[43.357707,-11.749057],[43.354201,-11.75448],[43.35483,-11.757119],[43.357756,-11.759923],[43.357533,-11.761041],[43.358995,-11.762847],[43.358161,-11.764298],[43.356597,-11.764727],[43.357003,-11.768958],[43.357538,-11.769981],[43.356362,-11.771313],[43.35653,-11.772929],[43.35804,-11.775164],[43.362237,-11.777135],[43.363211,-11.77887]]]},"properties":{"shapeName":"Kartala","shapeISO":"","shapeID":"10938185B58200193875213","shapeGroup":"COM","shapeType":"ADM2"}},
{"type":"Feature","geometry":{"type":"Polygon","coordinates":[[[43.376278,-11.768947],[43.425789,-11.824455],[43.438624,-11.854239],[43.439646,-11.890913],[43.445083,-11.905222],[43.445889,-11.909722],[43.438598,-11.925836],[43.440352,-11.926366],[43.440373,-11.92735],[43.442335,-11.92805],[43.445477,-11.931237],[43.447149,-11.93188],[43.447511,-11.931337],[43.448217,-11.932592],[43.45004,-11.933021],[43.455782,-11.937959],[43.458744,-11.938262],[43.460931,-11.937344],[43.462067,-11.93869],[43.462463,-11.938101],[43.465272,-11.939275],[43.468285,-11.937803],[43.468923,-11.938515],[43.468271,-11.939047],[43.470385,-11.939441],[43.472339,-11.938377],[43.473016,-11.936996],[43.472536,-11.938784],[43.47634,-11.936858],[43.475213,-11.936667],[43.478793,-11.936087],[43.479622,-11.934175],[43.482277,-11.931719],[43.485076,-11.932373],[43.488147,-11.931047],[43.489417,-11.929384],[43.486481,-11.927497],[43.487451,-11.924895],[43.49091,-11.926419],[43.492203,-11.924993],[43.49513,-11.925557],[43.497119,-11.924684],[43.500153,-11.91897],[43.501629,-11.913088],[43.499762,-11.91128],[43.498773,-11.91223],[43.49796,-11.911722],[43.498107,-11.908453],[43.500863,-11.907207],[43.502826,-11.907488],[43.505145,-11.904603],[43.504578,-11.90363],[43.510129,-11.899679],[43.513859,-11.899586],[43.514226,-11.896396],[43.517462,-11.893713],[43.517039,-11.890739],[43.514939,-11.889202],[43.514031,-11.890051],[43.512056,-11.889838],[43.511047,-11.888549],[43.509672,-11.8851],[43.510998,-11.884398],[43.510293,-11.882521],[43.510913,-11.880575],[43.509719,-11.879162],[43.510466,-11.878031],[43.5079,-11.876845],[43.508195,-11.874877],[43.502911,-11.873071],[43.502658,-11.871906],[43.502042,-11.87228],[43.501161,-11.871195],[43.499382,-11.871784],[43.497907,-11.871197],[43.498239,-11.867951],[43.496694,-11.867737],[43.49661,-11.863948],[43.493441,-11.862175],[43.493236,-11.860185],[43.494132,-11.85989],[43.494052,-11.859008],[43.49239,-11.859054],[43.491953,-11.856928],[43.490631,-11.855685],[43.486925,-11.855382],[43.484006,-11.851313],[43.484046,-11.848666],[43.483338,-11.848395],[43.483997,-11.844606],[43.478248,-11.83736],[43.478197,-11.834103],[43.476387,-11.832905],[43.476751,-11.831027],[43.475652,-11.829049],[43.472902,-11.826947],[43.473219,-11.825714],[43.472092,-11.825647],[43.471896,-11.82472],[43.468306,-11.824666],[43.46703,-11.823344],[43.46795,-11.822235],[43.466694,-11.81761],[43.467137,-11.816761],[43.465571,-11.815326],[43.465797,-11.813233],[43.464797,-11.813347],[43.463835,-11.812284],[43.463482,-11.809039],[43.462379,-11.808678],[43.463161,-11.806698],[43.461196,-11.802039],[43.46172,-11.801553],[43.461152,-11.800829],[43.461907,-11.800806],[43.461574,-11.799087],[43.460633,-11.798816],[43.461112,-11.797832],[43.459058,-11.796623],[43.458611,-11.793649],[43.457589,-11.793423],[43.455653,-11.791061],[43.456003,-11.790586],[43.455282,-11.790541],[43.456029,-11.789036],[43.455162,-11.787024],[43.452074,-11.785567],[43.454523,-11.781392],[43.455698,-11.780859],[43.45737,-11.775893],[43.455215,-11.767604],[43.455961,-11.761179],[43.453699,-11.7591],[43.453412,-11.75746],[43.455244,-11.748546],[43.452589,-11.745641],[43.450717,-11.735565],[43.439639,-11.741917],[43.433346,-11.743494],[43.430639,-11.746056],[43.428786,-11.74657],[43.423056,-11.747074],[43.420561,-11.746075],[43.4127,-11.747509],[43.40543,-11.746798],[43.400876,-11.74723],[43.366538,-11.754806],[43.366335,-11.757849],[43.367725,-11.759204],[43.37154,-11.757514],[43.376617,-11.759532],[43.378318,-11.763691],[43.376278,-11.768947]]]},"properties":{"shapeName":"Mbadjini Est","shapeISO":"","shapeID":"10938185B84550121750878","shapeGroup":"COM","shapeType":"ADM2"}},
{"type":"Feature","geometry":{"type":"Polygon","coordinates":[[[43.358916,-11.855486],[43.359474,-11.856329],[43.362218,-11.856133],[43.362252,-11.856942],[43.364437,-11.856448],[43.36844,-11.858485],[43.369542,-11.857817],[43.372393,-11.858394],[43.378989,-11.862746],[43.380667,-11.863026],[43.381842,-11.862252],[43.383717,-11.863516],[43.3865,-11.870365],[43.386635,-11.874441],[43.388938,-11.878181],[43.389858,-11.878058],[43.391244,-11.879796],[43.391799,-11.882237],[43.394865,-11.884554],[43.396734,-11.888365],[43.404429,-11.893929],[43.405238,-11.895369],[43.406501,-11.895543],[43.406608,-11.896404],[43.40733,-11.896228],[43.408965,-11.899425],[43.409536,-11.898893],[43.409812,-11.90016],[43.412285,-11.901029],[43.412144,-11.901741],[43.413585,-11.902034],[43.415439,-11.904476],[43.416496,-11.904317],[43.417909,-11.906567],[43.420521,-11.907911],[43.4243,-11.906562],[43.426433,-11.908823],[43.426962,-11.911842],[43.426392,-11.912091],[43.427957,-11.913583],[43.427711,-11.914579],[43.431491,-11.918523],[43.433075,-11.922266],[43.435452,-11.924605],[43.438598,-11.925836],[43.445889,-11.909722],[43.445083,-11.905222],[43.439646,-11.890913],[43.438624,-11.854239],[43.425789,-11.824455],[43.376278,-11.768947],[43.374979,-11.770803],[43.372607,-11.771945],[43.372084,-11.776249],[43.370859,-11.778081],[43.366409,-11.77951],[43.363211,-11.77887],[43.361444,-11.842472],[43.3605,-11.849],[43.361556,-11.8525],[43.358916,-11.855486]]]},"properties":{"shapeName":"Mbadjini Ouest","shapeISO":"","shapeID":"10938185B5285365051467","shapeGroup":"COM","shapeType":"ADM2"}},
{"type":"Feature","geometry":{"type":"Polygon","coordinates":[[[43.404012,-11.403205],[43.40364,-11.401715],[43.401392,-11.401118],[43.401779,-11.399147],[43.400431,-11.39938],[43.399469,-11.39824],[43.400358,-11.396345],[43.39986,-11.394188],[43.400477,-11.392697],[43.403333,-11.392206],[43.40203,-11.389886],[43.399034,-11.392527],[43.397722,-11.39103],[43.398019,-11.389772],[43.399072,-11.389826],[43.397837,-11.389012],[43.398495,-11.387389],[43.396908,-11.387149],[43.397571,-11.386574],[43.396894,-11.38659],[43.39723,-11.382142],[43.396703,-11.382344],[43.397096,-11.381607],[43.395766,-11.380443],[43.396162,-11.377874],[43.393401,-11.375345],[43.393832,-11.374747],[43.392677,-11.374523],[43.393164,-11.373909],[43.391775,-11.37457],[43.391857,-11.373747],[43.389487,-11.374075],[43.387497,-11.372353],[43.386037,-11.372672],[43.381918,-11.371069],[43.380893,-11.372971],[43.37558,-11.37348],[43.374308,-11.371882],[43.371988,-11.371534],[43.369976,-11.372242],[43.366877,-11.370761],[43.36168,-11.369803],[43.355962,-11.36584],[43.347809,-11.366809],[43.344022,-11.366524],[43.342621,-11.365276],[43.337193,-11.371427],[43.335884,-11.371661],[43.334331,-11.370739],[43.331976,-11.371951],[43.329856,-11.370967],[43.32846,-11.371356],[43.326988,-11.373368],[43.323313,-11.372843],[43.318883,-11.374717],[43.316443,-11.374563],[43.314125,-11.376909],[43.313955,-11.378066],[43.315188,-11.379447],[43.314053,-11.380682],[43.305941,-11.377521],[43.304152,-11.378888],[43.302725,-11.378455],[43.299167,-11.382695],[43.297603,-11.38317],[43.295954,-11.386051],[43.292506,-11.387389],[43.286385,-11.392975],[43.283946,-11.39258],[43.280964,-11.395921],[43.279623,-11.39631],[43.278031,-11.398764],[43.27805,-11.401287],[43.276291,-11.403275],[43.275387,-11.408034],[43.27426,-11.40937],[43.274608,-11.410689],[43.273531,-11.41097],[43.271068,-11.413999],[43.270818,-11.41899],[43.269364,-11.424278],[43.270251,-11.430534],[43.268054,-11.432445],[43.268347,-11.433718],[43.267331,-11.435209],[43.266926,-11.445611],[43.26402,-11.446979],[43.262746,-11.449666],[43.26789,-11.457254],[43.268149,-11.46261],[43.269559,-11.463618],[43.271481,-11.467125],[43.270651,-11.471348],[43.271822,-11.475826],[43.270641,-11.47967],[43.276848,-11.493102],[43.275514,-11.494663],[43.275413,-11.497085],[43.276384,-11.497923],[43.277929,-11.502851],[43.276684,-11.510506],[43.274828,-11.513402],[43.287439,-11.513828],[43.299514,-11.516776],[43.307003,-11.520631],[43.312379,-11.527261],[43.320619,-11.527437],[43.321674,-11.526532],[43.323484,-11.520923],[43.325553,-11.509645],[43.326857,-11.5088],[43.34142,-11.507646],[43.347086,-11.508718],[43.347333,-11.488482],[43.344847,-11.472875],[43.344985,-11.464198],[43.351861,-11.453944],[43.355333,-11.453056],[43.366947,-11.412459],[43.400066,-11.405044],[43.404012,-11.403205]]]},"properties":{"shapeName":"Mitsamiouli-Mboudé","shapeISO":"","shapeID":"10938185B67203865227918","shapeGroup":"COM","shapeType":"ADM2"}},
{"type":"Feature","geometry":{"type":"Polygon","coordinates":[[[43.357003,-11.768958],[43.356597,-11.764727],[43.358161,-11.764298],[43.358995,-11.762847],[43.357533,-11.761041],[43.357756,-11.759923],[43.35483,-11.757119],[43.354201,-11.75448],[43.357707,-11.749057],[43.346557,-11.713756],[43.274556,-11.712167],[43.262935,-11.707664],[43.269106,-11.699691],[43.273381,-11.697026],[43.27564,-11.69036],[43.270042,-11.683692],[43.258324,-11.679731],[43.253237,-11.684834],[43.253176,-11.687764],[43.251467,-11.690288],[43.252116,-11.69177],[43.250553,-11.693782],[43.249894,-11.697029],[43.251523,-11.698158],[43.251045,-11.70121],[43.25211,-11.703274],[43.248608,-11.704918],[43.245599,-11.704549],[43.243233,-11.709262],[43.24129,-11.710446],[43.239906,-11.713799],[43.239534,-11.717964],[43.229717,-11.729798],[43.228556,-11.736351],[43.232839,-11.741833],[43.230456,-11.744908],[43.232216,-11.748257],[43.231318,-11.750145],[43.231791,-11.752151],[43.232775,-11.752466],[43.231983,-11.752773],[43.232663,-11.753039],[43.231942,-11.757527],[43.233175,-11.75552],[43.236597,-11.760152],[43.237846,-11.760141],[43.238223,-11.75935],[43.240425,-11.759882],[43.237366,-11.765913],[43.238425,-11.769341],[43.240876,-11.772354],[43.240275,-11.773075],[43.241462,-11.773519],[43.240991,-11.775368],[43.239487,-11.776209],[43.240295,-11.778135],[43.239554,-11.778146],[43.23889,-11.779994],[43.24343,-11.784201],[43.249285,-11.78559],[43.249495,-11.786835],[43.250286,-11.787546],[43.250744,-11.787091],[43.250884,-11.787862],[43.251648,-11.786952],[43.252632,-11.787099],[43.254959,-11.790843],[43.254774,-11.792089],[43.261172,-11.796076],[43.263923,-11.800966],[43.276833,-11.8035],[43.279806,-11.800583],[43.290471,-11.797105],[43.357003,-11.768958]]]},"properties":{"shapeName":"Moroni-Bambao","shapeISO":"","shapeID":"10938185B83767222062315","shapeGroup":"COM","shapeType":"ADM2"}},
{"type":"Feature","geometry":{"type":"Polygon","coordinates":[[[44.457525,-12.277805],[44.455376,-12.283819],[44.451988,-12.28876],[44.453559,-12.290445],[44.45241,-12.294796],[44.453118,-12.300186],[44.462753,-12.309205],[44.464209,-12.312597],[44.460676,-12.322192],[44.464112,-12.324071],[44.464422,-12.325064],[44.470668,-12.329937],[44.473669,-12.334397],[44.474888,-12.337884],[44.478366,-12.340699],[44.480161,-12.343545],[44.485918,-12.345981],[44.492502,-12.355351],[44.491804,-12.356996],[44.492772,-12.359411],[44.492703,-12.363391],[44.48961,-12.369181],[44.49075,-12.376355],[44.510741,-12.384358],[44.511856,-12.383356],[44.512389,-12.384113],[44.515775,-12.384458],[44.516131,-12.383422],[44.519051,-12.383518],[44.5219,-12.381844],[44.523137,-12.382038],[44.523891,-12.380923],[44.526659,-12.381053],[44.527201,-12.380208],[44.526373,-12.379846],[44.525825,-12.377589],[44.529251,-12.374856],[44.529972,-12.371295],[44.531217,-12.370147],[44.530589,-12.369627],[44.531821,-12.368671],[44.531317,-12.366832],[44.529381,-12.366208],[44.530353,-12.365872],[44.52987,-12.360176],[44.530993,-12.359863],[44.530143,-12.35941],[44.53141,-12.358398],[44.531094,-12.356412],[44.533692,-12.351445],[44.532751,-12.350484],[44.533979,-12.348085],[44.537226,-12.348272],[44.535202,-12.346757],[44.536823,-12.345159],[44.535577,-12.344322],[44.53415,-12.344691],[44.531025,-12.341618],[44.528839,-12.337655],[44.52987,-12.332854],[44.529309,-12.330732],[44.530999,-12.329417],[44.529453,-12.32797],[44.531683,-12.326103],[44.530819,-12.325966],[44.531189,-12.318321],[44.530531,-12.3147],[44.531771,-12.312301],[44.529702,-12.310549],[44.528483,-12.308122],[44.528247,-12.300059],[44.52643,-12.295849],[44.524063,-12.285605],[44.523943,-12.282019],[44.524887,-12.280312],[44.521239,-12.280266],[44.520159,-12.27502],[44.508636,-12.284598],[44.501153,-12.289335],[44.490629,-12.289417],[44.464516,-12.281855],[44.457525,-12.277805]]]},"properties":{"shapeName":"Mrémani","shapeISO":"","shapeID":"10938185B83207987774368","shapeGroup":"COM","shapeType":"ADM2"}},
{"type":"Feature","geometry":{"type":"Polygon","coordinates":[[[44.435804,-12.208105],[44.445807,-12.201063],[44.445124,-12.196101],[44.441177,-12.182929],[44.439575,-12.180923],[44.439787,-12.176439],[44.431139,-12.166778],[44.429318,-12.158581],[44.426211,-12.153615],[44.42525,-12.149222],[44.423561,-12.147505],[44.420873,-12.146585],[44.418353,-12.151135],[44.419122,-12.152232],[44.417378,-12.154713],[44.410066,-12.158093],[44.406026,-12.156212],[44.404782,-12.157111],[44.401056,-12.157126],[44.3996,-12.158465],[44.398742,-12.161339],[44.392814,-12.166502],[44.392059,-12.169996],[44.387302,-12.172546],[44.383222,-12.177195],[44.373949,-12.183118],[44.362496,-12.185936],[44.358957,-12.185872],[44.351651,-12.188879],[44.349277,-12.187239],[44.346407,-12.188541],[44.34535,-12.1874],[44.343545,-12.18858],[44.339651,-12.187219],[44.33836,-12.188231],[44.334823,-12.187728],[44.327436,-12.194659],[44.326657,-12.194048],[44.324245,-12.195001],[44.319657,-12.194473],[44.318422,-12.189611],[44.317618,-12.189271],[44.316947,-12.194366],[44.315811,-12.194995],[44.311817,-12.192551],[44.310275,-12.192672],[44.310306,-12.195345],[44.306895,-12.197469],[44.303424,-12.195635],[44.299457,-12.194679],[44.297235,-12.195103],[44.297491,-12.19868],[44.317042,-12.212365],[44.322431,-12.214055],[44.334822,-12.213284],[44.382091,-12.218505],[44.396897,-12.218529],[44.407359,-12.214094],[44.412011,-12.214695],[44.435804,-12.208105]]]},"properties":{"shapeName":"Mutsamudu","shapeISO":"","shapeID":"10938185B74704582538531","shapeGroup":"COM","shapeType":"ADM2"}},
{"type":"Feature","geometry":{"type":"MultiPolygon","coordinates":[[[[43.71746342500006,-12.402737246999948],[43.71451597500004,-12.400748250999982],[43.71618410200006,-12.404260269999952],[43.71550482200007,-12.407364333999965],[43.717290458000036,-12.408535980999943],[43.71750530400004,-12.41018147099993],[43.72073902500006,-12.411327278999977],[43.72122616900003,-12.412404584999933],[43.72088203800007,-12.416287446999945],[43.72291945600006,-12.419060918999946],[43.72297527000006,-12.42277915099993],[43.72363504700007,-12.420333402999972],[43.724978871000076,-12.419824042999949],[43.72406066000008,-12.416981433999979],[43.726204247000055,-12.416034707999927],[43.726472175000026,-12.412306261999959],[43.72056446200003,-12.409285292999982],[43.71883309800006,-12.402785990999973],[43.71746342500006,-12.402737246999948]]],[[[43.72956345100005,-12.40098546799993],[43.72873444500004,-12.400325472999953],[43.73076028000003,-12.403339590999963],[43.73058185700006,-12.401489056999935],[43.72956345100005,-12.40098546799993]]],[[[43.64394057900006,-12.397719441999982],[43.64005920900007,-12.397882138999933],[43.63787453600003,-12.402423002999967],[43.638263849000055,-12.40401094799995],[43.64022067800005,-12.404555622999965],[43.640791017000026,-12.405634912999972],[43.641997520000075,-12.40548563699997],[43.647310969000046,-12.399923293999962],[43.64394057900006,-12.397719441999982]]],[[[43.674697940000044,-12.394481016999976],[43.66833585300003,-12.397028881999972],[43.664816218000055,-12.400230453999939],[43.661332757000025,-12.40075410199995],[43.65973272900004,-12.400200831999939],[43.657609802000025,-12.40461540399997],[43.650813620000065,-12.40847716299993],[43.651221890000045,-12.410244819999946],[43.65037640700007,-12.412632370999972],[43.65446790800007,-12.408136613999943],[43.65554540100004,-12.408167420999973],[43.65666463700006,-12.411435597999969],[43.657756051000035,-12.412074580999956],[43.659688421000055,-12.409529792999933],[43.66202445500005,-12.40167452999998],[43.66376705500005,-12.40061875999993],[43.66617721600005,-12.401068004999956],[43.66749835300004,-12.402428979999968],[43.66797257700006,-12.404549716999952],[43.666801262000035,-12.413941332999968],[43.669012406000036,-12.413902486999973],[43.67134074400008,-12.41645004999998],[43.671947482000064,-12.422185378999927],[43.67383933100007,-12.419873783999947],[43.67177779300005,-12.415999686999953],[43.672541489000025,-12.411277671999926],[43.670205305000025,-12.40861306499994],[43.67200099900003,-12.404466991999982],[43.672330256000066,-12.39988720599996],[43.67538882700006,-12.39583774099998],[43.674697940000044,-12.394481016999976]]],[[[43.70517392900007,-12.391204521999953],[43.703313999000045,-12.390673531999937],[43.70169001000005,-12.39166939699993],[43.70030212300003,-12.39409513499993],[43.70281517800004,-12.399793904999967],[43.70620874100007,-12.40197441999993],[43.70613180000004,-12.406977522999966],[43.70451777300008,-12.412342365999962],[43.705053355000075,-12.412960088999967],[43.70366635700003,-12.414608641999962],[43.70594392800007,-12.417022240999927],[43.706599167000036,-12.420247451999956],[43.70888666700006,-12.421025233999956],[43.70987090600005,-12.419378071999972],[43.70925049700003,-12.417244581999967],[43.70978611400005,-12.416572410999947],[43.70802045100004,-12.41337120299994],[43.70921354500007,-12.411003894999965],[43.70767077000005,-12.405506793999962],[43.70840460200003,-12.403157121999982],[43.70663587200005,-12.400320205999947],[43.70832150700005,-12.39808881099998],[43.71244552400003,-12.39689964799993],[43.713584550000064,-12.395289092999974],[43.71479668200004,-12.395095310999977],[43.71140594800005,-12.39502942699994],[43.70517392900007,-12.391204521999953]]],[[[43.736990469000034,-12.382329714999969],[43.735771631000034,-12.381197432999954],[43.73500002700007,-12.38158434899998],[43.73585953000003,-12.38304661899997],[43.734976532000076,-12.386055325999962],[43.73819816400004,-12.389077361999966],[43.74055496300008,-12.388551548999942],[43.742619439000066,-12.38932093699998],[43.736990469000034,-12.382329714999969]]],[[[43.761401600000056,-12.377584468999942],[43.76140337100003,-12.379811619999941],[43.76311160900008,-12.380119158999946],[43.761401600000056,-12.377584468999942]]],[[[43.74446,-12.340594],[43.742962,-12.339533],[43.740628,-12.33561],[43.737345,-12.333248],[43.736533,-12.329517],[43.729874,-12.325851],[43.725787,-12.326292],[43.725589,-12.319389],[43.724302,-12.317128],[43.723066,-12.316386],[43.721119,-12.31762],[43.717174,-12.317924],[43.713417,-12.315789],[43.711659,-12.316242],[43.70986,-12.321617],[43.710479,-12.323185],[43.713139,-12.324551],[43.70915,-12.324329],[43.707671,-12.320135],[43.701063,-12.318264],[43.691357,-12.310396],[43.690974,-12.308415],[43.688122,-12.307804],[43.688214,-12.305734],[43.683076,-12.301798],[43.679457,-12.296259],[43.676034,-12.295553],[43.668755,-12.290044],[43.664286,-12.288643],[43.663094,-12.286106],[43.659575,-12.284249],[43.655243,-12.278891],[43.645871,-12.271807],[43.634188,-12.269419],[43.627128,-12.266026],[43.625465,-12.269411],[43.626508,-12.270277],[43.626342,-12.271831],[43.624099,-12.272609],[43.625448,-12.274567],[43.625428,-12.27643],[43.623405,-12.277054],[43.625155,-12.277519],[43.6254,-12.278861],[43.623857,-12.27945],[43.625921,-12.281345],[43.625468,-12.283862],[43.62381,-12.284385],[43.622831,-12.286185],[43.62351,-12.28758],[43.625404,-12.287751],[43.625581,-12.288937],[43.627711,-12.289065],[43.628703,-12.291589],[43.627876,-12.293331],[43.629909,-12.294975],[43.630582,-12.297806],[43.632514,-12.297852],[43.635462,-12.301026],[43.634608,-12.304881],[43.636291,-12.306649],[43.636935,-12.310409],[43.636175,-12.311562],[43.637645,-12.312334],[43.636705,-12.315048],[43.638606,-12.314195],[43.640084,-12.316308],[43.639202,-12.316746],[43.639221,-12.31942],[43.635668,-12.318954],[43.634086,-12.319728],[43.632841,-12.321748],[43.63612,-12.321939],[43.640635,-12.319257],[43.643796,-12.322431],[43.645607,-12.32272],[43.645289,-12.323609],[43.648039,-12.32058],[43.650124,-12.321267],[43.650301,-12.32252],[43.652468,-12.321889],[43.653466,-12.323257],[43.654995,-12.323028],[43.65534,-12.325004],[43.655963,-12.324498],[43.657509,-12.325897],[43.656827,-12.327993],[43.659108,-12.328238],[43.660616,-12.327327],[43.662552,-12.329662],[43.664264,-12.333841],[43.664556,-12.336274],[43.663619,-12.337975],[43.664584,-12.337411],[43.666552,-12.339803],[43.667654,-12.339939],[43.666003,-12.341418],[43.66827,-12.348512],[43.665913,-12.348877],[43.664596,-12.350078],[43.663894,-12.35248],[43.664917,-12.354006],[43.664313,-12.355044],[43.662714,-12.354328],[43.662504,-12.352613],[43.660274,-12.353705],[43.660747,-12.356121],[43.662661,-12.355229],[43.663366,-12.356238],[43.661976,-12.357027],[43.661193,-12.358834],[43.66,-12.358487],[43.659134,-12.359165],[43.658284,-12.358374],[43.659135,-12.35983],[43.663633,-12.360008],[43.668544,-12.358177],[43.671648,-12.35541],[43.672832,-12.356307],[43.672509,-12.358011],[43.673946,-12.358822],[43.672854,-12.359281],[43.672973,-12.360794],[43.67541599900005,-12.363962],[43.677186,-12.364163],[43.67788,-12.362784],[43.682503,-12.36152],[43.683551,-12.361875],[43.683552,-12.363038],[43.686063999000055,-12.363338],[43.685848,-12.364474],[43.686657,-12.364928],[43.687162,-12.364161],[43.685651,-12.361714],[43.688484,-12.359733],[43.689244,-12.361066],[43.692369,-12.361001],[43.69301,-12.360611],[43.692276,-12.358902],[43.694073,-12.358158],[43.696171,-12.360485],[43.696756,-12.358678],[43.700756,-12.357586],[43.701264,-12.359267],[43.704075,-12.361562],[43.70501999900006,-12.35855],[43.70726,-12.35842],[43.710143,-12.3602],[43.714026,-12.359807],[43.71441,-12.363298],[43.713475,-12.366958],[43.71410699900008,-12.366619],[43.715591,-12.368646],[43.719594,-12.37023],[43.721572,-12.370327],[43.722743,-12.367752],[43.721818,-12.364836],[43.722819,-12.363678],[43.726735,-12.36212],[43.729282,-12.363533],[43.73305,-12.363569],[43.734709,-12.362768],[43.737439,-12.363749],[43.742105,-12.367541],[43.744053,-12.371349],[43.745223,-12.367452],[43.746058,-12.367521],[43.747527,-12.37002],[43.748477,-12.368492],[43.747668,-12.366222],[43.746939,-12.365664],[43.7456,-12.366523],[43.7438,-12.363515],[43.746168999000076,-12.362943],[43.747236,-12.361989],[43.747001,-12.360361],[43.749291,-12.359384],[43.751944,-12.360807],[43.752578,-12.36317],[43.755461,-12.361594],[43.757152,-12.362946],[43.758395,-12.362604],[43.758824,-12.364195],[43.759805,-12.364219],[43.76157499900006,-12.366051],[43.764488,-12.36598],[43.764316,-12.367982],[43.769111,-12.366584],[43.771417,-12.370073],[43.772266,-12.373284],[43.774084,-12.374524],[43.776315,-12.380138],[43.778034,-12.380748],[43.767466,-12.355531],[43.764556,-12.352517],[43.752188,-12.346725],[43.74641,-12.344892],[43.74446,-12.340594]]]]},"properties":{"shapeName":"Nioumachioi","shapeISO":"","shapeID":"10938185B46959303700006","shapeGroup":"COM","shapeType":"ADM2"}},
{"type":"Feature","geometry":{"type":"Polygon","coordinates":[[[43.344339,-11.559346],[43.333412,-11.583068],[43.324501,-11.592498],[43.312799,-11.61678],[43.318817,-11.623111],[43.326432,-11.625424],[43.333042,-11.633327],[43.334367,-11.665122],[43.343098,-11.702807],[43.346557,-11.713756],[43.357707,-11.749057],[43.360835,-11.748366],[43.364057,-11.749767],[43.366538,-11.754806],[43.400876,-11.74723],[43.40543,-11.746798],[43.4127,-11.747509],[43.420561,-11.746075],[43.423056,-11.747074],[43.428786,-11.74657],[43.430639,-11.746056],[43.433346,-11.743494],[43.439639,-11.741917],[43.450717,-11.735565],[43.44891,-11.732603],[43.448024,-11.728713],[43.443697,-11.725221],[43.444096,-11.723502],[43.443308,-11.722507],[43.439771,-11.719004],[43.438273,-11.718609],[43.438651,-11.715657],[43.439641,-11.714819],[43.438875,-11.714356],[43.439227,-11.712557],[43.438291,-11.710013],[43.432755,-11.706941],[43.432266,-11.701772],[43.428668,-11.694389],[43.429897,-11.690509],[43.428053,-11.688848],[43.427592,-11.686756],[43.422509,-11.683717],[43.420737,-11.680913],[43.421239,-11.674534],[43.419092,-11.673461],[43.418818,-11.670984],[43.414405,-11.669596],[43.412701,-11.667856],[43.413006,-11.66643],[43.412034,-11.664621],[43.410282,-11.663277],[43.408747,-11.663742],[43.408427,-11.661333],[43.406281,-11.659468],[43.405001,-11.660295],[43.402702,-11.659505],[43.402883,-11.656451],[43.399425,-11.654044],[43.399931,-11.651013],[43.397229,-11.648775],[43.396426,-11.64933],[43.397241,-11.648357],[43.396828,-11.645812],[43.395529,-11.645033],[43.396309,-11.643958],[43.395964,-11.642363],[43.397651,-11.641242],[43.396911,-11.639592],[43.398272,-11.63924],[43.398402,-11.63812],[43.399645,-11.638108],[43.400392,-11.636513],[43.39885,-11.634908],[43.39941,-11.633889],[43.397601,-11.632364],[43.397071,-11.63],[43.395367,-11.628248],[43.396461,-11.627207],[43.396163,-11.625511],[43.394714,-11.623533],[43.394409,-11.619823],[43.393101,-11.617505],[43.393602,-11.616826],[43.392037,-11.614746],[43.392585,-11.614056],[43.390998,-11.611829],[43.392407,-11.61029],[43.392072,-11.609238],[43.395817,-11.607788],[43.396821,-11.605751],[43.397855,-11.605637],[43.397985,-11.604925],[43.396927,-11.604824],[43.397637,-11.604484],[43.397325,-11.603658],[43.39556,-11.603219],[43.395156,-11.601568],[43.395995,-11.600674],[43.394347,-11.599815],[43.394489,-11.593142],[43.396603,-11.587859],[43.39653,-11.583945],[43.39774,-11.583107],[43.396998,-11.582441],[43.398199,-11.580822],[43.397261,-11.579104],[43.398408,-11.575122],[43.397796,-11.573607],[43.398858,-11.571434],[43.402042,-11.571353],[43.403625,-11.569893],[43.403848,-11.568694],[43.402885,-11.568434],[43.403726,-11.566319],[43.40274,-11.565279],[43.404267,-11.56314],[43.403885,-11.562326],[43.405653,-11.561612],[43.405667,-11.560458],[43.404634,-11.559837],[43.388941,-11.561114],[43.3845,-11.560361],[43.344339,-11.559346]]]},"properties":{"shapeName":"Oichili-Dimani","shapeISO":"","shapeID":"10938185B16841428111903","shapeGroup":"COM","shapeType":"ADM2"}},
{"type":"Feature","geometry":{"type":"Polygon","coordinates":[[[44.435023,-12.085651],[44.432246,-12.085721],[44.431914,-12.086827],[44.421765,-12.091232],[44.419405,-12.095262],[44.42045,-12.101306],[44.426509,-12.107036],[44.428783,-12.110381],[44.430041,-12.110536],[44.431673,-12.112177],[44.432859,-12.115032],[44.432928,-12.117848],[44.433926,-12.119195],[44.431946,-12.123649],[44.428706,-12.125324],[44.421972,-12.130912],[44.422758,-12.134971],[44.421682,-12.140523],[44.419357,-12.142427],[44.42172,-12.143777],[44.420873,-12.146585],[44.423561,-12.147505],[44.42525,-12.149222],[44.426211,-12.153615],[44.429318,-12.158581],[44.431139,-12.166778],[44.439787,-12.176439],[44.439575,-12.180923],[44.441177,-12.182929],[44.445124,-12.196101],[44.445807,-12.201063],[44.435804,-12.208105],[44.431741,-12.21631],[44.433302,-12.219478],[44.4395,-12.225226],[44.451927,-12.232369],[44.456005,-12.231513],[44.458534,-12.229514],[44.474738,-12.211509],[44.474765,-12.207788],[44.486503,-12.198935],[44.488153,-12.194262],[44.492306,-12.191121],[44.492686,-12.188164],[44.490472,-12.187333],[44.484528,-12.18125],[44.473761,-12.172392],[44.466832,-12.161886],[44.465103,-12.152534],[44.462443,-12.147854],[44.458415,-12.133442],[44.456115,-12.128668],[44.445891,-12.114245],[44.439649,-12.108129],[44.44034,-12.099353],[44.439763,-12.092197],[44.435023,-12.085651]]]},"properties":{"shapeName":"Ouani","shapeISO":"","shapeID":"10938185B16418977449415","shapeGroup":"COM","shapeType":"ADM2"}},
{"type":"Feature","geometry":{"type":"Polygon","coordinates":[[[44.451927,-12.232369],[44.4395,-12.225226],[44.433302,-12.219478],[44.431741,-12.21631],[44.435804,-12.208105],[44.412011,-12.214695],[44.407359,-12.214094],[44.396897,-12.218529],[44.382091,-12.218505],[44.334822,-12.213284],[44.322431,-12.214055],[44.317042,-12.212365],[44.297491,-12.19868],[44.297235,-12.195103],[44.294081,-12.195074],[44.292883,-12.194124],[44.29229,-12.191676],[44.291265,-12.193163],[44.28841,-12.191815],[44.287299,-12.187832],[44.29001,-12.187759],[44.287196,-12.18543],[44.28777,-12.18295],[44.285401,-12.184704],[44.284825,-12.183215],[44.283598,-12.183223],[44.282798,-12.184214],[44.281201,-12.183557],[44.279629,-12.184783],[44.278239,-12.182626],[44.277491,-12.184902],[44.278086,-12.187136],[44.271897,-12.186638],[44.26805,-12.185131],[44.263331,-12.185121],[44.253832,-12.183229],[44.253371,-12.182022],[44.252551,-12.182561],[44.243235,-12.181324],[44.240406,-12.177405],[44.238094,-12.170905],[44.236266,-12.169932],[44.234651,-12.1703],[44.232863,-12.168312],[44.227954,-12.168775],[44.223991,-12.167189],[44.219656,-12.167326],[44.21847,-12.16844],[44.216592,-12.167929],[44.216293,-12.167105],[44.213719,-12.167833],[44.213411,-12.166363],[44.212055,-12.166541],[44.211596,-12.169196],[44.209933,-12.170004],[44.207026,-12.169626],[44.206123,-12.168135],[44.204682,-12.168888],[44.205143,-12.170039],[44.206663,-12.169862],[44.207149,-12.170573],[44.205971,-12.172431],[44.206842,-12.175467],[44.214359,-12.178741],[44.214284,-12.179632],[44.214963,-12.17934],[44.215729,-12.180232],[44.217162,-12.183009],[44.218401,-12.182922],[44.220961,-12.184776],[44.22216,-12.187654],[44.225267,-12.187751],[44.22714,-12.189131],[44.233099,-12.190936],[44.235415,-12.192598],[44.239301,-12.197624],[44.243273,-12.199629],[44.245608,-12.199893],[44.246991,-12.201181],[44.253911,-12.202515],[44.258369,-12.207632],[44.261502,-12.209229],[44.264593,-12.212347],[44.271174,-12.213647],[44.272324,-12.214923],[44.274159,-12.214724],[44.277283,-12.21596],[44.281458,-12.219374],[44.285995,-12.220646],[44.287513,-12.222927],[44.288983,-12.223156],[44.29005,-12.224545],[44.301197,-12.228458],[44.304616,-12.231228],[44.313624,-12.235239],[44.315892,-12.237093],[44.31776,-12.2373],[44.320355,-12.239211],[44.330791,-12.240608],[44.332926,-12.238887],[44.335496,-12.239039],[44.340152,-12.235768],[44.347186,-12.239639],[44.35636,-12.241169],[44.36303,-12.245411],[44.365194,-12.24501],[44.367147,-12.246739],[44.369357,-12.246293],[44.37296,-12.249661],[44.376734,-12.249612],[44.385031,-12.253272],[44.387105,-12.256298],[44.387229,-12.259286],[44.392198,-12.262657],[44.393878,-12.265299],[44.394168,-12.267736],[44.397063,-12.270301],[44.400681,-12.279296],[44.403844,-12.283994],[44.410694,-12.287481],[44.417137,-12.28631],[44.424145,-12.290768],[44.429265,-12.296586],[44.429853,-12.298019],[44.429304,-12.300014],[44.43042,-12.303151],[44.432078,-12.303323],[44.432898,-12.304926],[44.432983,-12.308625],[44.434058,-12.308673],[44.435002,-12.311043],[44.437101,-12.311757],[44.436744,-12.312963],[44.443966,-12.31679],[44.450868,-12.315079],[44.452935,-12.319357],[44.455371,-12.320467],[44.457733,-12.319987],[44.457045,-12.321947],[44.459072,-12.320711],[44.460676,-12.322192],[44.464209,-12.312597],[44.462753,-12.309205],[44.453118,-12.300186],[44.45241,-12.294796],[44.453559,-12.290445],[44.451988,-12.28876],[44.455376,-12.283819],[44.457525,-12.277805],[44.459046,-12.265424],[44.455652,-12.245335],[44.451927,-12.232369]]]},"properties":{"shapeName":"Sima","shapeISO":"","shapeID":"10938185B89113061759376","shapeGroup":"COM","shapeType":"ADM2"}}
]}