{"type":"FeatureCollection", "features": [
{"type":"Feature","geometry":{"type":"Polygon","coordinates":[[[43.25550100014078,12.516988000081142],[43.134631999793044,12.70683600012228],[43.114146999792695,12.705470000106914],[42.91851800036585,12.616670999591122],[42.8877179997213,12.62439799964784],[42.85843999998792,12.550391000205934],[42.79592100040287,12.503005000326539],[42.81818000034025,12.432519000413379],[42.709479999764824,12.377167000251973],[42.709479999764824,12.345831000080693],[42.810768000414726,12.199260000264985],[43.25550100014078,12.516988000081142]]]},"properties":{"shapeName":"Alaili Dadda","shapeISO":"","shapeID":"41766387B98599288227121","shapeGroup":"DJI","shapeType":"ADM2"}},
{"type":"Feature","geometry":{"type":"Polygon","coordinates":[[[42.709479999764824,12.377167000251973],[42.688113999622885,12.362276000010468],[42.54750799958083,12.49020100006112],[42.463973999845905,12.52394499971706],[42.33713899967847,12.371837000072105],[42.317234000333826,12.304638999739097],[42.21976100017457,12.20248599968511],[42.38538000029962,11.941150000306777],[42.45401000009309,11.878549999685845],[42.709479999764824,12.345831000080693],[42.709479999764824,12.377167000251973]]]},"properties":{"shapeName":"Dorra","shapeISO":"","shapeID":"41766387B22586556456338","shapeGroup":"DJI","shapeType":"ADM2"}},
{"type":"Feature","geometry":{"type":"Polygon","coordinates":[[[42.810768000414726,12.199260000264985],[42.94678100007593,12.005960000278435],[43.069175999720585,11.829837999836286],[43.1897510000058,11.951269000009972],[43.36664199992339,11.979082999707089],[43.41550100025387,12.091421999854674],[43.40519700011674,12.226850000428328],[43.37230700025714,12.274879000270232],[43.32354399985525,12.474068000124305],[43.29342600007163,12.460763000146926],[43.25550100014078,12.516988000081142],[42.810768000414726,12.199260000264985]]]},"properties":{"shapeName":"Obock","shapeISO":"","shapeID":"41766387B51204577272085","shapeGroup":"DJI","shapeType":"ADM2"}},
{"type":"Feature","geometry":{"type":"Polygon","coordinates":[[[42.709479999764824,12.345831000080693],[42.45401000009309,11.878549999685845],[42.58980899978218,11.699339999889617],[42.94678100007593,12.005960000278435],[42.810768000414726,12.199260000264985],[42.709479999764824,12.345831000080693]]]},"properties":{"shapeName":"Randa","shapeISO":"","shapeID":"41766387B54529132802745","shapeGroup":"DJI","shapeType":"ADM2"}},
{"type":"Feature","geometry":{"type":"Polygon","coordinates":[[[42.21976100017457,12.20248599968511],[42.039867000324534,11.93207099998068],[42.34590099978112,11.663359999684417],[42.462699999574795,11.593510000310403],[42.58980899978218,11.699339999889617],[42.45401000009309,11.878549999685845],[42.38538000029962,11.941150000306777],[42.21976100017457,12.20248599968511]]]},"properties":{"shapeName":"Balha","shapeISO":"","shapeID":"41766387B97155389424645","shapeGroup":"DJI","shapeType":"ADM2"}},
{"type":"Feature","geometry":{"type":"Polygon","coordinates":[[[42.94678100007593,12.005960000278435],[42.58980899978218,11.699339999889617],[42.462699999574795,11.593510000310403],[42.51557199963054,11.565658999807056],[42.534260000432255,11.585378999617035],[42.67676599992433,11.549194999900692],[42.70341099969386,11.637121999790452],[42.77978100014337,11.7409060003842],[42.87581999985059,11.780004000427027],[42.946358000362125,11.766559000291352],[42.975780000438135,11.7985459998946],[43.069175999720585,11.829837999836286],[42.94678100007593,12.005960000278435]]]},"properties":{"shapeName":"Tadjourah","shapeISO":"","shapeID":"41766387B13463549189785","shapeGroup":"DJI","shapeType":"ADM2"}},
{"type":"Feature","geometry":{"type":"Polygon","coordinates":[[[42.039867000324534,11.93207099998068],[41.97784000003662,11.834493000377222],[41.82874699997791,11.70719400040474],[41.77344100013835,11.487470000044084],[41.80972299987553,11.239560999971673],[42.300339000344934,11.27917999974909],[42.30004899956742,11.242799999991064],[42.56949999980094,11.486565999741629],[42.52245700044415,11.522072999726845],[42.53579300005191,11.54571400041715],[42.51557199963054,11.565658999807056],[42.462699999574795,11.593510000310403],[42.34590099978112,11.663359999684417],[42.039867000324534,11.93207099998068]]]},"properties":{"shapeName":"YobokiI","shapeISO":"","shapeID":"41766387B74076707162819","shapeGroup":"DJI","shapeType":"ADM2"}},
{"type":"Feature","geometry":{"type":"Polygon","coordinates":[[[42.75447500004395,11.561789000378326],[42.818329000014046,11.40760000013455],[43.02471899995976,11.492000000218923],[43.19356899973542,11.370086000263655],[43.254691999720876,11.469595999892817],[43.18640100026562,11.53526099970685],[43.14672899984373,11.615762999971196],[43.10486600004759,11.580556000325089],[43.064063999697225,11.599400000224023],[42.8495520003724,11.5939039995867],[42.75447500004395,11.561789000378326]]]},"properties":{"shapeName":"Djibouti","shapeISO":"","shapeID":"41766387B83981523687012","shapeGroup":"DJI","shapeType":"ADM2"}},
{"type":"Feature","geometry":{"type":"Polygon","coordinates":[[[42.30004899956742,11.242799999991064],[42.32746499980385,10.98923099981539],[42.42414899956577,10.980070000205956],[42.63233899974773,11.088963999831549],[42.663975000258176,11.07147300024809],[42.66099899977172,11.327059999917196],[42.818329000014046,11.40760000013455],[42.75447500004395,11.561789000378326],[42.66387200000685,11.527529000318964],[42.6843149998698,11.47091400039352],[42.606773000253725,11.461855000089997],[42.56949999980094,11.486565999741629],[42.30004899956742,11.242799999991064]]]},"properties":{"shapeName":"Dilkhil","shapeISO":"","shapeID":"41766387B9467441741428","shapeGroup":"DJI","shapeType":"ADM2"}},
{"type":"Feature","geometry":{"type":"Polygon","coordinates":[[[42.818329000014046,11.40760000013455],[42.66099899977172,11.327059999917196],[42.663975000258176,11.07147300024809],[42.697899000117616,11.053026999809845],[42.75743899997724,11.070560999576799],[42.79601700033152,10.985530000083088],[42.96163899969554,10.984408999670222],[43.19356899973542,11.370086000263655],[43.02471899995976,11.492000000218923],[42.818329000014046,11.40760000013455]]]},"properties":{"shapeName":"Ali Sabeh","shapeISO":"","shapeID":"41766387B65421474667097","shapeGroup":"DJI","shapeType":"ADM2"}},
{"type":"Feature","geometry":{"type":"Polygon","coordinates":[[[41.80972299987553,11.239560999971673],[41.78895600036577,10.981964000278651],[41.81599000008043,10.959377999656851],[41.942210999823544,10.939480999781608],[41.9490779998074,10.909915000262288],[41.97502499977713,10.927575000441493],[42.067325999845195,10.922997999898769],[42.08083300014084,10.958141000191972],[42.1426539999261,10.976680000420572],[42.20702700043802,10.960199999776705],[42.32746499980385,10.98923099981539],[42.30004899956742,11.242799999991064],[42.300339000344934,11.27917999974909],[41.80972299987553,11.239560999971673]]]},"properties":{"shapeName":"As Eyla","shapeISO":"","shapeID":"41766387B73347270872705","shapeGroup":"DJI","shapeType":"ADM2"}}
]}