{"type":"FeatureCollection", "features": [
{"type":"Feature","geometry":{"type":"Polygon","coordinates":[[[-61.272815478151756,15.519048056122926],[-61.27514359719919,15.52421643114343],[-61.27130202257024,15.53807409714193],[-61.27434454956125,15.541449541463237],[-61.28722150756647,15.541952892911752],[-61.295119785449685,15.552049261364346],[-61.29843890523125,15.566289925239914],[-61.305630333073395,15.57416479556889],[-61.30307952749814,15.584496405085076],[-61.316909196702,15.589588010378407],[-61.31936780378106,15.586154151492963],[-61.330800330071156,15.587752679342714],[-61.33427311341342,15.595537924135954],[-61.341587471384685,15.594945900433004],[-61.34312410159595,15.59740278710899],[-61.34954721433246,15.593377030425643],[-61.3563083858233,15.593317827156056],[-61.36472911675531,15.601073260322778],[-61.37502453755235,15.59444267938619],[-61.378743181152856,15.593673044075786],[-61.38031054389643,15.596544359934285],[-61.38240036058812,15.593732247345372],[-61.384889701098814,15.596751566431692],[-61.39042156860046,15.59491629924787],[-61.417312591003224,15.635821106359003],[-61.42216834099611,15.636620178278633],[-61.42336691245299,15.63940210782107],[-61.44435727606742,15.639313323151384],[-61.430229645281884,15.608364987754044],[-61.43375452994758,15.593288225071603],[-61.41694625756372,15.58744363091887],[-61.4146646703382,15.585681694454706],[-61.415766126705364,15.58183569516126],[-61.412343744068494,15.579031669276162],[-61.40959010360035,15.552751547346077],[-61.412697783775684,15.540093448354014],[-61.403414081394715,15.532816584018178],[-61.4036697757395,15.52059314985405],[-61.40024547574808,15.51015590866831],[-61.3988002553275,15.50186563159366],[-61.37869032080164,15.48410804924714],[-61.37306502632987,15.48386163500652],[-61.361676755677706,15.489225829308623],[-61.35183209757321,15.483573518303274],[-61.338425800410334,15.481183656300743],[-61.31924157853598,15.468020718381524],[-61.31452745018163,15.453194774819053],[-61.30562457111705,15.458816722014149],[-61.296185822018,15.474461447038209],[-61.2881819016734,15.474178219948953],[-61.27500914135874,15.486539899696652],[-61.27322857184106,15.502065921405176],[-61.276928008620644,15.510361535956179],[-61.272815478151756,15.519048056122926]]]},"properties":{"shapeName":"Saint Andrew","shapeISO":"DM-02","shapeID":"96108325B47785236493574","shapeGroup":"DMA","shapeType":"ADM1"}},
{"type":"Feature","geometry":{"type":"Polygon","coordinates":[[[-61.3988002553275,15.50186563159366],[-61.41591752847114,15.499791478394059],[-61.42984511226206,15.481733267076663],[-61.439636625829564,15.47628295729271],[-61.45390738371873,15.461787754701163],[-61.446980610166975,15.452981646285991],[-61.450265310195846,15.44354043664191],[-61.43661512049135,15.433150816357113],[-61.43612339817622,15.428164373287245],[-61.42703638472136,15.414228239641602],[-61.427449430746606,15.398698304083496],[-61.4203067065892,15.389703702264114],[-61.41040051776963,15.396511434355261],[-61.39378870858201,15.401407213172376],[-61.36329320881447,15.396224975102541],[-61.346654388489185,15.406511201231012],[-61.328289697211744,15.412529578577221],[-61.32616501920023,15.426767388004578],[-61.31630069022464,15.43730293498254],[-61.31452745018163,15.453194774819053],[-61.31924157853598,15.468020718381524],[-61.338425800410334,15.481183656300743],[-61.35183209757321,15.483573518303274],[-61.361676755677706,15.489225829308623],[-61.37306502632987,15.48386163500652],[-61.37869032080164,15.48410804924714],[-61.3988002553275,15.50186563159366]]]},"properties":{"shapeName":"Saint Joseph","shapeISO":"DM-06","shapeID":"96108325B74916276227315","shapeGroup":"DMA","shapeType":"ADM1"}},
{"type":"Feature","geometry":{"type":"Polygon","coordinates":[[[-61.3032196041014,15.324979466729076],[-61.29974696105336,15.320712177325163],[-61.311554041485806,15.299103195256293],[-61.3172760670368,15.292933553740568],[-61.33437299481784,15.28342861723695],[-61.34400190196618,15.271655238898234],[-61.34695501656074,15.26041252621718],[-61.345969861489806,15.25029915154634],[-61.34533438967031,15.24111742153184],[-61.33421903807812,15.211723700088726],[-61.33018567852622,15.213479060710142],[-61.33018567852622,15.220240421957953],[-61.31586428790655,15.226616067577481],[-61.31039388546941,15.242658116678797],[-61.30025212913239,15.245030219768864],[-61.292814840132735,15.2440517304031],[-61.290479163182795,15.240612156325994],[-61.28279601392484,15.2439331251137],[-61.2709024987513,15.244140684145293],[-61.259531437525766,15.250723157647656],[-61.254614222468376,15.28306916361106],[-61.24542517553141,15.287219527659147],[-61.24886722634136,15.299136543916404],[-61.2411226120189,15.32883720037654],[-61.24664762488794,15.342628455039232],[-61.29359275909849,15.332566157402312],[-61.3032196041014,15.324979466729076]]]},"properties":{"shapeName":"Saint Patrick","shapeISO":"DM-09","shapeID":"96108325B67235694688325","shapeGroup":"DMA","shapeType":"ADM1"}},
{"type":"Feature","geometry":{"type":"Polygon","coordinates":[[[-61.31452745018163,15.453194774819053],[-61.31630069022464,15.43730293498254],[-61.32616501920023,15.426767388004578],[-61.328289697211744,15.412529578577221],[-61.32246219197651,15.400475983180115],[-61.327475447433926,15.371741191402919],[-61.32004200033799,15.359522703509981],[-61.3223714350936,15.351949340789474],[-61.30406873318543,15.343402540195143],[-61.30106077973113,15.331849268229178],[-61.3032196041014,15.324979466729076],[-61.29359275909849,15.332566157402312],[-61.24664762488794,15.342628455039232],[-61.250157995395114,15.350532018238084],[-61.25190975333243,15.36937978484923],[-61.25074191530712,15.375573096521236],[-61.244411000167474,15.378417809534312],[-61.2457939668181,15.381677329445267],[-61.252217079554555,15.383247806541078],[-61.252124881957684,15.3898259048417],[-61.24047722794165,15.394892677155383],[-61.24219825334666,15.402922220084463],[-61.25427616371394,15.404759194181509],[-61.25169462560643,15.409558951484485],[-61.24748425969079,15.41086257095094],[-61.25083411290393,15.425735097596714],[-61.2479452485743,15.428460624358365],[-61.249420413721055,15.433407956811834],[-61.25427616371394,15.432045230303174],[-61.25741088830182,15.435837142570108],[-61.24505638424472,15.459090713965338],[-61.24650081685917,15.464066936240158],[-61.2415836009024,15.466318044542163],[-61.24502565171241,15.468361792562746],[-61.24391927875166,15.474048639333262],[-61.247453527158484,15.47549994456682],[-61.24843696999011,15.491996722370914],[-61.25307759225706,15.496409460927907],[-61.252124881957684,15.499578282411846],[-61.25903971610995,15.503961245315281],[-61.25615085178032,15.51770182228131],[-61.272815478151756,15.519048056122926],[-61.276928008620644,15.510361535956179],[-61.27322857184106,15.502065921405176],[-61.27500914135874,15.486539899696652],[-61.2881819016734,15.474178219948953],[-61.296185822018,15.474461447038209],[-61.30562457111705,15.458816722014149],[-61.31452745018163,15.453194774819053]]]},"properties":{"shapeName":"Saint David","shapeISO":"DM-03","shapeID":"96108325B69930325682932","shapeGroup":"DMA","shapeType":"ADM1"}},
{"type":"Feature","geometry":{"type":"Polygon","coordinates":[[[-61.345969861489806,15.25029915154634],[-61.36434326353077,15.240237027516855],[-61.365403600195975,15.23413392414136],[-61.36131779847756,15.232190892096071],[-61.36150219457056,15.223828600009938],[-61.36648087559189,15.214131482881669],[-61.3733342446796,15.215258387364713],[-61.37311911605434,15.213597683086675],[-61.354648825482855,15.207725802603761],[-61.33421903807812,15.211723700088726],[-61.34533438967031,15.24111742153184],[-61.345969861489806,15.25029915154634]]]},"properties":{"shapeName":"Saint Mark","shapeISO":"DM-08","shapeID":"96108325B32463735273618","shapeGroup":"DMA","shapeType":"ADM1"}},
{"type":"Feature","geometry":{"type":"Polygon","coordinates":[[[-61.34695501656074,15.26041252621718],[-61.37577089391158,15.269808650149116],[-61.37779047085348,15.259647713970878],[-61.372934720860655,15.242065086634511],[-61.365403600195975,15.23413392414136],[-61.36434326353077,15.240237027516855],[-61.345969861489806,15.25029915154634],[-61.34695501656074,15.26041252621718]]]},"properties":{"shapeName":"Saint Luke","shapeISO":"DM-07","shapeID":"96108325B86083732773811","shapeGroup":"DMA","shapeType":"ADM1"}},
{"type":"Feature","geometry":{"type":"Polygon","coordinates":[[[-61.3032196041014,15.324979466729076],[-61.30106077973113,15.331849268229178],[-61.30406873318543,15.343402540195143],[-61.3223714350936,15.351949340789474],[-61.334607450773206,15.340670575186948],[-61.347113576929985,15.340071454034444],[-61.36045704565612,15.331084446090358],[-61.36488686233878,15.320299526102303],[-61.37415165917167,15.3185280370393],[-61.38625261916303,15.320012963427587],[-61.39117396030997,15.317854208305107],[-61.38876200826002,15.313453853412682],[-61.39085182495171,15.29981834244262],[-61.377575343127546,15.289680061086017],[-61.37477867639478,15.278444375707409],[-61.37577089391158,15.269808650149116],[-61.34695501656074,15.26041252621718],[-61.34400190196618,15.271655238898234],[-61.33437299481784,15.28342861723695],[-61.3172760670368,15.292933553740568],[-61.311554041485806,15.299103195256293],[-61.29974696105336,15.320712177325163],[-61.3032196041014,15.324979466729076]]]},"properties":{"shapeName":"Saint George","shapeISO":"DM-04","shapeID":"96108325B98972581904621","shapeGroup":"DMA","shapeType":"ADM1"}},
{"type":"Feature","geometry":{"type":"Polygon","coordinates":[[[-61.4203067065892,15.389703702264114],[-61.412029042506276,15.383982667765963],[-61.40429917976331,15.367331506044195],[-61.394582762284585,15.356160447746504],[-61.392665047953585,15.33734349730463],[-61.39595343610216,15.330408074972752],[-61.3944782709554,15.320715882532],[-61.39117396030997,15.317854208305107],[-61.38625261916303,15.320012963427587],[-61.37415165917167,15.3185280370393],[-61.36488686233878,15.320299526102303],[-61.36045704565612,15.331084446090358],[-61.347113576929985,15.340071454034444],[-61.334607450773206,15.340670575186948],[-61.3223714350936,15.351949340789474],[-61.32004200033799,15.359522703509981],[-61.327475447433926,15.371741191402919],[-61.32246219197651,15.400475983180115],[-61.328289697211744,15.412529578577221],[-61.346654388489185,15.406511201231012],[-61.36329320881447,15.396224975102541],[-61.39378870858201,15.401407213172376],[-61.41040051776963,15.396511434355261],[-61.4203067065892,15.389703702264114]]]},"properties":{"shapeName":"Saint Paul","shapeISO":"DM-10","shapeID":"96108325B20095781885743","shapeGroup":"DMA","shapeType":"ADM1"}},
{"type":"Feature","geometry":{"type":"Polygon","coordinates":[[[-61.44435727606742,15.639313323151384],[-61.45824840943652,15.638425477353962],[-61.46089141350791,15.63534758092618],[-61.46617741985199,15.621881238728236],[-61.46433346431786,15.609538781089952],[-61.46630034998111,15.607141238877148],[-61.462243647626224,15.596544359934285],[-61.46756038650261,15.590387263061814],[-61.47819386515471,15.58852233623685],[-61.47628844455602,15.582187380443315],[-61.46703793255449,15.584733227156732],[-61.46199778646866,15.583460307846963],[-61.45612786021252,15.571352376311154],[-61.462696953601494,15.553529625491876],[-61.47935978312745,15.540714869096007],[-61.479743940230605,15.536597323108026],[-61.47642972175424,15.532509847751328],[-61.471290225763255,15.53391068123301],[-61.47069935858849,15.538058279865766],[-61.46614124012609,15.539034173788139],[-61.451918222747736,15.537123044293082],[-61.4229174483815,15.521238613970922],[-61.41893601658387,15.514420726735182],[-61.40024547574808,15.51015590866831],[-61.4036697757395,15.52059314985405],[-61.403414081394715,15.532816584018178],[-61.412697783775684,15.540093448354014],[-61.40959010360035,15.552751547346077],[-61.412343744068494,15.579031669276162],[-61.415766126705364,15.58183569516126],[-61.4146646703382,15.585681694454706],[-61.41694625756372,15.58744363091887],[-61.43375452994758,15.593288225071603],[-61.430229645281884,15.608364987754044],[-61.44435727606742,15.639313323151384]]]},"properties":{"shapeName":"Saint John","shapeISO":"DM-05","shapeID":"96108325B18979939092740","shapeGroup":"DMA","shapeType":"ADM1"}},
{"type":"Feature","geometry":{"type":"Polygon","coordinates":[[[-61.40024547574808,15.51015590866831],[-61.41893601658387,15.514420726735182],[-61.4229174483815,15.521238613970922],[-61.451918222747736,15.537123044293082],[-61.46614124012609,15.539034173788139],[-61.47069935858849,15.538058279865766],[-61.471290225763255,15.53391068123301],[-61.47642972175424,15.532509847751328],[-61.46700351190253,15.507819359375958],[-61.469403113562805,15.494817331754518],[-61.459844045965895,15.478629990881416],[-61.45390738371873,15.461787754701163],[-61.439636625829564,15.47628295729271],[-61.42984511226206,15.481733267076663],[-61.41591752847114,15.499791478394059],[-61.3988002553275,15.50186563159366],[-61.40024547574808,15.51015590866831]]]},"properties":{"shapeName":"Saint Peter","shapeISO":"DM-11","shapeID":"96108325B93131520053722","shapeGroup":"DMA","shapeType":"ADM1"}}
]}