{"type":"FeatureCollection", "features": [
{"type":"Feature","geometry":{"type":"MultiPolygon","coordinates":[[[[9.32110910383291,56.623595708455866],[9.395689622986144,56.61645502045184],[9.421872145667598,56.588884030658484],[9.454798651463975,56.585611215323276],[9.480187764367203,56.623199003566725],[9.528337820283278,56.62701728812439],[9.53210651672985,56.598950417219626],[9.567611604305458,56.59399160610572],[9.567909132972293,56.57971023009765],[9.670854051697098,56.56870166942477],[9.672044166364438,56.5558087605286],[9.642985533236915,56.54856889630229],[9.645266586349315,56.52317978339906],[9.698623393935007,56.53319658184918],[9.748211505074124,56.49888160894091],[9.785898469539855,56.5034437151657],[9.833503056233408,56.49431950271611],[9.87436365981204,56.49868325649635],[9.880710938037849,56.51415474717175],[9.943390310517692,56.52605589384514],[9.956878276747533,56.54033726985321],[10.047227815243005,56.54886642496915],[10.11446929394765,56.575048947650615],[10.124188563730918,56.5992479458865],[10.155329897526284,56.604008404555856],[10.167429396644229,56.62741399301352],[10.19732373529279,56.638857762286364],[10.161999498474643,56.66113390859012],[10.117469374671723,56.66272072814658],[10.086030512209522,56.63296786146311],[10.053798239969092,56.639910197022594],[10.02855789139928,56.61947989523332],[9.950407028244031,56.59111549566174],[9.803427866827692,56.58337975032406],[9.93582812356914,56.599644650777726],[10.019284914616273,56.6390176110222],[10.061137280417697,56.65091875769561],[10.079831998317141,56.643877245913856],[10.133932627569923,56.67169617626291],[10.156792746805056,56.67377887693075],[10.18471085337638,56.66098514425687],[10.224579694732235,56.6819113271576],[10.323954269455026,56.680126155156636],[10.336450473462083,56.689250367606235],[10.291821173436876,56.746772576527604],[10.270994166758447,56.82512179212741],[10.276845563872866,56.9148762732892],[10.315970583561626,56.98132434221562],[10.240943771408142,56.95930722086985],[10.191454836491308,56.96347262220555],[10.013383929390741,57.04861540903146],[9.945051512241042,57.012911969011284],[9.885644955096382,57.02223453390546],[9.838833778181058,57.00319269922803],[9.774369233700206,57.011325149454876],[9.700383771880643,56.999027297892376],[9.621042794058049,56.9223640780713],[9.580578895368529,56.91383492295537],[9.570859625585262,56.880511712269886],[9.5428919309028,56.911256341176134],[9.557570011799978,56.91998384873662],[9.573636559809051,56.912248103398916],[9.567685986472357,56.92791794651888],[9.585339354037885,56.943389437194284],[9.48963429953939,56.976514295435216],[9.424078816613475,56.97859699610306],[9.322522365000562,56.96550573476233],[9.296637370985945,56.958860927869694],[9.284240343201168,56.93704215896849],[9.248388138847588,56.931091585631805],[9.187245997813061,56.88685899049574],[9.173063798027277,56.854329189588476],[9.210354057603894,56.83687417446751],[9.217990626719313,56.819518335568816],[9.174997734361702,56.77181457265299],[9.194138745261405,56.74989662752951],[9.189774991481162,56.7289704446288],[9.241743331954957,56.718061060178194],[9.247892257736208,56.699167989834216],[9.164286702355652,56.63708367468805],[9.181989658032315,56.6252321161258],[9.294306729762425,56.653844456253125],[9.32110910383291,56.623595708455866]]],[[[9.076416688753936,56.863626903881496],[9.101607449273653,56.84994058517394],[9.092284884356907,56.87413958346847],[9.076416688753936,56.863626903881496]]],[[[9.87756221425892,57.026176732589455],[9.852371453739204,57.037681174401605],[9.816469661187483,57.03143307238294],[9.847610995058313,57.01397805721967],[9.87756221425892,57.026176732589455]]],[[[8.549790947180343,56.70950705408766],[8.564270675668054,56.69244874381447],[8.589858141077844,56.69681249760529],[8.57835369926569,56.713870807878486],[8.549790947180343,56.70950705408766]]],[[[8.930825994096683,56.95467067615365],[8.907023700692228,56.93245520230949],[8.87037808647162,56.937562777769195],[8.824062790555447,56.887429197286046],[8.747746687327409,56.87642063658649],[8.64147936489877,56.87612310791895],[8.65494253710566,56.847833090445526],[8.636520553772835,56.82933672494578],[8.651471369317507,56.826857319382846],[8.615024107541931,56.81441070345678],[8.667488329254255,56.80583196020892],[8.668975972592035,56.79303822750403],[8.622164795563272,56.78183131435945],[8.544410637108715,56.782128843027024],[8.55998130404413,56.75078915671115],[8.509103901892106,56.739383891121534],[8.504492207544988,56.71776347461248],[8.545650339890194,56.73204485065515],[8.5742626800868,56.71721800538863],[8.59310616236533,56.722028052180754],[8.596378977708444,56.706655737690376],[8.656281416109657,56.69891999233393],[8.614329873984303,56.70020928322667],[8.645074502965063,56.65677009776354],[8.772317596456384,56.672192000365186],[8.780450046702907,56.68984536797349],[8.847493173125464,56.72854888881141],[8.84223683333198,56.743425322189196],[8.870700409194807,56.76048363246244],[8.860286905830359,56.76891361137651],[8.884585080347406,56.763558095360516],[8.83529449775568,56.85043646628677],[8.864452307176139,56.868288186340116],[8.872485581200143,56.85797385919819],[8.892147267314446,56.86204008432146],[8.899461513725194,56.843990011823074],[8.9296606734821,56.89640464542414],[8.918007467336173,56.92670298140354],[8.930825994096683,56.95467067615365]]],[[[11.190233901459068,57.32464757425929],[11.148530299890012,57.333623022397326],[11.123984184816665,57.32702780359985],[11.029270892311434,57.33173867416945],[11.002890017121496,57.31934164635463],[10.93921888226458,57.31884576524199],[10.876241980965288,57.29058054182419],[10.876936214522917,57.279671157347146],[10.947946389846209,57.26449719530178],[10.970161863690368,57.23762043899925],[11.009237295362686,57.23672785299657],[11.082528523803905,57.26568730997199],[11.07806559379057,57.30168827874623],[11.162266206708832,57.303820567530394],[11.175258291858764,57.31393654222728],[11.188151200786178,57.28983672015527],[11.190233901459068,57.32464757425929]]],[[[10.96763287001615,57.2350418572139],[10.953450670195995,57.24277760257035],[10.956425956871552,57.23196739431583],[10.96763287001615,57.2350418572139]]],[[[10.987418526408604,57.22785158108132],[10.997385736771719,57.21723972527182],[11.037750459336776,57.22477711818323],[11.028775011198848,57.232165746760884],[10.987418526408604,57.22785158108132]]],[[[8.40127315935255,56.66651658937496],[8.404803815858813,56.67141709563401],[8.397580239670038,56.67799380938303],[8.449746932714806,56.69257271409327],[8.51093866200876,56.672192000365705],[8.527054798168027,56.69168012809058],[8.545997456669074,56.68672131696465],[8.541038645543146,56.69644058677147],[8.51133536689883,56.69346530009594],[8.5122279529015,56.70774667613861],[8.460656317191845,56.708738438363795],[8.499037515306528,56.751384214046745],[8.467797005213173,56.777566736791634],[8.485648725266516,56.79194728905683],[8.535633541415873,56.8008731490835],[8.534046721855576,56.810989123780395],[8.57867602198893,56.81227841467312],[8.613982757205536,56.83320459762456],[8.678149773175047,56.94391005601091],[8.777921053028725,56.93433955053787],[8.855328094704468,56.95680296493832],[8.814368314804302,56.982886311460724],[8.819624654597787,56.9929031099351],[8.845460060563873,56.97648944510827],[8.89916398505768,56.9726711605413],[8.911660189095015,56.95531532160056],[8.952719145217703,56.986704596027685],[8.975182559618151,56.983283016350796],[9.003794899814757,56.999200800065026],[9.031415477786181,56.99999420984517],[9.051697015291229,56.9833821925733],[9.139815088998976,57.01174659221362],[9.237801196847316,56.957199669828405],[9.25842985113118,56.95739802227345],[9.430897302090958,56.999498328732564],[9.584422094549694,57.00058926718025],[9.629795216351935,57.01809387045478],[9.619480889210008,57.037036528955824],[9.673482342371369,57.05726847834962],[9.690887769423377,57.05503701334295],[9.6544405076478,57.042540809305606],[9.65657279643195,57.03173060105108],[9.701747565789153,57.0214658620204],[9.744294165249618,57.02454032491845],[9.793733512175121,57.05806188812978],[9.79184916394727,57.06956632994193],[9.937092741825714,57.017399636897146],[9.987722203421441,57.05449154411905],[10.029872097991833,57.05731806646083],[10.043955121589471,57.04363174775327],[10.23938186806231,56.96929916897559],[10.323086599867981,56.99786192106093],[10.365434846883403,57.03326783250004],[10.453255391923593,57.20573528345978],[10.56309305836291,57.274117288886316],[10.527935087480069,57.41737734231437],[10.541323877520075,57.4549651306489],[10.57087839183061,57.465180281568294],[10.450825574471889,57.55548023217141],[10.438527722879588,57.61230820767457],[10.543952047416829,57.701765160386316],[10.604102426374343,57.71718706298795],[10.642582800711546,57.736923131269144],[10.636136346247907,57.74578700615726],[10.559076421350978,57.74162160481148],[10.325293270819069,57.639718036173626],[10.18389277156322,57.599179755219176],[10.095601139466066,57.58779928368515],[9.966919990748215,57.5920018761144],[9.869404969956834,57.50162754334436],[9.799708879581912,57.45997352988657],[9.723615922854544,57.35754928608049],[9.561388416869798,57.20380134712104],[9.407194184909063,57.132617613408314],[9.290934858061672,57.11677421186096],[9.174006091712286,57.11357577868471],[9.038072681722774,57.140018639013704],[8.980128973716305,57.14016740334748],[8.874022812649251,57.10331103965403],[8.762003269314524,57.09101318806171],[8.658314528671362,57.11967511636957],[8.601040260166892,57.12210493382126],[8.51708758780492,57.050747641719134],[8.480640326029349,57.045689654370705],[8.390092434869892,56.97076201825795],[8.36252144500973,56.96223286312135],[8.227840134829519,56.808460130106205],[8.215095990235884,56.732144026878146],[8.233840296291891,56.70283745312393],[8.254865655465826,56.780740375912266],[8.294139439583178,56.76070677896352],[8.304652119170147,56.72242475707135],[8.34947977174854,56.67640698982273],[8.40127315935255,56.66651658937496]]]]},"properties":{"shapeName":"Nordjylland","shapeISO":"DK-81","shapeID":"84455774B84842167963849","shapeGroup":"DNK","shapeType":"ADM1"}},
{"type":"Feature","geometry":{"type":"MultiPolygon","coordinates":[[[[10.253018476470283,55.72867906672786],[10.24468767379891,55.714794395608905],[10.314904439171903,55.71281087116334],[10.327995700512629,55.738398336511125],[10.311730800058998,55.759820400523225],[10.295267547160812,55.73026588628431],[10.253018476470283,55.72867906672786]]],[[[10.405154801445095,55.92921338817445],[10.429750504570096,55.91651883172284],[10.454742912584212,55.92187434772586],[10.405154801445095,55.92921338817445]]],[[[10.560068060643701,55.97860314686901],[10.523174505956197,55.95499920596679],[10.521984391288859,55.93476725662204],[10.537257529519707,55.91334519260994],[10.579903305099348,55.90957649616336],[10.603507246001568,55.88795607970671],[10.584366235101864,55.84635165446096],[10.530711898849342,55.828202405784076],[10.529025903070616,55.7712752541964],[10.555307601974349,55.748365546850124],[10.618978736676977,55.74677872729367],[10.643475263579699,55.779010999534115],[10.64590508102552,55.82864869878438],[10.679525820377847,55.85116170124153],[10.679426644155571,55.866732368139225],[10.639656979021998,55.85740980324507],[10.617937386343064,55.87337717503186],[10.614466218563333,55.892369421598154],[10.651508537584258,55.899262169046494],[10.590614337105418,55.91691553661205],[10.560068060643701,55.97860314686901]]],[[[11.504919930288471,56.720937170621774],[11.535515794861313,56.69053965849352],[11.565268661544785,56.69093636338263],[11.647386573591163,56.736359073186065],[11.525796525078038,56.729714266293406],[11.504919930288471,56.720937170621774]]],[[[9.32110910383291,56.623595708455866],[9.329241554059726,56.610306094670584],[9.287389188258308,56.51549362617259],[9.309406309604077,56.50398918438832],[9.369507100304688,56.5172787981736],[9.366730166080897,56.484748997266344],[9.339754233621218,56.49248474260405],[9.304050793601052,56.473442907926625],[9.308216194936739,56.482567120376224],[9.248611285347524,56.52888241618014],[9.290166122482104,56.55724681575171],[9.285604016257306,56.57658617909597],[9.243950002900448,56.58456986498939],[9.17323735641606,56.58094993287626],[9.152410349737634,56.59473542777292],[9.155187283961425,56.61437231978401],[9.117698671940252,56.583776455211186],[9.152707878404469,56.577925058096774],[9.152410349737634,56.56850331698034],[9.13852567861868,56.55947828075302],[9.115219266383296,56.570387665203626],[9.09875601348511,56.56523050164516],[9.096078255483599,56.5308163525146],[9.062011223131023,56.51812179606299],[9.046589320566762,56.5575443444186],[9.058688819684706,56.59096673132637],[9.10510329171092,56.60981021355924],[9.101929652598017,56.63043886779312],[9.122756659276446,56.629546281792614],[9.150129296625238,56.662076082699905],[9.18146898286516,56.67001018048216],[9.136839682839955,56.70472185827956],[9.11125221749217,56.75430996941867],[9.075449601249726,56.77077322231687],[9.034688173893372,56.76849216920447],[9.036473345894379,56.75450832186324],[8.963578822519876,56.774740271208],[8.914486592492151,56.74855774852658],[8.86797294424366,56.741813765411685],[8.874221046247188,56.73011097118285],[8.82959174622198,56.68518414249082],[8.877493861582368,56.680423683821466],[8.88929583203348,56.68835778160373],[8.922817395163523,56.67853933559818],[8.918354465161002,56.66951429937086],[8.883345258696785,56.675663225152114],[8.840005249561194,56.66356372603418],[8.8185831855491,56.671894528705565],[8.730117995276919,56.60361169966699],[8.703836296373188,56.59230561032729],[8.704530529929135,56.608074629669524],[8.679141417025903,56.60668616255766],[8.701257714593952,56.56860249320281],[8.764928849296577,56.5310147049594],[8.737556211947783,56.51028687450323],[8.738647150392849,56.45851688647402],[8.659206996347983,56.44701244468974],[8.62518955210655,56.45603748091709],[8.610808999876205,56.482021651153985],[8.527600149384769,56.47210402892618],[8.557055487401405,56.489658220269426],[8.585221534528424,56.48668293360108],[8.601089730092943,56.503047010276994],[8.613585934100001,56.498881608941346],[8.62890866044199,56.50076595716462],[8.644727267895373,56.56537926597891],[8.613288405433172,56.54028768174252],[8.623206027661002,56.500121311719845],[8.601139318204094,56.504931358500336],[8.575898969634283,56.52784106584663],[8.564146587294317,56.564437091867305],[8.519219758602274,56.52932870918084],[8.38850549763956,56.57266871831644],[8.310305046373175,56.57390842109494],[8.298106371032953,56.54911436552539],[8.277775245465914,56.58561121532379],[8.300684952812187,56.59215684599415],[8.22749290077085,56.60440510944551],[8.218666216988087,56.630587632126975],[8.181673486078306,56.63901761102067],[8.220352212766816,56.6862254928251],[8.213013172318227,56.70943272883821],[8.192384518084355,56.703878860390624],[8.112646835372653,56.53825456918599],[8.121175990488581,56.37144016331399],[8.127622444936664,56.43233436379284],[8.162532475178603,56.43372283090474],[8.1885166454155,56.37501050731602],[8.251592722784459,56.34267905885332],[8.252386132562684,56.324232281509566],[8.295924494142831,56.3080665572782],[8.279362065022365,56.28952060371217],[8.246435559225992,56.28247909193041],[8.23810475655462,56.31411630683717],[8.170863277849977,56.32066193750757],[8.165111056957837,56.33295978907006],[8.132184551161462,56.328893563956655],[8.138631005609549,56.36201842219758],[8.122068576489083,56.3687624053125],[8.139226062943223,56.22327088723038],[8.107638436147601,56.03716670612529],[8.121324754821996,55.99799209832539],[8.142151761500426,55.994421754323376],[8.13064731971615,56.033199657234164],[8.144234462168273,56.11095381550034],[8.236071643997919,56.09032516126646],[8.30777605270509,56.0492662052433],[8.317594498710635,55.994719282990275],[8.38161275019124,55.93739542651347],[8.388257557083886,55.893857064933385],[8.284717581025403,55.83345874556592],[8.251691899006747,55.83524391756692],[8.238402285221472,55.82592135267273],[8.23403853144123,55.848136826463055],[8.265973275014822,55.84744259290711],[8.271824672129238,55.865691017806306],[8.26557657012571,55.87402182047768],[8.2423693341126,55.86489760802808],[8.232253359440222,55.87878227914703],[8.245939678114619,55.88840237270802],[8.219955507877721,55.888204020263466],[8.220649741433665,55.85547586691166],[8.18658270908109,55.81828478355734],[8.180681723855535,55.83618609167856],[8.199525206088397,55.852302227798766],[8.177508084742627,55.90645244516269],[8.183458658079324,55.94255259007197],[8.134366428051601,55.98787612365315],[8.178956876993883,55.80381885704975],[8.201190540154016,55.8211209480236],[8.283688627719128,55.78491060731179],[8.33168440951167,55.78593542827531],[8.36174582444223,55.80352818814944],[8.466789973205257,55.75433678189946],[8.466106759229563,55.76099811816248],[8.509747051927048,55.762919657469105],[8.514743054124315,55.78896719029248],[8.547537324957652,55.80160664884283],[8.539680364237165,55.82176146112582],[8.571108207119114,55.827397976425296],[8.59587471373804,55.81270887594786],[8.676152355882147,55.822957085583305],[8.70646997605359,55.81125704624954],[8.70416412888562,55.79844678420526],[8.729870054721129,55.78307446975214],[8.754978168327904,55.778889784151],[8.820908316982424,55.788369378063784],[8.794604578918188,55.81031762703297],[8.822018539692928,55.81996802443966],[8.83653683667644,55.84857760967188],[8.877188068230263,55.86394992412501],[8.957807317362215,55.85301850051389],[8.956440889410827,55.81065923402083],[9.006657116624375,55.79631174053124],[9.052944863477677,55.813392089923624],[9.065925929015872,55.8085241903468],[9.092571274067959,55.83807319479557],[9.112640684603985,55.831668063773435],[9.14628897290694,55.84524694154037],[9.21512278095816,55.91066467971312],[9.246636025587069,55.911262491941855],[9.283700383768494,55.894267544296426],[9.379179536871803,55.88111567526433],[9.453052047993772,55.81774757901868],[9.436996519564952,55.80997602004515],[9.449550576368338,55.80476651348048],[9.441010401672155,55.793237277640635],[9.495496716233793,55.782903666258264],[9.533671297125725,55.732345832056886],[9.579788240485104,55.73866556133206],[9.592086092047605,55.709799770859],[9.648963655524172,55.715436286158464],[9.674413376118794,55.706042093992664],[9.662505872223235,55.670512437629675],[9.707797194495825,55.66143758802443],[9.743252693960292,55.64066016945715],[9.835089875789942,55.6308417234516],[9.888446683375635,55.64968520568449],[10.017375772337346,55.66218140969157],[9.996251236992082,55.69034745681859],[10.07658397703745,55.70869505794008],[10.014003780779882,55.72585254439422],[10.016086481447726,55.73983639173545],[10.061261250695466,55.7687958486407],[10.047971636910182,55.783573105760155],[10.017028655559377,55.780101937980405],[10.015838540892037,55.79358990421024],[9.971308417089112,55.785060749094335],[9.864594801917729,55.80678034177331],[9.891967439266523,55.82026830800315],[9.961093266194453,55.816003730445196],[9.963622259862547,55.83524391756719],[10.082187433596182,55.843822660794274],[10.107774898943967,55.84233501746012],[10.116998287615843,55.831425633009516],[10.134850007625928,55.84054984545912],[10.154387723414741,55.809953980886306],[10.193463154992365,55.802614940437714],[10.194454917215145,55.84893023624164],[10.255844998805372,55.87719545959099],[10.264770858810413,55.92222146450531],[10.251183716358293,55.95519755841284],[10.278060472595694,55.98485124887403],[10.2452331430216,56.05640689324781],[10.209628879223718,56.092705390601644],[10.233431172570496,56.10262301282947],[10.22078620423002,56.12880553551093],[10.305730638611331,56.1897493241009],[10.33617773885075,56.198675184105966],[10.356012983306398,56.2149400845596],[10.346492065967686,56.229221460567665],[10.379616924208618,56.23775061568359],[10.38844360799138,56.26026361814076],[10.427122334679892,56.267106777477956],[10.457073553807916,56.26760265858936],[10.469470581592695,56.24667647568866],[10.486033010713157,56.258032153139524],[10.504578964279188,56.251635286802575],[10.509240246726266,56.238692789795266],[10.490198412048844,56.237651439461345],[10.448891515469956,56.19961735821766],[10.470908636815725,56.20130335399639],[10.47700797448584,56.177996941760995],[10.442445061021873,56.17194719220206],[10.426477689235073,56.18052593542913],[10.441453298799086,56.19084026254606],[10.42151887812116,56.19103861499062],[10.344310189077557,56.16222792241884],[10.396675234440472,56.13039235506755],[10.422461052232814,56.132772584402225],[10.443188882688967,56.15191359530194],[10.525405970957626,56.14735148907716],[10.517471873175367,56.12156567128482],[10.482462666711148,56.1120447539461],[10.51771981373107,56.07093620981181],[10.557886183753755,56.09027557315606],[10.53408389040698,56.14626055063215],[10.589077105660255,56.20046035610719],[10.611738872450832,56.21102262377981],[10.669806550594739,56.20908868744539],[10.667029616370948,56.17189760409105],[10.640747917467216,56.1712033705351],[10.63777263079887,56.16178162941867],[10.684385455269638,56.1283592425109],[10.716419375065513,56.128855123622294],[10.750734347973781,56.219105485895504],[10.8140087777873,56.25024681969086],[10.842373177358876,56.2883304890457],[10.918044634957175,56.34565434552252],[10.929350724296892,56.431441777793204],[10.964087196149846,56.449367879970005],[10.932350805020807,56.47644298865197],[10.886035509216871,56.49181530310509],[10.866894498317178,56.52622945223566],[10.800347253168484,56.544874582024],[10.497264717886193,56.498311345664455],[10.399873667608965,56.51259272167252],[10.351376494914906,56.54452746524613],[10.342252282465308,56.567040467703286],[10.308284426335012,56.57432992004073],[10.300920591830849,56.55543684969672],[10.229687270179515,56.50242715888901],[10.221852348619535,56.43741714518568],[10.274415746427001,56.43255751029404],[10.217389418617016,56.43295421518315],[10.220711822063336,56.5117497237832],[10.257704552973118,56.54745316380334],[10.36233546747666,56.61281029428477],[10.35549230813946,56.675489666764626],[10.258473168695645,56.663514137922796],[10.19732373529279,56.638857762286364],[10.167429396644229,56.62741399301352],[10.155329897526284,56.604008404555856],[10.124188563730918,56.5992479458865],[10.11446929394765,56.575048947650615],[10.047227815243005,56.54886642496915],[9.956878276747533,56.54033726985321],[9.943390310517692,56.52605589384514],[9.880710938037849,56.51415474717175],[9.87436365981204,56.49868325649635],[9.833503056233408,56.49431950271611],[9.785898469539855,56.5034437151657],[9.748211505074124,56.49888160894091],[9.698623393935007,56.53319658184918],[9.645266586349315,56.52317978339906],[9.642985533236915,56.54856889630229],[9.672044166364438,56.5558087605286],[9.670854051697098,56.56870166942477],[9.567909132972293,56.57971023009765],[9.567611604305458,56.59399160610572],[9.53210651672985,56.598950417219626],[9.528337820283278,56.62701728812439],[9.480187764367203,56.623199003566725],[9.454798651463975,56.585611215323276],[9.421872145667598,56.588884030658484],[9.395689622986144,56.61645502045184],[9.32110910383291,56.623595708455866]]],[[[10.030987708845071,55.806408430940444],[10.072740898424211,55.80809442671918],[10.115188321559296,55.82535108939559],[10.058360346193865,55.82783049495254],[10.030987708845071,55.806408430940444]]],[[[10.054194944858185,55.790341882931386],[10.07928652909458,55.77883744114711],[10.097634130216052,55.786077305373425],[10.08087334865103,55.79539987026758],[10.054194944858185,55.790341882931386]]],[[[8.40127315935255,56.66651658937496],[8.484780815416254,56.62486020529174],[8.514037800988337,56.5786440857101],[8.541955907559657,56.565503236258266],[8.556435636012274,56.56743717259254],[8.530550641997655,56.58350372060162],[8.589957199142317,56.58826417927097],[8.596800358479516,56.62307503329063],[8.632801327166518,56.60859530483804],[8.643413182950288,56.64509215463643],[8.594717657811675,56.65084437552857],[8.585196740472965,56.642116867968085],[8.601362464704318,56.62585196751445],[8.587626557918783,56.62887684229394],[8.572254243465657,56.64325739452429],[8.583957037694491,56.67598554787611],[8.537344213223722,56.67320861365235],[8.502285418648363,56.65848094464404],[8.47253255196489,56.67851454154424],[8.429539659607281,56.6674068046491],[8.404803815858813,56.67141709563401],[8.40127315935255,56.66651658937496]]],[[[8.958322601789947,56.807270015435286],[9.010588471057234,56.771665751551126],[9.040341337812801,56.79031088138462],[9.080582090099712,56.79316219778206],[9.064614718274223,56.80471622770547],[9.078896094316898,56.81319579473081],[9.046019176551992,56.81750996041037],[8.958322601789947,56.807270015435286]]]]},"properties":{"shapeName":"Midtjylland","shapeISO":"DK-82","shapeID":"84455774B58555105451238","shapeGroup":"DNK","shapeType":"ADM1"}},
{"type":"Feature","geometry":{"type":"MultiPolygon","coordinates":[[[[11.368677879483338,54.96561977200735],[11.41228520313432,54.93970848476171],[11.440513062418484,54.96240231084273],[11.47672022539087,54.96484758132783],[11.457887352707367,54.98110648507965],[11.41764763840867,54.98475294106622],[11.414580325431743,54.964161189612724],[11.389784424723166,54.97205469433656],[11.368677879483338,54.96561977200735]]],[[[11.477106320730623,54.93254427123518],[11.488002789208096,54.92344958100989],[11.511940700272778,54.93065669401861],[11.477106320730623,54.93254427123518]]],[[[11.4871447995642,54.91795844728896],[11.483970237881787,54.904917004701744],[11.525754333539494,54.9061181902032],[11.4871447995642,54.91795844728896]]],[[[11.54261383004204,54.96847258757331],[11.570241096575472,54.99292529242433],[11.552909705768785,55.00588093604715],[11.511897800790583,55.006996322584214],[11.505377079496979,54.99507026653407],[11.54261383004204,54.96847258757331]]],[[[11.300317554605977,55.76940592014971],[11.298258379460627,55.79188524881977],[11.282471370012951,55.797033186683144],[11.300317554605977,55.76940592014971]]],[[[11.210142843032566,55.858808441043635],[11.214432791252042,55.86618715198114],[11.157633876826164,55.89312802679945],[11.084361561237495,55.916293747184625],[11.08504795295261,55.90153632530963],[11.122284703497673,55.89398601644335],[11.14545042388285,55.87270787327474],[11.210142843032566,55.858808441043635]]],[[[11.774957425608935,55.78703760733181],[11.81167938236766,55.7551203925789],[11.833815515180161,55.761812711801284],[11.84565577226592,55.789268380405936],[11.827294793886557,55.81226250286233],[11.81528293887202,55.78823879283326],[11.774957425608935,55.78703760733181]]],[[[12.22317121557992,55.05397125558757],[12.236641652989078,55.07953934697565],[12.184904877462184,55.06469612613626],[12.22317121557992,55.05397125558757]]],[[[12.237070647811024,55.06306594581287],[12.287863634729646,55.03629666892338],[12.273792604569762,55.02059545844009],[12.28340208858139,55.007897211710436],[12.214076525354633,54.98970783125982],[12.172549826590092,55.00772561378164],[12.185505470212911,54.98945043436666],[12.158564595394594,54.9924533981203],[12.126046787890957,54.97949775449747],[12.143635575590816,54.96319595126345],[12.115665113199826,54.942432601881166],[12.127591169249973,54.932651519940755],[12.108458000191105,54.92921956136517],[12.146466941415673,54.92278463903596],[12.130594133003608,54.92364262867985],[12.1470675341664,54.90605384098],[12.213218535710736,54.90605384098],[12.291552990198387,54.96396814194294],[12.362937728570492,54.98747705818569],[12.445304734384445,54.98112793482086],[12.500301870558147,54.96576992019513],[12.541399574500737,54.96594151812391],[12.554012022266,54.97495040938481],[12.55435521812356,54.99785873287682],[12.526556353661345,55.0284031641995],[12.452082852571223,55.044361771575964],[12.322011622556671,55.04882331772421],[12.269159460492713,55.078852955260544],[12.237070647811024,55.06306594581287]]],[[[12.122185834493447,55.00961319099825],[12.106141428152602,54.98919303747354],[12.137801246012343,55.009098397211915],[12.122185834493447,55.00961319099825]]],[[[12.087523052880075,54.93119293754622],[12.09026861974054,54.94835273042413],[12.068990476571933,54.961737368868896],[12.016996304151869,54.956246235147965],[11.98851104797454,54.975465203171225],[12.008931201499253,54.94389118427588],[12.087523052880075,54.93119293754622]]],[[[11.664105163617679,55.0894920268449],[11.67508743105954,55.08777604755711],[11.628584392360407,55.09944470671409],[11.664105163617679,55.0894920268449]]],[[[11.890957625463631,55.016605806595976],[11.881905834720538,55.012015562001146],[11.901253501190375,54.99781583339466],[11.890957625463631,55.016605806595976]]],[[[11.979030262409502,54.594260404388486],[11.969077582540315,54.71060380010071],[12.083876596893525,54.81304776358184],[12.16195365448801,54.85208629237908],[12.160838267950949,54.8733644355477],[12.1210275484742,54.9111159798791],[11.999793611791777,54.921669252499015],[11.969420778397879,54.96233796161966],[11.934757996784503,54.95890600304408],[11.92223134798363,54.939343839163264],[11.905757946820838,54.939343839163264],[11.880189855432754,54.96628471398158],[11.833601017769228,54.987305460257005],[11.811979678743064,54.95744742064944],[11.774571330269223,54.981127934820954],[11.749689630596256,54.98061314103463],[11.744026898946546,54.96293855437039],[11.711080096620961,54.95281427657242],[11.751748805741604,54.949382317996836],[11.761701485610793,54.9373704629823],[11.745056486519221,54.91266036123811],[11.761529887682013,54.90253608344015],[11.760843495966897,54.87919876512619],[11.80889091602504,54.86873129147067],[11.820216379324462,54.85217209134348],[11.800568416479257,54.83312472124901],[11.836089187736524,54.821627660020795],[11.889799339444387,54.77889977575481],[11.877101092714737,54.75556245744087],[11.916654415298318,54.74638196825118],[11.884737200545407,54.71755351621629],[11.875213515498164,54.68469251285511],[11.921373358339746,54.63698828865453],[11.924891115879717,54.60541426975918],[11.979030262409502,54.594260404388486]]],[[[11.21610587105771,55.190220011038356],[11.18384546044724,55.24101299795695],[11.197573294749565,55.2513088736837],[11.180756697729215,55.258859182549976],[11.175608759865844,55.20875258734648],[11.21610587105771,55.190220011038356]]],[[[11.156046595985028,55.15075248741917],[11.179212316370204,55.18112532081307],[11.142318761682702,55.16928506372731],[11.156046595985028,55.15075248741917]]],[[[11.719831590988724,55.18653065556967],[11.73390262114861,55.2092673811329],[11.708763524582473,55.215616504497724],[11.689716154487991,55.186530655569655],[11.719831590988724,55.18653065556967]]],[[[11.980735689167169,55.734168953625776],[11.932269826817356,55.75123798944091],[11.91064848779119,55.737595954102964],[11.870591256364564,55.73940797700764],[11.851275604433628,55.73124683073814],[11.837376172202518,55.69233700038746],[11.808118725345684,55.6706298623969],[11.77246925564183,55.66436653799648],[11.807646831041541,55.69645535067813],[11.783408623601497,55.72944505248591],[11.67495873261311,55.722066341548384],[11.654710177017177,55.73244801623952],[11.76826510638674,55.75029420083253],[11.742825713445244,55.766295707691164],[11.747330159075695,55.774746905683536],[11.759384913572426,55.76938447040919],[11.743555004642555,55.79478096386849],[11.731714747556799,55.80155908205526],[11.655653965625467,55.776763181346695],[11.609408323819494,55.785085680892486],[11.643556311646536,55.799199610534565],[11.658313733521537,55.81953396509488],[11.714168859339129,55.81258424897933],[11.732272440825323,55.82459610399386],[11.707819735974295,55.86612280275838],[11.669982392678506,55.88353999252946],[11.673585949182865,55.916315196926256],[11.709278318368915,55.920605145145736],[11.720088987881997,55.90275896055271],[11.74977542956078,55.9077353004873],[11.754236975709036,55.94411406138847],[11.788728159393633,55.954066741257655],[11.778603881595666,55.97791885335795],[11.709964710084032,55.953208751613765],[11.637207188281696,55.941711690385574],[11.589331366152331,55.96590699834343],[11.523180364607997,55.95449573607961],[11.385301428834003,55.970196946562886],[11.3024196292337,55.99044550215883],[11.279168109884134,56.010522459825985],[11.293582335901583,55.9777472554292],[11.370286610065834,55.95749869983327],[11.469470212900145,55.94994839096697],[11.523351962536774,55.932102206373926],[11.52781350868503,55.89023231175183],[11.498298664935026,55.85213757156284],[11.44716248215886,55.850421592275055],[11.401174237246064,55.83429138696982],[11.36033393019664,55.84939200470238],[11.384014444368155,55.79448066749307],[11.375434547929201,55.77766407047272],[11.349694858612338,55.75810190659192],[11.309540943278032,55.75501314387389],[11.304393005414658,55.7467764432925],[11.297185892405935,55.75338296355049],[11.268443239335438,55.731161031773595],[11.221511205814355,55.747205438114435],[11.212588113517842,55.73219061934626],[11.19474192892482,55.734335593456],[11.180327702907377,55.754240953194376],[11.055404410756202,55.72815806801996],[10.984534466170437,55.74274389196617],[10.876084575182055,55.73364920174088],[10.91658168637392,55.71923497572344],[10.988138022674798,55.72095095501125],[11.043049359884105,55.68594497754031],[11.09796069709341,55.67582069974234],[11.103795026671897,55.659004102721994],[10.934985564235461,55.6644952364429],[10.954032934329941,55.65231178349959],[11.028334837491286,55.65008101042546],[11.125974058966587,55.61747740395743],[11.140045089126472,55.603577971726324],[11.159435655078509,55.56582642739492],[11.152056944141004,55.54231751115216],[11.092340864925882,55.53493880021466],[11.083932566415706,55.51726421355041],[11.106755090943325,55.51091509018559],[11.125116069322688,55.52944766649373],[11.174707870739843,55.49976122481494],[11.206453487563975,55.4475954544661],[11.196586606659162,55.4212551723985],[11.219323332222393,55.40263679712598],[11.156175294431689,55.370547984444286],[11.115334987382266,55.37192076787452],[11.097488802789238,55.354074583281495],[11.171447510093016,55.313577472089634],[11.234938743741278,55.296246081282945],[11.24720799564898,55.25446198562521],[11.270974308784885,55.24785546536722],[11.29414002917006,55.25806554212958],[11.283329359656978,55.24322232129018],[11.237126617333209,55.2505581327455],[11.251412144904064,55.213021085825055],[11.33347885434266,55.202210416311964],[11.32404096825981,55.21954180711865],[11.374833955178415,55.20838794174802],[11.443301528761271,55.229494486987846],[11.495982092896451,55.21713943611576],[11.47539034144296,55.20461278731488],[11.51417147334704,55.21096191067969],[11.599284046021468,55.203754797670975],[11.678991283939354,55.1739825570278],[11.685769402126125,55.192343535407154],[11.665864042387751,55.187538793401345],[11.662689480705337,55.20298260699146],[11.693491308921182,55.22082879158449],[11.7220623640629,55.22014239986937],[11.738964760047642,55.21207729721674],[11.728625984838702,55.19843526187881],[11.744884888590521,55.19598999139368],[11.720174786846332,55.18414973430792],[11.723263549564356,55.17093669379193],[11.798423442369597,55.16904911657536],[11.820902771039657,55.152232519555014],[11.762559475254765,55.135587520463446],[11.730470662573076,55.14296623140095],[11.724121539208252,55.127522417810795],[11.767192619331803,55.09285963619742],[11.784009216352153,55.09183004862474],[11.778518082631223,55.10143953263638],[11.809920503597796,55.08959927555062],[11.835488594985879,55.06334479244742],[11.689458757594876,55.08445133768724],[11.79207431900477,55.06214360694597],[11.901382199637048,55.014439382745365],[11.925749105523678,55.02336247504188],[11.947713640407402,55.01890092889362],[12.027592476254062,54.98320855970757],[12.077012679742438,54.990415672716296],[12.122142935011338,55.01512577446048],[12.17259272607239,55.01546897031804],[12.1495128046516,55.06600456034349],[12.131838217987353,55.06823533341761],[12.125317496693748,55.096720589594945],[12.106441724528048,55.10650167153535],[12.156033525945205,55.09414662066325],[12.189838317914681,55.13275615463856],[12.138187341352177,55.14854316408622],[12.119654765044036,55.142022442792616],[12.12463110497863,55.14888635994378],[12.10198017837979,55.148714762015004],[12.097347034302755,55.14099285521994],[12.069204973982984,55.15437749366471],[12.063542242333275,55.13979166971849],[12.037630955087632,55.13944847386093],[12.039175336446645,55.15832424602663],[12.016009616061467,55.16553135903535],[12.022530337355073,55.17754321404989],[12.097432833267144,55.190155661815155],[12.081045231068742,55.157552055347125],[12.099320410483715,55.15000174648085],[12.113648837536768,55.15798105016907],[12.111117768087276,55.192815429711224],[12.154532044068386,55.225933829965584],[12.26589909984601,55.25639246232388],[12.356846002098925,55.250043338959046],[12.368857857113461,55.26720313183695],[12.40849697866143,55.27080668834132],[12.455343213218121,55.30032153209132],[12.4555148111469,55.34322101428609],[12.433936371602924,55.36951839687147],[12.367077528602364,55.40720559197956],[12.306760856636512,55.410637550555144],[12.225595036323996,55.434339514467744],[12.195329451635583,55.4594571612928],[12.214591319141041,55.51312441351846],[12.196916732476796,55.49103118018815],[12.196616436101431,55.49986847352027],[12.237799939008413,55.551347852154],[12.359847910756786,55.601009006932344],[12.275984681897672,55.62859319866487],[12.246132495049656,55.62042735383201],[12.21775283759773,55.625045741483405],[12.209252326993026,55.61299777369721],[12.15885166175411,55.62062815329513],[12.150819683229981,55.67624960457476],[12.247203425519539,55.71212577531586],[12.20731126551636,55.73354438471354],[12.223642955182092,55.74291502632502],[12.211327254778425,55.75442752887628],[12.156977533431812,55.75335659840639],[12.085335179288304,55.78449689962946],[12.094944663299938,55.7440737759144],[12.116566002326103,55.731718725042306],[12.099234611519416,55.72296723067458],[12.106784920385694,55.706322231583],[12.081903220712727,55.699973108218174],[12.096145848801392,55.69207960349434],[12.074352911846448,55.69396718071091],[12.069376571911855,55.685387284271954],[12.089625127507786,55.67509140854521],[12.083619200000518,55.658618007382415],[12.053932758321736,55.66453813592526],[12.052130980069554,55.679209758835874],[12.013264049201087,55.675863599224684],[11.99404508117783,55.690878417992856],[11.95268998034207,55.682727516375856],[11.928666270312997,55.65552924466437],[11.980735689167169,55.734168953625776]]],[[[11.393881325272984,55.20251071268762],[11.467496836719212,55.20027993961349],[11.46578085743142,55.21366457805826],[11.432490859248277,55.21709653663384],[11.425455344168336,55.2059426712632],[11.393881325272984,55.20251071268762]]],[[[12.040033326090645,55.68590207805831],[12.036601367515063,55.698514525823576],[12.001681189008519,55.698771922716745],[11.994988869786134,55.70838140672837],[11.982290623056487,55.70048790200454],[12.040033326090645,55.68590207805831]]],[[[11.022865153511535,54.901592294832554],[11.035482367885942,54.88481889520756],[11.065031372334731,54.882256842798725],[11.085271586364684,54.852024624374245],[11.115930813523974,54.845875698593],[11.09739863443326,54.82836834046582],[11.075279581970149,54.834517266247076],[11.074681769741417,54.81658289938509],[10.989536228020489,54.83460266799402],[11.020451660420667,54.825037672334304],[10.977409179951913,54.81145879456737],[11.009007826327787,54.779518541203664],[11.260345167636412,54.7284482965205],[11.362058648267935,54.67541381165723],[11.502160214158787,54.62494137920281],[11.518898956563303,54.622379326793954],[11.471073978264688,54.63758083775316],[11.49635289536539,54.6582480605179],[11.549472781975638,54.66841086840636],[11.597639367262099,54.69146934008606],[11.662032284471307,54.68694304749708],[11.671255673143182,54.69480000821756],[11.722240516079388,54.68070871996885],[11.73172010999215,54.69326277677224],[11.73368435017227,54.683014567136816],[11.806361236836771,54.67421818719977],[11.838728498935298,54.68096492520975],[11.832579573154053,54.68976130514684],[11.857687686760826,54.704194200383384],[11.846243852667943,54.70957451044198],[11.863324202060307,54.722555575980174],[11.813534983581567,54.73792789043332],[11.827144645699143,54.76079619426947],[11.84923787902945,54.7547902667622],[11.86991542944733,54.76272667096823],[11.863652105046889,54.79696045775964],[11.79003659360066,54.83110844558666],[11.795356129392813,54.85435996493623],[11.75473031975436,54.86624312150415],[11.750697768428052,54.896873351791236],[11.716120785779063,54.89721654764878],[11.661209448569755,54.923042035930024],[11.642333676404055,54.92347103075197],[11.653401742810306,54.88117214130791],[11.62362950216713,54.86898868836462],[11.596431230455646,54.87756858480357],[11.567860175313928,54.87027567283046],[11.621570327021782,54.835698690181474],[11.599691591102449,54.847538947267225],[11.473266817074451,54.86152417846267],[11.473009420181276,54.88130083975445],[11.436501960833528,54.881944331987384],[11.436845156691087,54.889923635675615],[11.386695662005398,54.90322247515597],[11.36314384628047,54.93471069508692],[11.320415962014478,54.94174621016687],[11.269794573024647,54.971432651845646],[11.183909809670709,54.97417821870611],[11.121791359452684,54.95950659579549],[11.122306153239021,54.95109829728531],[11.086442186124192,54.95521664757601],[11.032217240629995,54.92467221625334],[11.022865153511535,54.901592294832554]]]]},"properties":{"shapeName":"Sjælland","shapeISO":"DK-85","shapeID":"84455774B92412385890269","shapeGroup":"DNK","shapeType":"ADM1"}},
{"type":"Feature","geometry":{"type":"MultiPolygon","coordinates":[[[[14.770854209270702,55.29635420331896],[14.748813673960745,55.28513477420044],[14.706325895049991,55.21812800620993],[14.704467054722647,55.133860578036945],[14.6853475542128,55.104030616593334],[14.776607762664852,55.05862180288245],[14.859281899128689,55.04534437197283],[14.963731022284293,55.010291954371475],[15.081811641173761,54.995775296576944],[15.119608061163119,55.01870099394754],[15.108720567817242,55.042777401996965],[15.153686800497788,55.081547500253016],[15.151960734479538,55.13308606123384],[15.015867067656037,55.178893197871936],[14.97196302944826,55.21359155064905],[14.936733579434758,55.210050902406486],[14.82830122700628,55.24926358169288],[14.770854209270702,55.29635420331896]]],[[[12.729847529845427,55.638225920190074],[12.758305490095044,55.61171531647395],[12.787958419126502,55.61277751094669],[12.766758787774151,55.6727914986581],[12.739407280100355,55.666816654748786],[12.729847529845427,55.638225920190074]]],[[[12.677888516885838,55.59348097802477],[12.666027345273253,55.60835170064354],[12.676383741382754,55.63464101384456],[12.650802557830236,55.64030605103266],[12.6200461952808,55.697500881086825],[12.606391831789779,55.69937500940912],[12.590327874741519,55.679696662025],[12.561814350980859,55.66336497235927],[12.546352792321903,55.642414895042144],[12.509807290037113,55.61724802899987],[12.515295808695267,55.58819904000427],[12.592804401453122,55.560622580404754],[12.677888516885838,55.59348097802477]]],[[[12.359847910756786,55.601009006932344],[12.406805532109438,55.62019308779172],[12.490036909565738,55.60694032322691],[12.502017944197561,55.63793037369917],[12.540194942120081,55.64244836161927],[12.565294875007986,55.671162684843],[12.59012707527842,55.683478385246644],[12.595715993668126,55.707975919745216],[12.609771956085352,55.7129959063228],[12.602476242259268,55.726114804578884],[12.580789900244117,55.72002388753142],[12.59816742044684,55.76192404216561],[12.590838240043572,55.78806143894621],[12.510719254265375,55.92624493613842],[12.553221807288892,55.988425836546085],[12.616473638166418,56.035412910912235],[12.519085898561341,56.07992345856678],[12.376384413449303,56.0982631428635],[12.34084290848003,56.117004426086474],[12.283615061495603,56.12717826555038],[12.180471070614903,56.10997644487782],[11.995066233016235,56.02831799654915],[11.850758352199364,55.97892132862575],[11.841253844279143,55.96098324325519],[11.864278849381648,55.945187018824406],[11.932952265762964,55.95281739842234],[11.970702564826373,55.970086152249216],[12.013941382547937,55.959510713859096],[12.063338050471335,55.87965946069836],[12.041718641610547,55.84853554391736],[12.085335179288304,55.78449689962946],[12.156977533431812,55.75335659840639],[12.211327254778425,55.75442752887628],[12.223642955182092,55.74291502632502],[12.20731126551636,55.73354438471354],[12.247203425519539,55.71212577531586],[12.150819683229981,55.67624960457476],[12.15885166175411,55.62062815329513],[12.209252326993026,55.61299777369721],[12.21775283759773,55.625045741483405],[12.246132495049656,55.62042735383201],[12.275984681897672,55.62859319866487],[12.359847910756786,55.601009006932344]]],[[[11.980735689167169,55.734168953625776],[11.988103502893876,55.744395522030935],[12.016073965284868,55.72654933743791],[12.061375818482546,55.74096356345535],[12.053997107545046,55.79879206545391],[12.035807727094463,55.8070287660353],[12.049020767610452,55.81492227075914],[12.02885801097891,55.85370340266319],[11.994710023151876,55.869576211075255],[12.02216569175653,55.907670951264215],[11.906165491901868,55.94010295980346],[11.897585595462914,55.92328636278311],[11.955028002121713,55.855376482468834],[11.938983595780865,55.82594743768321],[11.878838521743795,55.819383816907404],[11.862150623170033,55.80097993904584],[11.84885178368965,55.760053833032025],[11.85614469566276,55.7398052774361],[11.870591256364564,55.73940797700764],[11.91064848779119,55.737595954102964],[11.932269826817356,55.75123798944091],[11.980735689167169,55.734168953625776]]]]},"properties":{"shapeName":"Hovedstaden","shapeISO":"DK-84","shapeID":"84455774B63592985071065","shapeGroup":"DNK","shapeType":"ADM1"}},
{"type":"Feature","geometry":{"type":"MultiPolygon","coordinates":[[[[10.694003482659136,54.735493940644815],[10.740889041741172,54.75761299310793],[10.842944129360543,54.95045013774771],[10.89896767536749,55.00058096321427],[10.95909050522861,55.151315046601866],[10.945426225714721,55.166516557561074],[10.905927917744883,55.140383622990754],[10.853832852098183,55.04268402446645],[10.813352424038282,55.000751766708206],[10.73939451116935,54.96693267491132],[10.679442484802157,54.91671644769779],[10.685079000101638,54.906212032821486],[10.711297336418914,54.91193394986793],[10.729658712015706,54.885886417044574],[10.698145467386796,54.880249901745096],[10.676624227152418,54.888790076441275],[10.671542823208188,54.85471477940353],[10.652540934509187,54.84002567892609],[10.60266631428349,54.842075320853155],[10.655529995652852,54.81628399327069],[10.67995489528393,54.769996246417385],[10.674232978237487,54.750951656844904],[10.694003482659136,54.735493940644815]]],[[[10.623248135301283,54.919534705347516],[10.59386993434642,54.91697265293866],[10.612658318678019,54.89639083192087],[10.629482462829497,54.90604122932755],[10.623248135301283,54.919534705347516]]],[[[10.454323479810816,55.004509443574534],[10.463034458000921,54.99571306363747],[10.484726501729222,55.004253238333646],[10.465254903421927,55.01202479730717],[10.454323479810816,55.004509443574534]]],[[[10.423749654398486,54.97478963563182],[10.36405383327218,54.97235568584344],[10.422084320332733,54.96159506572623],[10.440958106411292,54.97030604391633],[10.423749654398486,54.97478963563182]]],[[[10.323573405212281,55.008907633543096],[10.239495385328373,55.027140906519456],[10.251537031649992,55.01099997634367],[10.294707614739186,55.01189669468676],[10.337835496954904,55.00011125360603],[10.338433309183635,55.01104267721714],[10.323573405212281,55.008907633543096]]],[[[10.171259389505884,55.03743181702836],[10.13684248548027,55.04161650262949],[10.140002350117857,55.052889533228445],[10.122836598978534,55.03931065546152],[10.142051992044943,55.020607672876885],[10.16878273884399,55.02658579516421],[10.171259389505884,55.03743181702836]]],[[[9.980301083299274,55.15955631518376],[9.972871131313598,55.114378791040956],[10.024624589972458,55.10746124953705],[10.035043603101796,55.11967369935259],[9.980301083299274,55.15955631518376]]],[[[10.969082509623158,55.328395568927235],[10.983002994377934,55.34035181350189],[10.949013099087132,55.324808695554836],[10.969082509623158,55.328395568927235]]],[[[10.785041744920445,55.50722682706527],[10.786578976365758,55.4995406698387],[10.804427941480776,55.50287133797021],[10.785041744920445,55.50722682706527]]],[[[10.426952219909557,54.81948655878179],[10.457355241827964,54.84356985142502],[10.522431373012864,54.8492063667245],[10.527213870842727,54.860821004311305],[10.456842831346192,54.892590454181104],[10.486733442782826,54.86901957201964],[10.45820925929758,54.878926174667214],[10.445057390265461,54.865945109129015],[10.395182770039764,54.912745266464114],[10.405260176181258,54.89959339743199],[10.376052778720318,54.88387947599102],[10.28723496188003,54.93460811368634],[10.20183321491821,54.964327921629035],[10.274083092847906,54.89446929261427],[10.426952219909557,54.81948655878179]]],[[[10.173522535800373,55.599845021645415],[10.188724046759576,55.60983702603995],[10.162334906948375,55.61513193435158],[10.173522535800373,55.599845021645415]]],[[[10.656213209628543,55.039524159828964],[10.702244751240961,55.04140299826212],[10.67261034504521,55.03875554410631],[10.677819851609883,55.03081318163886],[10.719837511115095,55.03696210742011],[10.711468139912837,55.05643370572741],[10.655700799146773,55.05387165331855],[10.656213209628543,55.039524159828964]]],[[[10.51611164373769,55.00630288026084],[10.52907135883914,54.97572905484843],[10.551702821784021,54.95437861810798],[10.566562725755377,54.95523263557761],[10.561267817443744,54.94600924690573],[10.586205127556594,54.95796549148039],[10.619255603630815,54.9523289761809],[10.692957311258864,54.9810239631601],[10.689797446621279,55.00100797194916],[10.657942595004522,54.98085315966618],[10.629247608025352,54.98785610291702],[10.663749913797922,55.02585988031506],[10.631895062181169,55.05451216642077],[10.51611164373769,55.00630288026084]]],[[[10.456906882656403,55.45321022211194],[10.473731026807881,55.44902553651082],[10.471510581386875,55.46081097759154],[10.456906882656403,55.45321022211194]]],[[[9.784965937560852,55.29470457975079],[9.790431649366408,55.270279680119714],[9.815368959479256,55.27198771505895],[9.81741860140634,55.29675422167788],[9.784965937560852,55.29470457975079]]],[[[9.75755197678611,55.23919344422562],[9.733212478901992,55.24841683289749],[9.716986146979247,55.23201969748082],[9.746364347934112,55.22373572802554],[9.768568802144182,55.25038107307762],[9.75755197678611,55.23919344422562]]],[[[9.679067771328203,55.32886527853553],[9.711947443908501,55.32749885058414],[9.701955439513968,55.33484340082286],[9.679067771328203,55.32886527853553]]],[[[9.673516657775684,55.465337270180505],[9.680263395785667,55.44381602994613],[9.702809456983585,55.44390143169309],[9.673516657775684,55.465337270180505]]],[[[9.892742942226661,54.885801015297666],[9.864047955247493,54.86769584494176],[9.92092551872406,54.84976147807978],[9.983097990512261,54.85129870952509],[9.892742942226661,54.885801015297666]]],[[[9.745510330464493,54.9646268277434],[9.762761483350777,54.908347076495566],[9.790260845872481,54.8890462816822],[9.83210770188377,54.88118932096171],[9.9002582959593,54.89809886686015],[9.996591466532227,54.856593617836715],[10.015379850863825,54.86837905891744],[10.06320482916244,54.87128271831413],[10.02972734435341,54.93388219883716],[9.974045405334307,54.98580646098995],[9.926903641011386,55.00630288026078],[9.890351693311727,55.006217478513825],[9.800338252013974,55.051224199162725],[9.739019797695393,55.06676731710977],[9.691024015902851,55.06147240879813],[9.632267613993122,55.0351686707339],[9.631413596523505,55.02457885411064],[9.693586068311705,55.02782412049519],[9.701443029032191,55.01655108989623],[9.69051160542108,55.0228708191714],[9.649689570373333,55.012281002548136],[9.68589991108514,54.992296993759076],[9.787869596957547,54.995029849661826],[9.768397998650252,54.98683128195349],[9.782403885151991,54.980682356172245],[9.773522103467961,54.97299619894568],[9.844490955193228,54.95770928623953],[9.827496007547827,54.94729027311019],[9.843807741217534,54.930636932452636],[9.873783754401131,54.933540591849315],[9.825104758632898,54.92192595426252],[9.788296605692357,54.95232897618092],[9.745510330464493,54.9646268277434]]],[[[8.49061706060759,55.264130754338495],[8.437924182732155,55.233471527179205],[8.455773147847173,55.21382912537799],[8.475927960130162,55.21417073236584],[8.522984322706117,55.241926300128426],[8.49061706060759,55.264130754338495]]],[[[8.502146296447439,55.28445637011543],[8.530841283426609,55.25268692024564],[8.576787423292064,55.27642860590102],[8.556718012756038,55.28847025222263],[8.534428156799004,55.280527889755184],[8.533488737582426,55.29453377625692],[8.502146296447439,55.28445637011543]]],[[[8.411108034186144,55.317933854924476],[8.408289776536405,55.300084889809455],[8.429640213276858,55.29854765836414],[8.411108034186144,55.317933854924476]]],[[[8.523240527947006,55.339028086424065],[8.480283449225213,55.35030111702305],[8.463203099832851,55.34321277202522],[8.437497173997343,55.38053333544754],[8.456797968810713,55.39556404291282],[8.442792082308976,55.42067215651959],[8.40675254509109,55.41606046218366],[8.399066387864528,55.451758392413694],[8.358927566792474,55.45449124831647],[8.34782533968744,55.43775250591196],[8.413584684848038,55.34346897726607],[8.44142565435759,55.32963389425825],[8.497278396870614,55.323826575464864],[8.522386510477387,55.32707184184941],[8.523240527947006,55.339028086424065]]],[[[9.669929784403292,55.47853184008621],[9.816137575201921,55.408459706704065],[9.814941950744455,55.40213997742889],[9.783343304368584,55.40692247525875],[9.711776640414584,55.437837907658924],[9.737738771490974,55.40299399489852],[9.822286500983171,55.39146475905867],[9.78368491135643,55.38061873719455],[9.829801854715809,55.36524642274143],[9.829801854715807,55.35294857117891],[9.779414824008338,55.34457919997666],[9.778731610032644,55.33723464973794],[9.828435426764418,55.32357037022404],[9.866524605909387,55.324595191187576],[9.892401335238818,55.31204113438418],[9.871648710727095,55.31024769769798],[9.884715178012254,55.286847619030446],[9.874125361388986,55.2424387106103],[9.892572138732737,55.225358361217936],[9.866268400668499,55.23167809049311],[9.867976435607735,55.22211309483339],[9.910335702100795,55.2113524747162],[9.919046680290899,55.19717578472054],[9.966871658589515,55.19717578472054],[10.014013422912436,55.16472312087505],[10.057397510369038,55.158574195093806],[10.108980165533971,55.172750885089464],[10.169957012864705,55.11570251811896],[10.07977276807303,55.08905717306688],[10.076356698194557,55.064461469941875],[10.129647388298729,55.078808963431456],[10.18567093430568,55.064461469941875],[10.201384855746653,55.0487475485009],[10.2270053798352,55.06992718174745],[10.209754226948913,55.08410387174311],[10.228201004292664,55.0883739590912],[10.318129043843452,55.047722727537355],[10.35621822298842,55.04370884543014],[10.373042367139897,55.05686071446226],[10.416853463331307,55.03405844802343],[10.472193795362564,55.03935335633505],[10.514040651373854,55.02568907682116],[10.61976801411258,55.05814174066667],[10.711831097337416,55.059678972111975],[10.745137778652524,55.070439592229164],[10.77545539882397,55.10331926480946],[10.817131451341332,55.23073867127649],[10.788778071350011,55.27198771505903],[10.795097800625184,55.28343154915191],[10.765377992682474,55.2912885098724],[10.799880298455047,55.300341095050356],[10.83540742519116,55.28531038758507],[10.854025006028836,55.29555859722049],[10.822767966640813,55.305977610349835],[10.768708660813981,55.3798501214718],[10.668447009880813,55.43775250591191],[10.674595935662063,55.451929195907574],[10.750945097445923,55.473194230901065],[10.711318686855641,55.501376807398465],[10.707219403001474,55.53041340136548],[10.625746136399906,55.600101226886316],[10.606530743333497,55.593183685382414],[10.608324180019695,55.60027203038024],[10.58876717996544,55.59975961989847],[10.604224896165528,55.59173185568405],[10.616608149474992,55.59343989062329],[10.630443232482806,55.57456610454473],[10.631553455193309,55.54587111756557],[10.60977600971805,55.5565036350623],[10.612167258632981,55.567947469155186],[10.601534741136234,55.5625671590966],[10.632279370042484,55.50773923754711],[10.588553675598035,55.51696262621899],[10.568398863315048,55.509447272486355],[10.622885177876684,55.491342102130446],[10.629034103657936,55.47528657370163],[10.526295802062874,55.45214270027497],[10.487139101080885,55.454405846569465],[10.497899721198074,55.43655688145445],[10.473133214579148,55.421269968748284],[10.42573524501534,55.42050135302563],[10.443328004889475,55.45893213915845],[10.4604937560288,55.469778161022596],[10.483723031202414,55.46636209114412],[10.48158798752837,55.47626869379171],[10.504048646979328,55.48156360210334],[10.470741965664219,55.51077099956428],[10.500120166619084,55.52733893847486],[10.554862686421608,55.497277523544305],[10.557424738830461,55.50564689474656],[10.426845467725848,55.56132883376566],[10.305916594027924,55.596258148273066],[10.28926325337037,55.591561052190166],[10.309161860412472,55.55902298659771],[10.283285131083042,55.557229549911504],[10.275855179097364,55.58020261984421],[10.185329327317843,55.56666644295078],[10.185414729064805,55.55061091452196],[10.158683982265755,55.55462479662917],[10.038779929531367,55.52592980965],[9.932881763298719,55.47878804532708],[9.856361798020933,55.48083768725418],[9.846113588385514,55.513631958087515],[9.82245730447709,55.51969548212179],[9.75174465799271,55.50722682706538],[9.760455636182815,55.49082969164871],[9.742179662332987,55.472212110811036],[9.669929784403292,55.47853184008621]]],[[[8.178956876993883,55.80381885704975],[8.182103249708058,55.752927653074906],[8.15870317104052,55.68477705899936],[8.078254725402491,55.5556496175931],[8.188935389465003,55.522172132784064],[8.293637931240186,55.468027425210266],[8.299274446539666,55.48647420255402],[8.256744376552682,55.511240709172945],[8.269042228115184,55.52422177471114],[8.249399826313967,55.526271416638224],[8.236589564269694,55.54745104988476],[8.25520714510737,55.576829250839616],[8.289709450879943,55.5817825521634],[8.315244573221525,55.569057691866114],[8.292783913770569,55.55300216343729],[8.408930289638636,55.471955905570475],[8.422509167405565,55.448641228649905],[8.457694687153833,55.43625797534044],[8.46930932474064,55.4428339098565],[8.530456975565299,55.438734626002336],[8.575719901455063,55.424216329018826],[8.609197386264094,55.40867321107177],[8.636696748785798,55.35282046855877],[8.656168347093093,55.31182763001707],[8.629352198547084,55.256145690997975],[8.644895316494132,55.24743471280789],[8.640454425652116,55.21037035462646],[8.653862499925122,55.20789370396457],[8.666928967210279,55.147514668862556],[8.597497346930322,55.1379283227661],[8.545871990891909,55.1436288893758],[8.575250191846772,55.17958302484672],[8.489677641391035,55.19700498122693],[8.461495064893636,55.16113624750297],[8.4474891783919,55.09828056173908],[8.491898086812043,55.07727173198648],[8.450905248270372,55.09110681499429],[8.480795859707008,55.061728614039424],[8.508807632710486,55.05711691970348],[8.506587187289478,55.07018338698864],[8.551593907938354,55.08094400710582],[8.533317934088528,55.09443748312579],[8.539125252881929,55.1404690247382],[8.667142471577689,55.13355148323429],[8.618975886291222,55.054127858559795],[8.61555981641275,55.02492046109885],[8.639728510802943,54.97820570551072],[8.619232091532108,54.90885948697774],[8.65877310037543,54.90698064854457],[8.703352812289499,54.889558692164336],[8.754081449984815,54.88819226421295],[8.804126873704439,54.90219815071468],[8.832138646707913,54.891608334091416],[8.928130210292993,54.89519520746382],[9.027196236768697,54.86513379253326],[9.130532350592492,54.86462138205145],[9.223449451286948,54.84173371386569],[9.231989625983129,54.80859783604451],[9.27725255187289,54.798008019421246],[9.327981189568208,54.79749560893948],[9.367265993170642,54.830887692001575],[9.397156604607277,54.834474565373974],[9.421069093756586,54.825251176702096],[9.510228517584713,54.86667102397855],[9.548488500223606,54.86837905891779],[9.610831775505728,54.92384749356947],[9.6641224656099,54.90411969002129],[9.591787185933246,54.89865397821573],[9.64524867953134,54.87149622268187],[9.629876365078212,54.850572794676225],[9.691451024637681,54.84638810907509],[9.720829225592546,54.83016177715235],[9.752257068474492,54.84416766365408],[9.73193145269758,54.87217943665756],[9.693159059576917,54.88584371617145],[9.755758540099926,54.888234965086404],[9.770874649312168,54.89891018345662],[9.74747457064463,54.92162704814846],[9.730223417758344,54.97150166837415],[9.663951662115977,54.982433091985264],[9.570351347445829,55.02650039341756],[9.480850316629848,55.001221476316864],[9.40706320725484,55.01181129294013],[9.416286595926717,55.02120548510591],[9.48563281445971,55.030258070283864],[9.54028993251527,55.05861145027519],[9.491098526265267,55.097896253877636],[9.451472115674985,55.09755464688979],[9.46206193229825,55.109510891464446],[9.505787626742698,55.10609482158597],[9.4869992424111,55.13274016663806],[9.59153098069236,55.16963372132556],[9.61510186285382,55.156994262775214],[9.659169164286116,55.16382640253216],[9.686497723313897,55.175099433131116],[9.686497723313897,55.202427992158896],[9.706652535596884,55.21267620179432],[9.709385391499662,55.23180619311376],[9.621506993875956,55.284413669242255],[9.638160334533506,55.312510843992676],[9.59067696322274,55.33100032220995],[9.613607332281987,55.356065734943236],[9.583631319098387,55.38604174812681],[9.646914013597092,55.4044031237236],[9.680733105393971,55.43250029847403],[9.617792017883115,55.46307412388639],[9.582179489400037,55.452996717744874],[9.500193812316695,55.45052006708298],[9.492507655090133,55.46273251689851],[9.574664135667398,55.46452595358471],[9.550837048265052,55.48135009773619],[9.57850721428068,55.48228951695277],[9.560829052659585,55.49253772658819],[9.607116799512887,55.47451795797922],[9.634530760287628,55.47554277894275],[9.659980480882249,55.49125670038372],[9.735304821702568,55.48476616761463],[9.729326699415243,55.52089110657948],[9.762206371995541,55.52234293627783],[9.793378009636601,55.5588094822305],[9.8526468220281,55.584430006319046],[9.750335529167847,55.586479648246126],[9.731034734354477,55.619444722573384],[9.693799572679126,55.62576445184855],[9.66630021015742,55.65104336894925],[9.550837048265048,55.6578755087062],[9.55425311814352,55.66812371834161],[9.662505872223235,55.670512437629675],[9.674413376118794,55.706042093992664],[9.648963655524172,55.715436286158464],[9.592086092047605,55.709799770859],[9.579788240485104,55.73866556133206],[9.533671297125725,55.732345832056886],[9.495496716233793,55.782903666258264],[9.441010401672155,55.793237277640635],[9.449550576368338,55.80476651348048],[9.436996519564952,55.80997602004515],[9.453052047993772,55.81774757901868],[9.379179536871803,55.88111567526433],[9.283700383768494,55.894267544296426],[9.246636025587069,55.911262491941855],[9.21512278095816,55.91066467971312],[9.14628897290694,55.84524694154037],[9.112640684603985,55.831668063773435],[9.092571274067959,55.83807319479557],[9.065925929015872,55.8085241903468],[9.052944863477677,55.813392089923624],[9.006657116624375,55.79631174053124],[8.956440889410827,55.81065923402083],[8.957807317362215,55.85301850051389],[8.877188068230263,55.86394992412501],[8.83653683667644,55.84857760967188],[8.822018539692928,55.81996802443966],[8.794604578918188,55.81031762703297],[8.820908316982424,55.788369378063784],[8.754978168327904,55.778889784151],[8.729870054721129,55.78307446975214],[8.70416412888562,55.79844678420526],[8.70646997605359,55.81125704624954],[8.676152355882147,55.822957085583305],[8.59587471373804,55.81270887594786],[8.571108207119114,55.827397976425296],[8.539680364237165,55.82176146112582],[8.547537324957652,55.80160664884283],[8.514743054124315,55.78896719029248],[8.509747051927048,55.762919657469105],[8.466106759229563,55.76099811816248],[8.466789973205257,55.75433678189946],[8.36174582444223,55.80352818814944],[8.33168440951167,55.78593542827531],[8.283688627719128,55.78491060731179],[8.201190540154016,55.8211209480236],[8.178956876993883,55.80381885704975]]],[[[9.534387690289151,55.10283985226],[9.561685945537386,55.093318934898214],[9.545173104488045,55.110203686782],[9.534387690289151,55.10283985226]]]]},"properties":{"shapeName":"Syddanmark","shapeISO":"DK-83","shapeID":"84455774B68755790009873","shapeGroup":"DNK","shapeType":"ADM1"}}
]}