{"type":"FeatureCollection", "features": [
{"type":"Feature","geometry":{"type":"Polygon","coordinates":[[[4.001597389570634,19.38407408330272],[3.966330272687628,19.00250007389053],[5.95855095759913,19.430048833040814],[7.980202175355885,21.190568923027513],[11.938467350100325,23.53910288297942],[11.76160116678426,24.04483630865434],[8.843309148153935,23.98425242602906],[7.406271411455464,24.669187131334752],[6.013450220791299,27.07589456763668],[6.544048769684593,27.821424319018718],[6.168208130552216,28.44529898869746],[5.107011033098502,28.309137208166817],[3.183591293360053,29.123471160230793],[2.299260378178815,28.949505756587882],[2.652992744466758,28.406413463151296],[2.564559652984542,26.79996228893083],[1.193846734771739,26.20641915224917],[1.702337010792917,25.490156448742653],[1.569687373809586,22.29698631987992],[4.045813935103013,20.816584648990556],[4.001597389570634,19.38407408330272]]]},"properties":{"shapeName":"Tamanghasset","shapeISO":"","shapeID":"36490775B51952853061932","shapeGroup":"DZA","shapeType":"ADM2"}},
{"type":"Feature","geometry":{"type":"Polygon","coordinates":[[[11.76160116678426,24.04483630865434],[11.518410165559771,24.42786858737827],[10.214022066196776,24.649095001559544],[10.191913793326421,25.470198555252637],[9.528665607209632,26.087343942186862],[9.992939337491293,26.562913155834963],[10.059264156102984,27.782311877438474],[9.771856608785697,28.153310075838135],[9.904506246009134,29.335696469339894],[9.462340788597999,30.046298499320528],[9.241258059744553,29.91224628472162],[6.168208130552216,28.44529898869746],[6.544048769684593,27.821424319018718],[6.013450220791299,27.07589456763668],[7.406271411455464,24.669187131334752],[8.843309148153935,23.98425242602906],[11.76160116678426,24.04483630865434]]]},"properties":{"shapeName":"Illizi","shapeISO":"","shapeID":"36490775B68275827628824","shapeGroup":"DZA","shapeType":"ADM2"}},
{"type":"Feature","geometry":{"type":"Polygon","coordinates":[[[2.299260378178815,28.949505756587882],[2.144502468443989,31.62183448429772],[0.7370898170239,30.73929856845217],[-0.397948911670028,28.83336615542163],[-1.547579101129088,28.755867654027554],[-1.989744558350026,28.23125208432225],[-3.073049929192393,28.503600477765588],[-2.365585197375992,27.21360688514244],[-5.50495994486738,25.490156448742653],[-4.001597389570577,24.286885617386474],[0.818006096210638,21.455830030125867],[1.812878375385594,20.112348245850853],[3.22780783910116,19.925395948475796],[3.515215386418447,19.008252608983923],[3.96853767694364,19.02640905935857],[4.001597389570634,19.38407408330272],[4.045813935103013,20.816584648990556],[1.569687373809586,22.29698631987992],[1.702337010792917,25.490156448742653],[1.193846734771739,26.20641915224917],[2.564559652984542,26.79996228893083],[2.652992744466758,28.406413463151296],[2.299260378178815,28.949505756587882]]]},"properties":{"shapeName":"Adrar","shapeISO":"","shapeID":"36490775B95529317550299","shapeGroup":"DZA","shapeType":"ADM2"}},
{"type":"Feature","geometry":{"type":"Polygon","coordinates":[[[-3.073049929192393,28.503600477765588],[-4.532195938463985,28.211771911129347],[-4.952253123004482,29.585939664132127],[-5.792367492085589,29.83556386520661],[-6.101883312273458,29.816384052751175],[-5.571284763380049,29.393499669925916],[-7.074647318577888,29.566712122630236],[-8.79909260248121,28.36751365894861],[-8.600118146646196,27.233266209438398],[-5.50495994486738,25.490156448742653],[-2.365585197375992,27.21360688514244],[-3.073049929192393,28.503600477765588]]]},"properties":{"shapeName":"Tindouf","shapeISO":"","shapeID":"36490775B87141122001231","shapeGroup":"DZA","shapeType":"ADM2"}},
{"type":"Feature","geometry":{"type":"Polygon","coordinates":[[[6.168208130552216,28.44529898869746],[9.241258059744553,29.91224628472162],[9.550773880080214,30.35049621274436],[8.984802094157942,32.03282903199164],[6.791661425834832,32.05681585797771],[6.353033292082955,33.425405478386494],[5.065447479877321,33.5080294795232],[4.974144484708688,33.465725140401275],[5.107895363588568,32.809169532248006],[4.765252985800089,32.68179979806183],[4.004250382315035,30.959091287933575],[4.174041917960949,29.738092294914736],[3.183591293360053,29.123471160230793],[5.107011033098502,28.309137208166817],[6.168208130552216,28.44529898869746]]]},"properties":{"shapeName":"Ouargla","shapeISO":"","shapeID":"36490775B42004320768134","shapeGroup":"DZA","shapeType":"ADM2"}},
{"type":"Feature","geometry":{"type":"Polygon","coordinates":[[[3.183591293360053,29.123471160230793],[4.174041917960949,29.738092294914736],[4.004250382315035,30.959091287933575],[4.765252985800089,32.68179979806183],[4.157491724961972,33.03512892762893],[2.320484320493563,32.70207534257929],[2.144502468443989,31.62183448429772],[2.299260378178815,28.949505756587882],[3.183591293360053,29.123471160230793]]]},"properties":{"shapeName":"Ghardaia","shapeISO":"","shapeID":"36490775B41490887384384","shapeGroup":"DZA","shapeType":"ADM2"}},
{"type":"Feature","geometry":{"type":"Polygon","coordinates":[[[2.144502468443989,31.62183448429772],[2.320484320493563,32.70207534257929],[1.825259008193086,33.82598294658146],[1.321544119036901,34.011498594274485],[0.838835490491704,34.40867202087742],[0,34.00211510875897],[-0.094041382379658,32.135400481271574],[-0.268836598105906,31.274040604804384],[0.7370898170239,30.73929856845217],[2.144502468443989,31.62183448429772]]]},"properties":{"shapeName":"El Bayadh","shapeISO":"","shapeID":"36490775B27054778958819","shapeGroup":"DZA","shapeType":"ADM2"}},
{"type":"Feature","geometry":{"type":"Polygon","coordinates":[[[0,34.00211510875897],[-0.580121080123376,34.224692498288505],[-1.168165765250575,34.18958765270338],[-1.570571704724273,34.16617630099779],[-1.641318177910023,33.07041226361514],[-1.026869936716126,32.28369905695531],[-0.094041382379658,32.135400481271574],[0,34.00211510875897]]]},"properties":{"shapeName":"Naama","shapeISO":"","shapeID":"36490775B7492261845760","shapeGroup":"DZA","shapeType":"ADM2"}},
{"type":"Feature","geometry":{"type":"Polygon","coordinates":[[[0.7370898170239,30.73929856845217],[-0.268836598105906,31.274040604804384],[-0.094041382379658,32.135400481271574],[-1.026869936716126,32.28369905695531],[-3.721264489571979,31.72042933380817],[-3.282636355820159,31.01973957671254],[-5.146261176001076,29.82934080333598],[-4.952253123004482,29.585939664132127],[-4.532195938463985,28.211771911129347],[-3.073049929192393,28.503600477765588],[-1.989744558350026,28.23125208432225],[-1.547579101129088,28.755867654027554],[-0.397948911670028,28.83336615542163],[0.7370898170239,30.73929856845217]]]},"properties":{"shapeName":"Bechar","shapeISO":"","shapeID":"36490775B18897306401003","shapeGroup":"DZA","shapeType":"ADM2"}},
{"type":"Feature","geometry":{"type":"Polygon","coordinates":[[[8.984802094157942,32.03282903199164],[8.206590889550341,32.60677247712306],[7.371782505939962,34.01384430373139],[6.997705748898113,34.140099802411044],[6.613059951622517,34.27522660570054],[5.348433372783461,34.52832113087953],[5.054950910030815,33.676732413023394],[5.065447479877321,33.5080294795232],[6.353033292082955,33.425405478386494],[6.791661425834832,32.05681585797771],[8.984802094157942,32.03282903199164]]]},"properties":{"shapeName":"El Oued","shapeISO":"","shapeID":"36490775B42365063028147","shapeGroup":"DZA","shapeType":"ADM2"}},
{"type":"Feature","geometry":{"type":"Polygon","coordinates":[[[4.157491724961972,33.03512892762893],[3.05624764159063,34.23639086383537],[2.37708149861561,34.02557187850772],[2.15069278484782,34.55163154974775],[1.321544119036901,34.011498594274485],[1.825259008193086,33.82598294658146],[2.320484320493563,32.70207534257929],[4.157491724961972,33.03512892762893]]]},"properties":{"shapeName":"Laghouat","shapeISO":"","shapeID":"36490775B13873094912427","shapeGroup":"DZA","shapeType":"ADM2"}},
{"type":"Feature","geometry":{"type":"Polygon","coordinates":[[[7.371782505939962,34.01384430373139],[8.220740184187434,34.644807918877405],[8.206590889550341,35.94969392123551],[7.782112050435728,35.74324739408121],[7.301036032488867,35.31720087297862],[6.997705748898113,34.140099802411044],[7.371782505939962,34.01384430373139]]]},"properties":{"shapeName":"Tebessa","shapeISO":"","shapeID":"36490775B19355468947369","shapeGroup":"DZA","shapeType":"ADM2"}},
{"type":"Feature","geometry":{"type":"Polygon","coordinates":[[[7.301036032488867,35.31720087297862],[7.244438853907639,35.60531809455267],[6.608319068456126,35.59386189557051],[6.353033292082955,34.92370898396479],[6.613059951622517,34.27522660570054],[6.997705748898113,34.140099802411044],[7.301036032488867,35.31720087297862]]]},"properties":{"shapeName":"Khenchela","shapeISO":"","shapeID":"36490775B14639703542833","shapeGroup":"DZA","shapeType":"ADM2"}},
{"type":"Feature","geometry":{"type":"Polygon","coordinates":[[[6.613059951622517,34.27522660570054],[6.353033292082955,34.92370898396479],[5.928554452567425,35.29410694496357],[5.461627729942052,34.993286770615725],[5.207914450926,34.9816945754111],[5.114403331601085,34.98169457576778],[4.227373875057197,34.34340034032164],[4.315534864332506,33.95518213324891],[5.054950910030815,33.676732413023394],[5.348433372783461,34.52832113087953],[6.613059951622517,34.27522660570054]]]},"properties":{"shapeName":"Biskra","shapeISO":"","shapeID":"36490775B97163697030434","shapeGroup":"DZA","shapeType":"ADM2"}},
{"type":"Feature","geometry":{"type":"Polygon","coordinates":[[[8.206590889550341,35.94969392123551],[8.160135925225461,36.490777457983086],[7.849225422012182,36.48014517654275],[7.73998834579703,36.3223298813424],[7.256029956155771,36.051562400697264],[7.782112050435728,35.74324739408121],[8.206590889550341,35.94969392123551]]]},"properties":{"shapeName":"Souk Ahras","shapeISO":"","shapeID":"36490775B90060059089153","shapeGroup":"DZA","shapeType":"ADM2"}},
{"type":"Feature","geometry":{"type":"Polygon","coordinates":[[[8.160135925225461,36.490777457983086],[8.594802256651121,36.89044348306652],[7.725469594144215,36.94604553845983],[7.849225422012182,36.48014517654275],[8.160135925225461,36.490777457983086]]]},"properties":{"shapeName":"El Tarf","shapeISO":"","shapeID":"36490775B63168905365960","shapeGroup":"DZA","shapeType":"ADM2"}},
{"type":"Feature","geometry":{"type":"Polygon","coordinates":[[[7.725469594144215,36.94604553845983],[7.182618630677689,37.145463953873545],[7.37206649044442,36.72269259165359],[7.73998834579703,36.3223298813424],[7.849225422012182,36.48014517654275],[7.725469594144215,36.94604553845983]]]},"properties":{"shapeName":"Annaba","shapeISO":"","shapeID":"36490775B48515357638448","shapeGroup":"DZA","shapeType":"ADM2"}},
{"type":"Feature","geometry":{"type":"Polygon","coordinates":[[[-1.168165765250575,34.18958765270338],[-0.878388211293441,34.49707493699003],[-1.030913018755314,35.10428054941019],[-1.36738783401978,35.247437107256246],[-2.218609399106015,35.06234219778497],[-1.593776547929167,34.5865849364821],[-1.570571704724273,34.16617630099779],[-1.168165765250575,34.18958765270338]]]},"properties":{"shapeName":"Tlemcen","shapeISO":"","shapeID":"36490775B64322477685939","shapeGroup":"DZA","shapeType":"ADM2"}},
{"type":"Feature","geometry":{"type":"Polygon","coordinates":[[[-0.580121080123376,34.224692498288505],[-0.045277743044664,34.52692229796088],[-0.226388714324912,35.10680337294889],[-0.537145828407006,35.40627389926249],[-0.824054919667958,35.31396811986434],[-1.030913018755314,35.10428054941019],[-0.878388211293441,34.49707493699003],[-1.168165765250575,34.18958765270338],[-0.580121080123376,34.224692498288505]]]},"properties":{"shapeName":"Sidi Bel Abbes","shapeISO":"","shapeID":"36490775B43659847849640","shapeGroup":"DZA","shapeType":"ADM2"}},
{"type":"Feature","geometry":{"type":"Polygon","coordinates":[[[0.838835490491704,34.40867202087742],[0.51556011600735,35.006799363503546],[-0.226388714324912,35.10680337294889],[-0.045277743044664,34.52692229796088],[-0.580121080123376,34.224692498288505],[0,34.00211510875897],[0.838835490491704,34.40867202087742]]]},"properties":{"shapeName":"Saiida","shapeISO":"","shapeID":"36490775B9410454638084","shapeGroup":"DZA","shapeType":"ADM2"}},
{"type":"Feature","geometry":{"type":"Polygon","coordinates":[[[1.321544119036901,34.011498594274485],[2.15069278484782,34.55163154974775],[2.571775792899132,35.10680337294889],[2.258369668272167,35.43089753945799],[2.169622503470805,35.49848943479509],[1.062769634091751,35.54582262735897],[0.724443885121389,35.50586149805844],[0.51556011600735,35.006799363503546],[0.838835490491704,34.40867202087742],[1.321544119036901,34.011498594274485]]]},"properties":{"shapeName":"Tiaret","shapeISO":"","shapeID":"36490775B5727174836797","shapeGroup":"DZA","shapeType":"ADM2"}},
{"type":"Feature","geometry":{"type":"Polygon","coordinates":[[[7.73998834579703,36.3223298813424],[7.37206649044442,36.72269259165359],[6.902124219440111,36.46697324528145],[6.896705789157181,36.16393719713028],[7.256029956155771,36.051562400697264],[7.73998834579703,36.3223298813424]]]},"properties":{"shapeName":"Guelma","shapeISO":"","shapeID":"36490775B69018704066523","shapeGroup":"DZA","shapeType":"ADM2"}},
{"type":"Feature","geometry":{"type":"Polygon","coordinates":[[[7.782112050435728,35.74324739408121],[7.256029956155771,36.051562400697264],[6.896705789157181,36.16393719713028],[6.386697293830537,36.10776989496844],[6.340332884837949,35.84512480875429],[6.608319068456126,35.59386189557051],[7.244438853907639,35.60531809455267],[7.301036032488867,35.31720087297862],[7.782112050435728,35.74324739408121]]]},"properties":{"shapeName":"Oum el Bouaghi","shapeISO":"","shapeID":"36490775B90091369499278","shapeGroup":"DZA","shapeType":"ADM2"}},
{"type":"Feature","geometry":{"type":"Polygon","coordinates":[[[7.182618630677689,37.145463953873545],[6.592439357343665,36.966596446008],[6.329828448878118,37.226619768726096],[6.083832108436106,36.981779944883826],[6.391198094358155,36.73835854506719],[6.902124219440111,36.46697324528145],[7.37206649044442,36.72269259165359],[7.182618630677689,37.145463953873545]]]},"properties":{"shapeName":"Skikda","shapeISO":"","shapeID":"36490775B47942541761224","shapeGroup":"DZA","shapeType":"ADM2"}},
{"type":"Feature","geometry":{"type":"Polygon","coordinates":[[[6.902124219440111,36.46697324528145],[6.391198094358155,36.73835854506719],[6.253788846978978,36.546528700356134],[6.386697293830537,36.10776989496844],[6.896705789157181,36.16393719713028],[6.902124219440111,36.46697324528145]]]},"properties":{"shapeName":"Constantine","shapeISO":"","shapeID":"36490775B54092318429642","shapeGroup":"DZA","shapeType":"ADM2"}},
{"type":"Feature","geometry":{"type":"Polygon","coordinates":[[[6.083832108436106,36.981779944883826],[5.252218168925765,36.66210969212682],[5.252218168925765,36.55307116665324],[5.327629030403784,36.52710482186188],[5.399541374261617,36.510198936655286],[6.253788846978978,36.546528700356134],[6.391198094358155,36.73835854506719],[6.083832108436106,36.981779944883826]]]},"properties":{"shapeName":"Jijel","shapeISO":"","shapeID":"36490775B16277830502614","shapeGroup":"DZA","shapeType":"ADM2"}},
{"type":"Feature","geometry":{"type":"Polygon","coordinates":[[[6.386697293830537,36.10776989496844],[6.253788846978978,36.546528700356134],[5.399541374261617,36.510198936655286],[5.95855095759913,36.33453210528535],[5.942365386996695,35.87841164888825],[6.340332884837949,35.84512480875429],[6.386697293830537,36.10776989496844]]]},"properties":{"shapeName":"Mila","shapeISO":"","shapeID":"36490775B14634376840278","shapeGroup":"DZA","shapeType":"ADM2"}},
{"type":"Feature","geometry":{"type":"Polygon","coordinates":[[[6.608319068456126,35.59386189557051],[6.340332884837949,35.84512480875429],[5.942365386996695,35.87841164888825],[5.298742088170343,35.64242636493469],[4.781329643787728,35.25483214075348],[5.114403331601085,34.98169457576778],[5.207914450926,34.9816945754111],[5.461627729942052,34.993286770615725],[5.928554452567425,35.29410694496357],[6.353033292082955,34.92370898396479],[6.608319068456126,35.59386189557051]]]},"properties":{"shapeName":"Batna","shapeISO":"","shapeID":"36490775B46994264786465","shapeGroup":"DZA","shapeType":"ADM2"}},
{"type":"Feature","geometry":{"type":"Polygon","coordinates":[[[5.327629030403784,36.52710482186188],[5.252218168925765,36.55307116665324],[5.151941203687727,36.419662907592965],[5.113076182292389,35.83083222290344],[5.298742088170343,35.64242636493469],[5.942365386996695,35.87841164888825],[5.95855095759913,36.33453210528535],[5.399541374261617,36.510198936655286],[5.327629030403784,36.52710482186188]]]},"properties":{"shapeName":"Satif","shapeISO":"","shapeID":"36490775B12691773120896","shapeGroup":"DZA","shapeType":"ADM2"}},
{"type":"Feature","geometry":{"type":"Polygon","coordinates":[[[4.974144484708688,33.465725140401275],[5.065447479877321,33.5080294795232],[5.054950910030815,33.676732413023394],[4.315534864332506,33.95518213324891],[4.227373875057197,34.34340034032164],[3.278706855131361,35.696375264732865],[2.258369668272167,35.43089753945799],[2.571775792899132,35.10680337294889],[2.15069278484782,34.55163154974775],[2.37708149861561,34.02557187850772],[3.05624764159063,34.23639086383537],[4.157491724961972,33.03512892762893],[4.765252985800089,32.68179979806183],[5.107895363588568,32.809169532248006],[4.974144484708688,33.465725140401275]]]},"properties":{"shapeName":"Djelfa","shapeISO":"","shapeID":"36490775B50694374774706","shapeGroup":"DZA","shapeType":"ADM2"}},
{"type":"Feature","geometry":{"type":"Polygon","coordinates":[[[3.7469022381228,36.52229941712659],[3.58371281569498,36.38173996898723],[3.611896101345621,35.954715334265416],[4.020120231180158,35.8468864983563],[4.126400233296636,36.08570553885096],[4.304182545887727,36.394741502121406],[4.307595791023687,36.4024340813848],[3.7469022381228,36.52229941712659]]]},"properties":{"shapeName":"Bouira","shapeISO":"","shapeID":"36490775B29011852559855","shapeGroup":"DZA","shapeType":"ADM2"}},
{"type":"Feature","geometry":{"type":"Polygon","coordinates":[[[5.114403331601085,34.98169457576778],[4.781329643787728,35.25483214075348],[5.298742088170343,35.64242636493469],[5.113076182292389,35.83083222290344],[4.126400233296636,36.08570553885096],[4.020120231180158,35.8468864983563],[3.611896101345621,35.954715334265416],[3.278706855131361,35.696375264732865],[4.227373875057197,34.34340034032164],[5.114403331601085,34.98169457576778]]]},"properties":{"shapeName":"M'Sila","shapeISO":"","shapeID":"36490775B29963076805186","shapeGroup":"DZA","shapeType":"ADM2"}},
{"type":"Feature","geometry":{"type":"Polygon","coordinates":[[[5.151941203687727,36.419662907592965],[4.304182545887727,36.394741502121406],[4.126400233296636,36.08570553885096],[5.113076182292389,35.83083222290344],[5.151941203687727,36.419662907592965]]]},"properties":{"shapeName":"Bordj Bou Arreidj","shapeISO":"","shapeID":"36490775B99806205813756","shapeGroup":"DZA","shapeType":"ADM2"}},
{"type":"Feature","geometry":{"type":"Polygon","coordinates":[[[5.252218168925765,36.66210969212682],[4.509634208911962,36.881636107082954],[4.307595791023687,36.4024340813848],[4.304182545887727,36.394741502121406],[5.151941203687727,36.419662907592965],[5.252218168925765,36.55307116665324],[5.252218168925765,36.66210969212682]]]},"properties":{"shapeName":"Bejaia","shapeISO":"","shapeID":"36490775B3078342421007","shapeGroup":"DZA","shapeType":"ADM2"}},
{"type":"Feature","geometry":{"type":"Polygon","coordinates":[[[4.307595791023687,36.4024340813848],[4.509634208911962,36.881636107082954],[3.901912722395764,36.886178985825325],[3.759921720852901,36.599450276980065],[3.7469022381228,36.52229941712659],[4.307595791023687,36.4024340813848]]]},"properties":{"shapeName":"Tizi Ouzou","shapeISO":"","shapeID":"36490775B68584110438360","shapeGroup":"DZA","shapeType":"ADM2"}},
{"type":"Feature","geometry":{"type":"Polygon","coordinates":[[[3.901912722395764,36.886178985825325],[3.436182237038452,36.79527007451395],[3.462579512395694,36.682947188850484],[3.480327422800485,36.65981881756852],[3.759921720852901,36.599450276980065],[3.901912722395764,36.886178985825325]]]},"properties":{"shapeName":"Boumerdes","shapeISO":"","shapeID":"36490775B97209406002517","shapeGroup":"DZA","shapeType":"ADM2"}},
{"type":"Feature","geometry":{"type":"Polygon","coordinates":[[[3.436182237038452,36.79527007451395],[2.731906869433658,36.65870420867674],[3.462579512395694,36.682947188850484],[3.436182237038452,36.79527007451395]]]},"properties":{"shapeName":"Alger","shapeISO":"","shapeID":"36490775B81957653037358","shapeGroup":"DZA","shapeType":"ADM2"}},
{"type":"Feature","geometry":{"type":"Polygon","coordinates":[[[3.7469022381228,36.52229941712659],[3.759921720852901,36.599450276980065],[3.480327422800485,36.65981881756852],[3.462579512395694,36.682947188850484],[2.731906869433658,36.65870420867674],[2.561517667463477,36.48537242565686],[2.544478747445964,36.407703382367],[3.58371281569498,36.38173996898723],[3.7469022381228,36.52229941712659]]]},"properties":{"shapeName":"Blida","shapeISO":"","shapeID":"36490775B16100765475664","shapeGroup":"DZA","shapeType":"ADM2"}},
{"type":"Feature","geometry":{"type":"Polygon","coordinates":[[[2.258369668272167,35.43089753945799],[3.278706855131361,35.696375264732865],[3.611896101345621,35.954715334265416],[3.58371281569498,36.38173996898723],[2.544478747445964,36.407703382367],[2.472546731236828,36.31198115213731],[2.368246070049452,35.86578651015407],[2.169622503470805,35.49848943479509],[2.258369668272167,35.43089753945799]]]},"properties":{"shapeName":"Medea","shapeISO":"","shapeID":"36490775B97581499962095","shapeGroup":"DZA","shapeType":"ADM2"}},
{"type":"Feature","geometry":{"type":"Polygon","coordinates":[[[2.169622503470805,35.49848943479509],[2.368246070049452,35.86578651015407],[1.455407765813675,35.91878871261372],[1.304542326461842,35.83969268705323],[1.062769634091751,35.54582262735897],[2.169622503470805,35.49848943479509]]]},"properties":{"shapeName":"Tissemsilt","shapeISO":"","shapeID":"36490775B92839772729300","shapeGroup":"DZA","shapeType":"ADM2"}},
{"type":"Feature","geometry":{"type":"Polygon","coordinates":[[[2.472546731236828,36.31198115213731],[1.659519830531451,36.37741424917414],[1.455407765813675,35.91878871261372],[2.368246070049452,35.86578651015407],[2.472546731236828,36.31198115213731]]]},"properties":{"shapeName":"Ain Defla","shapeISO":"","shapeID":"36490775B64365182759254","shapeGroup":"DZA","shapeType":"ADM2"}},
{"type":"Feature","geometry":{"type":"Polygon","coordinates":[[[2.561517667463477,36.48537242565686],[1.624022080145551,36.527315598463076],[1.659519830531451,36.37741424917414],[2.472546731236828,36.31198115213731],[2.544478747445964,36.407703382367],[2.561517667463477,36.48537242565686]]]},"properties":{"shapeName":"Tipaza","shapeISO":"","shapeID":"36490775B58529694884514","shapeGroup":"DZA","shapeType":"ADM2"}},
{"type":"Feature","geometry":{"type":"Polygon","coordinates":[[[1.455407765813675,35.91878871261372],[1.659519830531451,36.37741424917414],[1.624022080145551,36.527315598463076],[0.684785919758665,36.35738197484461],[0.690750795893652,36.30452308622447],[1.304542326461842,35.83969268705323],[1.455407765813675,35.91878871261372]]]},"properties":{"shapeName":"Chlef","shapeISO":"","shapeID":"36490775B79919789274360","shapeGroup":"DZA","shapeType":"ADM2"}},
{"type":"Feature","geometry":{"type":"Polygon","coordinates":[[[1.062769634091751,35.54582262735897],[1.304542326461842,35.83969268705323],[0.690750795893652,36.30452308622447],[0.257358690296428,35.796516121972786],[0.724443885121389,35.50586149805844],[1.062769634091751,35.54582262735897]]]},"properties":{"shapeName":"Relizane","shapeISO":"","shapeID":"36490775B46705477223941","shapeGroup":"DZA","shapeType":"ADM2"}},
{"type":"Feature","geometry":{"type":"Polygon","coordinates":[[[0.684785919758665,36.35738197484461],[-0.292856441110928,35.71009257515624],[0.257358690296428,35.796516121972786],[0.690750795893652,36.30452308622447],[0.684785919758665,36.35738197484461]]]},"properties":{"shapeName":"Mostaganem","shapeISO":"","shapeID":"36490775B73460395582618","shapeGroup":"DZA","shapeType":"ADM2"}},
{"type":"Feature","geometry":{"type":"Polygon","coordinates":[[[-0.226388714324912,35.10680337294889],[0.51556011600735,35.006799363503546],[0.724443885121389,35.50586149805844],[0.257358690296428,35.796516121972786],[-0.292856441110928,35.71009257515624],[-0.537145828407006,35.40627389926249],[-0.226388714324912,35.10680337294889]]]},"properties":{"shapeName":"Mascara","shapeISO":"","shapeID":"36490775B69031995981385","shapeGroup":"DZA","shapeType":"ADM2"}},
{"type":"Feature","geometry":{"type":"Polygon","coordinates":[[[-0.537145828407006,35.40627389926249],[-0.292856441110928,35.71009257515624],[-0.399349691839063,35.925975343260745],[-1.029434761185144,35.60914654634951],[-0.824054919667958,35.31396811986434],[-0.537145828407006,35.40627389926249]]]},"properties":{"shapeName":"Tamanghasset","shapeISO":"","shapeID":"36490775B87391532441623","shapeGroup":"DZA","shapeType":"ADM2"}},
{"type":"Feature","geometry":{"type":"Polygon","coordinates":[[[-1.030913018755314,35.10428054941019],[-0.824054919667958,35.31396811986434],[-1.029434761185144,35.60914654634951],[-1.36738783401978,35.247437107256246],[-1.030913018755314,35.10428054941019]]]},"properties":{"shapeName":"Ain Temouchent","shapeISO":"","shapeID":"36490775B12243761149344","shapeGroup":"DZA","shapeType":"ADM2"}}
]}