{"type":"FeatureCollection", "features": [
{"type":"Feature","geometry":{"type":"Polygon","coordinates":[[[10.82319816420248,0.261793645057793],[10.871348317171169,0.475546404742829],[10.960962983754769,0.645855563983162],[10.982252656135245,0.770860920994778],[10.96616162455939,0.840416805591133],[10.422037211348254,0.651548947925676],[10.40772547674942,0.627382962154002],[10.337714018087524,0.621194471747515],[10.156303112198941,0.462225333632261],[9.957438055222099,0.510629813015498],[9.844307316829259,0.189587125645403],[9.955091254557829,0.217641446295772],[10.044361351295379,0.200303981343723],[9.923367171158077,0.190713034578948],[9.839839608111447,0.125942945310726],[9.85290981063929,-0.041094014477153],[9.909847306707888,-0.194082221217514],[9.788564524233436,-0.348410076963432],[9.846968506991061,-0.366377909113169],[9.93088942450737,-0.287904472113667],[9.997976647604276,-0.315135071326438],[10.035604905242224,-0.403510218521717],[10.21316324768577,-0.310215000921517],[10.560126110531598,-0.022821414676514],[10.559352502915715,0.03829355730187],[10.657600626967394,0.109465363535719],[10.679246158383535,0.230224905155296],[10.82319816420248,0.261793645057793]]]},"properties":{"shapeName":"Komo","shapeISO":"","shapeID":"22940354B49823101443356","shapeGroup":"GAB","shapeType":"ADM2"}},
{"type":"Feature","geometry":{"type":"Polygon","coordinates":[[[11.919627661987079,2.275042305957697],[11.767952953765871,2.273385570387802],[11.676587592243663,2.311365030371917],[11.369141566030521,2.28878167423494],[11.334678935484533,1.825094132987886],[11.71388219780522,1.849262836510718],[11.924566639738657,2.161151669214235],[11.919627661987079,2.275042305957697]]]},"properties":{"shapeName":"Ntem","shapeISO":"","shapeID":"22940354B82512793469031","shapeGroup":"GAB","shapeType":"ADM2"}},
{"type":"Feature","geometry":{"type":"Polygon","coordinates":[[[11.71388219780522,1.849262836510718],[11.793280282658941,1.769043311799464],[11.818327848651336,1.616607079253356],[11.874029437008971,1.614025912565864],[11.935264295810669,1.660486407521717],[12.002770195588084,1.622506876491229],[12.067325016836094,1.626194240771667],[12.215591285509447,1.688546249110175],[12.476049259166018,1.620294454325631],[12.4716226422712,1.51557044082324],[12.353579540663304,1.240093511106693],[13.007612103915505,1.217596721011887],[13.150336198856564,1.234781392946957],[13.240658698440257,1.318897133296105],[13.225785267076446,1.416372948352944],[13.121671251127395,1.581104688530615],[13.14504378484287,1.748655073972543],[13.18612278523841,1.828413329211799],[13.160238293062832,1.902391845807074],[13.207531081794059,1.993298571072273],[13.293497742027228,2.07452298744596],[13.301568938855496,2.232338323255078],[13.277252059435057,2.267252147268835],[13.158736784974678,2.293436963545105],[13.053914510646223,2.249795339583329],[12.812398323224102,2.264893132012503],[12.744641581843553,2.240830951387352],[12.486599360771947,2.292493375069228],[12.38248534482284,2.282585656502874],[12.333379414028798,2.309713770773953],[12.197157673787672,2.272441968422129],[11.919627661987079,2.275042305957697],[11.924566639738657,2.161151669214235],[11.71388219780522,1.849262836510718]]]},"properties":{"shapeName":"Haut-Ntem","shapeISO":"","shapeID":"22940354B67631152101375","shapeGroup":"GAB","shapeType":"ADM2"}},
{"type":"Feature","geometry":{"type":"Polygon","coordinates":[[[11.334678935484533,1.825094132987886],[11.332829609199166,0.999989504811822],[11.38933640914803,0.981176167845945],[11.419489715977647,0.929666678374531],[11.460332629047628,0.93438777737407],[12.325684670711041,1.235460840645317],[12.353579540663304,1.240093511106693],[12.4716226422712,1.51557044082324],[12.476049259166018,1.620294454325631],[12.215591285509447,1.688546249110175],[12.067325016836094,1.626194240771667],[12.002770195588084,1.622506876491229],[11.935264295810669,1.660486407521717],[11.874029437008971,1.614025912565864],[11.818327848651336,1.616607079253356],[11.793280282658941,1.769043311799464],[11.71388219780522,1.849262836510718],[11.334678935484533,1.825094132987886]]]},"properties":{"shapeName":"Woleu","shapeISO":"","shapeID":"22940354B4497534497521","shapeGroup":"GAB","shapeType":"ADM2"}},
{"type":"Feature","geometry":{"type":"Polygon","coordinates":[[[13.942996518874281,0.309749803410739],[13.983385897541211,0.371360999710419],[14.073806914257716,0.425187351415161],[14.092693810371088,0.529297742197116],[14.265981084459554,0.545114822291282],[14.355221669944171,0.620186347921674],[14.36915075560296,0.695256809654097],[14.481306458925985,0.818158446455186],[14.47097768677088,0.871640910000053],[14.499381808623639,0.914426336206475],[14.416013868045638,0.991881397108841],[14.378018743670111,1.083718608626953],[14.320841616047801,1.117280924275292],[14.287464929462999,1.31063629193136],[14.210500826452005,1.375306139167037],[14.076167775822228,1.371293826449005],[14.016674052165797,1.409056500357281],[13.797255533915802,1.424680629107797],[13.762956929818529,1.364411514479855],[13.594408524433902,1.315234595700076],[13.591187690659467,1.123919579325161],[13.435149465575421,0.981922988255349],[13.368381334531023,0.962374913271674],[13.311204206908656,0.860944477006058],[13.394941033202144,0.68905999872004],[13.54922336706477,0.540865461771716],[13.676946004054912,0.47476392441564],[13.716136314839105,0.418341037508924],[13.942996518874281,0.309749803410739]]]},"properties":{"shapeName":"Zadiè","shapeISO":"","shapeID":"22940354B86386728493807","shapeGroup":"GAB","shapeType":"ADM2"}},
{"type":"Feature","geometry":{"type":"Polygon","coordinates":[[[12.353579540663304,1.240093511106693],[12.325684670711041,1.235460840645317],[12.196685501834509,1.009452383620669],[12.189366828916093,0.865931231241404],[12.166702553580024,0.741762134015346],[12.23351494925555,0.644265675020961],[12.21108676034578,0.56140401138606],[12.337628966103978,0.556918586023983],[12.524845326750494,0.470042360466607],[12.578436895146638,0.299119861792235],[12.639111049135636,0.271498119542628],[12.714186461635961,0.307382763503767],[12.778874082173218,0.246473237150212],[12.877558115714521,0.237738126613294],[12.920525804822091,0.278344540468197],[13.029361545698805,0.241279387933446],[13.070912717148246,0.209880166636424],[13.111047371838765,0.105530473452632],[13.275405087574768,0.058757341777948],[13.503186558013283,0.052883302022792],[13.696541159447008,0.013456913805555],[13.8417341757916,-0.068701068999076],[13.917869009447259,-0.068762819148731],[13.958227961351383,0.036888466429616],[13.920601722691401,0.050906081350604],[13.893673140103374,0.203033710637271],[13.942996518874281,0.309749803410739],[13.716136314839105,0.418341037508924],[13.676946004054912,0.47476392441564],[13.54922336706477,0.540865461771716],[13.394941033202144,0.68905999872004],[13.311204206908656,0.860944477006058],[13.368381334531023,0.962374913271674],[13.435149465575421,0.981922988255349],[13.591187690659467,1.123919579325161],[13.594408524433902,1.315234595700076],[13.499409177891323,1.265319194125539],[13.359882231279983,1.27759265397782],[13.259545594553572,1.208199644697913],[13.176915422708646,1.207727577066066],[13.150336198856564,1.234781392946957],[13.007612103915505,1.217596721011887],[12.353579540663304,1.240093511106693]]]},"properties":{"shapeName":"Ivindo","shapeISO":"","shapeID":"22940354B21315660080276","shapeGroup":"GAB","shapeType":"ADM2"}},
{"type":"Feature","geometry":{"type":"Polygon","coordinates":[[[10.82319816420248,0.261793645057793],[11.5670056856639,0.260782731537859],[11.455626041508651,0.375963011383931],[11.82373837332733,0.622675752284181],[12.189366828916093,0.865931231241404],[12.196685501834509,1.009452383620669],[12.325684670711041,1.235460840645317],[11.460332629047628,0.93438777737407],[11.419489715977647,0.929666678374531],[11.38933640914803,0.981176167845945],[11.332829609199166,0.999989504811822],[10.998200766552202,0.998456058200588],[10.96616162455939,0.840416805591133],[10.982252656135245,0.770860920994778],[10.960962983754769,0.645855563983162],[10.871348317171169,0.475546404742829],[10.82319816420248,0.261793645057793]]]},"properties":{"shapeName":"Okano","shapeISO":"","shapeID":"22940354B24104320747688","shapeGroup":"GAB","shapeType":"ADM2"}},
{"type":"Feature","geometry":{"type":"Polygon","coordinates":[[[12.189366828916093,0.865931231241404],[11.82373837332733,0.622675752284181],[11.82765068682977,0.455247618882538],[11.895480571870962,0.251019284912104],[11.898698777826382,0.155463928017923],[11.986580564141775,0.034905158246488],[12.192793320555324,0.062631232645344],[12.338107710302666,0.17031712733359],[12.37276531746545,0.278497522342832],[12.578436895146638,0.299119861792235],[12.524845326750494,0.470042360466607],[12.337628966103978,0.556918586023983],[12.21108676034578,0.56140401138606],[12.23351494925555,0.644265675020961],[12.166702553580024,0.741762134015346],[12.189366828916093,0.865931231241404]]]},"properties":{"shapeName":"Mvoung","shapeISO":"","shapeID":"22940354B15845982668686","shapeGroup":"GAB","shapeType":"ADM2"}},
{"type":"Feature","geometry":{"type":"Polygon","coordinates":[[[10.96616162455939,0.840416805591133],[10.998200766552202,0.998456058200588],[10.429170507013339,0.998118998592986],[10.42896873242114,0.851555536858598],[10.378715203743695,0.756751577923012],[10.422037211348254,0.651548947925676],[10.96616162455939,0.840416805591133]]]},"properties":{"shapeName":"Haut-Komo","shapeISO":"","shapeID":"22940354B77871710228177","shapeGroup":"GAB","shapeType":"ADM2"}},
{"type":"Feature","geometry":{"type":"Polygon","coordinates":[[[10.429170507013339,0.998118998592986],[9.999903367746299,0.998121985241482],[9.993056867680366,0.950203414056375],[9.956227419359948,0.927306126176802],[9.854002093022245,1.000010387069779],[9.794626412578907,1.002577432602493],[9.7595823667329,1.059007655279117],[9.668237293916036,1.060482941834323],[9.642300088878073,1.017837665076229],[9.584661855460297,1.008616988982908],[9.55065529810355,0.94407154316724],[9.610921834375233,0.759142489434396],[9.608608315821186,0.614933053517632],[9.848701388158588,0.626795056446724],[9.911843214392889,0.523724832335176],[9.957438055222099,0.510629813015498],[10.156303112198941,0.462225333632261],[10.337714018087524,0.621194471747515],[10.40772547674942,0.627382962154002],[10.422037211348254,0.651548947925676],[10.378715203743695,0.756751577923012],[10.42896873242114,0.851555536858598],[10.429170507013339,0.998118998592986]]]},"properties":{"shapeName":"Noya","shapeISO":"","shapeID":"22940354B97736756734811","shapeGroup":"GAB","shapeType":"ADM2"}},
{"type":"Feature","geometry":{"type":"Polygon","coordinates":[[[9.468440359435078,0.349913278674933],[9.505343535076122,0.381725949792781],[9.522672337758252,0.460198547724872],[9.46845794028178,0.484953137976959],[9.431819899169056,0.551294981378362],[9.372794939934579,0.501304609620092],[9.468440359435078,0.349913278674933]]]},"properties":{"shapeName":"Libreville","shapeISO":"","shapeID":"22940354B47630022104782","shapeGroup":"GAB","shapeType":"ADM2"}},
{"type":"Feature","geometry":{"type":"Polygon","coordinates":[[[9.957438055222099,0.510629813015498],[9.911843214392889,0.523724832335176],[9.848701388158588,0.626795056446724],[9.608608315821186,0.614933053517632],[9.599855294386373,0.509054181005695],[9.602068602384122,0.584672093342476],[9.561491286094054,0.570655187986574],[9.515749583276715,0.657706965703937],[9.333889429153885,0.620451929413036],[9.315814079456231,0.540408064780422],[9.372794939934579,0.501304609620092],[9.431819899169056,0.551294981378362],[9.46845794028178,0.484953137976959],[9.522672337758252,0.460198547724872],[9.505343535076122,0.381725949792781],[9.468440359435078,0.349913278674933],[9.517594007357616,0.285884452005917],[9.580304405424044,0.309123874367344],[9.68211658051581,0.227601258091624],[9.844307316829259,0.189587125645403],[9.957438055222099,0.510629813015498]]]},"properties":{"shapeName":"Komo-Mondah","shapeISO":"","shapeID":"22940354B10433800471916","shapeGroup":"GAB","shapeType":"ADM2"}},
{"type":"Feature","geometry":{"type":"Polygon","coordinates":[[[11.5670056856639,0.260782731537859],[11.560787120129532,0.197547963068075],[11.31100480332907,0.059908136751176],[11.275356980540266,-0.02549809476119],[11.325610509217654,-0.070057858183588],[11.335512682564286,-0.221560571962755],[11.39269773231456,-0.292855494485423],[11.424384686304279,-0.43717670084402],[11.500383864423839,-0.518371690501056],[11.551132502263215,-0.679768237314249],[11.856242052928451,-0.578156025580085],[12.286103512766942,-0.427751107927236],[12.439991788889984,-0.374036461013816],[12.578436895146638,0.299119861792235],[12.37276531746545,0.278497522342832],[12.338107710302666,0.17031712733359],[12.192793320555324,0.062631232645344],[11.986580564141775,0.034905158246488],[11.898698777826382,0.155463928017923],[11.895480571870962,0.251019284912104],[11.82765068682977,0.455247618882538],[11.82373837332733,0.622675752284181],[11.455626041508651,0.375963011383931],[11.5670056856639,0.260782731537859]]]},"properties":{"shapeName":"Lopè","shapeISO":"","shapeID":"22940354B97125723234680","shapeGroup":"GAB","shapeType":"ADM2"}},
{"type":"Feature","geometry":{"type":"Polygon","coordinates":[[[12.578436895146638,0.299119861792235],[12.439991788889984,-0.374036461013816],[12.286103512766942,-0.427751107927236],[12.31497623356637,-0.442979204026983],[12.302301453049665,-0.48543832741683],[12.48563461754361,-0.586770861685864],[12.517832152631797,-0.7072447543419],[12.485402536697734,-0.905268510833082],[12.58260145499321,-1.02799638422573],[12.692598739540244,-1.0624403502419],[12.791112791322291,-1.245530478348826],[12.858803428035799,-1.286014102368881],[12.846111432696489,-1.328309738903272],[12.806222308213023,-1.58206755377455],[12.83583696160656,-1.662417960420498],[12.926203961443719,-1.506426579223216],[12.930071997724554,-1.444945200960206],[12.974167612945052,-1.407050185517619],[12.96947026863802,-1.367162309293064],[13.052965393138436,-1.359401203202935],[13.187476512231285,-1.234111421205057],[13.169414949140616,-1.077609768276147],[13.274244612299071,-1.129223408233656],[13.30647899351078,-1.093134862783643],[13.56059039573023,-0.72909713342591],[13.321904082507444,-0.251034757547984],[13.241681008172066,-0.190368927683835],[13.2062807399642,-0.080207575319321],[13.271387527312584,0.009902173446619],[13.275405087574768,0.058757341777948],[13.111047371838765,0.105530473452632],[13.070912717148246,0.209880166636424],[13.029361545698805,0.241279387933446],[12.920525804822091,0.278344540468197],[12.877558115714521,0.237738126613294],[12.778874082173218,0.246473237150212],[12.714186461635961,0.307382763503767],[12.639111049135636,0.271498119542628],[12.578436895146638,0.299119861792235]]]},"properties":{"shapeName":"Mouloundou","shapeISO":"","shapeID":"22940354B50404497002370","shapeGroup":"GAB","shapeType":"ADM2"}},
{"type":"Feature","geometry":{"type":"Polygon","coordinates":[[[11.856242052928451,-0.578156025580085],[11.975827424396186,-0.894640457790842],[12.075235958073051,-0.888452348696887],[12.14872865010716,-0.845522061493909],[12.200173534081387,-0.90624313401338],[12.16574801046238,-0.950719710146473],[12.147568238683334,-1.063262166915422],[12.033461166599636,-1.119725249020973],[12.129001663995666,-1.168066066295864],[12.16304038470605,-1.34711294050976],[12.163813992321934,-1.407436872413712],[12.058216598617207,-1.582985861408304],[12.130548878328113,-1.702459043350132],[12.225811974443104,-1.791646911475709],[12.443851263624992,-1.873134900255423],[12.452366861341602,-1.868999020688193],[12.47441731250899,-1.726454296428585],[12.530624715558247,-1.665438589819018],[12.549964897861798,-1.596567109984107],[12.450242085304069,-1.339185644202075],[12.846111432696489,-1.328309738903272],[12.858803428035799,-1.286014102368881],[12.791112791322291,-1.245530478348826],[12.692598739540244,-1.0624403502419],[12.58260145499321,-1.02799638422573],[12.485402536697734,-0.905268510833082],[12.517832152631797,-0.7072447543419],[12.48563461754361,-0.586770861685864],[12.302301453049665,-0.48543832741683],[12.31497623356637,-0.442979204026983],[12.286103512766942,-0.427751107927236],[11.856242052928451,-0.578156025580085]]]},"properties":{"shapeName":"Lolo-Bouenguidi","shapeISO":"","shapeID":"22940354B13456808053161","shapeGroup":"GAB","shapeType":"ADM2"}},
{"type":"Feature","geometry":{"type":"Polygon","coordinates":[[[12.846111432696489,-1.328309738903272],[12.450242085304069,-1.339185644202075],[12.549964897861798,-1.596567109984107],[12.530624715558247,-1.665438589819018],[12.47441731250899,-1.726454296428585],[12.452366861341602,-1.868999020688193],[12.520359688249073,-1.901797236353332],[12.564035635736047,-1.859796532483927],[12.732365099369872,-1.864515762692236],[12.805516653370887,-1.90495086558991],[12.833593499340566,-1.707983051676422],[12.83583696160656,-1.662417960420498],[12.806222308213023,-1.58206755377455],[12.846111432696489,-1.328309738903272]]]},"properties":{"shapeName":"Lombo-Bouenguidi","shapeISO":"","shapeID":"22940354B47016566751071","shapeGroup":"GAB","shapeType":"ADM2"}},
{"type":"Feature","geometry":{"type":"Polygon","coordinates":[[[12.805516653370887,-1.90495086558991],[12.877085942862038,-1.933886975103746],[12.966798701199139,-2.185863907493285],[13.010238562259872,-2.177842795708386],[13.031250234410834,-2.206152409605977],[13.059816665007133,-2.26442132858142],[13.022987217586092,-2.338020816007827],[13.087202665270809,-2.319621301182053],[13.16747197465196,-2.368214368398355],[13.286577129730802,-2.386115767628553],[13.359424035690722,-2.233611843112044],[13.442586817527683,-2.184910813183421],[13.475851930622127,-2.027201581187967],[13.343565086759384,-1.97462836280863],[13.35400878507744,-1.772051691332422],[13.254600249601879,-1.792155750587369],[13.135077925106202,-1.697046174141576],[13.020584049214563,-1.663408727330875],[12.833593499340566,-1.707983051676422],[12.805516653370887,-1.90495086558991]]]},"properties":{"shapeName":"Lèkoko","shapeISO":"","shapeID":"22940354B44244492121045","shapeGroup":"GAB","shapeType":"ADM2"}},
{"type":"Feature","geometry":{"type":"Polygon","coordinates":[[[13.286577129730802,-2.386115767628553],[13.494171015480049,-2.42764125084301],[13.61553408043352,-2.320387952541921],[13.74172860289275,-2.133955955402996],[13.632120599785878,-1.969216319177747],[13.527853811504258,-2.033974125505438],[13.531319572040672,-1.986225540576186],[13.475851930622127,-2.027201581187967],[13.442586817527683,-2.184910813183421],[13.359424035690722,-2.233611843112044],[13.286577129730802,-2.386115767628553]]]},"properties":{"shapeName":"Ogoouè-Lètili","shapeISO":"","shapeID":"22940354B99015789882932","shapeGroup":"GAB","shapeType":"ADM2"}},
{"type":"Feature","geometry":{"type":"Polygon","coordinates":[[[14.419530636329853,-0.966972335504806],[14.33649002469491,-0.958454709816976],[14.086899503609231,-1.077476484252315],[14.047160903153213,-1.126299647510677],[14.059784696606528,-1.174576363808114],[14.171711674454286,-1.432571386660129],[14.110596699777943,-1.612371509637399],[14.035169990502709,-1.705165470310135],[13.924930953800526,-1.772051691332422],[13.844475796820632,-1.738802190468675],[13.899788717075694,-1.893059286656694],[14.017763827238866,-1.993570378370237],[14.050642135626106,-2.079773090855383],[14.006159717497042,-2.308206309873242],[13.883148568451702,-2.381613746177379],[13.866759312692182,-2.426476620699418],[13.891784450492025,-2.449592125476158],[14.100012482390184,-2.471292032601184],[14.143216257923996,-2.353825335270983],[14.221124705740635,-2.303816398807726],[14.159742292472856,-2.192705410026576],[14.24402506750289,-2.075687898877391],[14.25464894679152,-1.92822412404405],[14.408341066387152,-1.833604574691321],[14.417548428017597,-1.674321101037947],[14.45461396186488,-1.627359447180709],[14.383315928587308,-1.560572907913297],[14.473028686025089,-1.488356103851061],[14.454141789911716,-1.443986430129598],[14.499942513436281,-1.348399915323796],[14.445406600234435,-1.291754266346288],[14.481999962128612,-1.179639416525788],[14.419530636329853,-0.966972335504806]]]},"properties":{"shapeName":"Plateaux","shapeISO":"","shapeID":"22940354B6249741247917","shapeGroup":"GAB","shapeType":"ADM2"}},
{"type":"Feature","geometry":{"type":"Polygon","coordinates":[[[14.059784696606528,-1.174576363808114],[14.004225699356596,-1.17270674162279],[13.93111981113043,-1.253530575675484],[13.872712463109735,-1.253143864497702],[13.869231229737522,-1.386942374291095],[13.82436200780046,-1.523053323452075],[13.745454065153012,-1.586465763783906],[13.753963746229942,-1.663408727330875],[13.844475796820632,-1.738802190468675],[13.924930953800526,-1.772051691332422],[14.035169990502709,-1.705165470310135],[14.110596699777943,-1.612371509637399],[14.171711674454286,-1.432571386660129],[14.059784696606528,-1.174576363808114]]]},"properties":{"shapeName":"Djouori-Agnili","shapeISO":"","shapeID":"22940354B21948278538135","shapeGroup":"GAB","shapeType":"ADM2"}},
{"type":"Feature","geometry":{"type":"Polygon","coordinates":[[[14.086899503609231,-1.077476484252315],[14.117805481837593,-0.996029228466057],[14.10719035205318,-0.944545312116418],[14.013555402959526,-0.917298128505763],[13.949547756224035,-0.951515488748782],[13.924435845537914,-0.935713762779869],[13.773922813187312,-1.0077417074138],[13.784815203958544,-1.130754761223216],[13.75758422792984,-1.169860461990709],[13.872712463109735,-1.253143864497702],[13.93111981113043,-1.253530575675484],[14.004225699356596,-1.17270674162279],[14.059784696606528,-1.174576363808114],[14.047160903153213,-1.126299647510677],[14.086899503609231,-1.077476484252315]]]},"properties":{"shapeName":"Lèkoni-Lèkori","shapeISO":"","shapeID":"22940354B21912666573849","shapeGroup":"GAB","shapeType":"ADM2"}},
{"type":"Feature","geometry":{"type":"Polygon","coordinates":[[[14.419530636329853,-0.966972335504806],[14.519301582402136,-0.589496852497689],[14.48573307492154,-0.512742881478744],[14.340131145835755,-0.416086805661507],[14.134916437243817,-0.716581782922901],[14.040014009738798,-0.804030067233782],[13.924435845537914,-0.935713762779869],[13.949547756224035,-0.951515488748782],[14.013555402959526,-0.917298128505763],[14.10719035205318,-0.944545312116418],[14.117805481837593,-0.996029228466057],[14.086899503609231,-1.077476484252315],[14.33649002469491,-0.958454709816976],[14.419530636329853,-0.966972335504806]]]},"properties":{"shapeName":"Djouè","shapeISO":"","shapeID":"22940354B62509297980866","shapeGroup":"GAB","shapeType":"ADM2"}},
{"type":"Feature","geometry":{"type":"Polygon","coordinates":[[[14.340131145835755,-0.416086805661507],[14.182140971029014,-0.424213523035633],[14.180892220999226,-0.372960486936847],[14.05910539999428,-0.360684274259825],[13.98756219893636,-0.494854949596174],[13.831196983054383,-0.659074107683864],[13.928634366482868,-0.769019282813588],[14.040014009738798,-0.804030067233782],[14.134916437243817,-0.716581782922901],[14.340131145835755,-0.416086805661507]]]},"properties":{"shapeName":"Bayi-Brikolo","shapeISO":"","shapeID":"22940354B11019670045233","shapeGroup":"GAB","shapeType":"ADM2"}},
{"type":"Feature","geometry":{"type":"Polygon","coordinates":[[[13.872712463109735,-1.253143864497702],[13.75758422792984,-1.169860461990709],[13.713736168189655,-1.168839512933118],[13.668464670508172,-1.083975732693887],[13.599644566243796,-1.128279699248651],[13.595683697444713,-1.189165608505959],[13.643956791272956,-1.258712498982618],[13.637906564436435,-1.557063662458006],[13.745454065153012,-1.586465763783906],[13.82436200780046,-1.523053323452075],[13.869231229737522,-1.386942374291095],[13.872712463109735,-1.253143864497702]]]},"properties":{"shapeName":"Lèkabi-Lèwolo","shapeISO":"","shapeID":"22940354B94372756375204","shapeGroup":"GAB","shapeType":"ADM2"}},
{"type":"Feature","geometry":{"type":"Polygon","coordinates":[[[12.83583696160656,-1.662417960420498],[12.833593499340566,-1.707983051676422],[13.020584049214563,-1.663408727330875],[13.135077925106202,-1.697046174141576],[13.254600249601879,-1.792155750587369],[13.35400878507744,-1.772051691332422],[13.38229186627666,-1.540839931417679],[13.334018772448417,-1.353748646682675],[13.369419041555545,-1.236932884944622],[13.274244612299071,-1.129223408233656],[13.169414949140616,-1.077609768276147],[13.187476512231285,-1.234111421205057],[13.052965393138436,-1.359401203202935],[12.96947026863802,-1.367162309293064],[12.974167612945052,-1.407050185517619],[12.930071997724554,-1.444945200960206],[12.926203961443719,-1.506426579223216],[12.83583696160656,-1.662417960420498]]]},"properties":{"shapeName":"Lèbombi-Leyou","shapeISO":"","shapeID":"22940354B21970441224980","shapeGroup":"GAB","shapeType":"ADM2"}},
{"type":"Feature","geometry":{"type":"Polygon","coordinates":[[[13.275405087574768,0.058757341777948],[13.271387527312584,0.009902173446619],[13.2062807399642,-0.080207575319321],[13.241681008172066,-0.190368927683835],[13.321904082507444,-0.251034757547984],[13.56059039573023,-0.72909713342591],[13.30647899351078,-1.093134862783643],[13.338149835246725,-1.113150835242777],[13.516853116278355,-1.094587705857919],[13.599644566243796,-1.128279699248651],[13.668464670508172,-1.083975732693887],[13.713736168189655,-1.168839512933118],[13.75758422792984,-1.169860461990709],[13.784815203958544,-1.130754761223216],[13.773922813187312,-1.0077417074138],[13.924435845537914,-0.935713762779869],[14.040014009738798,-0.804030067233782],[13.928634366482868,-0.769019282813588],[13.831196983054383,-0.659074107683864],[13.98756219893636,-0.494854949596174],[14.05910539999428,-0.360684274259825],[14.180892220999226,-0.372960486936847],[14.147937981952339,-0.280469291124859],[14.10520637927101,-0.246945405306178],[13.88703321521075,-0.227601257891706],[13.857153554992635,-0.155300266494066],[13.917869009447259,-0.068762819148731],[13.8417341757916,-0.068701068999076],[13.696541159447008,0.013456913805555],[13.503186558013283,0.052883302022792],[13.275405087574768,0.058757341777948]]]},"properties":{"shapeName":"Sèbè-Brikolo","shapeISO":"","shapeID":"22940354B60180935649619","shapeGroup":"GAB","shapeType":"ADM2"}},
{"type":"Feature","geometry":{"type":"Polygon","coordinates":[[[12.225811974443104,-1.791646911475709],[12.231504629035442,-1.872183163921818],[12.181606958494399,-1.969602894557909],[12.108501072066872,-2.032999994254283],[12.067113082602702,-2.020630020958663],[11.980855871201527,-2.110310152791271],[11.949911580055414,-2.234384862571289],[11.97972990021475,-2.343163069320156],[12.095023070158618,-2.438081643253213],[12.503346725670895,-2.421375824334802],[12.533433883766747,-2.212757909349989],[12.47291373867813,-2.091227031802021],[12.443851263624992,-1.873134900255423],[12.225811974443104,-1.791646911475709]]]},"properties":{"shapeName":"Louetsi-Bibaka","shapeISO":"","shapeID":"22940354B39129548134605","shapeGroup":"GAB","shapeType":"ADM2"}},
{"type":"Feature","geometry":{"type":"Polygon","coordinates":[[[11.721827405910119,-2.41886221741737],[11.74251230489898,-2.26100546602936],[11.647624538141997,-2.236244938453126],[11.659712151294798,-2.133574932437114],[11.613174838048394,-2.05082998281739],[11.625866833387704,-1.945127677800031],[11.55887336369312,-1.914327540569911],[11.47174975804495,-2.042978046999224],[11.388949605340088,-2.04841400720062],[11.468727855206396,-2.186456901564725],[11.608434605073,-2.325189938364929],[11.686728232521943,-2.357890694499929],[11.721827405910119,-2.41886221741737]]]},"properties":{"shapeName":"Louetsi-Wano","shapeISO":"","shapeID":"22940354B18924798450478","shapeGroup":"GAB","shapeType":"ADM2"}},
{"type":"Feature","geometry":{"type":"Polygon","coordinates":[[[12.058216598617207,-1.582985861408304],[12.024117923703272,-1.577493689082416],[11.911571604346136,-1.605427255063717],[11.831116447366185,-1.698716431917774],[11.605269539157973,-1.793702208589991],[11.562721139169298,-1.838548889919309],[11.55887336369312,-1.914327540569911],[11.625866833387704,-1.945127677800031],[11.613174838048394,-2.05082998281739],[11.659712151294798,-2.133574932437114],[11.647624538141997,-2.236244938453126],[11.74251230489898,-2.26100546602936],[11.721827405910119,-2.41886221741737],[11.773761965342487,-2.450030696959061],[11.856761022003639,-2.378622735051124],[11.97972990021475,-2.343163069320156],[11.949911580055414,-2.234384862571289],[11.980855871201527,-2.110310152791271],[12.067113082602702,-2.020630020958663],[12.108501072066872,-2.032999994254283],[12.181606958494399,-1.969602894557909],[12.231504629035442,-1.872183163921818],[12.225811974443104,-1.791646911475709],[12.130548878328113,-1.702459043350132],[12.058216598617207,-1.582985861408304]]]},"properties":{"shapeName":"Boumi-Louetsi","shapeISO":"","shapeID":"22940354B74910664495270","shapeGroup":"GAB","shapeType":"ADM2"}},
{"type":"Feature","geometry":{"type":"Polygon","coordinates":[[[11.551132502263215,-0.679768237314249],[11.550872808633244,-0.683232842221855],[11.494643698647849,-0.799883938992537],[11.551503833235358,-1.041218078451493],[11.65864844127259,-1.035803716368378],[11.74954729567122,-0.983593334864452],[11.753415332851375,-1.053980463727385],[11.794029714699604,-1.115857949284873],[12.016441806244416,-1.301482303965088],[12.040036827737481,-1.428704556370121],[12.024117923703272,-1.577493689082416],[12.058216598617207,-1.582985861408304],[12.163813992321934,-1.407436872413712],[12.16304038470605,-1.34711294050976],[12.129001663995666,-1.168066066295864],[12.033461166599636,-1.119725249020973],[12.147568238683334,-1.063262166915422],[12.16574801046238,-0.950719710146473],[12.200173534081387,-0.90624313401338],[12.14872865010716,-0.845522061493909],[12.075235958073051,-0.888452348696887],[11.975827424396186,-0.894640457790842],[11.856242052928451,-0.578156025580085],[11.551132502263215,-0.679768237314249]]]},"properties":{"shapeName":"Offouè-Onoyè","shapeISO":"","shapeID":"22940354B26580795617541","shapeGroup":"GAB","shapeType":"ADM2"}},
{"type":"Feature","geometry":{"type":"Polygon","coordinates":[[[11.55887336369312,-1.914327540569911],[11.562721139169298,-1.838548889919309],[11.605269539157973,-1.793702208589991],[11.831116447366185,-1.698716431917774],[11.911571604346136,-1.605427255063717],[12.024117923703272,-1.577493689082416],[12.040036827737481,-1.428704556370121],[12.016441806244416,-1.301482303965088],[11.794029714699604,-1.115857949284873],[11.753415332851375,-1.053980463727385],[11.74954729567122,-0.983593334864452],[11.65864844127259,-1.035803716368378],[11.551503833235358,-1.041218078451493],[11.494643698647849,-0.799883938992537],[11.550872808633244,-0.683232842221855],[11.431316207377108,-0.674074884847983],[11.27090100257925,-0.591396788131192],[11.183266770844853,-0.708606198417272],[11.192550057739027,-0.77358377117406],[11.14690722818608,-0.887292076667961],[11.216145079232092,-0.921713310520829],[11.217692294463859,-0.987847546327146],[11.262948320208864,-1.041218078451493],[11.23868843352443,-1.464410852179014],[11.227362385165975,-1.65180947482736],[11.353831702671016,-1.981524828308125],[11.388949605340088,-2.04841400720062],[11.47174975804495,-2.042978046999224],[11.55887336369312,-1.914327540569911]]]},"properties":{"shapeName":"Ogoulou","shapeISO":"","shapeID":"22940354B22341987955952","shapeGroup":"GAB","shapeType":"ADM2"}},
{"type":"Feature","geometry":{"type":"Polygon","coordinates":[[[11.472831863699582,-3.569777388615535],[11.394848360263666,-3.485270227339072],[11.295826628596103,-3.433146880424147],[11.274939232859367,-3.445888407723771],[11.156190515979574,-3.354763467360101],[11.00765791937755,-3.542023476602139],[11.001469060249008,-3.590666350071956],[10.91782225429364,-3.644967971894346],[10.971437754548788,-3.707007730222529],[11.002562401133957,-3.825486043446119],[11.198601560713485,-3.99105205770627],[11.24579574597692,-3.828936625225026],[11.247524893159323,-3.717360845226779],[11.356461154858437,-3.597142285388088],[11.472831863699582,-3.569777388615535]]]},"properties":{"shapeName":"Haute-Banio","shapeISO":"","shapeID":"22940354B88632619890778","shapeGroup":"GAB","shapeType":"ADM2"}},
{"type":"Feature","geometry":{"type":"Polygon","coordinates":[[[11.156190515979574,-3.354763467360101],[11.035724390768053,-3.293380612525198],[10.96897755566971,-3.182143555880373],[10.90554175904498,-3.171715907762859],[10.812445903155947,-3.09987816074846],[10.78272386711285,-3.077599738636991],[10.761186641050699,-2.966602444846899],[10.619585565521504,-2.80095114248121],[10.553736114430194,-2.841995344509485],[10.501749704585222,-2.967344112141006],[10.451991285969143,-3.007393413075533],[10.411144821476398,-3.007640626813441],[10.361138847379948,-2.948555049675747],[10.304640906652594,-2.979646293641508],[10.643476205862271,-3.318105992797257],[10.6578857642167,-3.440086579931688],[10.91782225429364,-3.644967971894346],[11.001469060249008,-3.590666350071956],[11.00765791937755,-3.542023476602139],[11.156190515979574,-3.354763467360101]]]},"properties":{"shapeName":"Basse-Banio","shapeISO":"","shapeID":"22940354B35468012310479","shapeGroup":"GAB","shapeType":"ADM2"}},
{"type":"Feature","geometry":{"type":"Polygon","coordinates":[[[11.472831863699582,-3.569777388615535],[11.523612031769915,-3.514303013073572],[11.577215589028242,-3.529260653356403],[11.699985026387878,-3.675372465666726],[11.875136090558158,-3.749247671742637],[11.948175259880372,-3.623718297761172],[11.881038245818445,-3.578066902165745],[11.883251553816194,-3.52873138704382],[11.97473495855155,-3.461351047013181],[12.044359566640765,-3.340354183298871],[11.70235725268509,-3.157039780461446],[11.662903280462046,-3.046962285381142],[11.557692691464581,-2.960437314330534],[11.48652082227818,-2.829478252918989],[11.380149821856833,-2.850726320862975],[11.336085682008672,-2.828792817534463],[11.271844803295096,-2.844545105971804],[11.249796996134535,-2.931465380323004],[11.118283759887674,-2.996361460113235],[11.079990199088456,-2.952711539006259],[11.038989014331605,-2.953870408992145],[10.931457602486432,-3.077862385640515],[10.812445903155947,-3.09987816074846],[10.90554175904498,-3.171715907762859],[10.96897755566971,-3.182143555880373],[11.035724390768053,-3.293380612525198],[11.156190515979574,-3.354763467360101],[11.274939232859367,-3.445888407723771],[11.295826628596103,-3.433146880424147],[11.394848360263666,-3.485270227339072],[11.472831863699582,-3.569777388615535]]]},"properties":{"shapeName":"Mongo","shapeISO":"","shapeID":"22940354B34091756215614","shapeGroup":"GAB","shapeType":"ADM2"}},
{"type":"Feature","geometry":{"type":"Polygon","coordinates":[[[10.812445903155947,-3.09987816074846],[10.931457602486432,-3.077862385640515],[11.038989014331605,-2.953870408992145],[11.079990199088456,-2.952711539006259],[11.118283759887674,-2.996361460113235],[11.249796996134535,-2.931465380323004],[11.271844803295096,-2.844545105971804],[11.336085682008672,-2.828792817534463],[11.181719556512348,-2.552832557976103],[11.074574948475117,-2.586450636087932],[10.954665821070819,-2.575244709275864],[10.786793042165186,-2.701981763047854],[10.671912361566285,-2.482115813194184],[10.581013506268334,-2.405211893713897],[10.619585565521504,-2.80095114248121],[10.761186641050699,-2.966602444846899],[10.78272386711285,-3.077599738636991],[10.812445903155947,-3.09987816074846]]]},"properties":{"shapeName":"Mougoutsi","shapeISO":"","shapeID":"22940354B37590085186432","shapeGroup":"GAB","shapeType":"ADM2"}},
{"type":"Feature","geometry":{"type":"Polygon","coordinates":[[[12.044359566640765,-3.340354183298871],[12.002770194688765,-3.243713423835402],[11.937477603808418,-3.178155034727013],[12.012168109170943,-3.127121685017698],[12.05359558966478,-2.962545083288887],[11.66453751319574,-2.822230902534102],[11.623110032701902,-2.776355243899332],[11.645622060010112,-2.692054138887329],[11.532550454739749,-2.661798246391925],[11.437783563160963,-2.567902841043235],[11.358102013796952,-2.555537493860186],[11.300855076300763,-2.498346225298008],[11.182493163228969,-2.528874310201218],[11.181719556512348,-2.552832557976103],[11.336085682008672,-2.828792817534463],[11.380149821856833,-2.850726320862975],[11.48652082227818,-2.829478252918989],[11.557692691464581,-2.960437314330534],[11.662903280462046,-3.046962285381142],[11.70235725268509,-3.157039780461446],[12.044359566640765,-3.340354183298871]]]},"properties":{"shapeName":"Doutsita","shapeISO":"","shapeID":"22940354B92057182831829","shapeGroup":"GAB","shapeType":"ADM2"}},
{"type":"Feature","geometry":{"type":"Polygon","coordinates":[[[11.181719556512348,-2.552832557976103],[11.182493163228969,-2.528874310201218],[11.300855076300763,-2.498346225298008],[11.240900512148983,-2.366178588371099],[11.15232247969874,-2.314390133697657],[11.118670563695616,-2.203463774833267],[11.057168784312012,-2.199212074277739],[11.033186959011005,-2.232452313923091],[10.644620786408604,-2.299736799408627],[10.585918176682583,-2.324639761016101],[10.581013506268334,-2.405211893713897],[10.671912361566285,-2.482115813194184],[10.786793042165186,-2.701981763047854],[10.954665821070819,-2.575244709275864],[11.074574948475117,-2.586450636087932],[11.181719556512348,-2.552832557976103]]]},"properties":{"shapeName":"Douigni","shapeISO":"","shapeID":"22940354B25852434445694","shapeGroup":"GAB","shapeType":"ADM2"}},
{"type":"Feature","geometry":{"type":"Polygon","coordinates":[[[11.388949605340088,-2.04841400720062],[11.353831702671016,-1.981524828308125],[11.236490950896723,-1.986967757356069],[11.168413511274593,-1.95134098589773],[11.089443679981912,-2.05500284790304],[11.033743956818228,-2.131693469777758],[11.057168784312012,-2.199212074277739],[11.118670563695616,-2.203463774833267],[11.15232247969874,-2.314390133697657],[11.240900512148983,-2.366178588371099],[11.300855076300763,-2.498346225298008],[11.358102013796952,-2.555537493860186],[11.437783563160963,-2.567902841043235],[11.532550454739749,-2.661798246391925],[11.645622060010112,-2.692054138887329],[11.68525125344263,-2.660308926815446],[11.608434605073,-2.325189938364929],[11.468727855206396,-2.186456901564725],[11.388949605340088,-2.04841400720062]]]},"properties":{"shapeName":"Dola","shapeISO":"","shapeID":"22940354B92204383956845","shapeGroup":"GAB","shapeType":"ADM2"}},
{"type":"Feature","geometry":{"type":"Polygon","coordinates":[[[11.057168784312012,-2.199212074277739],[11.033743956818228,-2.131693469777758],[11.089443679981912,-2.05500284790304],[11.008044722286172,-1.952980081265707],[11.030092529446733,-1.877595516020222],[10.995667006727047,-1.789449448633093],[10.926552932072184,-1.819713419738491],[10.624335513872893,-1.852853199715355],[10.629750764486232,-1.908909506768282],[10.59145720458639,-1.940609509920876],[10.540785928228047,-1.894219063159198],[10.444858626124756,-1.906976561519059],[10.49204867001015,-1.939836345670756],[10.481218168783528,-2.032999994254283],[10.5392387138956,-2.157080940832714],[10.644620786408604,-2.299736799408627],[11.033186959011005,-2.232452313923091],[11.057168784312012,-2.199212074277739]]]},"properties":{"shapeName":"Mougalaba","shapeISO":"","shapeID":"22940354B67008732943825","shapeGroup":"GAB","shapeType":"ADM2"}},
{"type":"Feature","geometry":{"type":"Polygon","coordinates":[[[10.619585565521504,-2.80095114248121],[10.581013506268334,-2.405211893713897],[10.585918176682583,-2.324639761016101],[10.644620786408604,-2.299736799408627],[10.5392387138956,-2.157080940832714],[10.481218168783528,-2.032999994254283],[10.49204867001015,-1.939836345670756],[10.444858626124756,-1.906976561519059],[10.391340474783135,-1.893445878224668],[10.363721604068814,-1.916170537640141],[10.000947298978701,-2.010471110053629],[9.857365788600305,-2.175727011991967],[9.6984359112883,-2.272695186733415],[9.649172599136193,-2.230148711293964],[9.637042437258742,-2.159400116122413],[9.607088363537173,-2.160389630277166],[9.583371573839088,-2.222575581497836],[9.59874863993781,-2.342134136081484],[9.672894463708587,-2.440540565994297],[9.655187997927783,-2.404422172944862],[9.718636165626606,-2.460073578232993],[9.713102895182487,-2.409950560969548],[9.736711515324203,-2.399630886356249],[9.766591175542374,-2.433538095606593],[9.740031477770515,-2.468550080621696],[9.770280022804855,-2.488451219548097],[9.897914126935461,-2.426167035380331],[9.933327057597694,-2.479974844863136],[10.007472881368415,-2.502824077469143],[9.976855451517906,-2.525672911675485],[9.987553108489237,-2.565104629275197],[10.038828080851317,-2.517933834478811],[10.10116959410152,-2.566947203450638],[10.099694054836789,-2.504666739778145],[10.184168650762672,-2.563999083690703],[10.079774281957611,-2.596428026032527],[10.036983656770417,-2.641016459841694],[9.993455262850148,-2.638805500873104],[9.98570868440828,-2.60011307995461],[9.871723313979828,-2.554417647256571],[9.852069400482492,-2.480928362753673],[9.794257527762738,-2.521987642815418],[9.731178244880141,-2.483291692957209],[9.970838020258498,-2.731593276008823],[10.304640906652594,-2.979646293641508],[10.361138847379948,-2.948555049675747],[10.411144821476398,-3.007640626813441],[10.451991285969143,-3.007393413075533],[10.501749704585222,-2.967344112141006],[10.553736114430194,-2.841995344509485],[10.619585565521504,-2.80095114248121]]]},"properties":{"shapeName":"Ndougou","shapeISO":"","shapeID":"22940354B74005862204828","shapeGroup":"GAB","shapeType":"ADM2"}},
{"type":"Feature","geometry":{"type":"Polygon","coordinates":[[[11.23868843352443,-1.464410852179014],[11.102038007148337,-1.433731435657194],[11.00417668600528,-1.228780951479678],[10.918306279311366,-1.173093464491728],[10.870729430718711,-1.174640354168957],[10.910957009658318,-1.312309987615777],[10.790661078446078,-1.338992295358082],[10.789500667022196,-1.361420676722787],[11.020405729341007,-1.712108138479778],[10.995667006727047,-1.789449448633093],[11.030092529446733,-1.877595516020222],[11.008044722286172,-1.952980081265707],[11.089443679981912,-2.05500284790304],[11.168413511274593,-1.95134098589773],[11.236490950896723,-1.986967757356069],[11.353831702671016,-1.981524828308125],[11.227362385165975,-1.65180947482736],[11.23868843352443,-1.464410852179014]]]},"properties":{"shapeName":"Douya-Onoyè","shapeISO":"","shapeID":"22940354B97081518304262","shapeGroup":"GAB","shapeType":"ADM2"}},
{"type":"Feature","geometry":{"type":"Polygon","coordinates":[[[11.27090100257925,-0.591396788131192],[11.167918402112605,-0.514410982680658],[10.94932793013993,-0.542383431749954],[10.883973588210551,-0.585208256355884],[10.86763500205376,-0.567137703642061],[10.800795333537849,-0.607734479462636],[10.783714084537394,-0.574316423164362],[10.67107686530511,-0.585950880528685],[10.688544918113507,-0.630477205358716],[10.540785928228047,-0.770876391831962],[10.532663051858378,-0.869501201419268],[10.495916706290984,-0.934862908796163],[10.444858626124756,-0.960388456362125],[10.449113466213532,-1.026135191385947],[10.387775586216977,-1.114592875539656],[10.466519630376695,-1.197456879331469],[10.456075931159319,-1.392742722698472],[10.51487008478665,-1.467759243993839],[10.457236342583201,-1.548959854413681],[10.476004055143108,-1.766762739708611],[10.604979860532183,-1.816744263037265],[10.624335513872893,-1.852853199715355],[10.926552932072184,-1.819713419738491],[10.995667006727047,-1.789449448633093],[11.020405729341007,-1.712108138479778],[10.789500667022196,-1.361420676722787],[10.790661078446078,-1.338992295358082],[10.910957009658318,-1.312309987615777],[10.870729430718711,-1.174640354168957],[10.918306279311366,-1.173093464491728],[11.00417668600528,-1.228780951479678],[11.102038007148337,-1.433731435657194],[11.23868843352443,-1.464410852179014],[11.262948320208864,-1.041218078451493],[11.217692294463859,-0.987847546327146],[11.216145079232092,-0.921713310520829],[11.14690722818608,-0.887292076667961],[11.192550057739027,-0.77358377117406],[11.183266770844853,-0.708606198417272],[11.27090100257925,-0.591396788131192]]]},"properties":{"shapeName":"Tsamba-Magotsi","shapeISO":"","shapeID":"22940354B73947944893462","shapeGroup":"GAB","shapeType":"ADM2"}},
{"type":"Feature","geometry":{"type":"Polygon","coordinates":[[[9.788564524233436,-0.348410076963432],[9.583075593463889,-0.424056692062663],[9.602635038568138,-0.58075515801599],[9.672411762492914,-0.828117754430764],[9.787679246000437,-0.901988823625288],[9.906814766688171,-0.898121264884423],[9.949363166676847,-0.925967597526551],[9.973731795785795,-1.053980463727385],[9.936985450218401,-1.143315669582421],[9.956304701700674,-1.167449389477667],[10.031365537089926,-1.232648094733747],[10.095961745138482,-1.237675374219123],[10.233277035806623,-1.109670257476353],[10.387775586216977,-1.114592875539656],[10.449113466213532,-1.026135191385947],[10.444858626124756,-0.960388456362125],[10.495916706290984,-0.934862908796163],[10.532663051858378,-0.869501201419268],[10.540785928228047,-0.770876391831962],[10.688544918113507,-0.630477205358716],[10.67107686530511,-0.585950880528685],[10.783714084537394,-0.574316423164362],[10.800795333537849,-0.607734479462636],[10.86763500205376,-0.567137703642061],[10.790398051928605,-0.462426464109967],[10.634686379672758,-0.370586245258949],[10.496798618361595,-0.384201437846059],[10.303706242149417,-0.294835903254295],[10.21316324768577,-0.310215000921517],[10.035604905242224,-0.403510218521717],[9.997976647604276,-0.315135071326438],[9.93088942450737,-0.287904472113667],[9.846968506991061,-0.366377909113169],[9.788564524233436,-0.348410076963432]]]},"properties":{"shapeName":"Ogoouè et Lacs","shapeISO":"","shapeID":"22940354B45576072672451","shapeGroup":"GAB","shapeType":"ADM2"}},
{"type":"Feature","geometry":{"type":"Polygon","coordinates":[[[10.624335513872893,-1.852853199715355],[10.604979860532183,-1.816744263037265],[10.476004055143108,-1.766762739708611],[10.457236342583201,-1.548959854413681],[10.51487008478665,-1.467759243993839],[10.456075931159319,-1.392742722698472],[10.466519630376695,-1.197456879331469],[10.387775586216977,-1.114592875539656],[10.233277035806623,-1.109670257476353],[10.095961745138482,-1.237675374219123],[10.080412238534052,-1.300786236795318],[9.997729093922601,-1.393593438186599],[10.00565083242003,-1.564843882738955],[9.893756275132034,-1.67397172161759],[10.009611701219058,-1.82515685960135],[10.192554349503666,-1.861775937609366],[10.24033233506924,-1.905074540357703],[10.363721604068814,-1.916170537640141],[10.391340474783135,-1.893445878224668],[10.444858626124756,-1.906976561519059],[10.540785928228047,-1.894219063159198],[10.59145720458639,-1.940609509920876],[10.629750764486232,-1.908909506768282],[10.624335513872893,-1.852853199715355]]]},"properties":{"shapeName":"Ndolou","shapeISO":"","shapeID":"22940354B46648613640917","shapeGroup":"GAB","shapeType":"ADM2"}},
{"type":"Feature","geometry":{"type":"Polygon","coordinates":[[[10.363721604068814,-1.916170537640141],[10.24033233506924,-1.905074540357703],[10.192554349503666,-1.861775937609366],[10.009611701219058,-1.82515685960135],[9.893756275132034,-1.67397172161759],[10.00565083242003,-1.564843882738955],[9.997729093922601,-1.393593438186599],[10.080412238534052,-1.300786236795318],[10.095961745138482,-1.237675374219123],[10.031365537089926,-1.232648094733747],[9.956304701700674,-1.167449389477667],[9.841444951923052,-1.264358462572943],[9.823945955241697,-1.360678223421246],[9.702149225506389,-1.370825067223052],[9.552131302317775,-1.26539484489615],[9.331807950976213,-1.277274526698022],[8.996084673868666,-1.079827462267531],[8.924410143913065,-1.087596265655066],[8.987093549727604,-1.174682651982778],[9.00243915304452,-1.261070675171482],[9.008577394731049,-1.199938452397589],[9.043518152540742,-1.2341632284502],[9.034546877336595,-1.333058512740138],[9.118357479514145,-1.384038797052767],[9.162269513427361,-1.370349753038624],[9.179739892781868,-1.441862327684248],[9.255759650987159,-1.428645648078145],[9.283145650351514,-1.394187520437697],[9.337445477127119,-1.3996158894617],[9.34995804602704,-1.311344365749846],[9.353027166870277,-1.418733088461238],[9.264967012617603,-1.50959659140949],[9.300852116132319,-1.597860359368042],[9.402605269617538,-1.581812677812763],[9.469417666192385,-1.491424186876657],[9.50105321763192,-1.505584515213172],[9.514037958485062,-1.593140466359387],[9.57258733733579,-1.622167638525639],[9.446753389957053,-1.626887464984463],[9.426686062611736,-1.691311976266661],[9.40921568415655,-1.640574899212197],[9.303449064123072,-1.669365401292168],[9.297546908862785,-1.700043341127241],[9.27422159225273,-1.567114780622603],[9.159842547195865,-1.497031688261757],[8.999679895410907,-1.291355971900543],[9.229126175532599,-1.609601047350395],[9.267490183824975,-1.867332547259196],[9.313969655375331,-1.862908276695578],[9.350858125302295,-1.914524075026009],[9.39143544159242,-1.850372781378724],[9.450088107580143,-1.914892753897448],[9.453039185210287,-1.875812369944867],[9.51132296728116,-1.908256524319086],[9.534193818689857,-1.953972247521165],[9.519807315355365,-1.989364211389216],[9.580304405424044,-2.050561017177131],[9.560015746829322,-2.086688157032768],[9.520913968904608,-2.027335994760278],[9.476278921435153,-2.012221118809521],[9.484763269509301,-1.953603576743603],[9.390697671960027,-1.957658945403978],[9.394017634406339,-1.924847050151186],[9.342004892411921,-1.938119353725142],[9.285934419238117,-1.900145543282122],[9.583371573839088,-2.222575581497836],[9.607088363537173,-2.160389630277166],[9.637042437258742,-2.159400116122413],[9.649172599136193,-2.230148711293964],[9.6984359112883,-2.272695186733415],[9.857365788600305,-2.175727011991967],[10.000947298978701,-2.010471110053629],[10.363721604068814,-1.916170537640141]]]},"properties":{"shapeName":"Etimbouè","shapeISO":"","shapeID":"22940354B22587364924270","shapeGroup":"GAB","shapeType":"ADM2"}},
{"type":"Feature","geometry":{"type":"Polygon","coordinates":[[[9.839839608111447,0.125942945310726],[9.778026601246722,0.119149670720788],[9.817128379171436,0.038732889611197],[9.732284899328704,0.131322836379866],[9.648548073934535,0.148291481266881],[9.602437487200348,0.112878643234865],[9.578828866159313,0.165997880497855],[9.536407126687607,0.179646552146721],[9.499149771944474,0.092958901831878],[9.440497105956752,0.194401861157019],[9.371884552630036,0.17706437102396],[9.388115479146109,0.322034642384892],[9.377048938257929,0.345642862328305],[9.341267122779527,0.331256609904699],[9.311018577745187,0.275555804856538],[9.367457936634537,0.002582192913906],[9.322083935125534,-0.300979420363888],[9.43330522575559,-0.48198259162325],[9.54123891244592,-0.514658527369079],[9.602635038568138,-0.58075515801599],[9.583075593463889,-0.424056692062663],[9.788564524233436,-0.348410076963432],[9.909847306707888,-0.194082221217514],[9.85290981063929,-0.041094014477153],[9.839839608111447,0.125942945310726]]]},"properties":{"shapeName":"Komo-Ocèan","shapeISO":"","shapeID":"22940354B91533016002313","shapeGroup":"GAB","shapeType":"ADM2"}},
{"type":"Feature","geometry":{"type":"Polygon","coordinates":[[[10.21316324768577,-0.310215000921517],[10.303706242149417,-0.294835903254295],[10.496798618361595,-0.384201437846059],[10.634686379672758,-0.370586245258949],[10.790398051928605,-0.462426464109967],[10.86763500205376,-0.567137703642061],[10.883973588210551,-0.585208256355884],[10.94932793013993,-0.542383431749954],[11.167918402112605,-0.514410982680658],[11.27090100257925,-0.591396788131192],[11.431316207377108,-0.674074884847983],[11.550872808633244,-0.683232842221855],[11.551132502263215,-0.679768237314249],[11.500383864423839,-0.518371690501056],[11.424384686304279,-0.43717670084402],[11.39269773231456,-0.292855494485423],[11.335512682564286,-0.221560571962755],[11.325610509217654,-0.070057858183588],[11.275356980540266,-0.02549809476119],[11.31100480332907,0.059908136751176],[11.560787120129532,0.197547963068075],[11.5670056856639,0.260782731537859],[10.82319816420248,0.261793645057793],[10.679246158383535,0.230224905155296],[10.657600626967394,0.109465363535719],[10.559352502915715,0.03829355730187],[10.560126110531598,-0.022821414676514],[10.21316324768577,-0.310215000921517]]]},"properties":{"shapeName":"Abanga-Bignè","shapeISO":"","shapeID":"22940354B65697742744176","shapeGroup":"GAB","shapeType":"ADM2"}},
{"type":"Feature","geometry":{"type":"MultiPolygon","coordinates":[[[[9.019487221558052,-0.801817768275328],[9.046176672615388,-0.783639736684449],[9.05197872703667,-0.720596179370148],[9.045789868807447,-0.681531937349007],[9.006722701291665,-0.666834416974723],[9.013298363328829,-0.634345006017156],[8.957985443073767,-0.698550062934999],[8.983514483606598,-0.789441245217233],[9.019487221558052,-0.801817768275328]]],[[[9.602635038568138,-0.58075515801599],[9.54123891244592,-0.514658527369079],[9.43330522575559,-0.48198259162325],[9.322083935125534,-0.300979420363888],[9.30437865375194,-0.399498887863331],[9.108131996294617,-0.643690251703731],[9.12436292281069,-0.699756869483906],[9.064234717558236,-0.745494932744919],[9.017755246007823,-0.915164012109415],[9.016648591559317,-0.851354545375898],[8.944716075786289,-0.738486711192706],[8.896761065870521,-0.725576800229078],[8.924427418090943,-0.763937567364792],[8.874996868910443,-0.767626084576079],[8.85101936395256,-0.847666103707695],[8.781669040993506,-0.688322282847025],[8.714532026931522,-0.650698613550105],[8.720803066108658,-0.62487828530459],[8.699776638780918,-0.638157327498618],[8.84364166942754,-0.966800902239811],[8.896392181054352,-1.0232317481466],[8.951356000678913,-1.005159229514788],[8.918525262830656,-1.054212969952573],[8.87979236972211,-1.03245238197178],[8.924410143913065,-1.087596265655066],[8.996084673868666,-1.079827462267531],[9.331807950976213,-1.277274526698022],[9.552131302317775,-1.26539484489615],[9.702149225506389,-1.370825067223052],[9.823945955241697,-1.360678223421246],[9.841444951923052,-1.264358462572943],[9.956304701700674,-1.167449389477667],[9.936985450218401,-1.143315669582421],[9.973731795785795,-1.053980463727385],[9.949363166676847,-0.925967597526551],[9.906814766688171,-0.898121264884423],[9.787679246000437,-0.901988823625288],[9.672411762492914,-0.828117754430764],[9.602635038568138,-0.58075515801599]]]]},"properties":{"shapeName":"Bendjè","shapeISO":"","shapeID":"22940354B80874584292882","shapeGroup":"GAB","shapeType":"ADM2"}},
{"type":"Feature","geometry":{"type":"Polygon","coordinates":[[[13.274244612299071,-1.129223408233656],[13.369419041555545,-1.236932884944622],[13.334018772448417,-1.353748646682675],[13.38229186627666,-1.540839931417679],[13.35400878507744,-1.772051691332422],[13.343565086759384,-1.97462836280863],[13.475851930622127,-2.027201581187967],[13.531319572040672,-1.986225540576186],[13.527853811504258,-2.033974125505438],[13.632120599785878,-1.969216319177747],[13.74172860289275,-2.133955955402996],[13.757554687898562,-2.114335919367136],[13.78226996248884,-2.133136116338676],[13.918462191476976,-2.327405741082032],[13.883148568451702,-2.381613746177379],[14.006159717497042,-2.308206309873242],[14.050642135626106,-2.079773090855383],[14.017763827238866,-1.993570378370237],[13.899788717075694,-1.893059286656694],[13.844475796820632,-1.738802190468675],[13.753963746229942,-1.663408727330875],[13.745454065153012,-1.586465763783906],[13.637906564436435,-1.557063662458006],[13.643956791272956,-1.258712498982618],[13.595683697444713,-1.189165608505959],[13.599644566243796,-1.128279699248651],[13.516853116278355,-1.094587705857919],[13.338149835246725,-1.113150835242777],[13.30647899351078,-1.093134862783643],[13.274244612299071,-1.129223408233656]]]},"properties":{"shapeName":"Mpassa","shapeISO":"","shapeID":"22940354B37639469829308","shapeGroup":"GAB","shapeType":"ADM2"}}
]}