{"type":"FeatureCollection", "features": [
{"type":"Feature","geometry":{"type":"Polygon","coordinates":[[[-8.245590000999925,8.44255],[-8.196898,8.502724],[-8.11965967499998,8.480650229000048],[-8.09536,8.505840001000024],[-7.98513993499995,8.483770034000031],[-7.93808,8.501080001000048],[-7.913171303999945,8.483291735000023],[-7.90895031499997,8.435694875000024],[-7.852420000999928,8.42002],[-7.830991354999981,8.436037715000055],[-7.82727,8.49019000100003],[-7.788409,8.46371],[-7.74513,8.37332],[-7.641071532999945,8.377431856000044],[-7.68143,8.44848],[-7.661064,8.505851],[-7.76787,8.762],[-7.861220000999936,8.77767],[-7.915887,8.765494],[-7.961311,8.810396],[-7.90632,9.01834000100007],[-7.813030000999959,9.08219],[-7.764905915999975,9.06617065100005],[-7.736526,9.078054],[-7.837843,9.150526],[-7.833143,9.174826],[-7.881877,9.157667],[-7.919881,9.186895],[-7.925730000999977,9.21731],[-7.849984421999977,9.437737369000047],[-7.96812,9.396],[-8.06033,9.40176],[-8.14923,9.53206],[-8.14727,9.583955],[-8.352451,9.581116],[-8.438908,9.532558],[-8.483555,9.544328],[-8.49681,9.491213],[-8.554029,9.477968],[-8.557861,9.445757],[-8.58395,9.435055],[-8.616615,9.502604],[-8.634515,9.463335],[-8.623387,9.304491],[-8.727099,9.067683],[-8.699784,8.961019],[-8.795011,8.914223],[-8.841395,8.846946],[-8.957743,8.774724],[-8.933059,8.698103],[-8.915799,8.696228],[-8.915614,8.635074],[-8.890533,8.632787],[-8.901632,8.561987],[-8.873133,8.407064],[-8.934544,8.254406],[-8.823581,8.235392],[-8.801785,8.261274],[-8.812409,8.293575],[-8.783499,8.308805],[-8.793442,8.329007],[-8.730157,8.341993],[-8.690426,8.38237],[-8.609496,8.349867],[-8.568754,8.259745],[-8.509047,8.249182],[-8.464554,8.271854],[-8.517058,8.370238],[-8.466482,8.456125],[-8.342045,8.496003],[-8.280536,8.445788],[-8.245590000999925,8.44255]]]},"properties":{"shapeName":"Beyla","shapeISO":"","shapeID":"49546643B61238663992809","shapeGroup":"GIN","shapeType":"ADM2"}},
{"type":"Feature","geometry":{"type":"MultiPolygon","coordinates":[[[[-14.038882255999965,10.108675958000049],[-14.05970001199995,10.126425743000027],[-14.07279682099994,10.112509728000077],[-14.038882255999965,10.108675958000049]]],[[[-13.9198,10.86189],[-13.95624,10.86681],[-14.00971,10.8309],[-14.20602,10.56756],[-14.2656,10.5262],[-14.3043,10.53312],[-14.34673,10.50891],[-14.462823,10.605423],[-14.543840455999941,10.499822659000074],[-14.552132606999976,10.418210031000058],[-14.46344757199995,10.339283943000055],[-14.456477164999967,10.208334922000063],[-14.40175056499993,10.235578538000027],[-14.368244171999947,10.228330613000026],[-14.238041877999933,10.115328789000046],[-14.204284667999957,10.104155542000058],[-14.18433284799994,10.128261567000038],[-14.186223029999951,10.084321977000059],[-14.137603759999934,10.047067643000048],[-14.078621863999956,10.065776826000047],[-14.083845138999948,10.152192115000048],[-14.048113822999937,10.153204919000075],[-14.03210925999997,10.103908539000031],[-14.06713771799997,10.02862930300006],[-13.960161209999967,9.971457481000073],[-13.814317703999961,9.839962959000047],[-13.725068091999958,9.868267059000061],[-13.684244900999943,9.938126703000023],[-13.67751,9.956395],[-13.84239,10.03197],[-13.9065,10.10871],[-13.83535,10.1663],[-13.76799,10.278844],[-13.77935,10.30063],[-13.8416,10.3118],[-13.83122,10.37551],[-13.78773,10.39413],[-13.79345,10.4327],[-13.76286,10.45704],[-13.75781,10.525],[-13.69184,10.52447],[-13.63345,10.59842],[-13.65247,10.66825],[-13.70806,10.6975],[-13.71604,10.7261],[-13.75196,10.7249],[-13.79491,10.75563],[-13.82803,10.72943],[-13.867,10.73607],[-13.88083,10.68487],[-13.91887,10.66559],[-13.98072,10.73568],[-13.9198,10.86189]]]]},"properties":{"shapeName":"Boffa","shapeISO":"","shapeID":"49546643B38864499602181","shapeGroup":"GIN","shapeType":"ADM2"}},
{"type":"Feature","geometry":{"type":"MultiPolygon","coordinates":[[[[-14.873248100999945,10.856413841000062],[-14.885635376999971,10.898361206000061],[-14.896530151999968,10.883238792000043],[-14.873248100999945,10.856413841000062]]],[[[-14.897646903999942,10.816326142000037],[-14.881245613999965,10.844586373000027],[-14.902012824999929,10.886661530000026],[-14.896377563999977,10.920084953000071],[-14.937087058999964,10.86300563900005],[-14.932980537999981,10.832461358000046],[-14.897646903999942,10.816326142000037]]],[[[-14.853347778999932,10.903346062000026],[-14.86495399499995,10.93863392000003],[-14.885918617999948,10.939993859000026],[-14.876861572999928,10.903985977000048],[-14.853347778999932,10.903346062000026]]],[[[-14.92306900099993,10.895609857000068],[-14.905353545999958,10.930788994000068],[-14.96130943399993,10.974966049000045],[-15.062848090999978,10.906764031000023],[-15.084515572999976,10.855422973000032],[-15.021666525999933,10.78145313300007],[-14.952934264999953,10.772871017000057],[-14.941368102999945,10.796474457000045],[-14.978878021999947,10.82448387100004],[-14.961899757999959,10.837859155000046],[-14.977767944999982,10.883828163000032],[-14.953166961999955,10.861570358000051],[-14.92306900099993,10.895609857000068]]],[[[-14.901341438999964,11.000997544000029],[-14.930520335999972,11.044838972000036],[-14.965976756999964,10.97814450900006],[-14.917758941999978,10.954792978000057],[-14.901341438999964,11.000997544000029]]],[[[-13.9198,10.86189],[-13.8118,10.91124],[-13.76898,10.9534],[-13.81646,11.04942],[-13.76273,11.09358],[-13.74012,11.1517],[-13.75741,11.19],[-13.78853,11.19812],[-13.7735,11.23389],[-13.84293,11.29667],[-13.87219,11.34721],[-13.95717,11.40187],[-13.92751,11.4717],[-13.97686,11.51692],[-14.03538,11.53128],[-14.05307,11.56839],[-14.03777,11.6043],[-14.065538190999973,11.640504930000077],[-14.08356477999996,11.625554434000037],[-14.142532026999959,11.659422583000037],[-14.265781339999933,11.666493373000037],[-14.323924992999935,11.601523689000032],[-14.517338301999928,11.493014254000059],[-14.671427136999966,11.491926440000043],[-14.779773399999954,11.35339334200006],[-14.925612189999981,11.053408749000027],[-14.894099235999931,11.03390693700004],[-14.873158454999952,10.962229730000047],[-14.81214046599996,10.991920471000071],[-14.751042366999968,10.969869613000071],[-14.727703093999935,11.01915073500004],[-14.68339061699993,11.042108536000057],[-14.65908813599998,11.029800416000057],[-14.69161319899996,11.023685457000056],[-14.74093341899993,10.961474420000059],[-14.81634902999997,10.930010797000023],[-14.809088707999933,10.823127748000047],[-14.754131317999963,10.836192131000075],[-14.789958000999945,10.760784150000063],[-14.748177527999928,10.689961434000054],[-14.736235617999967,10.747120858000073],[-14.656233787999952,10.800231934000067],[-14.703863143999968,10.758091926000077],[-14.723169326999937,10.698987962000047],[-14.68493175499998,10.690450669000029],[-14.71101665599997,10.67405414600006],[-14.70327472699995,10.632538795000073],[-14.636949538999943,10.683626176000075],[-14.573373795999942,10.804623605000074],[-14.541002272999947,10.81716442000004],[-14.617348670999945,10.680809021000073],[-14.623734474999935,10.605798722000031],[-14.59384536899995,10.593936920000033],[-14.65812301699998,10.564015389000076],[-14.667083739999953,10.474674225000058],[-14.591046332999952,10.469766618000051],[-14.543840455999941,10.499822659000074],[-14.462823,10.605423],[-14.34673,10.50891],[-14.3043,10.53312],[-14.2656,10.5262],[-14.20602,10.56756],[-14.00971,10.8309],[-13.95624,10.86681],[-13.9198,10.86189]]]]},"properties":{"shapeName":"Boke","shapeISO":"","shapeID":"49546643B57120226425021","shapeGroup":"GIN","shapeType":"ADM2"}},
{"type":"Feature","geometry":{"type":"MultiPolygon","coordinates":[[[[-13.753335,9.442746164000027],[-13.747606276999932,9.478190422000068],[-13.769588469999974,9.504910469000038],[-13.753335,9.442746164000027]]],[[[-13.83279323599993,9.450149537000073],[-13.79534816699993,9.512057306000031],[-13.838619232999974,9.481821060000073],[-13.83279323599993,9.450149537000073]]],[[[-13.54767,9.74004],[-13.585627285999976,9.753296108000029],[-13.608137129999932,9.736269952000043],[-13.597841262999964,9.724665642000048],[-13.624260903999982,9.723734856000021],[-13.63417530099997,9.62802505600007],[-13.727001189999953,9.50662612900004],[-13.616785049999976,9.56562709800005],[-13.553535460999967,9.499888421000037],[-13.507370925999965,9.514476061000039],[-13.493986002999975,9.539449001000037],[-13.50298,9.57459],[-13.46029,9.63656],[-13.49979,9.6887],[-13.47505,9.73286],[-13.54767,9.74004]]]]},"properties":{"shapeName":"Conakry","shapeISO":"","shapeID":"49546643B29247776226513","shapeGroup":"GIN","shapeType":"ADM2"}},
{"type":"Feature","geometry":{"type":"Polygon","coordinates":[[[-13.493986002999975,9.539449001000037],[-13.38873,9.56461],[-13.38354,9.59746],[-13.34365,9.62446],[-13.29284,9.61089],[-13.27808,9.55756],[-13.2439,9.58589],[-13.20519,9.56873],[-13.11475,9.58669],[-13.13124,9.63763],[-13.2,9.71623],[-13.20413,9.88035],[-13.25866,9.96295],[-13.39844,9.91161],[-13.44499,9.85242],[-13.38886,9.76185],[-13.47505,9.73286],[-13.49979,9.6887],[-13.46029,9.63656],[-13.50298,9.57459],[-13.493986002999975,9.539449001000037]]]},"properties":{"shapeName":"Coyah","shapeISO":"","shapeID":"49546643B61702032280321","shapeGroup":"GIN","shapeType":"ADM2"}},
{"type":"Feature","geometry":{"type":"Polygon","coordinates":[[[-10.467392,10.535978],[-10.447493,10.556912],[-10.455165,10.614541],[-10.511689,10.760641],[-10.668939,10.735324],[-10.732803,10.792615],[-10.908789,10.875836],[-10.815442,10.929912],[-10.791086,10.999675],[-10.71814,11.058776],[-10.720635,11.13326],[-10.733093,11.15179],[-10.764157,11.116343],[-10.807571,11.126588],[-10.814369,11.097292],[-10.866879,11.059013],[-11.142737,10.916456],[-11.160084,10.932969],[-11.15547,11.055242],[-11.350145,10.971423],[-11.454077,10.993466],[-11.5258,10.905738],[-11.524458,10.876288],[-11.498424,10.877968],[-11.437417,10.826632],[-11.461384,10.732516],[-11.448311,10.72396],[-11.507414,10.607686],[-11.527931,10.492234],[-11.398645,10.451565],[-11.387306,10.393562],[-11.295228,10.399256],[-11.228301,10.479255],[-11.120893,10.538344],[-11.068549,10.509538],[-10.919104,10.530734],[-10.776501,10.454872],[-10.76127,10.520881],[-10.72801,10.499474],[-10.681324,10.570628],[-10.637488,10.591152],[-10.547273,10.584744],[-10.467392,10.535978]]]},"properties":{"shapeName":"Dabola","shapeISO":"","shapeID":"49546643B93693461345641","shapeGroup":"GIN","shapeType":"ADM2"}},
{"type":"Feature","geometry":{"type":"Polygon","coordinates":[[[-12.011669,11.290911],[-12.120216,11.286799],[-12.162137,11.191936],[-12.208989,11.162247],[-12.189854,11.1131],[-12.232918,11.083758],[-12.21202,11.055051],[-12.263765,11.033926],[-12.295982,11.066413],[-12.311416,10.994905],[-12.349244,10.945605],[-12.395573,10.93315],[-12.350663,10.873484],[-12.367198,10.792179],[-12.401432,10.799326],[-12.457534,10.651859],[-12.496181,10.625764],[-12.50654,10.5649],[-12.45773,10.54402],[-12.45161,10.50612],[-12.399719,10.481095],[-12.303997,10.50386],[-12.284003,10.599482],[-12.216077,10.650571],[-12.194541,10.773463],[-12.11384,10.783623],[-12.076774,10.823189],[-12.034346,10.805403],[-11.972629,10.869301],[-11.818669,10.84629],[-11.750086,10.906121],[-11.742933,10.987454],[-11.866141,11.028608],[-11.894885,11.084886],[-11.878873,11.17787],[-11.961561,11.218371],[-12.011669,11.290911]]]},"properties":{"shapeName":"Dalaba","shapeISO":"","shapeID":"49546643B54901917722686","shapeGroup":"GIN","shapeType":"ADM2"}},
{"type":"Feature","geometry":{"type":"Polygon","coordinates":[[[-10.720635,11.13326],[-10.68984,11.163405],[-10.665143,11.154693],[-10.663143,11.183478],[-10.633866,11.179121],[-10.644987,11.199209],[-10.568904,11.183158],[-10.512555,11.197074],[-10.443231,11.255601],[-10.475761,11.29452],[-10.380228,11.322627],[-10.321229,11.430617],[-10.333165,11.373551],[-10.300256,11.379784],[-10.288983,11.414102],[-10.266724,11.395156],[-10.247214,11.405715],[-10.248531,11.42553],[-10.217568,11.401067],[-10.195039,11.414224],[-10.189843,11.384087],[-10.155239,11.391025],[-10.16911,11.361437],[-10.152217,11.350737],[-10.124081,11.35436],[-10.12103,11.390739],[-10.103262,11.378547],[-10.063362,11.3967],[-10.077703,11.354308],[-10.029092,11.417158],[-10.004753,11.406959],[-10.009626,11.462862],[-10.031232,11.478379],[-10.2219,11.540954],[-10.265526,11.588353],[-10.257658,11.681533],[-10.228137,11.703812],[-10.219256,11.751379],[-10.246227,11.774698],[-10.182375,11.869051],[-10.193026,11.907222],[-10.159502,11.932193],[-10.221271,12.07618],[-10.086779,12.177659],[-10.14897,12.17268],[-10.24838,12.21525],[-10.283000000999948,12.212650001000043],[-10.29362,12.19085],[-10.339323416999946,12.225478732000056],[-10.335010000999944,12.187270001000059],[-10.41072,12.172580001000028],[-10.41403,12.14108],[-10.4564,12.11653],[-10.51650000099994,12.11285],[-10.50515,12.08383],[-10.52294,12.04124],[-10.57828000099994,12.021980001000031],[-10.562950000999933,11.99777],[-10.62075,11.96921],[-10.64009,11.91315],[-10.672220000999971,11.89388],[-10.751330000999928,11.94398],[-10.75637,11.99378],[-10.795090000999949,12.0376],[-10.79023,12.10936],[-10.8451,12.13158],[-10.89052,12.20232],[-10.9286,12.222420001000046],[-11.015380000999926,12.20557],[-11.044820000999948,12.22104],[-11.07278,12.135290001000044],[-11.10931,12.09486],[-11.139460000999975,12.093060001000026],[-11.138110000999973,12.059480001000054],[-11.166594,12.032625],[-11.159923,11.941589],[-11.047884,11.883291],[-11.076797,11.855749],[-11.070336,11.749882],[-11.089669,11.706956],[-11.141488,11.686568],[-11.164983,11.654556],[-11.14416,11.628473],[-11.21332,11.573958],[-11.196319,11.537038],[-11.121052,11.517595],[-11.123279,11.478755],[-11.189919,11.42407],[-11.267742,11.401403],[-11.336954,11.30838],[-11.33679,11.267492],[-11.279045,11.141022],[-11.254607,11.147399],[-11.208031,11.100461],[-11.137166,11.074795],[-11.15547,11.055242],[-11.160084,10.932969],[-11.142737,10.916456],[-10.866879,11.059013],[-10.814369,11.097292],[-10.807571,11.126588],[-10.764157,11.116343],[-10.733093,11.15179],[-10.720635,11.13326]]]},"properties":{"shapeName":"Dinguiraye","shapeISO":"","shapeID":"49546643B8348239056405","shapeGroup":"GIN","shapeType":"ADM2"}},
{"type":"Feature","geometry":{"type":"MultiPolygon","coordinates":[[[[-13.765042304999952,9.82403659800002],[-13.731007576999957,9.85091972400005],[-13.778575897999929,9.834733963000076],[-13.778790473999948,9.804614067000045],[-13.765042304999952,9.82403659800002]]],[[[-13.684244900999943,9.938126703000023],[-13.684067725999967,9.901694298000052],[-13.74875545499998,9.816578865000054],[-13.755065917999957,9.76640796700002],[-13.68927001999998,9.740024566000045],[-13.639847755999938,9.79121017400007],[-13.66343212199996,9.829573631000073],[-13.625102996999942,9.821993828000075],[-13.619342804999974,9.777110100000073],[-13.596080780999955,9.765787124000042],[-13.55538,9.78739],[-13.56469,9.7564],[-13.54767,9.74004],[-13.47505,9.73286],[-13.38886,9.76185],[-13.44499,9.85242],[-13.39844,9.91161],[-13.25866,9.96295],[-13.29204,10.03862],[-13.17407,10.11736],[-13.19256,10.15992],[-13.14561,10.24703],[-13.17181,10.39759],[-13.26863,10.41993],[-13.32729,10.48843],[-13.39618,10.51689],[-13.508549,10.452537],[-13.50311,10.38229],[-13.55059,10.33734],[-13.58331,10.25794],[-13.62494,10.25222],[-13.672283,10.289232],[-13.719913,10.270005],[-13.76799,10.278844],[-13.83535,10.1663],[-13.9065,10.10871],[-13.84239,10.03197],[-13.67751,9.956395],[-13.684244900999943,9.938126703000023]]]]},"properties":{"shapeName":"Dubreka","shapeISO":"","shapeID":"49546643B20116898332008","shapeGroup":"GIN","shapeType":"ADM2"}},
{"type":"Feature","geometry":{"type":"Polygon","coordinates":[[[-11.387306,10.393562],[-11.387933,10.21066],[-11.437963,10.08338],[-11.470417,10.054955],[-11.477589,9.999689],[-11.20675,10.00043000100004],[-11.17497,9.975811],[-11.15437,9.879233],[-11.03871000099997,9.797740001000022],[-10.96282,9.664074],[-10.92136,9.649990001000049],[-10.91099,9.60193],[-10.8594,9.558166],[-10.87379,9.537500001000069],[-10.82749,9.51788],[-10.8489,9.454710001000024],[-10.801970000999972,9.414400001000047],[-10.81474,9.38661],[-10.73098,9.380190001000074],[-10.711600000999965,9.33468],[-10.663310000999957,9.300550001000033],[-10.663740149999967,9.210009761000038],[-10.71836,9.197499],[-10.733389726999974,9.084249600000021],[-10.599707,9.058478],[-10.4769,9.070158],[-10.454264,9.109453],[-10.427904,9.156559],[-10.444618,9.173981],[-10.422128,9.257667],[-10.393608,9.274806],[-10.3651,9.369945],[-10.374455,9.481956],[-10.418876,9.561766],[-10.414239,9.734135],[-10.366805,9.782994],[-10.368863,9.864414],[-10.327657,9.8949],[-10.361583,10.001992],[-10.320761,10.058456],[-10.323269,10.100806],[-10.265748,10.125313],[-10.201884,10.20617],[-10.236794,10.255649],[-10.239447,10.338562],[-10.195795,10.324578],[-10.166919,10.340936],[-10.152938,10.407434],[-10.125219,10.414659],[-10.145861,10.421644],[-10.150614,10.461893],[-10.116941,10.456064],[-10.109886,10.492738],[-10.139499,10.498518],[-10.145419,10.537064],[-10.193559,10.445022],[-10.214173,10.48503],[-10.237094,10.484747],[-10.212892,10.524626],[-10.27751,10.521096],[-10.295072,10.555314],[-10.337253,10.510051],[-10.401124,10.547027],[-10.414233,10.512075],[-10.467392,10.535978],[-10.547273,10.584744],[-10.637488,10.591152],[-10.681324,10.570628],[-10.72801,10.499474],[-10.76127,10.520881],[-10.776501,10.454872],[-10.919104,10.530734],[-11.068549,10.509538],[-11.120893,10.538344],[-11.228301,10.479255],[-11.295228,10.399256],[-11.387306,10.393562]]]},"properties":{"shapeName":"Faranah","shapeISO":"","shapeID":"49546643B80456504828542","shapeGroup":"GIN","shapeType":"ADM2"}},
{"type":"Feature","geometry":{"type":"Polygon","coordinates":[[[-13.507370925999965,9.514476061000039],[-13.511464118999982,9.44548225400007],[-13.474379539999973,9.40666675600005],[-13.424079895999967,9.410198212000068],[-13.432566642999973,9.351791382000044],[-13.412625313999968,9.279298783000058],[-13.357077598999979,9.275299072000053],[-13.344973564999975,9.333065988000044],[-13.324626923999972,9.338552476000075],[-13.309889794999947,9.240670204000025],[-13.325907707999932,9.179667474000041],[-13.280406951999964,9.152607918000058],[-13.260532379999972,9.190420152000058],[-13.248967170999947,9.144482612000047],[-13.32469654199997,9.067072869000071],[-13.307630539999934,9.037538529000074],[-13.174160000999962,9.0924],[-13.087620000999948,9.04837],[-12.99161,9.11283],[-12.93508,9.28665],[-12.893100000999937,9.270340001000022],[-12.8729,9.298260001000074],[-12.81212,9.28682],[-12.77698,9.34260000100005],[-12.75087,9.34961000100003],[-12.752240000999961,9.396490001000075],[-12.712170000999947,9.38953],[-12.70349,9.415540001000068],[-12.6868,9.40918],[-12.657490000999928,9.539160001000027],[-12.63437000099998,9.54822],[-12.62115,9.60115],[-12.591740000999948,9.59988],[-12.585483993999958,9.631936465000024],[-12.67958,9.71503],[-12.7506,9.73339],[-12.90794,9.69947],[-13.07578,9.58935],[-13.11475,9.58669],[-13.20519,9.56873],[-13.2439,9.58589],[-13.27808,9.55756],[-13.29284,9.61089],[-13.34365,9.62446],[-13.38354,9.59746],[-13.38873,9.56461],[-13.493986002999975,9.539449001000037],[-13.507370925999965,9.514476061000039]]]},"properties":{"shapeName":"Forecariah","shapeISO":"","shapeID":"49546643B90846257605457","shapeGroup":"GIN","shapeType":"ADM2"}},
{"type":"Feature","geometry":{"type":"Polygon","coordinates":[[[-13.76799,10.278844],[-13.719913,10.270005],[-13.672283,10.289232],[-13.62494,10.25222],[-13.58331,10.25794],[-13.55059,10.33734],[-13.50311,10.38229],[-13.508549,10.452537],[-13.39618,10.51689],[-13.38461,10.56158],[-13.40057,10.59656],[-13.35083,10.66053],[-13.394295,10.698155],[-13.443955,10.683503],[-13.43648,10.76148],[-13.466,10.80164],[-13.51748,10.79021],[-13.65247,10.66825],[-13.63345,10.59842],[-13.69184,10.52447],[-13.75781,10.525],[-13.76286,10.45704],[-13.79345,10.4327],[-13.78773,10.39413],[-13.83122,10.37551],[-13.8416,10.3118],[-13.77935,10.30063],[-13.76799,10.278844]]]},"properties":{"shapeName":"Fria","shapeISO":"","shapeID":"49546643B99930178329351","shapeGroup":"GIN","shapeType":"ADM2"}},
{"type":"Feature","geometry":{"type":"Polygon","coordinates":[[[-13.84293,11.29667],[-13.73865,11.33444],[-13.63558,11.33285],[-13.55605,11.38299],[-13.43621,11.37314],[-13.44725,11.29148],[-13.34817,11.33737],[-13.27568,11.34521],[-13.28233,11.27925],[-13.215526,11.05891],[-13.19735,11.06472],[-13.220961,11.132948],[-13.118499,11.178073],[-12.996361,11.189523],[-12.975555,11.215345],[-12.991064,11.26676],[-12.956411,11.292906],[-12.984275,11.332014],[-12.965491,11.356972],[-12.870933,11.439337],[-12.796939,11.466372],[-12.753059,11.531034],[-12.694077,11.563742],[-12.707889,11.62372],[-12.750252,11.62748],[-12.783823,11.686293],[-12.818563,11.696146],[-12.78153,11.75444],[-12.802463,11.833427],[-12.763041,11.854824],[-12.769294,11.89699],[-12.809714,11.938045],[-12.775425,11.978204],[-12.821689,12.002922],[-12.829768,12.056933],[-12.806763,12.098125],[-12.82676,12.144254],[-12.844547,12.156562],[-12.893545,12.104732],[-12.974232,12.07353],[-13.059432,12.081906],[-13.111796,12.024023],[-13.136359,12.035217],[-13.174096,12.029203],[-13.18273,12.002784],[-13.275181,11.999081],[-13.279913,12.015779],[-13.251155,12.02039],[-13.276118,12.031905],[-13.262743,12.08028],[-13.297546,12.093551],[-13.301709,12.069331],[-13.280098,12.063483],[-13.308999,12.057273],[-13.360326,12.111079],[-13.335033,12.127322],[-13.359063,12.154463],[-13.343722,12.214759],[-13.416185,12.267424],[-13.363404,12.292004],[-13.400259,12.291014],[-13.3941,12.324675],[-13.442758,12.297091],[-13.442355,12.268439],[-13.486504,12.313489],[-13.497411,12.287803],[-13.476042,12.26077],[-13.539506,12.296483],[-13.552273,12.267236],[-13.572962,12.293446],[-13.593606,12.259807],[-13.663206,12.226502],[-13.669727,12.256906],[-13.711892015999979,12.256584277000059],[-13.729145612999957,12.24733659800006],[-13.760780367999928,12.277231590000042],[-13.800243698999964,12.251934582000047],[-13.79891560599998,12.297658924000075],[-13.823516946999973,12.25781613600003],[-13.831548745999953,12.283619084000065],[-13.853810112999952,12.282101263000072],[-13.85792087599998,12.241436324000063],[-13.920657455999958,12.233783980000055],[-13.958223510999971,12.18084999100006],[-13.934986325999944,12.14288239700005],[-13.884581349999962,12.132750744000077],[-13.872676655999953,12.105141987000025],[-13.81897889299995,12.084118806000049],[-13.807264338999971,12.050116294000077],[-13.703043495999964,12.006259686000021],[-13.72171501799994,11.888577892000058],[-13.71405774799996,11.708672785000033],[-13.771845505999977,11.683373361000065],[-13.854681054999958,11.745957267000051],[-13.86888582399996,11.663991605000035],[-13.92662771199997,11.677586208000037],[-13.947326440999973,11.65538037500005],[-14.065538190999973,11.640504930000077],[-14.03777,11.6043],[-14.05307,11.56839],[-14.03538,11.53128],[-13.97686,11.51692],[-13.92751,11.4717],[-13.95717,11.40187],[-13.87219,11.34721],[-13.84293,11.29667]]]},"properties":{"shapeName":"Gaoual","shapeISO":"","shapeID":"49546643B28661548838550","shapeGroup":"GIN","shapeType":"ADM2"}},
{"type":"Feature","geometry":{"type":"Polygon","coordinates":[[[-10.599707,9.058478],[-10.583590242999946,9.036371369000051],[-10.598349938999945,8.973710441000037],[-10.5869,8.804345],[-10.53575,8.77246],[-10.510348611999973,8.709422371000073],[-10.46939,8.67458],[-10.48176,8.637876],[-10.57953,8.59574],[-10.62239,8.541684],[-10.64959,8.476318],[-10.6531,8.38791],[-10.69607,8.359575],[-10.71892,8.27101],[-10.7007,8.273252],[-10.673990000999936,8.34091],[-10.55354,8.307663],[-10.45269,8.39523],[-10.38597,8.492885],[-10.23201,8.497613],[-10.21258,8.480470001000072],[-10.15805,8.52642],[-10.08681,8.518014],[-10.05257,8.493256],[-10.055260000999965,8.42093],[-9.894485,8.500412],[-9.908812,8.541636],[-9.883023,8.56258],[-9.886207,8.608251],[-9.940766,8.661069],[-9.924539,8.730541],[-9.854503,8.836199],[-9.878879,8.849269],[-9.937451,8.814406],[-9.984677,8.811808],[-10.000112,8.951559],[-10.028601,8.896885],[-10.074833,8.87082],[-10.108009,8.882496],[-10.117587,8.928574],[-10.18581,8.887217],[-10.219757,8.947964],[-10.278412,8.959302],[-10.279524,9.022056],[-10.311049,9.066865],[-10.334002,9.061401],[-10.350704,9.008839],[-10.467601,8.980597],[-10.43469,9.054637],[-10.454264,9.109453],[-10.4769,9.070158],[-10.599707,9.058478]]]},"properties":{"shapeName":"Gueckedou","shapeISO":"","shapeID":"49546643B20526276358370","shapeGroup":"GIN","shapeType":"ADM2"}},
{"type":"Feature","geometry":{"type":"Polygon","coordinates":[[[-8.14727,9.583955],[-8.12976,9.75827],[-8.101484299999981,9.832640281000067],[-8.113339,9.867279],[-8.14345,9.869720001000076],[-8.13335230599995,9.917419848000065],[-8.156420000999958,9.90897],[-8.165472,9.926783],[-8.164014,9.951138],[-8.117781,9.9577],[-8.121493334999968,9.976140173000033],[-8.15027,9.974885],[-8.136140000999944,10],[-8.188352,10.026565],[-8.217321,10.010706],[-8.220195,10.03298],[-8.259021,10.037228],[-8.254931,10.057813],[-8.281906,10.042366],[-8.370251,10.102332],[-8.393733,10.08821],[-8.405097,10.10596],[-8.458907,10.102055],[-8.534323,10.158195],[-8.616966,10.164939],[-8.641151,10.20772],[-8.73326,10.213831],[-8.806649,10.276648],[-8.889785,10.438279],[-8.917309,10.445497],[-8.91985,10.496882],[-8.898057,10.515553],[-8.911053,10.603253],[-8.933764,10.633802],[-9.044132,10.681171],[-9.116146,10.935483],[-9.208305,10.997065],[-9.162422,11.019348],[-9.164824,11.036303],[-9.225021,11.063484],[-9.286919,11.022734],[-9.339163,10.863284],[-9.374717,10.857695],[-9.420847,10.710602],[-9.474982,10.675498],[-9.594131,10.653631],[-9.629834,10.601284],[-9.699964,10.412942],[-9.710588,10.297177],[-9.694064,10.202207],[-9.750378,10.160072],[-9.7449,10.12839],[-9.671978,10.102958],[-9.707569,10.066875],[-9.676701,10.000169],[-9.770892,9.940781],[-9.712284,9.87948],[-9.715743,9.859943],[-9.835657,9.695004],[-9.925961,9.674599],[-9.927814,9.65482],[-9.879618,9.629509],[-9.871204,9.558969],[-9.651335,9.458421],[-9.622718,9.399673],[-9.548095,9.410812],[-9.445373,9.388407],[-9.290344,9.437451],[-9.196299,9.436575],[-9.094941,9.479858],[-9.159553,9.611908],[-9.152262,9.633675],[-9.120824,9.638676],[-9.130172,9.738442],[-9.166888,9.765754],[-9.195895,9.742666],[-9.238627,9.858882],[-9.223071,9.881475],[-9.097327,9.926731],[-8.942989,9.818185],[-8.856315,9.820459],[-8.818073,9.799359],[-8.664005,9.624079],[-8.616615,9.502604],[-8.58395,9.435055],[-8.557861,9.445757],[-8.554029,9.477968],[-8.49681,9.491213],[-8.483555,9.544328],[-8.438908,9.532558],[-8.352451,9.581116],[-8.14727,9.583955]]]},"properties":{"shapeName":"Kankan","shapeISO":"","shapeID":"49546643B29721322070698","shapeGroup":"GIN","shapeType":"ADM2"}},
{"type":"Feature","geometry":{"type":"Polygon","coordinates":[[[-8.616615,9.502604],[-8.664005,9.624079],[-8.818073,9.799359],[-8.856315,9.820459],[-8.942989,9.818185],[-9.097327,9.926731],[-9.223071,9.881475],[-9.238627,9.858882],[-9.195895,9.742666],[-9.166888,9.765754],[-9.130172,9.738442],[-9.120824,9.638676],[-9.152262,9.633675],[-9.159553,9.611908],[-9.094941,9.479858],[-9.196299,9.436575],[-9.290344,9.437451],[-9.445373,9.388407],[-9.548095,9.410812],[-9.622718,9.399673],[-9.597887,9.355607],[-9.646601,9.307849],[-9.649629,9.253117],[-9.739653,9.225399],[-9.746353,9.197779],[-9.71874,9.134736],[-9.66071,9.115885],[-9.719405,9.065536],[-9.697972,9.030368],[-9.628814,8.992269],[-9.654939,8.936408],[-9.613443,8.874721],[-9.536865,8.868568],[-9.402254,8.896439],[-9.213071,8.769673],[-9.064817,8.798479],[-8.957743,8.774724],[-8.841395,8.846946],[-8.795011,8.914223],[-8.699784,8.961019],[-8.727099,9.067683],[-8.623387,9.304491],[-8.634515,9.463335],[-8.616615,9.502604]]]},"properties":{"shapeName":"Kerouane","shapeISO":"","shapeID":"49546643B6018429350706","shapeGroup":"GIN","shapeType":"ADM2"}},
{"type":"Feature","geometry":{"type":"Polygon","coordinates":[[[-13.11475,9.58669],[-13.07578,9.58935],[-12.90794,9.69947],[-12.7506,9.73339],[-12.67958,9.71503],[-12.585483993999958,9.631936465000024],[-12.56666,9.702730001000077],[-12.536140000999978,9.720540001000074],[-12.51941,9.70727],[-12.52809,9.73643],[-12.50727,9.745930001000033],[-12.49901,9.84365],[-12.4801,9.85547],[-12.22711,9.92465],[-12.14826785699995,9.877636538000047],[-12.17271,9.97518],[-12.1251,10.03862],[-12.15675,10.12574],[-12.21767,10.20487],[-12.23004,10.27071],[-12.33245,10.28667],[-12.3621,10.26525],[-12.41557,10.27164],[-12.43938,10.32218],[-12.399719,10.481095],[-12.45161,10.50612],[-12.45773,10.54402],[-12.50654,10.5649],[-12.496181,10.625764],[-12.51732,10.63021],[-12.74514,10.48125],[-12.78012,10.51662],[-12.8816,10.54682],[-12.91671,10.51569],[-12.94704,10.51796],[-12.95462,10.55892],[-13.04679,10.4077],[-13.10172,10.43669],[-13.17181,10.39759],[-13.14561,10.24703],[-13.19256,10.15992],[-13.17407,10.11736],[-13.29204,10.03862],[-13.25866,9.96295],[-13.20413,9.88035],[-13.2,9.71623],[-13.13124,9.63763],[-13.11475,9.58669]]]},"properties":{"shapeName":"Kindia","shapeISO":"","shapeID":"49546643B82751767083924","shapeGroup":"GIN","shapeType":"ADM2"}},
{"type":"Feature","geometry":{"type":"Polygon","coordinates":[[[-10.454264,9.109453],[-10.43469,9.054637],[-10.467601,8.980597],[-10.350704,9.008839],[-10.334002,9.061401],[-10.311049,9.066865],[-10.279524,9.022056],[-10.278412,8.959302],[-10.219757,8.947964],[-10.18581,8.887217],[-10.117587,8.928574],[-10.108009,8.882496],[-10.074833,8.87082],[-10.028601,8.896885],[-10.000112,8.951559],[-9.984677,8.811808],[-9.937451,8.814406],[-9.878879,8.849269],[-9.854503,8.836199],[-9.803546,8.846477],[-9.762154,8.892923],[-9.613443,8.874721],[-9.654939,8.936408],[-9.628814,8.992269],[-9.697972,9.030368],[-9.719405,9.065536],[-9.66071,9.115885],[-9.71874,9.134736],[-9.746353,9.197779],[-9.739653,9.225399],[-9.649629,9.253117],[-9.646601,9.307849],[-9.597887,9.355607],[-9.622718,9.399673],[-9.651335,9.458421],[-9.871204,9.558969],[-9.879618,9.629509],[-9.927814,9.65482],[-9.975295,9.668038],[-10.066249,9.610024],[-10.09392,9.624313],[-10.107299,9.671263],[-10.160642,9.699254],[-10.225797,9.590115],[-10.281655,9.546202],[-10.418876,9.561766],[-10.374455,9.481956],[-10.3651,9.369945],[-10.393608,9.274806],[-10.422128,9.257667],[-10.444618,9.173981],[-10.427904,9.156559],[-10.454264,9.109453]]]},"properties":{"shapeName":"Kissidougou","shapeISO":"","shapeID":"49546643B59034527585113","shapeGroup":"GIN","shapeType":"ADM2"}},
{"type":"Feature","geometry":{"type":"Polygon","coordinates":[[[-11.304530116999956,12.017129885000031],[-11.36176,12.05994],[-11.376000000999966,12.10389],[-11.469020000999933,12.13867],[-11.491537451999932,12.216143963000036],[-11.638553,12.102125],[-11.713741,11.992582],[-11.861712,11.864102],[-11.969174,11.868574],[-12.061416,11.805189],[-12.138604,11.671474],[-12.234779,11.657418],[-12.221146,11.49787],[-12.129926,11.483473],[-12.069765,11.44539],[-12.04156,11.357649],[-11.986852,11.320463],[-11.964449,11.394465],[-11.891268,11.459326],[-11.852238,11.537305],[-11.672781,11.649355],[-11.586951,11.803979],[-11.547,11.788079],[-11.446421,11.905718],[-11.361917,11.936923],[-11.304530116999956,12.017129885000031]]]},"properties":{"shapeName":"Koubia","shapeISO":"","shapeID":"49546643B77076064318361","shapeGroup":"GIN","shapeType":"ADM2"}},
{"type":"Feature","geometry":{"type":"Polygon","coordinates":[[[-12.82676,12.144254],[-12.751214,12.253917],[-12.563143,12.367398],[-12.63394,12.431280001000061],[-12.75545,12.435070001000042],[-12.77183,12.4709],[-12.83418,12.486880001000031],[-12.88765,12.54065],[-12.930910000999972,12.53052],[-12.96865,12.461670001000073],[-13.0606,12.47781],[-13.07659,12.529710001000069],[-13.050900000999945,12.582060001000059],[-13.073470000999976,12.638990001000025],[-13.18770000099994,12.62776],[-13.21335000099998,12.64877],[-13.708273132999977,12.676212773000032],[-13.711111617999961,12.59944236900003],[-13.631871744999955,12.46035699500004],[-13.670436073999952,12.39550503700002],[-13.666623942999934,12.316671081000038],[-13.711892015999979,12.256584277000059],[-13.669727,12.256906],[-13.663206,12.226502],[-13.593606,12.259807],[-13.572962,12.293446],[-13.552273,12.267236],[-13.539506,12.296483],[-13.476042,12.26077],[-13.497411,12.287803],[-13.486504,12.313489],[-13.442355,12.268439],[-13.442758,12.297091],[-13.3941,12.324675],[-13.400259,12.291014],[-13.363404,12.292004],[-13.416185,12.267424],[-13.343722,12.214759],[-13.359063,12.154463],[-13.335033,12.127322],[-13.360326,12.111079],[-13.308999,12.057273],[-13.280098,12.063483],[-13.301709,12.069331],[-13.297546,12.093551],[-13.262743,12.08028],[-13.276118,12.031905],[-13.251155,12.02039],[-13.279913,12.015779],[-13.275181,11.999081],[-13.18273,12.002784],[-13.174096,12.029203],[-13.136359,12.035217],[-13.111796,12.024023],[-13.059432,12.081906],[-12.974232,12.07353],[-12.893545,12.104732],[-12.844547,12.156562],[-12.82676,12.144254]]]},"properties":{"shapeName":"Koundara","shapeISO":"","shapeID":"49546643B96982587885478","shapeGroup":"GIN","shapeType":"ADM2"}},
{"type":"Feature","geometry":{"type":"Polygon","coordinates":[[[-10.467392,10.535978],[-10.414233,10.512075],[-10.401124,10.547027],[-10.337253,10.510051],[-10.295072,10.555314],[-10.27751,10.521096],[-10.212892,10.524626],[-10.237094,10.484747],[-10.214173,10.48503],[-10.193559,10.445022],[-10.145419,10.537064],[-10.139499,10.498518],[-10.109886,10.492738],[-10.116941,10.456064],[-10.150614,10.461893],[-10.145861,10.421644],[-10.125219,10.414659],[-10.152938,10.407434],[-10.166919,10.340936],[-10.195795,10.324578],[-10.239447,10.338562],[-10.236794,10.255649],[-10.201884,10.20617],[-10.265748,10.125313],[-10.323269,10.100806],[-10.320761,10.058456],[-10.361583,10.001992],[-10.327657,9.8949],[-10.368863,9.864414],[-10.366805,9.782994],[-10.414239,9.734135],[-10.418876,9.561766],[-10.281655,9.546202],[-10.225797,9.590115],[-10.160642,9.699254],[-10.107299,9.671263],[-10.09392,9.624313],[-10.066249,9.610024],[-9.975295,9.668038],[-9.927814,9.65482],[-9.925961,9.674599],[-9.835657,9.695004],[-9.715743,9.859943],[-9.712284,9.87948],[-9.770892,9.940781],[-9.676701,10.000169],[-9.707569,10.066875],[-9.671978,10.102958],[-9.7449,10.12839],[-9.750378,10.160072],[-9.694064,10.202207],[-9.710588,10.297177],[-9.699964,10.412942],[-9.629834,10.601284],[-9.594131,10.653631],[-9.474982,10.675498],[-9.420847,10.710602],[-9.374717,10.857695],[-9.743761,10.937157],[-9.803924,11.013846],[-9.833616,11.200998],[-9.873187,11.235312],[-9.878943,11.318764],[-9.954303,11.374269],[-10.01626,11.387491],[-10.004753,11.406959],[-10.029092,11.417158],[-10.077703,11.354308],[-10.063362,11.3967],[-10.103262,11.378547],[-10.12103,11.390739],[-10.124081,11.35436],[-10.152217,11.350737],[-10.16911,11.361437],[-10.155239,11.391025],[-10.189843,11.384087],[-10.195039,11.414224],[-10.217568,11.401067],[-10.248531,11.42553],[-10.247214,11.405715],[-10.266724,11.395156],[-10.288983,11.414102],[-10.300256,11.379784],[-10.333165,11.373551],[-10.321229,11.430617],[-10.380228,11.322627],[-10.475761,11.29452],[-10.443231,11.255601],[-10.512555,11.197074],[-10.568904,11.183158],[-10.644987,11.199209],[-10.633866,11.179121],[-10.663143,11.183478],[-10.665143,11.154693],[-10.68984,11.163405],[-10.720635,11.13326],[-10.71814,11.058776],[-10.791086,10.999675],[-10.815442,10.929912],[-10.908789,10.875836],[-10.732803,10.792615],[-10.668939,10.735324],[-10.511689,10.760641],[-10.455165,10.614541],[-10.447493,10.556912],[-10.467392,10.535978]]]},"properties":{"shapeName":"Kouroussa","shapeISO":"","shapeID":"49546643B25969650419510","shapeGroup":"GIN","shapeType":"ADM2"}},
{"type":"Feature","geometry":{"type":"Polygon","coordinates":[[[-12.011669,11.290911],[-11.986852,11.320463],[-12.04156,11.357649],[-12.069765,11.44539],[-12.129926,11.483473],[-12.221146,11.49787],[-12.234779,11.657418],[-12.323554,11.695563],[-12.361829,11.681143],[-12.377072,11.667403],[-12.353651,11.613635],[-12.457718,11.540471],[-12.475975,11.456791],[-12.539317,11.417395],[-12.607821,11.32734],[-12.568182,11.337719],[-12.497011,11.285766],[-12.502151,11.232116],[-12.474987,11.151043],[-12.424725,11.131298],[-12.395286,11.181231],[-12.292541,11.193668],[-12.237322,11.143505],[-12.208989,11.162247],[-12.162137,11.191936],[-12.120216,11.286799],[-12.011669,11.290911]]]},"properties":{"shapeName":"Labe","shapeISO":"","shapeID":"49546643B62226026687736","shapeGroup":"GIN","shapeType":"ADM2"}},
{"type":"Feature","geometry":{"type":"Polygon","coordinates":[[[-12.996361,11.189523],[-12.96885,11.17285],[-12.95249,11.10542],[-12.92563,11.09863],[-12.85899,11.14412],[-12.78877,11.11114],[-12.728187,11.235546],[-12.655863,11.281602],[-12.656265,11.315841],[-12.607821,11.32734],[-12.539317,11.417395],[-12.475975,11.456791],[-12.457718,11.540471],[-12.353651,11.613635],[-12.377072,11.667403],[-12.361829,11.681143],[-12.439086,11.69068],[-12.463645,11.740301],[-12.540385,11.741136],[-12.640025,11.860016],[-12.660656,11.9286],[-12.707333,11.914293],[-12.763041,11.854824],[-12.802463,11.833427],[-12.78153,11.75444],[-12.818563,11.696146],[-12.783823,11.686293],[-12.750252,11.62748],[-12.707889,11.62372],[-12.694077,11.563742],[-12.753059,11.531034],[-12.796939,11.466372],[-12.870933,11.439337],[-12.965491,11.356972],[-12.984275,11.332014],[-12.956411,11.292906],[-12.991064,11.26676],[-12.975555,11.215345],[-12.996361,11.189523]]]},"properties":{"shapeName":"Lelouma","shapeISO":"","shapeID":"49546643B79531384041877","shapeGroup":"GIN","shapeType":"ADM2"}},
{"type":"Feature","geometry":{"type":"Polygon","coordinates":[[[-8.464554,8.271854],[-8.444289,8.253794],[-8.446292,8.212963],[-8.533508,8.201267],[-8.578091,8.155638],[-8.581305,8.089951],[-8.538309,8.029666],[-8.581324,7.93243],[-8.567903,7.885555],[-8.608833,7.812777],[-8.56379,7.775962],[-8.56557688099997,7.692838359000064],[-8.565239469999938,7.625899465000032],[-8.47218,7.55459],[-8.393017,7.612191],[-8.369346567999969,7.572750553000049],[-8.302776,7.601424],[-8.20504,7.53575],[-8.139861,7.693283],[-8.09404,7.72204],[-8.07135,7.79023],[-8.117181,7.858753],[-8.06577,7.95835],[-8.057645,8.022717],[-8.000280000999965,8.03918],[-7.984294,8.010965],[-7.945582,8.012988],[-7.946581,8.042386],[-8.014451,8.102264],[-7.99842,8.198545],[-8.01793,8.186380001000032],[-8.0396,8.205470001000037],[-8.06893,8.16151],[-8.126380000999973,8.196170001000041],[-8.179585,8.199775],[-8.219083,8.233978],[-8.243995,8.228629],[-8.22566,8.354940001000045],[-8.245590000999925,8.44255],[-8.280536,8.445788],[-8.342045,8.496003],[-8.466482,8.456125],[-8.517058,8.370238],[-8.464554,8.271854]]]},"properties":{"shapeName":"Lola","shapeISO":"","shapeID":"49546643B14657084308206","shapeGroup":"GIN","shapeType":"ADM2"}},
{"type":"Feature","geometry":{"type":"Polygon","coordinates":[[[-8.957743,8.774724],[-9.064817,8.798479],[-9.213071,8.769673],[-9.402254,8.896439],[-9.536865,8.868568],[-9.613443,8.874721],[-9.762154,8.892923],[-9.803546,8.846477],[-9.854503,8.836199],[-9.924539,8.730541],[-9.940766,8.661069],[-9.886207,8.608251],[-9.883023,8.56258],[-9.908812,8.541636],[-9.894485,8.500412],[-9.84685000099995,8.48748],[-9.80431,8.502600001000076],[-9.799960000999931,8.534490001000052],[-9.75936,8.549420001000044],[-9.717480000999956,8.44445],[-9.691840000999946,8.4916],[-9.62812,8.4586],[-9.654750198999977,8.40227012400004],[-9.606050000999971,8.40679],[-9.5796,8.4328],[-9.53331,8.383351],[-9.480072,8.376794],[-9.520167456999957,8.326167130000044],[-9.488165,8.267322],[-9.516600000999972,8.2427],[-9.51985,8.179371],[-9.463471,8.165902],[-9.444740028999945,8.071420936000038],[-9.459948149999946,8.036177862000045],[-9.427620089999948,8.04788718900005],[-9.40973,7.97951],[-9.432427,7.947937],[-9.423477,7.862288],[-9.359363,7.796106],[-9.349808843999938,7.75680995700003],[-9.317831,7.748209],[-9.304358,7.801758],[-9.213116,7.868766],[-9.064054,8.063978],[-9.010693,8.087924],[-9.00932,8.120246],[-8.972857,8.156493],[-8.986657,8.184],[-8.934544,8.254406],[-8.873133,8.407064],[-8.901632,8.561987],[-8.890533,8.632787],[-8.915614,8.635074],[-8.915799,8.696228],[-8.933059,8.698103],[-8.957743,8.774724]]]},"properties":{"shapeName":"Macenta","shapeISO":"","shapeID":"49546643B89321000346935","shapeGroup":"GIN","shapeType":"ADM2"}},
{"type":"Feature","geometry":{"type":"Polygon","coordinates":[[[-12.763041,11.854824],[-12.707333,11.914293],[-12.660656,11.9286],[-12.640025,11.860016],[-12.540385,11.741136],[-12.463645,11.740301],[-12.439086,11.69068],[-12.361829,11.681143],[-12.323554,11.695563],[-12.234779,11.657418],[-12.138604,11.671474],[-12.061416,11.805189],[-11.969174,11.868574],[-11.861712,11.864102],[-11.713741,11.992582],[-11.638553,12.102125],[-11.491537451999932,12.216143963000036],[-11.434850000999973,12.286800001000074],[-11.43966,12.37861],[-11.37375,12.38936],[-11.37946,12.41356],[-11.45971,12.44149],[-11.66383,12.423400001000061],[-11.76161,12.387860001000035],[-11.8494,12.39738],[-11.90332000099994,12.430870001000073],[-11.99874,12.39686000100005],[-12.09684,12.421310001000052],[-12.159190000999956,12.368050001000029],[-12.34363,12.30731],[-12.40402,12.36874],[-12.47414,12.39906],[-12.563143,12.367398],[-12.751214,12.253917],[-12.82676,12.144254],[-12.806763,12.098125],[-12.829768,12.056933],[-12.821689,12.002922],[-12.775425,11.978204],[-12.809714,11.938045],[-12.769294,11.89699],[-12.763041,11.854824]]]},"properties":{"shapeName":"Mali","shapeISO":"","shapeID":"49546643B49159513129654","shapeGroup":"GIN","shapeType":"ADM2"}},
{"type":"Feature","geometry":{"type":"Polygon","coordinates":[[[-11.15547,11.055242],[-11.137166,11.074795],[-11.208031,11.100461],[-11.254607,11.147399],[-11.279045,11.141022],[-11.33679,11.267492],[-11.392833,11.269235],[-11.385701,11.232192],[-11.505549,11.185381],[-11.561153,11.109854],[-11.612066,11.077683],[-11.649534,11.081186],[-11.742933,10.987454],[-11.750086,10.906121],[-11.818669,10.84629],[-11.972629,10.869301],[-12.034346,10.805403],[-12.076774,10.823189],[-12.11384,10.783623],[-12.194541,10.773463],[-12.216077,10.650571],[-12.284003,10.599482],[-12.303997,10.50386],[-12.399719,10.481095],[-12.43938,10.32218],[-12.41557,10.27164],[-12.3621,10.26525],[-12.33245,10.28667],[-12.23004,10.27071],[-12.21767,10.20487],[-12.15675,10.12574],[-12.1251,10.03862],[-12.17271,9.97518],[-12.14826785699995,9.877636538000047],[-11.906580000999952,9.93581],[-11.88585,9.997462],[-11.477589,9.999689],[-11.470417,10.054955],[-11.437963,10.08338],[-11.387933,10.21066],[-11.387306,10.393562],[-11.398645,10.451565],[-11.527931,10.492234],[-11.507414,10.607686],[-11.448311,10.72396],[-11.461384,10.732516],[-11.437417,10.826632],[-11.498424,10.877968],[-11.524458,10.876288],[-11.5258,10.905738],[-11.454077,10.993466],[-11.350145,10.971423],[-11.15547,11.055242]]]},"properties":{"shapeName":"Mamou","shapeISO":"","shapeID":"49546643B72815389499799","shapeGroup":"GIN","shapeType":"ADM2"}},
{"type":"Feature","geometry":{"type":"Polygon","coordinates":[[[-8.136140000999944,10],[-8.106680000999972,10.04690000100004],[-8.016502,10.0971],[-7.948704,10.2515],[-7.995272,10.33831],[-8.091685,10.35809],[-8.120452,10.42213],[-8.173234,10.39905],[-8.225393,10.41],[-8.261840000999939,10.47687],[-8.301474,10.63623],[-8.29557,10.75094],[-8.328957,10.76189],[-8.275601,10.85308],[-8.293230000999927,11.00784],[-8.347776,11.06802],[-8.446017882999968,11.073669835000032],[-8.482444,11.06507],[-8.515064,10.97202],[-8.590490000999978,10.950240001000054],[-8.68022,10.96224],[-8.681372,11.0078],[-8.620676,11.08906],[-8.622450000999947,11.119900001000076],[-8.57099,11.13983],[-8.56633,11.20465],[-8.48646,11.22196000100007],[-8.499286,11.26282],[-8.47919,11.288830001000065],[-8.376987,11.27917],[-8.365088536999963,11.320901311000057],[-8.421792,11.33558],[-8.41079,11.36007],[-8.37589,11.36748],[-8.502104,11.39928],[-8.53536,11.47783000100003],[-8.576340000999949,11.44332],[-8.61263,11.452760001000058],[-8.688864,11.5762],[-8.691570000999945,11.63557],[-8.762202947999981,11.608536289000028],[-8.801817,11.523333],[-8.898735,11.452655],[-8.989145,11.418863],[-8.972745,11.389666],[-9.08809,11.236073],[-9.105682,11.180804],[-9.225021,11.063484],[-9.164824,11.036303],[-9.162422,11.019348],[-9.208305,10.997065],[-9.116146,10.935483],[-9.044132,10.681171],[-8.933764,10.633802],[-8.911053,10.603253],[-8.898057,10.515553],[-8.91985,10.496882],[-8.917309,10.445497],[-8.889785,10.438279],[-8.806649,10.276648],[-8.73326,10.213831],[-8.641151,10.20772],[-8.616966,10.164939],[-8.534323,10.158195],[-8.458907,10.102055],[-8.405097,10.10596],[-8.393733,10.08821],[-8.370251,10.102332],[-8.281906,10.042366],[-8.254931,10.057813],[-8.259021,10.037228],[-8.220195,10.03298],[-8.217321,10.010706],[-8.188352,10.026565],[-8.136140000999944,10]]]},"properties":{"shapeName":"Mandiana","shapeISO":"","shapeID":"49546643B67473886511689","shapeGroup":"GIN","shapeType":"ADM2"}},
{"type":"Feature","geometry":{"type":"Polygon","coordinates":[[[-8.934544,8.254406],[-8.986657,8.184],[-8.972857,8.156493],[-9.00932,8.120246],[-9.010693,8.087924],[-9.064054,8.063978],[-9.213116,7.868766],[-9.083317,7.87522],[-9.048886,7.834217],[-9.057882,7.784766],[-8.962249,7.767753],[-8.949015,7.667237],[-8.795982,7.484872],[-8.805410592999976,7.403597217000026],[-8.70905,7.508300001000066],[-8.72264,7.552200001000074],[-8.70679,7.64002],[-8.66612,7.69309],[-8.56557688099997,7.692838359000064],[-8.56379,7.775962],[-8.608833,7.812777],[-8.567903,7.885555],[-8.581324,7.93243],[-8.538309,8.029666],[-8.581305,8.089951],[-8.578091,8.155638],[-8.533508,8.201267],[-8.446292,8.212963],[-8.444289,8.253794],[-8.464554,8.271854],[-8.509047,8.249182],[-8.568754,8.259745],[-8.609496,8.349867],[-8.690426,8.38237],[-8.730157,8.341993],[-8.793442,8.329007],[-8.783499,8.308805],[-8.812409,8.293575],[-8.801785,8.261274],[-8.823581,8.235392],[-8.934544,8.254406]]]},"properties":{"shapeName":"Nzerekore","shapeISO":"","shapeID":"49546643B90650861539484","shapeGroup":"GIN","shapeType":"ADM2"}},
{"type":"Feature","geometry":{"type":"Polygon","coordinates":[[[-12.208989,11.162247],[-12.237322,11.143505],[-12.292541,11.193668],[-12.395286,11.181231],[-12.424725,11.131298],[-12.474987,11.151043],[-12.502151,11.232116],[-12.497011,11.285766],[-12.568182,11.337719],[-12.607821,11.32734],[-12.656265,11.315841],[-12.655863,11.281602],[-12.728187,11.235546],[-12.78877,11.11114],[-12.82707,11.0175],[-12.85394,11.03054],[-12.94518,10.93584],[-12.96659,10.81973],[-12.93081,10.72903],[-12.95302,10.68806],[-12.94052,10.65761],[-12.98175,10.60281],[-12.95462,10.55892],[-12.94704,10.51796],[-12.91671,10.51569],[-12.8816,10.54682],[-12.78012,10.51662],[-12.74514,10.48125],[-12.51732,10.63021],[-12.496181,10.625764],[-12.457534,10.651859],[-12.401432,10.799326],[-12.367198,10.792179],[-12.350663,10.873484],[-12.395573,10.93315],[-12.349244,10.945605],[-12.311416,10.994905],[-12.295982,11.066413],[-12.263765,11.033926],[-12.21202,11.055051],[-12.232918,11.083758],[-12.189854,11.1131],[-12.208989,11.162247]]]},"properties":{"shapeName":"Pita","shapeISO":"","shapeID":"49546643B45846614697329","shapeGroup":"GIN","shapeType":"ADM2"}},
{"type":"Feature","geometry":{"type":"Polygon","coordinates":[[[-10.004753,11.406959],[-10.01626,11.387491],[-9.954303,11.374269],[-9.878943,11.318764],[-9.873187,11.235312],[-9.833616,11.200998],[-9.803924,11.013846],[-9.743761,10.937157],[-9.374717,10.857695],[-9.339163,10.863284],[-9.286919,11.022734],[-9.225021,11.063484],[-9.105682,11.180804],[-9.08809,11.236073],[-8.972745,11.389666],[-8.989145,11.418863],[-8.898735,11.452655],[-8.801817,11.523333],[-8.762202947999981,11.608536289000028],[-8.85433,11.628350001000058],[-8.794912,11.92387],[-8.816203,11.9726],[-8.80539,12.00517],[-8.832333,12.039],[-8.871512,12.02328],[-8.912936,12.04115],[-8.90283,12.16874],[-8.924521503999927,12.198619336000036],[-8.97331,12.18251],[-8.992901,12.22144],[-8.987021,12.28074],[-8.957666,12.32075],[-8.9689,12.34845],[-9.03428,12.423070001000042],[-9.15446,12.48408],[-9.25332934599993,12.502629886000022],[-9.28861,12.48221],[-9.319590079999955,12.500629497000034],[-9.330076,12.47794],[-9.36200039399995,12.495669201000055],[-9.404638,12.4615],[-9.29758,12.35852],[-9.322485,12.31662],[-9.319798,12.27289],[-9.34039,12.24292],[-9.414621145999945,12.260289754000041],[-9.47928,12.245819993000055],[-9.54141,12.19268],[-9.6304,12.17282],[-9.677720000999955,12.12369],[-9.69976,12.02382],[-9.882901,12.05712],[-9.914441,12.09848],[-9.970773,12.09835],[-10.0017,12.12819],[-10.06709,12.13913],[-10.086779,12.177659],[-10.221271,12.07618],[-10.159502,11.932193],[-10.193026,11.907222],[-10.182375,11.869051],[-10.246227,11.774698],[-10.219256,11.751379],[-10.228137,11.703812],[-10.257658,11.681533],[-10.265526,11.588353],[-10.2219,11.540954],[-10.031232,11.478379],[-10.009626,11.462862],[-10.004753,11.406959]]]},"properties":{"shapeName":"Siguiri","shapeISO":"","shapeID":"49546643B83328532988272","shapeGroup":"GIN","shapeType":"ADM2"}},
{"type":"Feature","geometry":{"type":"Polygon","coordinates":[[[-13.65247,10.66825],[-13.51748,10.79021],[-13.466,10.80164],[-13.43648,10.76148],[-13.443955,10.683503],[-13.394295,10.698155],[-13.35083,10.66053],[-13.40057,10.59656],[-13.38461,10.56158],[-13.39618,10.51689],[-13.32729,10.48843],[-13.26863,10.41993],[-13.17181,10.39759],[-13.10172,10.43669],[-13.04679,10.4077],[-12.95462,10.55892],[-12.98175,10.60281],[-12.94052,10.65761],[-12.95302,10.68806],[-12.93081,10.72903],[-12.96659,10.81973],[-12.94518,10.93584],[-12.85394,11.03054],[-12.82707,11.0175],[-12.78877,11.11114],[-12.85899,11.14412],[-12.92563,11.09863],[-12.95249,11.10542],[-12.96885,11.17285],[-12.996361,11.189523],[-13.118499,11.178073],[-13.220961,11.132948],[-13.19735,11.06472],[-13.215526,11.05891],[-13.28233,11.27925],[-13.27568,11.34521],[-13.34817,11.33737],[-13.44725,11.29148],[-13.43621,11.37314],[-13.55605,11.38299],[-13.63558,11.33285],[-13.73865,11.33444],[-13.84293,11.29667],[-13.7735,11.23389],[-13.78853,11.19812],[-13.75741,11.19],[-13.74012,11.1517],[-13.76273,11.09358],[-13.81646,11.04942],[-13.76898,10.9534],[-13.8118,10.91124],[-13.9198,10.86189],[-13.98072,10.73568],[-13.91887,10.66559],[-13.88083,10.68487],[-13.867,10.73607],[-13.82803,10.72943],[-13.79491,10.75563],[-13.75196,10.7249],[-13.71604,10.7261],[-13.70806,10.6975],[-13.65247,10.66825]]]},"properties":{"shapeName":"Telimele","shapeISO":"","shapeID":"49546643B50480493924889","shapeGroup":"GIN","shapeType":"ADM2"}},
{"type":"Feature","geometry":{"type":"Polygon","coordinates":[[[-11.742933,10.987454],[-11.649534,11.081186],[-11.612066,11.077683],[-11.561153,11.109854],[-11.505549,11.185381],[-11.385701,11.232192],[-11.392833,11.269235],[-11.33679,11.267492],[-11.336954,11.30838],[-11.267742,11.401403],[-11.189919,11.42407],[-11.123279,11.478755],[-11.121052,11.517595],[-11.196319,11.537038],[-11.21332,11.573958],[-11.14416,11.628473],[-11.164983,11.654556],[-11.141488,11.686568],[-11.089669,11.706956],[-11.070336,11.749882],[-11.076797,11.855749],[-11.047884,11.883291],[-11.159923,11.941589],[-11.166594,12.032625],[-11.24695,11.99247],[-11.304530116999956,12.017129885000031],[-11.361917,11.936923],[-11.446421,11.905718],[-11.547,11.788079],[-11.586951,11.803979],[-11.672781,11.649355],[-11.852238,11.537305],[-11.891268,11.459326],[-11.964449,11.394465],[-11.986852,11.320463],[-12.011669,11.290911],[-11.961561,11.218371],[-11.878873,11.17787],[-11.894885,11.084886],[-11.866141,11.028608],[-11.742933,10.987454]]]},"properties":{"shapeName":"Tougue","shapeISO":"","shapeID":"49546643B49131951551470","shapeGroup":"GIN","shapeType":"ADM2"}},
{"type":"Feature","geometry":{"type":"Polygon","coordinates":[[[-9.349808843999938,7.75680995700003],[-9.370667,7.681994],[-9.35715,7.61217],[-9.477838024999926,7.36201139700006],[-9.410858,7.423495],[-9.393971,7.388764],[-9.35008,7.42922],[-9.29527,7.422640001000048],[-9.274587,7.379552],[-9.211778,7.385181],[-9.19024,7.30321],[-9.15379,7.273436],[-9.116056,7.273731],[-9.094150000999946,7.22582],[-9.104450420999967,7.193552363000038],[-8.94102,7.26262],[-8.93701,7.28555],[-8.915597,7.287982],[-8.90284,7.261062],[-8.848072,7.263333],[-8.833480991999977,7.283468630000073],[-8.84583,7.34735],[-8.805410592999976,7.403597217000026],[-8.795982,7.484872],[-8.949015,7.667237],[-8.962249,7.767753],[-9.057882,7.784766],[-9.048886,7.834217],[-9.083317,7.87522],[-9.213116,7.868766],[-9.304358,7.801758],[-9.317831,7.748209],[-9.349808843999938,7.75680995700003]]]},"properties":{"shapeName":"Yomou","shapeISO":"","shapeID":"49546643B93814621089544","shapeGroup":"GIN","shapeType":"ADM2"}}
]}