{"type":"FeatureCollection", "features": [
{"type":"Feature","geometry":{"type":"Polygon","coordinates":[[[-16.628905996999947,13.467874749000032],[-16.64208949199997,13.47420276300005],[-16.65914494499998,13.474410851000073],[-16.667377441999975,13.48924641900004],[-16.67118776999996,13.484647085000063],[-16.69367383699995,13.475771580000071],[-16.702370756999926,13.466474321000021],[-16.69278535799998,13.461538],[-16.688794515999973,13.464204347000077],[-16.68160090599997,13.467858947000025],[-16.67573851999998,13.457237571000064],[-16.66977227899997,13.465661810000029],[-16.656926382999927,13.464045810000073],[-16.639980866999963,13.469263097000066],[-16.628905996999947,13.467874749000032]]]},"properties":{"shapeName":"Bakau","shapeISO":"","shapeID":"56634734B97208940932189","shapeGroup":"GMB","shapeType":"ADM2"}},
{"type":"Feature","geometry":{"type":"Polygon","coordinates":[[[-16.571880584999974,13.456508625000026],[-16.58840566999993,13.463176185000066],[-16.579850848999968,13.458468468000035],[-16.58131988499997,13.450507575000074],[-16.571880584999974,13.456508625000026]]]},"properties":{"shapeName":"Banjul Central","shapeISO":"","shapeID":"56634734B44527271765824","shapeGroup":"GMB","shapeType":"ADM2"}},
{"type":"Feature","geometry":{"type":"Polygon","coordinates":[[[-16.58840566999993,13.463176185000066],[-16.60155148299998,13.464885227000025],[-16.616387138999983,13.47361359000007],[-16.627126700999952,13.467849096000066],[-16.618590653999945,13.466655770000045],[-16.607465332999936,13.459755451000035],[-16.612814557999968,13.447390942000027],[-16.605779481999946,13.443353888000047],[-16.591082667999956,13.448805807000042],[-16.583095311999955,13.44724842000005],[-16.58131988499997,13.450507575000074],[-16.579850848999968,13.458468468000035],[-16.58840566999993,13.463176185000066]]]},"properties":{"shapeName":"Banjul North","shapeISO":"","shapeID":"56634734B93236052329958","shapeGroup":"GMB","shapeType":"ADM2"}},
{"type":"Feature","geometry":{"type":"Polygon","coordinates":[[[-16.58131988499997,13.450507575000074],[-16.583095311999955,13.44724842000005],[-16.574454742999933,13.442376098000068],[-16.570283290999953,13.45173909500005],[-16.571880584999974,13.456508625000026],[-16.58131988499997,13.450507575000074]]]},"properties":{"shapeName":"Banjul South","shapeISO":"","shapeID":"56634734B29168541437208","shapeGroup":"GMB","shapeType":"ADM2"}},
{"type":"Feature","geometry":{"type":"Polygon","coordinates":[[[-14.207267290999937,13.319647395000061],[-14.209190658999944,13.315777191000052],[-14.216138743999977,13.315805871000066],[-14.225455416999978,13.335308613000052],[-14.243841724999982,13.337385740000059],[-14.253546986999936,13.35505801100004],[-14.280161692999968,13.368000160000065],[-14.286736294999969,13.366364687000043],[-14.288930170999947,13.354332760000034],[-14.297808196999938,13.334875963000059],[-14.30719755299998,13.32813945600003],[-14.29890097599997,13.322101025000052],[-14.299469124999973,13.317003998000075],[-14.294334740999943,13.318777382000064],[-14.247758187999978,13.284650530000022],[-14.252653313999929,13.232689189000041],[-14.248120874999927,13.227677400000061],[-14.226383970999962,13.219893457000069],[-14.207071694999968,13.216893715000026],[-14.206739797999944,13.219362587000035],[-14.184835029999931,13.219121132000055],[-14.157784600999946,13.23006054700005],[-14.136843790999933,13.23197970700005],[-14.132998544999964,13.234417958000051],[-14.132511791999946,13.254108169000062],[-14.119206898999948,13.282839400000057],[-14.130408175999946,13.284570752000036],[-14.152588052999931,13.295084455000051],[-14.16971001099995,13.314622015000054],[-14.200636116999931,13.31486824500007],[-14.207267290999937,13.319647395000061]]]},"properties":{"shapeName":"Basse","shapeISO":"","shapeID":"56634734B15786085247071","shapeGroup":"GMB","shapeType":"ADM2"}},
{"type":"Feature","geometry":{"type":"Polygon","coordinates":[[[-15.872498491999977,13.59304852300005],[-15.988835860999927,13.592696770000032],[-15.990426082999932,13.554226461000042],[-16.001312687999928,13.501787031000049],[-15.99662226299995,13.498088660000064],[-15.998193929999957,13.48957606600004],[-16.001409018999937,13.489849184000036],[-15.996550831999969,13.480861796000056],[-16.002241437999942,13.479266547000066],[-16.003520975999947,13.470826575000046],[-15.99870406599996,13.47170354900004],[-15.998391755999933,13.46684401300007],[-16.00218844899996,13.466542976000028],[-15.997195648999934,13.460200929000052],[-15.999219855999968,13.455189149000034],[-15.990201086999946,13.44881631800007],[-15.966905397999938,13.446880470000053],[-15.933332038999936,13.452439936000076],[-15.905563963999953,13.44846683000003],[-15.87858711399997,13.461000717000047],[-15.853339268999946,13.467592767000042],[-15.816924203999974,13.460422262000066],[-15.817530072999944,13.474479132000056],[-15.821811797999942,13.475023640000074],[-15.830432188999964,13.492587289000028],[-15.841444119999949,13.500055099000065],[-15.834323705999964,13.503918402000068],[-15.832208956999978,13.511255412000025],[-15.835062594999954,13.511245920000022],[-15.837582680999958,13.51786938600003],[-15.842843138999967,13.517546325000069],[-15.843774848999942,13.528887165000071],[-15.851812123999935,13.531914081000025],[-15.854102410999928,13.54892217500003],[-15.872498491999977,13.59304852300005]]]},"properties":{"shapeName":"Central Badibu","shapeISO":"","shapeID":"56634734B73613655778936","shapeGroup":"GMB","shapeType":"ADM2"}},
{"type":"Feature","geometry":{"type":"Polygon","coordinates":[[[-16.182888333999927,13.263961487000074],[-16.203670630999966,13.249462890000075],[-16.20761672499998,13.253108969000039],[-16.20956514599993,13.268858028000068],[-16.202058815999976,13.302059277000069],[-16.221261218999928,13.325788244000023],[-16.282469891999938,13.305680618000054],[-16.310611103999975,13.290551476000076],[-16.333066324999947,13.293265400000053],[-16.341685937999955,13.284062323000057],[-16.35279781299994,13.279924158000028],[-16.361809732999973,13.265078101000029],[-16.36713784899996,13.260366669000064],[-16.364205589999926,13.252723204000063],[-16.354693759999975,13.253939426000045],[-16.339484375999973,13.239034267000022],[-16.33524532299998,13.240888033000033],[-16.333411079999962,13.24739134400005],[-16.32897295099997,13.243917870000075],[-16.32593520699993,13.247929815000077],[-16.324874869999974,13.24044254200004],[-16.32319861999997,13.244780400000025],[-16.31453389799998,13.24549120100005],[-16.31961587099994,13.242301351000037],[-16.31943245499997,13.239804698000057],[-16.313995414999965,13.240165752000053],[-16.31738126099998,13.237650703000043],[-16.315405701999964,13.23374797200006],[-16.311681741999962,13.23659774500004],[-16.28474656399993,13.221249344000057],[-16.276991806999945,13.202427159000024],[-16.285114654999973,13.18919322000005],[-16.288015798999936,13.165603584000053],[-16.12125421899998,13.165530381000053],[-16.110097054999926,13.208870751000063],[-16.116909632999977,13.212004954000065],[-16.11659470899997,13.217501432000063],[-16.121370335999927,13.221143931000029],[-16.11987411399997,13.22847727900006],[-16.139575625999953,13.225226359000033],[-16.13812865799997,13.243050117000053],[-16.150700666999967,13.241661626000052],[-16.150590932999933,13.25448386000005],[-16.139698744999976,13.251701979000075],[-16.13814548099998,13.264946983000073],[-16.14950754499995,13.259067936000065],[-16.16176558799998,13.26300875000004],[-16.177558525999927,13.259605997000051],[-16.182888333999927,13.263961487000074]]]},"properties":{"shapeName":"Foni Bintang Karanai","shapeISO":"","shapeID":"56634734B67575656085362","shapeGroup":"GMB","shapeType":"ADM2"}},
{"type":"Feature","geometry":{"type":"Polygon","coordinates":[[[-15.89953046599993,13.258082116000026],[-15.914014860999941,13.256730529000038],[-15.916291015999946,13.265078636000055],[-15.913917786999946,13.27080460700006],[-15.922028500999943,13.27839863500003],[-15.92738686499996,13.270536038000046],[-15.942655512999977,13.271213009000064],[-15.952740792999975,13.285982070000045],[-15.951420583999948,13.292877192000049],[-15.961225843999955,13.293188506000035],[-15.965697319999947,13.288407101000075],[-15.976342598999963,13.29881163500005],[-15.97161833299998,13.271800553000048],[-15.998834210999973,13.244882071000063],[-15.998767240999939,13.23725506900007],[-15.993211175999932,13.232419745000072],[-15.99867560499996,13.226814869000066],[-16.00126612699995,13.183591231000037],[-15.984478946999957,13.183490256000027],[-15.984069862999945,13.166173212000047],[-15.927170329999967,13.163831997000045],[-15.849647597999933,13.166115916000024],[-15.850247081999953,13.202487242000075],[-15.859308824999971,13.208841330000041],[-15.873543678999965,13.20755871700004],[-15.873959312999943,13.21775569600004],[-15.887083104999931,13.227670037000053],[-15.885997217999943,13.237752741000065],[-15.893353985999966,13.254586377000066],[-15.89953046599993,13.258082116000026]]]},"properties":{"shapeName":"Foni Bondali","shapeISO":"","shapeID":"56634734B65915930660736","shapeGroup":"GMB","shapeType":"ADM2"}},
{"type":"Feature","geometry":{"type":"Polygon","coordinates":[[[-16.361809732999973,13.265078101000029],[-16.36777905499997,13.268431753000073],[-16.379637009999954,13.261381605000054],[-16.38873244399997,13.246680027000025],[-16.40889452199997,13.250315785000055],[-16.41226979199996,13.246134604000076],[-16.411843534999946,13.231151882000063],[-16.40178882999993,13.226378701000044],[-16.401764094999976,13.222049792000064],[-16.40804536199994,13.220849763000047],[-16.411877465999964,13.207508532000077],[-16.41714541799996,13.207479413000044],[-16.41354423799993,13.201838289000023],[-16.421135258999982,13.192139214000065],[-16.416164359999982,13.184674187000041],[-16.42655260999993,13.166606836000028],[-16.288015798999936,13.165603584000053],[-16.285114654999973,13.18919322000005],[-16.276991806999945,13.202427159000024],[-16.28474656399993,13.221249344000057],[-16.311681741999962,13.23659774500004],[-16.315405701999964,13.23374797200006],[-16.31738126099998,13.237650703000043],[-16.313995414999965,13.240165752000053],[-16.31943245499997,13.239804698000057],[-16.31961587099994,13.242301351000037],[-16.31453389799998,13.24549120100005],[-16.32319861999997,13.244780400000025],[-16.324874869999974,13.24044254200004],[-16.32593520699993,13.247929815000077],[-16.32897295099997,13.243917870000075],[-16.333411079999962,13.24739134400005],[-16.33524532299998,13.240888033000033],[-16.339484375999973,13.239034267000022],[-16.354693759999975,13.253939426000045],[-16.364205589999926,13.252723204000063],[-16.36713784899996,13.260366669000064],[-16.361809732999973,13.265078101000029]]]},"properties":{"shapeName":"Foni Brefet","shapeISO":"","shapeID":"56634734B27150312185582","shapeGroup":"GMB","shapeType":"ADM2"}},
{"type":"Feature","geometry":{"type":"Polygon","coordinates":[[[-15.849647597999933,13.166115916000024],[-15.801210310999977,13.165829388000077],[-15.802167077999968,13.241212499000028],[-15.810102850999954,13.242494545000056],[-15.809983741999929,13.251731047000021],[-15.805655706999971,13.255409882000038],[-15.80746324599994,13.258922688000041],[-15.825279025999976,13.260624909000057],[-15.83153897699998,13.252981145000035],[-15.84413200199998,13.259243757000036],[-15.850402506999956,13.254824812000038],[-15.852703599999927,13.27094352000006],[-15.859290040999952,13.271214599000075],[-15.861220238999977,13.266809987000045],[-15.868110058999946,13.26825264200005],[-15.866037322999944,13.274636924000049],[-15.875041155999952,13.281203271000038],[-15.879515009999977,13.276643180000065],[-15.879341076999935,13.269900066000048],[-15.888455295999961,13.265616986000055],[-15.89534734199998,13.267645297000058],[-15.89953046599993,13.258082116000026],[-15.893353985999966,13.254586377000066],[-15.885997217999943,13.237752741000065],[-15.887083104999931,13.227670037000053],[-15.873959312999943,13.21775569600004],[-15.873543678999965,13.20755871700004],[-15.859308824999971,13.208841330000041],[-15.850247081999953,13.202487242000075],[-15.849647597999933,13.166115916000024]]]},"properties":{"shapeName":"Foni Jarrol","shapeISO":"","shapeID":"56634734B7386392108855","shapeGroup":"GMB","shapeType":"ADM2"}},
{"type":"Feature","geometry":{"type":"Polygon","coordinates":[[[-16.12125421899998,13.165530381000053],[-15.984069862999945,13.166173212000047],[-15.984478946999957,13.183490256000027],[-16.00126612699995,13.183591231000037],[-15.99867560499996,13.226814869000066],[-15.993211175999932,13.232419745000072],[-15.998767240999939,13.23725506900007],[-15.998834210999973,13.244882071000063],[-15.97161833299998,13.271800553000048],[-15.976342598999963,13.29881163500005],[-15.993797738999945,13.297278040000037],[-15.99955650399994,13.287176877000036],[-16.00518656299994,13.291369382000028],[-16.005767479999975,13.296131504000073],[-16.01157051599995,13.296841476000054],[-16.030941110999947,13.276056934000053],[-16.051699818999964,13.27432286100003],[-16.059699658999932,13.264028019000023],[-16.06774841699996,13.265093897000042],[-16.07061304399997,13.27845867600007],[-16.083900937999942,13.279593542000043],[-16.09134073599995,13.269849906000047],[-16.08905752299995,13.261247261000051],[-16.07649833499994,13.255436803000066],[-16.08320484199993,13.249549838000064],[-16.095926410999937,13.249490301000037],[-16.12485080099998,13.275018160000059],[-16.125058966999973,13.279598257000032],[-16.116455929999972,13.280185847000041],[-16.11086275699995,13.284424863000027],[-16.110700683999937,13.289922812000043],[-16.12082685799993,13.29500914700003],[-16.143087778999927,13.294360361000031],[-16.169722173999958,13.269410519000076],[-16.182888333999927,13.263961487000074],[-16.177558525999927,13.259605997000051],[-16.16176558799998,13.26300875000004],[-16.14950754499995,13.259067936000065],[-16.13814548099998,13.264946983000073],[-16.139698744999976,13.251701979000075],[-16.150590932999933,13.25448386000005],[-16.150700666999967,13.241661626000052],[-16.13812865799997,13.243050117000053],[-16.139575625999953,13.225226359000033],[-16.11987411399997,13.22847727900006],[-16.121370335999927,13.221143931000029],[-16.11659470899997,13.217501432000063],[-16.116909632999977,13.212004954000065],[-16.110097054999926,13.208870751000063],[-16.12125421899998,13.165530381000053]]]},"properties":{"shapeName":"Foni Kansala","shapeISO":"","shapeID":"56634734B42615963496738","shapeGroup":"GMB","shapeType":"ADM2"}},
{"type":"Feature","geometry":{"type":"Polygon","coordinates":[[[-15.816924203999974,13.460422262000066],[-15.788934708999932,13.455302927000048],[-15.735903422999968,13.466912660000048],[-15.706260307999969,13.490512170000045],[-15.67347571299996,13.503226765000022],[-15.640068269999972,13.497187650000058],[-15.622190286999967,13.480059466000057],[-15.608511302999943,13.47210975400003],[-15.589055023999947,13.50594566500007],[-15.578265190999957,13.516181911000047],[-15.563102477999962,13.523085767000055],[-15.581617424999934,13.568343570000025],[-15.581052168999975,13.590809233000073],[-15.872498491999977,13.59304852300005],[-15.854102410999928,13.54892217500003],[-15.851812123999935,13.531914081000025],[-15.843774848999942,13.528887165000071],[-15.842843138999967,13.517546325000069],[-15.837582680999958,13.51786938600003],[-15.835062594999954,13.511245920000022],[-15.832208956999978,13.511255412000025],[-15.834323705999964,13.503918402000068],[-15.841444119999949,13.500055099000065],[-15.830432188999964,13.492587289000028],[-15.821811797999942,13.475023640000074],[-15.817530072999944,13.474479132000056],[-15.816924203999974,13.460422262000066]]]},"properties":{"shapeName":"Illiasa","shapeISO":"","shapeID":"56634734B27555440336226","shapeGroup":"GMB","shapeType":"ADM2"}},
{"type":"Feature","geometry":{"type":"Polygon","coordinates":[[[-14.713123142999962,13.53255279700005],[-14.714342226999975,13.536218185000052],[-14.730740878999939,13.533117230000073],[-14.743035498999973,13.534615464000069],[-14.76640337699996,13.545184058000075],[-14.792060202999949,13.544761119000043],[-14.79737240399993,13.546250791000034],[-14.806389039999942,13.556283245000031],[-14.80222959699995,13.54729439700003],[-14.78372362999994,13.53019800900006],[-14.758200044999967,13.523342232000061],[-14.73681593699996,13.530524408000076],[-14.713123142999962,13.53255279700005]]]},"properties":{"shapeName":"Janjanbureh","shapeISO":"","shapeID":"56634734B22755125769096","shapeGroup":"GMB","shapeType":"ADM2"}},
{"type":"Feature","geometry":{"type":"Polygon","coordinates":[[[-15.345980207999958,13.43531764900007],[-15.353018972999962,13.434574815000076],[-15.387034630999949,13.44383478900005],[-15.40862164799995,13.454136873000039],[-15.430073106999942,13.471401353000033],[-15.448524925999948,13.494260273000066],[-15.448691814999961,13.494386818000066],[-15.449223336999978,13.458099482000023],[-15.484574821999956,13.457887250000056],[-15.483769970999958,13.390813988000048],[-15.478931930999977,13.383952720000025],[-15.464307018999932,13.382469018000052],[-15.399765308999974,13.35232813500005],[-15.36651399699997,13.345194307000042],[-15.345791370999962,13.34560057300007],[-15.345980207999958,13.43531764900007]]]},"properties":{"shapeName":"Jarra central","shapeISO":"","shapeID":"56634734B6993374345684","shapeGroup":"GMB","shapeType":"ADM2"}},
{"type":"Feature","geometry":{"type":"Polygon","coordinates":[[[-15.345791370999962,13.34560057300007],[-15.31621334099998,13.351419879000048],[-15.280891363999956,13.364363660000038],[-15.247819938999953,13.38529092300007],[-15.229718867999964,13.405540970000061],[-15.210885154999971,13.447855944000025],[-15.207803939999962,13.47234293300005],[-15.210627238999962,13.526878797000052],[-15.168621086999963,13.545999852000023],[-15.170499635999931,13.551399161000063],[-15.177216438999949,13.550874560000068],[-15.182382187999963,13.556069432000072],[-15.206371732999969,13.558278732000076],[-15.211680889999968,13.553075711000076],[-15.204087056999981,13.549665816000072],[-15.204234055999962,13.544021518000022],[-15.215308495999977,13.535248900000056],[-15.221078256999931,13.536432116000071],[-15.222605447999968,13.546233802000074],[-15.22943450899993,13.543554073000053],[-15.237180456999965,13.54711158400005],[-15.238237390999927,13.541317881000055],[-15.245519575999936,13.536706386000048],[-15.24262786099996,13.529431198000054],[-15.256280119999929,13.520060153000031],[-15.25597335599997,13.517089850000048],[-15.262504767999928,13.520944891000056],[-15.256740123999975,13.524367075000043],[-15.257047703999945,13.528080028000034],[-15.26540207599993,13.532824289000075],[-15.270409288999929,13.530739502000074],[-15.26903905499995,13.527176244000032],[-15.275103434999949,13.520485777000033],[-15.279811392999932,13.522411459000068],[-15.283146039999963,13.51824885600007],[-15.291647393999938,13.51890749000006],[-15.297105232999968,13.51340545000005],[-15.295278973999928,13.50954581600007],[-15.30251532099993,13.504912604000026],[-15.299712599999964,13.487423642000067],[-15.306761940999934,13.455161370000042],[-15.315290570999935,13.447673512000051],[-15.345980207999958,13.43531764900007],[-15.345791370999962,13.34560057300007]]]},"properties":{"shapeName":"Jarra East","shapeISO":"","shapeID":"56634734B99377934241318","shapeGroup":"GMB","shapeType":"ADM2"}},
{"type":"Feature","geometry":{"type":"Polygon","coordinates":[[[-15.448691814999961,13.494386818000066],[-15.460832037999978,13.496930510000027],[-15.48149056899996,13.48860819600003],[-15.496319752999966,13.487406426000064],[-15.51731598699996,13.49777335500005],[-15.535326634999933,13.512249917000076],[-15.571288698999979,13.513636602000076],[-15.57904949999994,13.501083750000078],[-15.586302548999981,13.464927845000034],[-15.601071004999937,13.450457763000031],[-15.601098112999978,13.390928656000028],[-15.567328617999976,13.358752439000057],[-15.530727733999981,13.381406061000064],[-15.516647871999965,13.395733691000032],[-15.483769970999958,13.390813988000048],[-15.484574821999956,13.457887250000056],[-15.449223336999978,13.458099482000023],[-15.448691814999961,13.494386818000066]]]},"properties":{"shapeName":"Jarra West","shapeISO":"","shapeID":"56634734B83949040016571","shapeGroup":"GMB","shapeType":"ADM2"}},
{"type":"Feature","geometry":{"type":"Polygon","coordinates":[[[-16.688794515999973,13.464204347000077],[-16.675624735999975,13.445104807000064],[-16.675805577999938,13.433552141000064],[-16.665485411999953,13.434924427000055],[-16.661070421999966,13.432412457000055],[-16.656789119999928,13.435080733000063],[-16.655371078999963,13.441558142000076],[-16.661091712999962,13.446609717000058],[-16.654294077999964,13.451604179000071],[-16.649516159999962,13.451074801000061],[-16.648797806999937,13.447579063000035],[-16.64062572199998,13.45359241400007],[-16.633997436999948,13.453847965000023],[-16.628905996999947,13.467874749000032],[-16.639980866999963,13.469263097000066],[-16.656926382999927,13.464045810000073],[-16.66977227899997,13.465661810000029],[-16.67573851999998,13.457237571000064],[-16.68160090599997,13.467858947000025],[-16.688794515999973,13.464204347000077]]]},"properties":{"shapeName":"Jeshwang","shapeISO":"","shapeID":"56634734B33214654746760","shapeGroup":"GMB","shapeType":"ADM2"}},
{"type":"Feature","geometry":{"type":"Polygon","coordinates":[[[-14.30719755299998,13.32813945600003],[-14.347855971999934,13.323706465000043],[-14.359296430999962,13.326676246000034],[-14.373905700999956,13.336462520000055],[-14.386016108999968,13.37178001500007],[-14.404979733999937,13.369987407000053],[-14.419045897999979,13.37516626100006],[-14.42494701399994,13.380234023000071],[-14.427913667999974,13.395863060000067],[-14.43784179499994,13.405258740000022],[-14.453228715999956,13.408784590000039],[-14.478624962999959,13.385312811000063],[-14.48218628199993,13.38789323800006],[-14.488714498999968,13.407940007000036],[-14.504459108999981,13.420653165000033],[-14.50358058699993,13.414286279000066],[-14.504602472999977,13.412016600000072],[-14.498054391999972,13.385199421000038],[-14.509891177999975,13.380312134000064],[-14.52378314699996,13.380154882000056],[-14.52781569299998,13.384287989000029],[-14.526540077999982,13.362616556000035],[-14.546138569999982,13.321666033000042],[-14.531802090999975,13.310704163000025],[-14.500303934999977,13.295756776000076],[-14.486423008999964,13.292972207000048],[-14.462775548999957,13.294209931000069],[-14.422420239999951,13.258373711000047],[-14.396755169999949,13.242140519000031],[-14.321834081999953,13.232662190000042],[-14.306661410999936,13.233702894000032],[-14.274903360999929,13.242641702000071],[-14.266839438999966,13.241515940000056],[-14.252653313999929,13.232689189000041],[-14.247758187999978,13.284650530000022],[-14.294334740999943,13.318777382000064],[-14.299469124999973,13.317003998000075],[-14.29890097599997,13.322101025000052],[-14.30719755299998,13.32813945600003]]]},"properties":{"shapeName":"Jimara","shapeISO":"","shapeID":"56634734B42913132832661","shapeGroup":"GMB","shapeType":"ADM2"}},
{"type":"Feature","geometry":{"type":"Polygon","coordinates":[[[-16.20802800799993,13.415567915000054],[-16.185443920999944,13.43140028700003],[-16.181098949999978,13.438836568000056],[-16.145936293999966,13.454009628000051],[-16.130489332999957,13.469358219000071],[-16.130716421999978,13.478828196000052],[-16.13789415699995,13.490768513000035],[-16.13463941499998,13.497573759000034],[-16.120416964999947,13.50210515200007],[-16.103969674999973,13.499497618000078],[-16.094332909999935,13.508653537000043],[-16.088202173999946,13.525924761000056],[-16.091134834999934,13.528235090000067],[-16.10463885599995,13.525852772000064],[-16.10740306799994,13.531201518000046],[-16.099053597999955,13.542496362000065],[-16.102940153999953,13.553558562000035],[-16.102088279999975,13.566875357000072],[-16.09516928299996,13.571730672000058],[-16.089470809999966,13.563892857000042],[-16.085298055999942,13.570165503000055],[-16.084961954999926,13.576600136000025],[-16.09214411199997,13.589256405000071],[-16.088142305999952,13.59302658100006],[-16.12358399599998,13.593226694000066],[-16.138180811999973,13.603860417000021],[-16.148836719999963,13.602046322000035],[-16.152995244999943,13.59309234500006],[-16.309103491999963,13.593394619000037],[-16.296699544999967,13.572101719000045],[-16.297987370999977,13.532873175000077],[-16.280345790999945,13.52939365900005],[-16.254233763999935,13.530061955000065],[-16.25111145099993,13.526682467000057],[-16.24565234599993,13.530462197000077],[-16.237554159999945,13.51835137300003],[-16.231892175999974,13.518200594000064],[-16.23314751399994,13.513727126000049],[-16.230058691999943,13.516780071000028],[-16.22566225199995,13.514121242000044],[-16.22416032899997,13.50608743500004],[-16.229653163999956,13.508919621000075],[-16.231097530999932,13.50569607600005],[-16.226682124999968,13.49928480400007],[-16.225059681999937,13.503402657000038],[-16.220854326999927,13.502351016000034],[-16.21880805099994,13.494945224000048],[-16.22041150499996,13.487074949000032],[-16.230754312999977,13.474337297000034],[-16.230138997999973,13.461117070000057],[-16.236126729999967,13.453850670000065],[-16.23898901399997,13.44240029100007],[-16.23361904199993,13.42759516700005],[-16.239795338999954,13.42166800900003],[-16.244360708999977,13.422002903000077],[-16.244343223999977,13.418607837000025],[-16.22756413099995,13.421549164000055],[-16.20802800799993,13.415567915000054]]]},"properties":{"shapeName":"Jokadu","shapeISO":"","shapeID":"56634734B78170872061000","shapeGroup":"GMB","shapeType":"ADM2"}},
{"type":"Feature","geometry":{"type":"Polygon","coordinates":[[[-13.94440670299997,13.318719435000048],[-13.893176450999931,13.316588248000073],[-13.888317938999933,13.319812672000069],[-13.879271794999966,13.318899080000051],[-13.851801605999981,13.325190537000026],[-13.828406083999937,13.340231877000065],[-13.797112759999948,13.384281636000026],[-13.791117503999942,13.430903737000051],[-13.793818323999972,13.444911870000055],[-13.813329013999976,13.444353660000047],[-13.817726367999967,13.451751713000021],[-13.825279472999966,13.448532365000062],[-13.829866293999942,13.462657561000071],[-13.82671498999997,13.472407043000032],[-13.81360351099994,13.478637908000053],[-13.83127690899994,13.491739668000037],[-13.830789109999955,13.500850612000022],[-13.83454166599995,13.50433978500007],[-13.854907031999971,13.511594065000054],[-13.886896350999962,13.499153078000063],[-13.890688852999972,13.494179218000056],[-13.887109191999969,13.477130016000046],[-13.868601661999946,13.452311104000046],[-13.87330375099998,13.442350893000025],[-13.881302321999954,13.438480818000073],[-13.884188062999954,13.41364870800004],[-13.887097522999966,13.407585937000022],[-13.898405558999968,13.406767599000034],[-13.906845764999957,13.40896125200004],[-13.921076773999971,13.42038228000007],[-13.93386665199995,13.45520267300003],[-13.94603189399993,13.473229919000062],[-13.95137868699993,13.475624125000024],[-13.977252380999971,13.46530714000005],[-14.001675632999934,13.450549930000022],[-13.995626792999929,13.417631777000054],[-13.997564488999956,13.41164738200007],[-14.033627861999946,13.387951416000021],[-14.022849856999926,13.38696653200003],[-14.019384903999935,13.392445917000032],[-14.003679536999982,13.397627578000026],[-14.000602731999948,13.401610164000033],[-13.987492225999972,13.395940342000074],[-13.981925753999974,13.370264324000061],[-13.953121677999945,13.33818916000007],[-13.945616622999978,13.334413035000068],[-13.942964545999928,13.328659617000028],[-13.94440670299997,13.318719435000048]]]},"properties":{"shapeName":"Kantora","shapeISO":"","shapeID":"56634734B33233148834926","shapeGroup":"GMB","shapeType":"ADM2"}},
{"type":"Feature","geometry":{"type":"Polygon","coordinates":[[[-15.687225030999969,13.364875882000035],[-15.687128970999936,13.469583804000024],[-15.697882903999982,13.458705321000025],[-15.75730740199998,13.445265706000043],[-15.814048967999952,13.437831777000042],[-15.824261681999928,13.440725901000064],[-15.82690157099995,13.341911560000028],[-15.803387179999959,13.342723679000073],[-15.793682823999973,13.34744209300004],[-15.770472783999935,13.346340871000052],[-15.737695998999982,13.350250149000033],[-15.687225030999969,13.364875882000035]]]},"properties":{"shapeName":"Kiang Central","shapeISO":"","shapeID":"56634734B95834842597723","shapeGroup":"GMB","shapeType":"ADM2"}},
{"type":"Feature","geometry":{"type":"Polygon","coordinates":[[[-15.601071004999937,13.450457763000031],[-15.616368545999933,13.447995974000037],[-15.629411941999933,13.452581849000069],[-15.667405749999944,13.48766958300007],[-15.681162399999948,13.478543038000055],[-15.687128970999936,13.469583804000024],[-15.687225030999969,13.364875882000035],[-15.648751151999932,13.346974867000029],[-15.631079702999955,13.345406781000065],[-15.592011081999942,13.349166289000038],[-15.567328617999976,13.358752439000057],[-15.601098112999978,13.390928656000028],[-15.601071004999937,13.450457763000031]]]},"properties":{"shapeName":"Kiang East","shapeISO":"","shapeID":"56634734B11412565261125","shapeGroup":"GMB","shapeType":"ADM2"}},
{"type":"Feature","geometry":{"type":"Polygon","coordinates":[[[-16.182888333999927,13.263961487000074],[-16.169722173999958,13.269410519000076],[-16.143087778999927,13.294360361000031],[-16.12082685799993,13.29500914700003],[-16.110700683999937,13.289922812000043],[-16.11086275699995,13.284424863000027],[-16.116455929999972,13.280185847000041],[-16.125058966999973,13.279598257000032],[-16.12485080099998,13.275018160000059],[-16.095926410999937,13.249490301000037],[-16.08320484199993,13.249549838000064],[-16.07649833499994,13.255436803000066],[-16.08905752299995,13.261247261000051],[-16.09134073599995,13.269849906000047],[-16.083900937999942,13.279593542000043],[-16.07061304399997,13.27845867600007],[-16.06774841699996,13.265093897000042],[-16.059699658999932,13.264028019000023],[-16.051699818999964,13.27432286100003],[-16.030941110999947,13.276056934000053],[-16.01157051599995,13.296841476000054],[-16.005767479999975,13.296131504000073],[-16.00518656299994,13.291369382000028],[-15.99955650399994,13.287176877000036],[-15.993797738999945,13.297278040000037],[-15.976342598999963,13.29881163500005],[-15.965697319999947,13.288407101000075],[-15.961225843999955,13.293188506000035],[-15.951420583999948,13.292877192000049],[-15.952740792999975,13.285982070000045],[-15.942655512999977,13.271213009000064],[-15.92738686499996,13.270536038000046],[-15.922028500999943,13.27839863500003],[-15.913917786999946,13.27080460700006],[-15.916291015999946,13.265078636000055],[-15.914014860999941,13.256730529000038],[-15.89953046599993,13.258082116000026],[-15.89534734199998,13.267645297000058],[-15.888455295999961,13.265616986000055],[-15.879341076999935,13.269900066000048],[-15.879515009999977,13.276643180000065],[-15.875041155999952,13.281203271000038],[-15.866037322999944,13.274636924000049],[-15.868110058999946,13.26825264200005],[-15.861220238999977,13.266809987000045],[-15.859290040999952,13.271214599000075],[-15.852703599999927,13.27094352000006],[-15.850402506999956,13.254824812000038],[-15.84413200199998,13.259243757000036],[-15.83153897699998,13.252981145000035],[-15.825279025999976,13.260624909000057],[-15.80746324599994,13.258922688000041],[-15.805655706999971,13.255409882000038],[-15.809983741999929,13.251731047000021],[-15.810102850999954,13.242494545000056],[-15.802167077999968,13.241212499000028],[-15.803387179999959,13.342723679000073],[-15.82690157099995,13.341911560000028],[-15.824261681999928,13.440725901000064],[-15.845240386999933,13.448797467000077],[-15.862917357999947,13.449617084000067],[-15.86768098899995,13.441464352000025],[-15.876956250999967,13.438500206000072],[-15.881724815999974,13.431886530000043],[-15.894309531999966,13.433014979000063],[-15.90970841099994,13.425776466000059],[-15.925142248999975,13.427919280000026],[-15.93756253999993,13.425307906000057],[-15.940232908999974,13.428413179000074],[-15.962862780999956,13.422921947000077],[-16.026692023999942,13.421662256000047],[-16.038473306999947,13.418865357000072],[-16.04649388499996,13.41223545300005],[-16.07230808399993,13.40827898300006],[-16.126095031999967,13.42242894900005],[-16.146929258999933,13.434245459000067],[-16.171663455999976,13.400599434000071],[-16.208012277999956,13.370652569000072],[-16.223197226999957,13.338696927000058],[-16.221261218999928,13.325788244000023],[-16.202058815999976,13.302059277000069],[-16.20956514599993,13.268858028000068],[-16.20761672499998,13.253108969000039],[-16.203670630999966,13.249462890000075],[-16.182888333999927,13.263961487000074]]]},"properties":{"shapeName":"Kiang West","shapeISO":"","shapeID":"56634734B57370738255875","shapeGroup":"GMB","shapeType":"ADM2"}},
{"type":"Feature","geometry":{"type":"Polygon","coordinates":[[[-16.58434670099996,13.333825653000076],[-16.612277648999964,13.330859149000048],[-16.61049527399996,13.338669032000041],[-16.615700784999945,13.338317183000072],[-16.620757391999973,13.322568011000044],[-16.631233505999944,13.31932822400006],[-16.642023107999933,13.326650916000062],[-16.659820597999953,13.323598688000061],[-16.655981812999983,13.304734214000064],[-16.66272927899996,13.305101722000074],[-16.66210880799997,13.299749530000042],[-16.680303015999982,13.288659109000037],[-16.694049604999975,13.286846041000047],[-16.69384761899994,13.276907147000031],[-16.70107412799996,13.276096821000067],[-16.732787319999943,13.254902075000075],[-16.73868760199997,13.234725397000034],[-16.722929944999976,13.236369332000038],[-16.722823140999935,13.231861508000065],[-16.71611919199995,13.225245076000022],[-16.705242918999943,13.220467815000063],[-16.67866022299995,13.223285695000072],[-16.678916597999944,13.204848514000048],[-16.674108220999926,13.200747272000058],[-16.675730230999932,13.168284119000077],[-16.663135471999965,13.167937875000064],[-16.65588293099995,13.163795211000036],[-16.64625195499997,13.167578949000074],[-16.602366625999935,13.16708397800005],[-16.60351505999995,13.254175587000077],[-16.614764321999928,13.258818389000055],[-16.62041654799998,13.273501299000031],[-16.604184225999973,13.280611910000061],[-16.601419589999978,13.29554956800007],[-16.59224248299995,13.306135913000048],[-16.59108565699995,13.314091746000031],[-16.586245694999945,13.314871216000029],[-16.58434670099996,13.333825653000076]]]},"properties":{"shapeName":"Kombo Central","shapeISO":"","shapeID":"56634734B211008456047","shapeGroup":"GMB","shapeType":"ADM2"}},
{"type":"Feature","geometry":{"type":"Polygon","coordinates":[[[-16.36777905499997,13.268431753000073],[-16.37433008299996,13.269818668000028],[-16.377270413999952,13.278793935000067],[-16.38297861199993,13.28117727800003],[-16.414886833999958,13.272510430000068],[-16.448704500999952,13.27098836500005],[-16.459126665999975,13.27991974300005],[-16.482199874999935,13.28652954000006],[-16.542673969999953,13.293412508000074],[-16.556480845999943,13.299322047000032],[-16.579109003999974,13.333619132000024],[-16.58434670099996,13.333825653000076],[-16.586245694999945,13.314871216000029],[-16.59108565699995,13.314091746000031],[-16.59224248299995,13.306135913000048],[-16.601419589999978,13.29554956800007],[-16.604184225999973,13.280611910000061],[-16.62041654799998,13.273501299000031],[-16.614764321999928,13.258818389000055],[-16.60351505999995,13.254175587000077],[-16.602366625999935,13.16708397800005],[-16.42655260999993,13.166606836000028],[-16.416164359999982,13.184674187000041],[-16.421135258999982,13.192139214000065],[-16.41354423799993,13.201838289000023],[-16.41714541799996,13.207479413000044],[-16.411877465999964,13.207508532000077],[-16.40804536199994,13.220849763000047],[-16.401764094999976,13.222049792000064],[-16.40178882999993,13.226378701000044],[-16.411843534999946,13.231151882000063],[-16.41226979199996,13.246134604000076],[-16.40889452199997,13.250315785000055],[-16.38873244399997,13.246680027000025],[-16.379637009999954,13.261381605000054],[-16.36777905499997,13.268431753000073]]]},"properties":{"shapeName":"Kombo East","shapeISO":"","shapeID":"56634734B25207283407562","shapeGroup":"GMB","shapeType":"ADM2"}},
{"type":"Feature","geometry":{"type":"Polygon","coordinates":[[[-16.58434670099996,13.333825653000076],[-16.579109003999974,13.333619132000024],[-16.571469718999936,13.357659861000059],[-16.585648968999976,13.38595663600006],[-16.613009077999948,13.379629822000027],[-16.617747599999973,13.38256960800004],[-16.615703748999977,13.385300384000061],[-16.622456847999956,13.387043036000023],[-16.622157209999955,13.401506977000054],[-16.632770541999946,13.39928382200003],[-16.635280248999948,13.403870733000076],[-16.642454715999975,13.402012081000066],[-16.644752488999927,13.39459411300004],[-16.659484799999973,13.384473644000025],[-16.665666145999978,13.404223708000075],[-16.68432205099998,13.416616633000046],[-16.689557014999934,13.418751158000077],[-16.691982596999935,13.425683218000074],[-16.704755975999944,13.428108661000067],[-16.707246638999948,13.441277565000064],[-16.724570133999975,13.444025582000052],[-16.737751328999934,13.418382673000053],[-16.751877220999972,13.400954399000057],[-16.766356239999936,13.389722620000043],[-16.793539377999934,13.379128257000048],[-16.796782321999956,13.360494063000033],[-16.789577907999956,13.365238998000052],[-16.78751732199993,13.358301607000044],[-16.779230364999933,13.360852199000021],[-16.765849739999965,13.358420863000049],[-16.771581149999975,13.354445723000026],[-16.770710555999926,13.349005632000058],[-16.77592418699993,13.339352482000038],[-16.768643047999944,13.333137733000058],[-16.738319543999978,13.338901742000076],[-16.73455402899998,13.331924216000061],[-16.72216789099997,13.327657824000028],[-16.697313253999937,13.329587372000049],[-16.697270084999957,13.322356034000052],[-16.687218391999977,13.318405263000045],[-16.659820597999953,13.323598688000061],[-16.642023107999933,13.326650916000062],[-16.631233505999944,13.31932822400006],[-16.620757391999973,13.322568011000044],[-16.615700784999945,13.338317183000072],[-16.61049527399996,13.338669032000041],[-16.612277648999964,13.330859149000048],[-16.58434670099996,13.333825653000076]]]},"properties":{"shapeName":"Kombo North","shapeISO":"","shapeID":"56634734B65078205245432","shapeGroup":"GMB","shapeType":"ADM2"}},
{"type":"Feature","geometry":{"type":"Polygon","coordinates":[[[-16.659820597999953,13.323598688000061],[-16.687218391999977,13.318405263000045],[-16.697270084999957,13.322356034000052],[-16.697313253999937,13.329587372000049],[-16.72216789099997,13.327657824000028],[-16.73455402899998,13.331924216000061],[-16.738319543999978,13.338901742000076],[-16.768643047999944,13.333137733000058],[-16.77592418699993,13.339352482000038],[-16.770710555999926,13.349005632000058],[-16.771581149999975,13.354445723000026],[-16.765849739999965,13.358420863000049],[-16.779230364999933,13.360852199000021],[-16.78751732199993,13.358301607000044],[-16.789577907999956,13.365238998000052],[-16.796782321999956,13.360494063000033],[-16.801413710999952,13.348988555000062],[-16.81196579599998,13.34491269800003],[-16.814264806999972,13.338862549000055],[-16.807342494999943,13.331140294000022],[-16.803702227999963,13.318901972000049],[-16.807099807999975,13.275821826000026],[-16.79169369799996,13.265896223000027],[-16.784479061999946,13.237333013000068],[-16.783549989999926,13.186464056000034],[-16.78795592299997,13.16180606000006],[-16.791079415999945,13.15876736100006],[-16.77746866299998,13.150696525000058],[-16.773862477999955,13.133144423000033],[-16.767070543999978,13.123845139000025],[-16.772263146999933,13.077997498000059],[-16.752167442999962,13.069837896000024],[-16.739467867999963,13.043657135000046],[-16.736632219999933,13.046878692000064],[-16.744228540999927,13.070028776000072],[-16.74157839999998,13.073735937000038],[-16.732213874999957,13.07404486200005],[-16.728588515999945,13.081857683000067],[-16.73328986699994,13.090393523000046],[-16.725640144999943,13.096839601000056],[-16.73580538599998,13.10324812600004],[-16.735741142999927,13.111979868000049],[-16.730402500999958,13.114065392000043],[-16.729858252999975,13.108002208000073],[-16.72583214599996,13.106389515000046],[-16.716323460999945,13.110224323000068],[-16.72506375699993,13.116150817000062],[-16.725356429999977,13.122133721000068],[-16.720396334999975,13.118559595000022],[-16.712298269999962,13.120827169000052],[-16.708579603999965,13.127410682000061],[-16.709998628999926,13.133017228000028],[-16.702790732999972,13.131015414000046],[-16.696831139999972,13.140237164000041],[-16.707172954999976,13.14779330400006],[-16.70885558699996,13.155201754000075],[-16.702977589999932,13.152043379000077],[-16.69939962099994,13.154854573000023],[-16.70137631999995,13.162466106000068],[-16.69767275199996,13.159211215000028],[-16.69115137199998,13.159828152000046],[-16.689029063999953,13.167548770000053],[-16.684353572999953,13.168973262000065],[-16.680563632999963,13.165308749000076],[-16.675730230999932,13.168284119000077],[-16.674108220999926,13.200747272000058],[-16.678916597999944,13.204848514000048],[-16.67866022299995,13.223285695000072],[-16.705242918999943,13.220467815000063],[-16.71611919199995,13.225245076000022],[-16.722823140999935,13.231861508000065],[-16.722929944999976,13.236369332000038],[-16.73868760199997,13.234725397000034],[-16.732787319999943,13.254902075000075],[-16.70107412799996,13.276096821000067],[-16.69384761899994,13.276907147000031],[-16.694049604999975,13.286846041000047],[-16.680303015999982,13.288659109000037],[-16.66210880799997,13.299749530000042],[-16.66272927899996,13.305101722000074],[-16.655981812999983,13.304734214000064],[-16.659820597999953,13.323598688000061]]]},"properties":{"shapeName":"Kombo South","shapeISO":"","shapeID":"56634734B1390118495461","shapeGroup":"GMB","shapeType":"ADM2"}},
{"type":"Feature","geometry":{"type":"Polygon","coordinates":[[[-15.988835860999927,13.592696770000032],[-16.08932320499997,13.591591832000063],[-16.091317152999977,13.588187835000042],[-16.083039063999934,13.575536296000053],[-16.083563554999955,13.570351740000035],[-16.087914138999963,13.563006148000056],[-16.091020965999974,13.563349991000052],[-16.095437542999946,13.570478604000073],[-16.099991793999948,13.56777809600004],[-16.101495412999952,13.557138906000034],[-16.09795364599995,13.541607699000053],[-16.10611721099997,13.529598917000044],[-16.101903523999965,13.526758322000035],[-16.088040639999974,13.530571655000074],[-16.085087748999968,13.523793882000064],[-16.088239555999962,13.514041065000072],[-16.102589440999964,13.497180599000046],[-16.126155770999958,13.499220276000074],[-16.136167900999965,13.492563311000026],[-16.12787702999998,13.476875284000073],[-16.131834354999967,13.464169920000074],[-16.129421426999954,13.455781948000038],[-16.116607242999976,13.448512493000067],[-16.083345631999975,13.441152427000077],[-15.994817356999931,13.44580669000004],[-15.990201086999946,13.44881631800007],[-15.999219855999968,13.455189149000034],[-15.997195648999934,13.460200929000052],[-16.00218844899996,13.466542976000028],[-15.998391755999933,13.46684401300007],[-15.99870406599996,13.47170354900004],[-16.003520975999947,13.470826575000046],[-16.002241437999942,13.479266547000066],[-15.996550831999969,13.480861796000056],[-16.001409018999937,13.489849184000036],[-15.998193929999957,13.48957606600004],[-15.99662226299995,13.498088660000064],[-16.001312687999928,13.501787031000049],[-15.990426082999932,13.554226461000042],[-15.988835860999927,13.592696770000032]]]},"properties":{"shapeName":"Lower Badibu","shapeISO":"","shapeID":"56634734B14945153011857","shapeGroup":"GMB","shapeType":"ADM2"}},
{"type":"Feature","geometry":{"type":"Polygon","coordinates":[[[-14.806389039999942,13.556283245000031],[-14.820131911999965,13.563052213000049],[-14.840172915999972,13.562917312000025],[-14.850347799999952,13.55876474300004],[-14.859998914999949,13.548446581000064],[-14.906666778999977,13.577284294000037],[-14.960720415999958,13.574253765000037],[-14.972562332999928,13.583315766000055],[-14.98375554699993,13.613386715000047],[-14.989484425999933,13.608366878000027],[-15.031344592999972,13.598638057000073],[-15.03798286999995,13.584169838000037],[-15.071673119999957,13.551228939000055],[-15.066690494999932,13.541199659000029],[-15.046799047999968,13.520186896000041],[-15.007330509999974,13.489890564000063],[-14.962557458999981,13.477931008000041],[-14.938885512999946,13.460399507000034],[-14.917034868999963,13.452001146000043],[-14.892907032999972,13.449169912000059],[-14.854207780999957,13.45271525100003],[-14.816129091999926,13.437094410000043],[-14.79133269099998,13.508518901000059],[-14.75827912799997,13.509665640000037],[-14.760567485999957,13.513801355000055],[-14.758200044999967,13.523342232000061],[-14.78372362999994,13.53019800900006],[-14.80222959699995,13.54729439700003],[-14.806389039999942,13.556283245000031]]]},"properties":{"shapeName":"Lower Fuladu West","shapeISO":"","shapeID":"56634734B90495316975710","shapeGroup":"GMB","shapeType":"ADM2"}},
{"type":"Feature","geometry":{"type":"Polygon","coordinates":[[[-16.309103491999963,13.593394619000037],[-16.54565345499998,13.59337823900006],[-16.54853591099993,13.587214120000056],[-16.528599459999953,13.554390252000076],[-16.52713638499995,13.531171912000048],[-16.53313012999996,13.508980017000056],[-16.543232216999968,13.489835967000033],[-16.54978811099994,13.487222707000058],[-16.544633071999954,13.480536462000032],[-16.53000985899996,13.477767242000027],[-16.528801502999954,13.471485339000026],[-16.50965243899998,13.46888529100005],[-16.50100189699998,13.463505410000039],[-16.480551755999954,13.439183799000034],[-16.484644082999978,13.439731467000058],[-16.48491942499993,13.437013969000077],[-16.477360700999952,13.423715750000042],[-16.462741680999954,13.425141089000022],[-16.462755208999965,13.427374482000062],[-16.45772083199995,13.424946829000021],[-16.457228137999948,13.418919291000066],[-16.443557560999977,13.422124808000035],[-16.440607488999945,13.424821874000031],[-16.44411407299998,13.438872773000071],[-16.435756735999973,13.453214910000042],[-16.427572381999937,13.458398533000036],[-16.409325939999974,13.460064911000075],[-16.367713333999973,13.48631550500005],[-16.326479233999976,13.500161620000029],[-16.307099156999982,13.519049384000027],[-16.297987370999977,13.532873175000077],[-16.296699544999967,13.572101719000045],[-16.309103491999963,13.593394619000037]]]},"properties":{"shapeName":"Lower Niumi","shapeISO":"","shapeID":"56634734B30137768679203","shapeGroup":"GMB","shapeType":"ADM2"}},
{"type":"Feature","geometry":{"type":"Polygon","coordinates":[[[-15.285395310999945,13.676013939000029],[-15.283640463999973,13.71511500400004],[-15.287721826999928,13.725818829000048],[-15.31335232999993,13.742846798000073],[-15.322324308999953,13.762127614000065],[-15.34703064699994,13.788042222000058],[-15.375701747999926,13.77876291900003],[-15.409269797999968,13.75288134300007],[-15.449772559999928,13.68209365100006],[-15.462575350999941,13.640075400000057],[-15.417371785999933,13.642581501000052],[-15.41282244599995,13.638663202000032],[-15.405645917999948,13.642704240000057],[-15.405229878999933,13.646527509000066],[-15.399203601999943,13.643747811000026],[-15.39918225699995,13.631040301000041],[-15.373032515999967,13.62965457100006],[-15.356827080999949,13.669382583000072],[-15.337095699999963,13.68738662900006],[-15.317451620999975,13.694024670000033],[-15.305722101999947,13.693419551000034],[-15.285395310999945,13.676013939000029]]]},"properties":{"shapeName":"Lower Saloum","shapeISO":"","shapeID":"56634734B70409077095290","shapeGroup":"GMB","shapeType":"ADM2"}},
{"type":"Feature","geometry":{"type":"Polygon","coordinates":[[[-15.34477405399997,13.517651760000035],[-15.335996639999962,13.536675500000058],[-15.338131996999948,13.543802043000028],[-15.32614622099993,13.549165032000076],[-15.309641638999949,13.582530933000044],[-15.30023921399993,13.591602731000023],[-15.292948616999979,13.589829051000038],[-15.294324165999967,13.597105379000027],[-15.28704238299997,13.602757996000037],[-15.279446618999941,13.599944572000027],[-15.278239558999928,13.606555491000051],[-15.283088834999944,13.610588161000067],[-15.261132328999963,13.651263416000063],[-15.28194960999997,13.661878441000056],[-15.30385567299993,13.688661959000058],[-15.309630539999944,13.690585673000044],[-15.331497958999933,13.685655937000035],[-15.35410083399995,13.665276347000031],[-15.367550595999944,13.621143975000052],[-15.36673802799993,13.586538048000023],[-15.371290493999936,13.58482323100003],[-15.371883492999928,13.575613572000066],[-15.359974310999974,13.531517885000028],[-15.34477405399997,13.517651760000035]]]},"properties":{"shapeName":"Niamina Dankunku","shapeISO":"","shapeID":"56634734B21442074713298","shapeGroup":"GMB","shapeType":"ADM2"}},
{"type":"Feature","geometry":{"type":"Polygon","coordinates":[[[-14.98375554699993,13.613386715000047],[-14.977873883999962,13.613468132000037],[-14.956153774999962,13.637601518000054],[-14.929270329999952,13.643982136000034],[-14.919547122999973,13.65303953800003],[-14.896152250999933,13.664244890000077],[-14.893254832999958,13.68979082900006],[-14.908593419999931,13.700045531000058],[-14.947634016999928,13.704884096000058],[-14.95857123299993,13.709193537000033],[-15.004450543999951,13.695829269000058],[-15.025567748999947,13.711052309000024],[-15.053372139999965,13.724267018000035],[-15.070690987999967,13.720846487000074],[-15.125825507999934,13.693123789000026],[-15.163025911999966,13.668223358000034],[-15.194606481999926,13.652382169000077],[-15.205988849999926,13.642272959000024],[-15.214022236999938,13.639917639000032],[-15.20855925899997,13.629200183000023],[-15.21614780799996,13.623920888000043],[-15.208845981999957,13.609816764000072],[-15.179827744999955,13.591273099000034],[-15.156771972999934,13.551101237000069],[-15.14245521099997,13.559214545000032],[-15.116961512999978,13.584849425000073],[-15.076572149999947,13.584568036000064],[-15.071673119999957,13.551228939000055],[-15.03798286999995,13.584169838000037],[-15.031344592999972,13.598638057000073],[-14.989484425999933,13.608366878000027],[-14.98375554699993,13.613386715000047]]]},"properties":{"shapeName":"Niamina East","shapeISO":"","shapeID":"56634734B42374489083147","shapeGroup":"GMB","shapeType":"ADM2"}},
{"type":"Feature","geometry":{"type":"Polygon","coordinates":[[[-15.168621086999963,13.545999852000023],[-15.156771972999934,13.551101237000069],[-15.179827744999955,13.591273099000034],[-15.208845981999957,13.609816764000072],[-15.21614780799996,13.623920888000043],[-15.20855925899997,13.629200183000023],[-15.214022236999938,13.639917639000032],[-15.240614925999978,13.64083080000006],[-15.261132328999963,13.651263416000063],[-15.283088834999944,13.610588161000067],[-15.278239558999928,13.606555491000051],[-15.279446618999941,13.599944572000027],[-15.28704238299997,13.602757996000037],[-15.294324165999967,13.597105379000027],[-15.292948616999979,13.589829051000038],[-15.30023921399993,13.591602731000023],[-15.309641638999949,13.582530933000044],[-15.32614622099993,13.549165032000076],[-15.338131996999948,13.543802043000028],[-15.335996639999962,13.536675500000058],[-15.34477405399997,13.517651760000035],[-15.344266523999977,13.517507672000022],[-15.309702441999946,13.512201954000034],[-15.30251532099993,13.504912604000026],[-15.295278973999928,13.50954581600007],[-15.297105232999968,13.51340545000005],[-15.291647393999938,13.51890749000006],[-15.283146039999963,13.51824885600007],[-15.279811392999932,13.522411459000068],[-15.275103434999949,13.520485777000033],[-15.26903905499995,13.527176244000032],[-15.270409288999929,13.530739502000074],[-15.26540207599993,13.532824289000075],[-15.257047703999945,13.528080028000034],[-15.256740123999975,13.524367075000043],[-15.262504767999928,13.520944891000056],[-15.25597335599997,13.517089850000048],[-15.256280119999929,13.520060153000031],[-15.24262786099996,13.529431198000054],[-15.245519575999936,13.536706386000048],[-15.238237390999927,13.541317881000055],[-15.237180456999965,13.54711158400005],[-15.22943450899993,13.543554073000053],[-15.222605447999968,13.546233802000074],[-15.221078256999931,13.536432116000071],[-15.215308495999977,13.535248900000056],[-15.204234055999962,13.544021518000022],[-15.204087056999981,13.549665816000072],[-15.211680889999968,13.553075711000076],[-15.206371732999969,13.558278732000076],[-15.182382187999963,13.556069432000072],[-15.177216438999949,13.550874560000068],[-15.170499635999931,13.551399161000063],[-15.168621086999963,13.545999852000023]]]},"properties":{"shapeName":"Niamina West","shapeISO":"","shapeID":"56634734B81557661921178","shapeGroup":"GMB","shapeType":"ADM2"}},
{"type":"Feature","geometry":{"type":"Polygon","coordinates":[[[-14.712440792999928,13.619583440000042],[-14.71754855499995,13.616908710000075],[-14.760088027999927,13.63794391500005],[-14.796413039999948,13.666741169000034],[-14.804403473999969,13.705548236000027],[-14.800910251999937,13.733391362000077],[-14.804514924999978,13.745550310000056],[-14.81422086699996,13.756164226000067],[-14.84866872799995,13.771727817000055],[-14.873899208999944,13.787859107000031],[-14.894606325999973,13.794653629000038],[-14.92532500699997,13.795852214000035],[-14.962004449999938,13.786701157000039],[-14.992450899999938,13.799222004000057],[-14.99677192799993,13.789361446000044],[-15.006722219999972,13.791962211000055],[-15.010655869999937,13.78755195900004],[-15.014126917999931,13.788682582000035],[-15.014704829999971,13.779296919000046],[-15.022220217999973,13.779047001000038],[-15.024305330999937,13.77234868000005],[-15.019388655999933,13.757076373000075],[-15.009989323999946,13.757500984000046],[-15.000228425999978,13.741457935000028],[-14.996469219999938,13.722375601000067],[-14.998927181999932,13.715308095000069],[-14.993577801999947,13.71262235200004],[-14.99209686599994,13.704070068000021],[-14.958589444999973,13.715163278000034],[-14.934011615999964,13.712613629000032],[-14.91970093499998,13.705117814000062],[-14.90011246499995,13.702212992000057],[-14.891296264999937,13.696413902000074],[-14.888625314999956,13.688850455000022],[-14.892249877999973,13.665811873000052],[-14.898469430999967,13.656626680000045],[-14.919505465999976,13.642145891000041],[-14.956508177999979,13.632684578000067],[-14.973347505999982,13.617915708000055],[-14.973927876999937,13.596995698000057],[-14.965837651999948,13.581587348000028],[-14.910278553999945,13.580230706000066],[-14.862898042999973,13.554765815000053],[-14.839200855999934,13.56734517500007],[-14.840198630999964,13.578358083000069],[-14.843809548999957,13.580621997000037],[-14.83918439799993,13.582456630000024],[-14.840627870999981,13.584719182000072],[-14.835715172999926,13.584291939000025],[-14.836432533999982,13.591784043000075],[-14.826604413999974,13.594321726000032],[-14.827902513999959,13.597715059000052],[-14.823568439999974,13.596157162000054],[-14.822265351999931,13.599548669000058],[-14.813307814999973,13.59699779400006],[-14.806802022999932,13.60066796600006],[-14.795531768999979,13.598962756000049],[-14.784108340999978,13.607010126000034],[-14.782235875999959,13.600223649000043],[-14.785851258999969,13.597258411000041],[-14.785856844999955,13.591038966000042],[-14.774363836999953,13.596329490000073],[-14.754570573999956,13.59235295700006],[-14.748206893999964,13.597576587000049],[-14.74127532999995,13.593187614000044],[-14.739260618999936,13.585552574000076],[-14.723803619999956,13.581719465000049],[-14.711802338999973,13.613789885000074],[-14.712440792999928,13.619583440000042]]]},"properties":{"shapeName":"Niani","shapeISO":"","shapeID":"56634734B41420439456091","shapeGroup":"GMB","shapeType":"ADM2"}},
{"type":"Feature","geometry":{"type":"Polygon","coordinates":[[[-15.022220217999973,13.779047001000038],[-15.029687170999978,13.777768990000027],[-15.02934055299994,13.781500668000035],[-15.035704039999928,13.78274370500003],[-15.044611263999968,13.775165900000047],[-15.059823434999942,13.769339057000025],[-15.065377259999934,13.771825403000037],[-15.097417801999939,13.757340585000065],[-15.103376409999953,13.759317057000032],[-15.105693058999975,13.765874707000023],[-15.117611566999926,13.771070976000033],[-15.123973794999927,13.769597819000069],[-15.123971470999948,13.765187708000042],[-15.12813574699993,13.76428093900006],[-15.136585992999926,13.772983538000062],[-15.140055265999933,13.77049383700006],[-15.140051361999951,13.76393521500006],[-15.146179631999928,13.758843066000054],[-15.15717187599995,13.76211561200006],[-15.159366930999965,13.757704094000076],[-15.154791423999939,13.748604088000036],[-15.161495037999941,13.740118801000051],[-15.171903112999928,13.736380136000037],[-15.173634638999943,13.731516490000047],[-15.169929494999963,13.726430471000072],[-15.172702898999944,13.722809988000051],[-15.177331021999976,13.724729069000034],[-15.181435101999966,13.721955631000071],[-15.181199431999971,13.716301806000047],[-15.174953587999937,13.716306306000035],[-15.172981508999953,13.708392089000029],[-15.173437761999935,13.699684599000022],[-15.18419487999995,13.701146866000045],[-15.188005965999935,13.694133033000071],[-15.187656407999953,13.69085397300006],[-15.181583544999967,13.68933191800005],[-15.180767256999957,13.680512255000053],[-15.194290167999952,13.671116356000027],[-15.20366199199998,13.676762846000031],[-15.215449478999972,13.667706464000048],[-15.216366860999926,13.659224646000041],[-15.201675651999949,13.652791440000044],[-15.197626062999973,13.64985460400004],[-15.196355897999979,13.652004141000077],[-15.163122982999937,13.668594511000038],[-15.160584866999955,13.677416446000052],[-15.134284781999952,13.693546064000031],[-15.071320500999946,13.72269043800003],[-15.051021570999978,13.725918255000067],[-15.003018631999964,13.702968164000026],[-14.99209686599994,13.704070068000021],[-14.993577801999947,13.71262235200004],[-14.998927181999932,13.715308095000069],[-14.996469219999938,13.722375601000067],[-15.000228425999978,13.741457935000028],[-15.009989323999946,13.757500984000046],[-15.019388655999933,13.757076373000075],[-15.024305330999937,13.77234868000005],[-15.022220217999973,13.779047001000038]]]},"properties":{"shapeName":"Nianija","shapeISO":"","shapeID":"56634734B85088174381509","shapeGroup":"GMB","shapeType":"ADM2"}},
{"type":"Feature","geometry":{"type":"Polygon","coordinates":[[[-15.563102477999962,13.523085767000055],[-15.530462782999962,13.521300457000052],[-15.500425586999938,13.493513423000024],[-15.490368535999949,13.492604983000035],[-15.460032208999962,13.502502420000042],[-15.444089885999972,13.499746253000069],[-15.412721101999978,13.462574713000038],[-15.391645915999959,13.45109736300003],[-15.355585866999945,13.438247314000023],[-15.347619576999932,13.438444098000048],[-15.316907434999962,13.45073842100004],[-15.307436764999977,13.461611498000025],[-15.305210317999979,13.50097485300006],[-15.31318661399996,13.506813402000034],[-15.339376008999977,13.511049552000031],[-15.351527095999927,13.51641700500005],[-15.369016175999946,13.537742944000058],[-15.377407262999952,13.564187136000044],[-15.373032515999967,13.62965457100006],[-15.39918225699995,13.631040301000041],[-15.399203601999943,13.643747811000026],[-15.405229878999933,13.646527509000066],[-15.405645917999948,13.642704240000057],[-15.41282244599995,13.638663202000032],[-15.417371785999933,13.642581501000052],[-15.462575350999941,13.640075400000057],[-15.470254308999927,13.590301508000039],[-15.581052168999975,13.590809233000073],[-15.581617424999934,13.568343570000025],[-15.563102477999962,13.523085767000055]]]},"properties":{"shapeName":"Sabach Sanjar","shapeISO":"","shapeID":"56634734B86795933582352","shapeGroup":"GMB","shapeType":"ADM2"}},
{"type":"Feature","geometry":{"type":"Polygon","coordinates":[[[-14.839200855999934,13.56734517500007],[-14.82871815599998,13.568667876000063],[-14.812538727999936,13.564274350000062],[-14.794348670999966,13.546449727000038],[-14.764802826999926,13.546918408000067],[-14.741409761999932,13.53572855300007],[-14.712947836999945,13.536969677000059],[-14.703216186999953,13.520773628000029],[-14.702651487999958,13.510171620000051],[-14.677047443999982,13.483071202000076],[-14.65601885999996,13.441627374000063],[-14.648519345999944,13.43483215200007],[-14.63146504599996,13.444136956000023],[-14.620812803999968,13.46822144600003],[-14.628715833999934,13.541099349000035],[-14.61192375099995,13.561710896000022],[-14.589664898999956,13.566622535000022],[-14.570465861999935,13.556837175000055],[-14.565014185999928,13.535625409000033],[-14.579590198999938,13.50306928200007],[-14.57715699199997,13.490343723000024],[-14.55427294599997,13.485144872000035],[-14.537974791999943,13.473100729000066],[-14.514002878999975,13.471500668000033],[-14.507096433999948,13.458765829000072],[-14.502748980999968,13.465966055000024],[-14.498844258999952,13.468502575000059],[-14.477026956999964,13.472698570000034],[-14.474627403999932,13.480255682000063],[-14.482536438999944,13.496385779000036],[-14.461560823999946,13.510476378000021],[-14.45193317199994,13.519996437000032],[-14.450039698999944,13.526776940000047],[-14.446858022999947,13.528324747000056],[-14.467340183999966,13.542362540000056],[-14.491909926999938,13.60559588700005],[-14.503581722999968,13.621591645000024],[-14.519086613999946,13.636816923000026],[-14.54189517499998,13.65071206500005],[-14.58994553399998,13.655389897000077],[-14.63945980699998,13.649318096000059],[-14.712440792999928,13.619583440000042],[-14.711802338999973,13.613789885000074],[-14.723803619999956,13.581719465000049],[-14.739260618999936,13.585552574000076],[-14.74127532999995,13.593187614000044],[-14.748206893999964,13.597576587000049],[-14.754570573999956,13.59235295700006],[-14.774363836999953,13.596329490000073],[-14.785856844999955,13.591038966000042],[-14.785851258999969,13.597258411000041],[-14.782235875999959,13.600223649000043],[-14.784108340999978,13.607010126000034],[-14.795531768999979,13.598962756000049],[-14.806802022999932,13.60066796600006],[-14.813307814999973,13.59699779400006],[-14.822265351999931,13.599548669000058],[-14.823568439999974,13.596157162000054],[-14.827902513999959,13.597715059000052],[-14.826604413999974,13.594321726000032],[-14.836432533999982,13.591784043000075],[-14.835715172999926,13.584291939000025],[-14.840627870999981,13.584719182000072],[-14.83918439799993,13.582456630000024],[-14.843809548999957,13.580621997000037],[-14.840198630999964,13.578358083000069],[-14.839200855999934,13.56734517500007]]]},"properties":{"shapeName":"Sami","shapeISO":"","shapeID":"56634734B54242206420565","shapeGroup":"GMB","shapeType":"ADM2"}},
{"type":"Feature","geometry":{"type":"Polygon","coordinates":[[[-14.238252543999977,13.470171309000023],[-14.243523104999952,13.462916836000034],[-14.281504645999973,13.462886897000033],[-14.330132743999968,13.451501545000042],[-14.395388434999973,13.487639442000045],[-14.42403640599997,13.49696502300003],[-14.44102307399993,13.521597814000074],[-14.448377612999934,13.52712665100006],[-14.451429359999963,13.519217925000078],[-14.460695717999954,13.50976778100005],[-14.48181453899997,13.496242940000059],[-14.47383380499997,13.479900652000026],[-14.475870618999977,13.473120206000033],[-14.488736039999935,13.467775475000053],[-14.499424309999938,13.467372943000044],[-14.505218405999926,13.459044838000068],[-14.50680846399996,13.458341217000054],[-14.509116284999948,13.459759220000024],[-14.504456206999976,13.443424288000074],[-14.503920396999945,13.423068969000042],[-14.486410196999941,13.406990807000057],[-14.480531862999953,13.38761396600006],[-14.47677839499994,13.387464874000045],[-14.45333785899993,13.410313707000057],[-14.439915605999943,13.407740010000055],[-14.427522084999964,13.397676509000064],[-14.425240844999962,13.385515410000039],[-14.41862137399994,13.376454009000042],[-14.403909431999978,13.37090721100003],[-14.386219317999974,13.373055802000067],[-14.38304904399996,13.370786536000026],[-14.371808098999963,13.335351439000021],[-14.360350195999956,13.328750169000045],[-14.349245641999971,13.325188267000044],[-14.304197854999927,13.330439918000025],[-14.289468952999982,13.357325332000073],[-14.287706858999968,13.367497207000042],[-14.28261781699996,13.369176588000073],[-14.267145264999954,13.37364698600004],[-14.269315757999948,13.400853693000045],[-14.262548012999957,13.403921627000045],[-14.25657788999996,13.416181013000028],[-14.244842984999934,13.422468369000057],[-14.23693693499996,13.452732292000064],[-14.238252543999977,13.470171309000023]]]},"properties":{"shapeName":"Sandu","shapeISO":"","shapeID":"56634734B93657392024497","shapeGroup":"GMB","shapeType":"ADM2"}},
{"type":"Feature","geometry":{"type":"Polygon","coordinates":[[[-16.675624735999975,13.445104807000064],[-16.691037838999932,13.433666408000022],[-16.691982596999935,13.425683218000074],[-16.689557014999934,13.418751158000077],[-16.68432205099998,13.416616633000046],[-16.673565546999953,13.418916933000048],[-16.675805577999938,13.433552141000064],[-16.675624735999975,13.445104807000064]]]},"properties":{"shapeName":"Serrekunda Central","shapeISO":"","shapeID":"56634734B31410801409584","shapeGroup":"GMB","shapeType":"ADM2"}},
{"type":"Feature","geometry":{"type":"Polygon","coordinates":[[[-16.675805577999938,13.433552141000064],[-16.673565546999953,13.418916933000048],[-16.68432205099998,13.416616633000046],[-16.665666145999978,13.404223708000075],[-16.659484799999973,13.384473644000025],[-16.644752488999927,13.39459411300004],[-16.642454715999975,13.402012081000066],[-16.635280248999948,13.403870733000076],[-16.65545680499997,13.416660241000045],[-16.649939956999958,13.422409186000039],[-16.65601866399993,13.423807027000066],[-16.65401183199998,13.426931424000031],[-16.657375696999964,13.429046855000024],[-16.656789119999928,13.435080733000063],[-16.661070421999966,13.432412457000055],[-16.665485411999953,13.434924427000055],[-16.675805577999938,13.433552141000064]]]},"properties":{"shapeName":"Serrekunda East","shapeISO":"","shapeID":"56634734B18055278254530","shapeGroup":"GMB","shapeType":"ADM2"}},
{"type":"Feature","geometry":{"type":"Polygon","coordinates":[[[-16.702370756999926,13.466474321000021],[-16.707459163999943,13.460709132000034],[-16.71484942199993,13.458932301000061],[-16.724570133999975,13.444025582000052],[-16.707246638999948,13.441277565000064],[-16.704755975999944,13.428108661000067],[-16.691982596999935,13.425683218000074],[-16.691037838999932,13.433666408000022],[-16.675624735999975,13.445104807000064],[-16.688794515999973,13.464204347000077],[-16.69278535799998,13.461538],[-16.702370756999926,13.466474321000021]]]},"properties":{"shapeName":"Serrekunda West","shapeISO":"","shapeID":"56634734B71497134195207","shapeGroup":"GMB","shapeType":"ADM2"}},
{"type":"Feature","geometry":{"type":"Polygon","coordinates":[[[-14.119206898999948,13.282839400000057],[-14.09431464499994,13.282460059000073],[-14.068813790999968,13.290406862000054],[-14.031601507999937,13.293476445000067],[-13.977823498999953,13.30611321300006],[-13.94440670299997,13.318719435000048],[-13.942964545999928,13.328659617000028],[-13.945616622999978,13.334413035000068],[-13.953121677999945,13.33818916000007],[-13.981925753999974,13.370264324000061],[-13.987492225999972,13.395940342000074],[-14.000602731999948,13.401610164000033],[-14.003679536999982,13.397627578000026],[-14.019384903999935,13.392445917000032],[-14.022849856999926,13.38696653200003],[-14.033627861999946,13.387951416000021],[-14.040683756999954,13.388487123000061],[-14.049953280999944,13.39896069100007],[-14.052470323999955,13.411981578000052],[-14.051538327999936,13.43514867600004],[-14.057069388999935,13.44957755300004],[-14.064624336999941,13.45360473900007],[-14.075074928999982,13.454701936000049],[-14.084828739999978,13.44944479700007],[-14.109998335999933,13.41842487200006],[-14.11162253699996,13.401493440000024],[-14.104306562999966,13.381766393000078],[-14.107335030999934,13.374955182000065],[-14.11682107699994,13.37616467600003],[-14.130353337999964,13.388091178000025],[-14.141546282999968,13.38245426900005],[-14.148152186999937,13.382917689000067],[-14.15014518099997,13.392701595000062],[-14.140608390999944,13.413987966000036],[-14.14463851499994,13.421058864000031],[-14.155737939999938,13.425360006000062],[-14.159358004999945,13.420961341000066],[-14.162683115999982,13.393258050000043],[-14.170812302999934,13.387550839000028],[-14.184780944999943,13.386861148000037],[-14.188656389999949,13.373126601000024],[-14.186766809999938,13.35444810000007],[-14.191742429999977,13.348288874000048],[-14.205267978999927,13.344655954000075],[-14.208524645999944,13.335917977000065],[-14.207267290999937,13.319647395000061],[-14.200636116999931,13.31486824500007],[-14.16971001099995,13.314622015000054],[-14.152588052999931,13.295084455000051],[-14.130408175999946,13.284570752000036],[-14.119206898999948,13.282839400000057]]]},"properties":{"shapeName":"Tumana","shapeISO":"","shapeID":"56634734B54781332377439","shapeGroup":"GMB","shapeType":"ADM2"}},
{"type":"Feature","geometry":{"type":"Polygon","coordinates":[[[-14.758200044999967,13.523342232000061],[-14.760567485999957,13.513801355000055],[-14.75827912799997,13.509665640000037],[-14.79133269099998,13.508518901000059],[-14.816129091999926,13.437094410000043],[-14.768786473999967,13.435124486000063],[-14.75561055199995,13.409638795000035],[-14.734839995999948,13.38648424400003],[-14.735521906999963,13.375729041000056],[-14.71937970199997,13.374415379000027],[-14.689566542999955,13.348519604000046],[-14.663478834999978,13.34281862000006],[-14.632235591999972,13.343764156000077],[-14.590957382999932,13.355657643000029],[-14.581084136999948,13.363365092000038],[-14.546485304999976,13.321350083000027],[-14.526915550999945,13.362240777000068],[-14.52781569299998,13.384287989000029],[-14.52378314699996,13.380154882000056],[-14.509891177999975,13.380312134000064],[-14.498054391999972,13.385199421000038],[-14.504602472999977,13.412016600000072],[-14.50358058699993,13.414286279000066],[-14.513326635999931,13.46888228000006],[-14.537604242999976,13.471081777000052],[-14.55533769799996,13.48344165900005],[-14.571270726999956,13.48510318700005],[-14.58142601399993,13.492843830000027],[-14.580800891999957,13.503165542000033],[-14.568448160999935,13.535523775000058],[-14.571902989999955,13.55602659300007],[-14.577361051999958,13.560194672000023],[-14.588891185999955,13.564966819000063],[-14.60726740399997,13.561580242000048],[-14.625056812999958,13.54482381400004],[-14.627049670999952,13.532424614000035],[-14.617709701999956,13.487331873000073],[-14.617885543999932,13.472182114000077],[-14.628860773999975,13.440932976000056],[-14.641163415999927,13.433375750000039],[-14.64982278399998,13.433130584000025],[-14.654217947999939,13.436849922000022],[-14.678438115999938,13.480921382000076],[-14.704355953999936,13.509471120000057],[-14.713123142999962,13.53255279700005],[-14.73681593699996,13.530524408000076],[-14.758200044999967,13.523342232000061]]]},"properties":{"shapeName":"Upper Fuladu West","shapeISO":"","shapeID":"56634734B91081024976770","shapeGroup":"GMB","shapeType":"ADM2"}},
{"type":"Feature","geometry":{"type":"Polygon","coordinates":[[[-16.297987370999977,13.532873175000077],[-16.307099156999982,13.519049384000027],[-16.326479233999976,13.500161620000029],[-16.367713333999973,13.48631550500005],[-16.409325939999974,13.460064911000075],[-16.427572381999937,13.458398533000036],[-16.435756735999973,13.453214910000042],[-16.44411407299998,13.438872773000071],[-16.440607488999945,13.424821874000031],[-16.443557560999977,13.422124808000035],[-16.457228137999948,13.418919291000066],[-16.45772083199995,13.424946829000021],[-16.462755208999965,13.427374482000062],[-16.462741680999954,13.425141089000022],[-16.477360700999952,13.423715750000042],[-16.482611429999963,13.391076458000043],[-16.496451804999936,13.378822569000022],[-16.507525132999945,13.362005994000071],[-16.475120491999974,13.359740077000026],[-16.455017160999944,13.354719379000073],[-16.44107029299994,13.349215360000073],[-16.411295276999965,13.328164412000035],[-16.354795319999937,13.339751938000063],[-16.335448155999927,13.347225438000066],[-16.320605960999956,13.344399530000032],[-16.315553982999973,13.338171694000039],[-16.31007617499995,13.33752996800007],[-16.283039306999967,13.357770917000039],[-16.264145431999964,13.365460340000027],[-16.245277784999928,13.378509102000066],[-16.211429514999963,13.407488020000073],[-16.20802800799993,13.415567915000054],[-16.22756413099995,13.421549164000055],[-16.244343223999977,13.418607837000025],[-16.244360708999977,13.422002903000077],[-16.239795338999954,13.42166800900003],[-16.23361904199993,13.42759516700005],[-16.23898901399997,13.44240029100007],[-16.236126729999967,13.453850670000065],[-16.230138997999973,13.461117070000057],[-16.230754312999977,13.474337297000034],[-16.22041150499996,13.487074949000032],[-16.21880805099994,13.494945224000048],[-16.220854326999927,13.502351016000034],[-16.225059681999937,13.503402657000038],[-16.226682124999968,13.49928480400007],[-16.231097530999932,13.50569607600005],[-16.229653163999956,13.508919621000075],[-16.22416032899997,13.50608743500004],[-16.22566225199995,13.514121242000044],[-16.230058691999943,13.516780071000028],[-16.23314751399994,13.513727126000049],[-16.231892175999974,13.518200594000064],[-16.237554159999945,13.51835137300003],[-16.24565234599993,13.530462197000077],[-16.25111145099993,13.526682467000057],[-16.254233763999935,13.530061955000065],[-16.280345790999945,13.52939365900005],[-16.297987370999977,13.532873175000077]]]},"properties":{"shapeName":"Upper Niumi","shapeISO":"","shapeID":"56634734B28238259284132","shapeGroup":"GMB","shapeType":"ADM2"}},
{"type":"Feature","geometry":{"type":"Polygon","coordinates":[[[-15.285395310999945,13.676013939000029],[-15.240742068999964,13.644881792000035],[-15.212851214999944,13.643667483000058],[-15.201675651999949,13.652791440000044],[-15.216366860999926,13.659224646000041],[-15.215449478999972,13.667706464000048],[-15.20366199199998,13.676762846000031],[-15.194290167999952,13.671116356000027],[-15.180767256999957,13.680512255000053],[-15.181583544999967,13.68933191800005],[-15.187656407999953,13.69085397300006],[-15.188005965999935,13.694133033000071],[-15.18419487999995,13.701146866000045],[-15.173437761999935,13.699684599000022],[-15.172981508999953,13.708392089000029],[-15.174953587999937,13.716306306000035],[-15.181199431999971,13.716301806000047],[-15.181435101999966,13.721955631000071],[-15.177331021999976,13.724729069000034],[-15.172702898999944,13.722809988000051],[-15.169929494999963,13.726430471000072],[-15.173634638999943,13.731516490000047],[-15.171903112999928,13.736380136000037],[-15.161495037999941,13.740118801000051],[-15.154791423999939,13.748604088000036],[-15.159366930999965,13.757704094000076],[-15.15717187599995,13.76211561200006],[-15.146179631999928,13.758843066000054],[-15.140051361999951,13.76393521500006],[-15.140055265999933,13.77049383700006],[-15.136585992999926,13.772983538000062],[-15.12813574699993,13.76428093900006],[-15.123971470999948,13.765187708000042],[-15.123973794999927,13.769597819000069],[-15.117611566999926,13.771070976000033],[-15.105693058999975,13.765874707000023],[-15.103376409999953,13.759317057000032],[-15.097417801999939,13.757340585000065],[-15.065377259999934,13.771825403000037],[-15.059823434999942,13.769339057000025],[-15.044611263999968,13.775165900000047],[-15.035704039999928,13.78274370500003],[-15.02934055299994,13.781500668000035],[-15.029687170999978,13.777768990000027],[-15.022220217999973,13.779047001000038],[-15.014704829999971,13.779296919000046],[-15.014126917999931,13.788682582000035],[-15.010655869999937,13.78755195900004],[-15.006722219999972,13.791962211000055],[-14.99677192799993,13.789361446000044],[-14.992450899999938,13.799222004000057],[-15.008754944999964,13.807202664000044],[-15.070713006999938,13.823235736000072],[-15.138937010999939,13.794300941000074],[-15.200538811999934,13.762334429000077],[-15.217491264999978,13.749664088000031],[-15.232920949999937,13.748616859000037],[-15.237889699999982,13.74995519600003],[-15.248580941999933,13.765648339000052],[-15.282059259999926,13.786739858000033],[-15.294537348999938,13.79054781900004],[-15.34703064699994,13.788042222000058],[-15.322324308999953,13.762127614000065],[-15.31335232999993,13.742846798000073],[-15.287721826999928,13.725818829000048],[-15.283640463999973,13.71511500400004],[-15.285395310999945,13.676013939000029]]]},"properties":{"shapeName":"Upper Saloum","shapeISO":"","shapeID":"56634734B57962636272806","shapeGroup":"GMB","shapeType":"ADM2"}},
{"type":"Feature","geometry":{"type":"Polygon","coordinates":[[[-14.09473632199996,13.43846958100005],[-14.086902750999968,13.449494256000037],[-14.076741152999944,13.45533806900005],[-14.070353608999937,13.456233432000033],[-14.058071886999926,13.451868986000022],[-14.04932244899993,13.432723314000043],[-14.050192606999929,13.402403394000032],[-14.040106626999943,13.389500873000031],[-14.034665187999963,13.388928815000043],[-13.996920803999956,13.414969695000025],[-14.003736364999952,13.44660592200006],[-14.000139314999956,13.453758848000064],[-13.978713138999979,13.466456342000072],[-13.949063209999963,13.47643019000003],[-13.944754886999931,13.474023106000061],[-13.933933297999943,13.45835693500004],[-13.918896960999973,13.419884824000064],[-13.909923315999947,13.411576550000063],[-13.901490900999931,13.408232128000066],[-13.88985493599995,13.407629904000032],[-13.885320084999933,13.41404181400003],[-13.883430119999957,13.437096365000059],[-13.874201751999976,13.443303379000042],[-13.870212640999966,13.453208935000077],[-13.889065345999938,13.477182726000024],[-13.891897450999977,13.494193761000076],[-13.885855112999934,13.50133392500004],[-13.858947168999975,13.51260639800006],[-13.885546355999963,13.547549937000042],[-13.900709608999932,13.55864312400007],[-13.918148415999951,13.565334920000055],[-13.985431541999958,13.579492162000065],[-14.003492714999936,13.573132937000025],[-14.011335397999972,13.561862096000027],[-14.032212258999948,13.555511780000074],[-14.083376961999932,13.550981707000062],[-14.081119695999973,13.537870114000043],[-14.074339209999948,13.532138244000066],[-14.107026290999954,13.46681548600003],[-14.094830787999967,13.438312396000072],[-14.09473632199996,13.43846958100005]]]},"properties":{"shapeName":"Wuli East","shapeISO":"","shapeID":"56634734B89687119950058","shapeGroup":"GMB","shapeType":"ADM2"}},
{"type":"Feature","geometry":{"type":"Polygon","coordinates":[[[-14.28261781699996,13.369176588000073],[-14.254767724999965,13.357694922000064],[-14.242440433999946,13.338177009000049],[-14.224055256999975,13.33573221100005],[-14.212483370999962,13.315847726000072],[-14.208153967999976,13.319877543000075],[-14.209120729999938,13.340005034000058],[-14.205912128999955,13.34550855200007],[-14.18805373999993,13.353906044000041],[-14.190061932999981,13.370820596000044],[-14.185492974999931,13.388025033000076],[-14.17151180299993,13.388679377000074],[-14.163040372999944,13.395635195000068],[-14.160892542999932,13.419519743000023],[-14.158810112999959,13.42447491400003],[-14.155047498999977,13.42666771100005],[-14.150731269999937,13.426101861000063],[-14.142676466999944,13.420928723000031],[-14.139688304999936,13.416507801000023],[-14.140086005999933,13.410260598000036],[-14.14916053099995,13.392280752000033],[-14.147501452999961,13.383637415000067],[-14.131711217999964,13.389832234000039],[-14.115240487999927,13.376542909000023],[-14.10811038299994,13.375782746000027],[-14.105653271999927,13.380368573000055],[-14.112901204999957,13.400242373000026],[-14.113044455999955,13.412372359000074],[-14.11057416899996,13.420449974000064],[-14.094830787999967,13.438312396000072],[-14.107026290999954,13.46681548600003],[-14.074339209999948,13.532138244000066],[-14.081119695999973,13.537870114000043],[-14.083376961999932,13.550981707000062],[-14.108883703999936,13.547343236000074],[-14.138827479999975,13.525946004000048],[-14.185321836999947,13.523804355000038],[-14.213363134999952,13.506986014000063],[-14.225801401999945,13.493792332000055],[-14.238252543999977,13.470171309000023],[-14.23693693499996,13.452732292000064],[-14.244842984999934,13.422468369000057],[-14.25657788999996,13.416181013000028],[-14.262548012999957,13.403921627000045],[-14.269315757999948,13.400853693000045],[-14.267145264999954,13.37364698600004],[-14.28261781699996,13.369176588000073]]]},"properties":{"shapeName":"Wuli West","shapeISO":"","shapeID":"56634734B48610519572764","shapeGroup":"GMB","shapeType":"ADM2"}}
]}