{"type":"FeatureCollection", "features": [
{"type":"Feature","geometry":{"type":"Polygon","coordinates":[[[10.710908537730706,1.560089723304444],[10.713491976036737,1.569351996181677],[10.721602736190604,1.575308287418288],[10.722293011966325,1.819335021447074],[10.709608973303562,1.835680964890712],[10.700797980173725,1.854498010914391],[10.67289303297518,1.860868018431441],[10.664059031482722,1.86731698937196],[10.722559975025364,1.939281024922185],[10.817770001252997,1.963776955946923],[10.788392987220375,1.980360994015115],[10.78947598140269,2.001528980732625],[10.786495963267145,2.008863010214196],[10.763805015234375,2.021497012298641],[10.704461988396995,1.992019005358105],[10.695857017576733,1.984913996114472],[10.663474975367038,1.980004984705441],[10.659280017754588,1.980086971775482],[10.653583266235437,1.985726688574203],[10.632544589216264,1.985822103900077],[10.620227990615728,1.98012999558462],[10.615609969878342,1.982221005094953],[10.60826698726526,1.979637996229191],[10.606252022974092,1.968218998756759],[10.602444031907057,1.964201971108217],[10.59655598829228,1.961316965175342],[10.586629032952326,1.962421977878126],[10.578992974825503,1.958662023767428],[10.568571321755796,1.944793271247098],[10.54777501052141,1.941453012552849],[10.538954083004784,1.931347715195889],[10.522870999151797,1.92515602305868],[10.534339376573682,1.917893271224608],[10.540500497066006,1.892041436482212],[10.552532973880924,1.882248967439789],[10.563139978058599,1.879040014966293],[10.566275982779022,1.866656004904317],[10.574809979248885,1.867175029147754],[10.576743967965125,1.862904044574954],[10.58571497671686,1.867999009735574],[10.59173500148843,1.865424014760085],[10.592760008104062,1.860822037810228],[10.58792497784636,1.850753037765116],[10.591158018479684,1.835484996775526],[10.597726994853705,1.829672972365038],[10.603330010530183,1.833857018635966],[10.615593034070791,1.832276001530727],[10.619299980380042,1.828529982022189],[10.609803998104589,1.812371034346345],[10.608403001244003,1.801751967586682],[10.611760982454257,1.796905024690949],[10.604976990441461,1.78914203369778],[10.608655025462234,1.774749034604234],[10.59798402374165,1.74518298742835],[10.579956097324708,1.714956127791734],[10.565426228702394,1.672102449100603],[10.573503273690461,1.672573457088418],[10.578138287461144,1.663394486236705],[10.586504263647889,1.658016478630134],[10.586399299547649,1.647053515688973],[10.590756344844573,1.639607456818577],[10.58731763564847,1.634207843324779],[10.586276377922465,1.618631802197745],[10.57900701716334,1.623759955521768],[10.57545096613901,1.622719033871035],[10.575778994256781,1.604480958160855],[10.570023002041342,1.592579122938538],[10.599374003528887,1.588063039145454],[10.604179010021252,1.583417030588672],[10.610878991123656,1.586055988732874],[10.624982004447823,1.584667021304419],[10.6239899917007,1.580837989746881],[10.627285013195365,1.577352968715625],[10.62528498329595,1.57510604037964],[10.635525027718762,1.568384967646261],[10.645379996858912,1.568658027467006],[10.646804025571441,1.565491961246556],[10.650807023929955,1.569333023412077],[10.647316973203715,1.576874988502537],[10.65227602070763,1.581512007736317],[10.664944034644238,1.571535031104443],[10.671186010204384,1.57431200458401],[10.673860032782985,1.565088033410914],[10.682225032980064,1.559571958488176],[10.686682968831557,1.564067039283651],[10.691900976612983,1.559622018005262],[10.707397028811428,1.563265029371596],[10.710908537730706,1.560089723304444]]]},"properties":{"shapeName":"AYENE","shapeISO":"","shapeID":"11065452B61336086634219","shapeGroup":"GNQ","shapeType":"ADM2"}},
{"type":"Feature","geometry":{"type":"Polygon","coordinates":[[[10.632544589216264,1.985822103900077],[10.632515988085117,2.054913025852773],[10.544250028,2.129406028498281],[10.49788502603491,2.128592043561529],[10.495605014267401,2.112268027214408],[10.490037994831198,2.106738989839034],[10.487573814045218,2.073093999540685],[10.479053888467966,2.068495867004032],[10.47829311292199,2.056032358591205],[10.47305065856596,2.050891772043828],[10.473719848696193,2.036565624471264],[10.465679795336069,2.03314756315984],[10.4655057822885,2.018837239158246],[10.42990763243244,1.997083224622685],[10.375398439591512,1.945452003928418],[10.393282494723259,1.937177637968574],[10.393961071650306,1.930701884418856],[10.414172037840052,1.919712617002144],[10.420204025767475,1.913085072926824],[10.428601056829814,1.914661499922951],[10.436391414657477,1.92212605813743],[10.446920288550603,1.917230201213377],[10.452165297514979,1.924607991557733],[10.46456059838474,1.920451929167971],[10.477095484272272,1.928613101458278],[10.48812064664866,1.927183977742849],[10.500018817831803,1.93255597043622],[10.506972012092286,1.928474988866585],[10.511793967219655,1.933152018098352],[10.516945966365343,1.924166967866228],[10.522870999151797,1.92515602305868],[10.538954083004784,1.931347715195889],[10.54777501052141,1.941453012552849],[10.568571321755796,1.944793271247098],[10.578992974825503,1.958662023767428],[10.586629032952326,1.962421977878126],[10.59655598829228,1.961316965175342],[10.602444031907057,1.964201971108217],[10.606252022974092,1.968218998756759],[10.60826698726526,1.979637996229191],[10.615609969878342,1.982221005094953],[10.620227990615728,1.98012999558462],[10.632544589216264,1.985822103900077]]]},"properties":{"shapeName":"NKUE","shapeISO":"","shapeID":"11065452B3926826010895","shapeGroup":"GNQ","shapeType":"ADM2"}},
{"type":"Feature","geometry":{"type":"Polygon","coordinates":[[[11.128174301532809,2.057369527050052],[11.128327145858037,2.063211104593162],[11.114049634944074,2.080148244753721],[11.105455959518004,2.107132747818123],[11.090380854098388,2.117999890155773],[11.036299987567812,2.117070023330724],[11.028470019659894,2.118041988797598],[10.933024391188674,1.983583819484084],[10.95763378814874,1.97779619067838],[10.960013111312563,1.961061859503521],[10.95362065407615,1.949051760191941],[10.954259849044659,1.94331300179353],[10.944462493913004,1.93465362243636],[10.936903240536003,1.936503716798253],[10.931503828182692,1.93141594073279],[10.92918975551665,1.922936237574332],[10.921321991218216,1.917848447628432],[10.922247573641544,1.909368724460127],[10.95202174305777,1.8885550291301],[10.959355024542136,1.787289038797837],[11.01497783339602,1.776522637574964],[11.127896509925483,1.753618504062085],[11.131754973877886,1.788202003806129],[11.129594974327158,1.794190133164499],[11.135070482687976,1.81063247347297],[11.147167390098273,1.80529882303248],[11.157040118058584,1.793889768497894],[11.187892213613678,1.801290263471838],[11.228540040908593,1.787294991727962],[11.236652238760085,1.788307769206516],[11.24504096414034,1.805701003608637],[11.247099975952201,1.818702973413886],[11.242151966368043,1.831266970781613],[11.245668002982338,1.845148957378179],[11.243462863321282,1.883270985815885],[11.18641479788202,1.945241623730249],[11.18837176967714,1.987816416292628],[11.196021032631961,2.021520239260953],[11.143208013755718,2.021976041251279],[11.13961091083851,2.036641211871264],[11.136853607496189,2.037339633562161],[11.128272505074426,2.051790559106454],[11.128174301532809,2.057369527050052]]]},"properties":{"shapeName":"NSOC NSOMO","shapeISO":"","shapeID":"11065452B43435483695389","shapeGroup":"GNQ","shapeType":"ADM2"}},
{"type":"Feature","geometry":{"type":"Polygon","coordinates":[[[10.721602736190604,1.575308287418288],[10.725421972208867,1.5726274562508],[10.740548253591452,1.584181234468065],[10.743237149370064,1.580263308239614],[10.765288285432796,1.586011332730429],[10.771629621319535,1.598388690671186],[10.785582588833524,1.591439650143728],[10.790566208464234,1.593710912262635],[10.796824015449387,1.5896206439764],[10.81061850597991,1.587807486456619],[10.814327420073608,1.590664646487184],[10.81239710546582,1.595317782571529],[10.817858808120443,1.596893902576776],[10.817674983825473,1.601697005416678],[10.828228855537757,1.590814128005331],[10.832763092508417,1.597181006335769],[10.838232302455788,1.579898544141957],[10.85965301303854,1.571179845504531],[10.859552143792705,1.566447896667455],[10.863879592510436,1.562908069920378],[10.865996864772248,1.566558301967526],[10.864251189683978,1.576821750946438],[10.855754169466843,1.584487985059362],[10.853334011644328,1.59478556324278],[10.871083752521047,1.590922011463517],[10.873494411899015,1.604335431106016],[10.880214624935164,1.600490989204179],[10.887338577509123,1.60141267882787],[10.889113027366061,1.594229744000865],[10.882723253393198,1.591070919340917],[10.882979002678786,1.587293114429579],[10.890108094817638,1.584314428285604],[10.901252052107493,1.58566962740311],[10.903925242505935,1.583406516252874],[10.900732951398767,1.581824140066125],[10.909762920939993,1.576312570885935],[10.93083922293357,1.578037051917378],[10.933668988555446,1.570658395163911],[10.937430043934036,1.569884753947888],[10.940268471424794,1.583197130420153],[10.953840983213349,1.659170979736471],[10.98252496486748,1.677611969798425],[10.991443994824413,1.692624009490193],[10.993004985301996,1.698685994832129],[10.984967986880593,1.701731739892389],[10.977010175635927,1.710834095834727],[10.975592328162536,1.719690414786723],[10.98405174676498,1.735715997876424],[11.002488727461015,1.740841735324346],[11.023192825184228,1.753383439533085],[11.01497783339602,1.776522637574964],[10.959355024542136,1.787289038797837],[10.95202174305777,1.8885550291301],[10.922247573641544,1.909368724460127],[10.921321991218216,1.917848447628432],[10.92918975551665,1.922936237574332],[10.931503828182692,1.93141594073279],[10.859612035066377,1.972409963571431],[10.831424970730374,1.972783968550653],[10.817770001252997,1.963776955946923],[10.722559975025364,1.939281024922185],[10.664059031482722,1.86731698937196],[10.67289303297518,1.860868018431441],[10.700797980173725,1.854498010914391],[10.709608973303562,1.835680964890712],[10.722293011966325,1.819335021447074],[10.721602736190604,1.575308287418288]]]},"properties":{"shapeName":"AÑISOC","shapeISO":"","shapeID":"11065452B27397509806446","shapeGroup":"GNQ","shapeType":"ADM2"}},
{"type":"Feature","geometry":{"type":"Polygon","coordinates":[[[10.721602736190604,1.575308287418288],[10.713491976036737,1.569351996181677],[10.710908537730706,1.560089723304444],[10.711500012948143,1.547056043821066],[10.715447986318532,1.544957958566756],[10.742295002905935,1.553812985614765],[10.751844993030572,1.548150969054272],[10.753247001571717,1.537263987121925],[10.749797967469185,1.522929984082931],[10.755995007395017,1.501178983755371],[10.741218244374398,1.500434037592971],[10.751567103714926,1.488665612526726],[10.748782353252407,1.481945451818166],[10.757555505288135,1.475088990177946],[10.751742985079701,1.45734498686426],[10.76571598754271,1.43827700188379],[10.770518027004352,1.424826016188267],[10.754843011328877,1.403137968171426],[10.744604009333457,1.374898969473393],[10.724779061236777,1.342738193358351],[10.726678849933494,1.334874987456706],[10.721694010634453,1.326085011227892],[10.722028545631677,1.315679216824402],[10.711791192935866,1.304227462600426],[10.714928224782817,1.280748448774561],[10.710756811771505,1.269170612910115],[10.748207025936095,1.235388024897245],[10.827911258370614,1.205341443752415],[10.964335032630105,1.073285014745708],[11.068501983460232,1.098674022860506],[11.134554021439664,1.202682002993192],[11.16567087058622,1.346709206845063],[11.13106901868859,1.499897958676692],[11.123998855797717,1.516835137295847],[11.118579478346595,1.506164564747992],[11.109414367378173,1.510672256971696],[11.1024341685378,1.506433223063129],[11.09908619781279,1.509618037321772],[11.091745654279244,1.504286698771103],[11.07503991098368,1.507010520945852],[11.069963589709605,1.504827106751228],[11.046387122689303,1.513217105050582],[11.041285503819127,1.510294004617268],[11.037170605499835,1.516135162149645],[11.025677772175463,1.517719742825904],[11.022680824083938,1.523517764443745],[11.025179239110786,1.527683530343736],[11.011872977244261,1.524792257218698],[11.009214310418518,1.532167812373683],[11.01950743226989,1.541571533544657],[11.01623785270268,1.544202244378913],[11.01354216794579,1.538061915952102],[11.00591191178262,1.536503358727306],[11.00373115277197,1.545755713118502],[10.99899510729443,1.550461753273731],[10.988704051214576,1.549551786417562],[10.990385269463587,1.554146363490907],[10.984355263017099,1.55933928985391],[10.986268703511882,1.562759272191374],[10.980105059316642,1.582894712783344],[10.976048847102069,1.580522624971165],[10.966668685595742,1.585263147709995],[10.96240586897086,1.564803571008189],[10.95332777008038,1.561157359117973],[10.947079465104467,1.569199347724864],[10.94953289397272,1.578778783530045],[10.940268471424794,1.583197130420153],[10.937430043934036,1.569884753947888],[10.933668988555446,1.570658395163911],[10.93083922293357,1.578037051917378],[10.909762920939993,1.576312570885935],[10.900732951398767,1.581824140066125],[10.903925242505935,1.583406516252874],[10.901252052107493,1.58566962740311],[10.890108094817638,1.584314428285604],[10.882979002678786,1.587293114429579],[10.882723253393198,1.591070919340917],[10.889113027366061,1.594229744000865],[10.887338577509123,1.60141267882787],[10.880214624935164,1.600490989204179],[10.873494411899015,1.604335431106016],[10.871083752521047,1.590922011463517],[10.853334011644328,1.59478556324278],[10.855754169466843,1.584487985059362],[10.864251189683978,1.576821750946438],[10.865996864772248,1.566558301967526],[10.863879592510436,1.562908069920378],[10.859552143792705,1.566447896667455],[10.85965301303854,1.571179845504531],[10.838232302455788,1.579898544141957],[10.832763092508417,1.597181006335769],[10.828228855537757,1.590814128005331],[10.817674983825473,1.601697005416678],[10.817858808120443,1.596893902576776],[10.81239710546582,1.595317782571529],[10.814327420073608,1.590664646487184],[10.81061850597991,1.587807486456619],[10.796824015449387,1.5896206439764],[10.790566208464234,1.593710912262635],[10.785582588833524,1.591439650143728],[10.771629621319535,1.598388690671186],[10.765288285432796,1.586011332730429],[10.743237149370064,1.580263308239614],[10.740548253591452,1.584181234468065],[10.725421972208867,1.5726274562508],[10.721602736190604,1.575308287418288]]]},"properties":{"shapeName":"ACONIBE","shapeISO":"","shapeID":"11065452B89932418637458","shapeGroup":"GNQ","shapeType":"ADM2"}},
{"type":"Feature","geometry":{"type":"Polygon","coordinates":[[[10.579956097324708,1.714956127791734],[10.497722017909162,1.741460028262702],[10.395294991857877,1.672727006538624],[10.306399943684285,1.657547004374658],[10.114330983836524,1.578139977664847],[10.106837966765044,1.468677019501731],[10.109925992195132,1.442936001680753],[10.061133022163348,1.409191029022101],[10.107694473133863,1.356912431363025],[10.438128170078418,1.356664297139362],[10.438507587242652,1.475089653179906],[10.46967166033474,1.499911488963594],[10.570023002041342,1.592579122938538],[10.575778994256781,1.604480958160855],[10.57545096613901,1.622719033871035],[10.57900701716334,1.623759955521768],[10.586276377922465,1.618631802197745],[10.58731763564847,1.634207843324779],[10.590756344844573,1.639607456818577],[10.586399299547649,1.647053515688973],[10.586504263647889,1.658016478630134],[10.578138287461144,1.663394486236705],[10.573503273690461,1.672573457088418],[10.565426228702394,1.672102449100603],[10.579956097324708,1.714956127791734]]]},"properties":{"shapeName":"BICURGA","shapeISO":"","shapeID":"11065452B87560810385120","shapeGroup":"GNQ","shapeType":"ADM2"}},
{"type":"Feature","geometry":{"type":"Polygon","coordinates":[[[10.570023002041342,1.592579122938538],[10.46967166033474,1.499911488963594],[10.438507587242652,1.475089653179906],[10.438128170078418,1.356664297139362],[10.107694473133863,1.356912431363025],[10.125206963956343,1.282313009925952],[10.123732994746163,1.271282997367503],[10.127718012803891,1.254226974208382],[10.141418016692759,1.239174033811721],[10.165834986680307,1.228899990702745],[10.171633014238871,1.220534976628534],[10.199522995111225,1.139831965499556],[10.203200020880187,1.13616204443744],[10.22382403359784,1.139806029155445],[10.23476003106168,1.129998005634351],[10.247576771478728,1.125474727334842],[10.258044147055363,1.138849695395571],[10.279476959743155,1.137397271260552],[10.284029767684077,1.135399050617165],[10.287689343199181,1.127948307260464],[10.296763413604761,1.130850796542885],[10.295793932649618,1.127225487689677],[10.29917536817507,1.124943211344053],[10.306423895509665,1.125477654853207],[10.306886511088313,1.131169245131231],[10.310321245389337,1.133446536593351],[10.323318007686327,1.133210353201276],[10.32917314921479,1.124261425879247],[10.34028483320293,1.138594991463615],[10.356963510692657,1.125023985726981],[10.364472897061857,1.125510402598894],[10.370708084270268,1.134643976716307],[10.369338913627324,1.13838402384196],[10.373627363088382,1.140347247147698],[10.366694742428916,1.148806354847177],[10.374809844951777,1.161033930406375],[10.388287579385674,1.161444172592297],[10.393649644092891,1.166573001894956],[10.395308830960108,1.175449067101663],[10.403853506016219,1.174423473633959],[10.417884252252417,1.185478396917351],[10.421545423421701,1.17922388799039],[10.444353677037748,1.168102038953943],[10.446483646289096,1.164402358321692],[10.464514118279041,1.159853671333149],[10.479121313893621,1.151924969409312],[10.499595176065053,1.130396821749162],[10.531586353606428,1.155696144783799],[10.535646338021628,1.166244700586266],[10.551013647442717,1.180342347921455],[10.55961092874304,1.196196562882347],[10.576077616123532,1.215787414821956],[10.595214806356344,1.218288304433527],[10.606032681104313,1.223306033871448],[10.62802097321166,1.221766989306973],[10.635277999313079,1.216735986150107],[10.748207025936095,1.235388024897245],[10.710756811771505,1.269170612910115],[10.714928224782817,1.280748448774561],[10.711791192935866,1.304227462600426],[10.722028545631677,1.315679216824402],[10.721694010634453,1.326085011227892],[10.726678849933494,1.334874987456706],[10.724779061236777,1.342738193358351],[10.744604009333457,1.374898969473393],[10.754843011328877,1.403137968171426],[10.770518027004352,1.424826016188267],[10.76571598754271,1.43827700188379],[10.751742985079701,1.45734498686426],[10.757555505288135,1.475088990177946],[10.748782353252407,1.481945451818166],[10.751567103714926,1.488665612526726],[10.741218244374398,1.500434037592971],[10.755995007395017,1.501178983755371],[10.749797967469185,1.522929984082931],[10.753247001571717,1.537263987121925],[10.751844993030572,1.548150969054272],[10.742295002905935,1.553812985614765],[10.715447986318532,1.544957958566756],[10.711500012948143,1.547056043821066],[10.710908537730706,1.560089723304444],[10.707397028811428,1.563265029371596],[10.691900976612983,1.559622018005262],[10.686682968831557,1.564067039283651],[10.682225032980064,1.559571958488176],[10.673860032782985,1.565088033410914],[10.671186010204384,1.57431200458401],[10.664944034644238,1.571535031104443],[10.65227602070763,1.581512007736317],[10.647316973203715,1.576874988502537],[10.650807023929955,1.569333023412077],[10.646804025571441,1.565491961246556],[10.645379996858912,1.568658027467006],[10.635525027718762,1.568384967646261],[10.62528498329595,1.57510604037964],[10.627285013195365,1.577352968715625],[10.6239899917007,1.580837989746881],[10.624982004447823,1.584667021304419],[10.610878991123656,1.586055988732874],[10.604179010021252,1.583417030588672],[10.599374003528887,1.588063039145454],[10.570023002041342,1.592579122938538]]]},"properties":{"shapeName":"EVINAYONG","shapeISO":"","shapeID":"11065452B18175278434840","shapeGroup":"GNQ","shapeType":"ADM2"}},
{"type":"Feature","geometry":{"type":"Polygon","coordinates":[[[11.01497783339602,1.776522637574964],[11.023192825184228,1.753383439533085],[11.002488727461015,1.740841735324346],[10.98405174676498,1.735715997876424],[10.975592328162536,1.719690414786723],[10.977010175635927,1.710834095834727],[10.984967986880593,1.701731739892389],[10.993004985301996,1.698685994832129],[10.991443994824413,1.692624009490193],[10.98252496486748,1.677611969798425],[10.953840983213349,1.659170979736471],[10.940268471424794,1.583197130420153],[10.94953289397272,1.578778783530045],[10.947079465104467,1.569199347724864],[10.95332777008038,1.561157359117973],[10.96240586897086,1.564803571008189],[10.966668685595742,1.585263147709995],[10.976048847102069,1.580522624971165],[10.980105059316642,1.582894712783344],[10.986268703511882,1.562759272191374],[10.984355263017099,1.55933928985391],[10.990385269463587,1.554146363490907],[10.988704051214576,1.549551786417562],[10.99899510729443,1.550461753273731],[11.00373115277197,1.545755713118502],[11.00591191178262,1.536503358727306],[11.01354216794579,1.538061915952102],[11.01623785270268,1.544202244378913],[11.01950743226989,1.541571533544657],[11.009214310418518,1.532167812373683],[11.011872977244261,1.524792257218698],[11.025179239110786,1.527683530343736],[11.022680824083938,1.523517764443745],[11.025677772175463,1.517719742825904],[11.037170605499835,1.516135162149645],[11.041285503819127,1.510294004617268],[11.046387122689303,1.513217105050582],[11.069963589709605,1.504827106751228],[11.148866978809252,1.60685496935391],[11.207094995106438,1.700740957519769],[11.20490821012895,1.713996320720239],[11.179967743849577,1.736276715869009],[11.156444848564623,1.751018920729098],[11.127896509925483,1.753618504062085],[11.01497783339602,1.776522637574964]]]},"properties":{"shapeName":"MONGOMOYEN","shapeISO":"","shapeID":"11065452B2915005607236","shapeGroup":"GNQ","shapeType":"ADM2"}},
{"type":"Feature","geometry":{"type":"Polygon","coordinates":[[[9.32486582373281,0.934604508486505],[9.30816407794618,0.933535871959955],[9.303056449023519,0.89673334568692],[9.310882283609361,0.897389646476425],[9.319800408532823,0.889969820057517],[9.331218375139306,0.888932214621768],[9.345263026343787,0.893409783257326],[9.33423462795343,0.907827562997083],[9.333191381250295,0.916083572566295],[9.337724052225076,0.924119886502621],[9.332502862051266,0.93098277658486],[9.32486582373281,0.934604508486505]]]},"properties":{"shapeName":"CORISCO","shapeISO":"","shapeID":"11065452B63780080368940","shapeGroup":"GNQ","shapeType":"ADM2"}},
{"type":"Feature","geometry":{"type":"Polygon","coordinates":[[[9.916269390699652,2.19754250678846],[9.913423576908166,2.191900009915936],[9.90668956179029,2.193036007597116],[9.90029353561407,2.20130106028736],[9.900673571698002,2.206648041542257],[9.894492554761607,2.208927049768004],[9.892078546538844,2.214863066040751],[9.887515559945657,2.214519064814132],[9.880604585873312,2.227008002497016],[9.848513227712644,2.240170789611354],[9.847032550652973,2.235385033895863],[9.844962586316678,2.250965029077814],[9.83299158262613,2.283990059635637],[9.828736568135755,2.286865028056061],[9.83540954710409,2.298112053371542],[9.83468454724793,2.319861004546351],[9.820818957833048,2.344830232760669],[9.817591621380032,2.339703144940309],[9.809341037976719,2.335823559792963],[9.796467055129957,2.334389181440351],[9.79096222695052,2.328975851885354],[9.77824310255277,2.327257012885534],[9.775366476156217,2.315704086105544],[9.79020867242655,2.268214850043268],[9.787941474254506,2.253614605974237],[9.794821765468347,2.219142678248789],[9.793019996730962,2.183717370827047],[9.797351554021983,2.160586023384],[9.790158561550827,2.124436023637087],[9.778571551468723,2.109301067912415],[9.768524584317097,2.104813038373794],[9.76564354989595,2.089092068396658],[9.776360544329194,2.067535046338528],[9.787349561790602,2.026375052311282],[9.792692572927992,2.018932071962019],[9.80551256357845,1.958354044947391],[9.817867529986183,1.932229033980626],[9.810737560129258,1.939716038458933],[9.80797457962041,1.911535081262342],[9.793881528765443,1.907556054039331],[9.788291569766926,1.882907999364978],[9.77592260032454,1.871596056046315],[9.765296584424126,1.868578059175044],[9.759316590158848,1.862075085420572],[9.757537283580056,1.854302036639506],[9.75060120140423,1.853491266518946],[9.744030358903698,1.846934451302681],[9.744170998415694,1.838373124029246],[9.756593557012822,1.833804063918208],[9.759460597361478,1.829312026930825],[9.745022695874102,1.836132326162433],[9.74443757079973,1.808563051599585],[9.733833580555164,1.785063005353452],[9.70781259922938,1.756485075125634],[9.695447584160489,1.747740066310334],[9.683726598251639,1.744401007434714],[9.66319995332321,1.712760358914394],[9.716542981755252,1.702039963403006],[9.734416594238072,1.668851463555284],[9.759344893967276,1.65959004007436],[9.921986783850837,1.659999018281707],[9.933283275512741,1.671574375729887],[9.913924017159513,1.783706019831122],[9.916269390699652,2.19754250678846]]]},"properties":{"shapeName":"BATA","shapeISO":"","shapeID":"11065452B98139425844484","shapeGroup":"GNQ","shapeType":"ADM2"}},
{"type":"Feature","geometry":{"type":"Polygon","coordinates":[[[9.933283275512741,1.671574375729887],[9.952220166245498,1.683891248183639],[9.96056516886836,1.679878866650639],[9.965184527520819,1.68183525807603],[9.970704172389153,1.688362878969356],[9.981106367094313,1.693285553937531],[9.980996969486078,1.696807999167451],[10.021252968280331,1.733879973772796],[10.052366993869493,1.856458008999509],[10.035175012415744,2.143987966949341],[10.036521841991274,2.162073514597262],[10.013922594469223,2.17233302277504],[9.992822561104937,2.163963074529495],[9.988990566233698,2.170859011798217],[9.98541458933782,2.170352996762217],[9.959513581311255,2.186048000636003],[9.951079564605951,2.185355012642958],[9.94394457750512,2.191288042556362],[9.940909577340198,2.186991023435732],[9.94106156014388,2.193021995823678],[9.935098542104459,2.190961069940468],[9.925818605606512,2.200319064133127],[9.916269390699652,2.19754250678846],[9.913924017159513,1.783706019831122],[9.933283275512741,1.671574375729887]]]},"properties":{"shapeName":"MACHINDA","shapeISO":"","shapeID":"11065452B59369715507709","shapeGroup":"GNQ","shapeType":"ADM2"}},
{"type":"Feature","geometry":{"type":"Polygon","coordinates":[[[10.395294991857877,1.672727006538624],[10.30785401187237,1.911533990271316],[10.306950730587007,2.172698290342285],[10.190885714120954,2.172799854578177],[10.184207567012557,2.163122001175895],[10.177145532649297,2.158916998618137],[10.174538590869554,2.161672029122936],[10.16760956768389,2.159401075132501],[10.147052586744193,2.170857055244614],[10.120990598262614,2.156482008358668],[10.118698531813825,2.160755997583184],[10.106285537264089,2.162428991502966],[10.101546570299917,2.160117008243911],[10.091955544492803,2.164558003505465],[10.079964550712948,2.1613080033376],[10.062986556946518,2.163891016668724],[10.051200585024375,2.170306006008622],[10.049349532305873,2.181807057041621],[10.045460575344832,2.166702061706816],[10.036521841991274,2.162073514597262],[10.035175012415744,2.143987966949341],[10.052366993869493,1.856458008999509],[10.021252968280331,1.733879973772796],[9.980996969486078,1.696807999167451],[9.981106367094313,1.693285553937531],[10.046185975698291,1.606310037475014],[10.051104992596505,1.583932957722777],[10.056040037038201,1.57892501896246],[10.114330983836524,1.578139977664847],[10.306399943684285,1.657547004374658],[10.395294991857877,1.672727006538624]]]},"properties":{"shapeName":"NIEFANG","shapeISO":"","shapeID":"11065452B28626668585382","shapeGroup":"GNQ","shapeType":"ADM2"}},
{"type":"Feature","geometry":{"type":"Polygon","coordinates":[[[10.522870999151797,1.92515602305868],[10.516945966365343,1.924166967866228],[10.511793967219655,1.933152018098352],[10.506972012092286,1.928474988866585],[10.500018817831803,1.93255597043622],[10.48812064664866,1.927183977742849],[10.477095484272272,1.928613101458278],[10.46456059838474,1.920451929167971],[10.452165297514979,1.924607991557733],[10.446920288550603,1.917230201213377],[10.436391414657477,1.92212605813743],[10.428601056829814,1.914661499922951],[10.420204025767475,1.913085072926824],[10.414172037840052,1.919712617002144],[10.393961071650306,1.930701884418856],[10.393282494723259,1.937177637968574],[10.375398439591512,1.945452003928418],[10.42990763243244,1.997083224622685],[10.4655057822885,2.018837239158246],[10.465679795336069,2.03314756315984],[10.473719848696193,2.036565624471264],[10.47305065856596,2.050891772043828],[10.47829311292199,2.056032358591205],[10.479053888467966,2.068495867004032],[10.487573814045218,2.073093999540685],[10.490037994831198,2.106738989839034],[10.495605014267401,2.112268027214408],[10.49788502603491,2.128592043561529],[10.49882097281756,2.135485022825569],[10.523850969832012,2.159090978352072],[10.529115760964126,2.166628769526873],[10.529131461966573,2.172478856343708],[10.306950730587007,2.172698290342285],[10.30785401187237,1.911533990271316],[10.395294991857877,1.672727006538624],[10.497722017909162,1.741460028262702],[10.579956097324708,1.714956127791734],[10.59798402374165,1.74518298742835],[10.608655025462234,1.774749034604234],[10.604976990441461,1.78914203369778],[10.611760982454257,1.796905024690949],[10.608403001244003,1.801751967586682],[10.609803998104589,1.812371034346345],[10.619299980380042,1.828529982022189],[10.615593034070791,1.832276001530727],[10.603330010530183,1.833857018635966],[10.597726994853705,1.829672972365038],[10.591158018479684,1.835484996775526],[10.58792497784636,1.850753037765116],[10.592760008104062,1.860822037810228],[10.59173500148843,1.865424014760085],[10.58571497671686,1.867999009735574],[10.576743967965125,1.862904044574954],[10.574809979248885,1.867175029147754],[10.566275982779022,1.866656004904317],[10.563139978058599,1.879040014966293],[10.552532973880924,1.882248967439789],[10.540500497066006,1.892041436482212],[10.534339376573682,1.917893271224608],[10.522870999151797,1.92515602305868]]]},"properties":{"shapeName":"NKIMI","shapeISO":"","shapeID":"11065452B74289865102960","shapeGroup":"GNQ","shapeType":"ADM2"}},
{"type":"Feature","geometry":{"type":"Polygon","coordinates":[[[10.817770001252997,1.963776955946923],[10.831424970730374,1.972783968550653],[10.859612035066377,1.972409963571431],[10.931503828182692,1.93141594073279],[10.936903240536003,1.936503716798253],[10.944462493913004,1.93465362243636],[10.954259849044659,1.94331300179353],[10.95362065407615,1.949051760191941],[10.960013111312563,1.961061859503521],[10.95763378814874,1.97779619067838],[10.933024391188674,1.983583819484084],[11.028470019659894,2.118041988797598],[11.036299987567812,2.117070023330724],[11.031746993844859,2.123071031190144],[11.019573024727519,2.126220964703437],[10.994641024283759,2.154405548896706],[10.993494518720556,2.171914143729221],[10.529131461966573,2.172478856343708],[10.529115760964126,2.166628769526873],[10.523850969832012,2.159090978352072],[10.49882097281756,2.135485022825569],[10.49788502603491,2.128592043561529],[10.544250028,2.129406028498281],[10.632515988085117,2.054913025852773],[10.632544589216264,1.985822103900077],[10.653583266235437,1.985726688574203],[10.659280017754588,1.980086971775482],[10.663474975367038,1.980004984705441],[10.695857017576733,1.984913996114472],[10.704461988396995,1.992019005358105],[10.763805015234375,2.021497012298641],[10.786495963267145,2.008863010214196],[10.78947598140269,2.001528980732625],[10.788392987220375,1.980360994015115],[10.817770001252997,1.963776955946923]]]},"properties":{"shapeName":"MICOMISENG","shapeISO":"","shapeID":"11065452B35658646165921","shapeGroup":"GNQ","shapeType":"ADM2"}},
{"type":"Feature","geometry":{"type":"Polygon","coordinates":[[[11.236652238760085,1.788307769206516],[11.255199910161322,1.789545051690743],[11.324286031880144,1.764799041022045],[11.399133043857978,1.761429337492467],[11.402382530332797,1.82450605429766],[11.401089508311136,1.836773985086501],[11.396925468919848,1.840705018385298],[11.398682500334113,1.848073014581266],[11.371906491908852,1.888890974519615],[11.354066513261522,1.895457062086425],[11.33891251674447,1.940637994830076],[11.326304520615718,1.96018201406264],[11.327349506749673,1.966030044237987],[11.334698482661073,1.971004981939767],[11.33253048024564,1.975434049160691],[11.335276520055404,1.978819982450571],[11.335530522270941,1.996551006020334],[11.334980503442072,2.001632040957601],[11.332264517306676,2.001545009900612],[11.33132251596344,2.007309970799734],[11.32091649665656,2.020318036111267],[11.323631540536189,2.029843049511877],[11.32122198094164,2.034936137812418],[11.324866542048511,2.038601048963438],[11.32123053035907,2.044462980287054],[11.326116538354796,2.053589989340859],[11.324318526766763,2.061662998842569],[11.332354496538311,2.075552982052274],[11.332114488801793,2.087073047027971],[11.342988485713434,2.104257987802643],[11.341423028437129,2.107735194046785],[11.347726547147177,2.106214988413508],[11.344992091159462,2.113438842779565],[11.350995526675154,2.114666971691243],[11.350181582177106,2.120625689527278],[11.353641531042612,2.119724041504333],[11.351644481674775,2.126582009100766],[11.359421475289048,2.128055042503124],[11.36362750721258,2.136284004105908],[11.35570779808859,2.148348700622061],[11.359675505076368,2.150665033719392],[11.357107502325634,2.15738202058915],[11.362303803983671,2.171386027600866],[11.266034855225739,2.171527634162387],[11.187648977882795,2.197526932916409],[11.149867489966855,2.171691682189697],[10.993494518720556,2.171914143729221],[10.994641024283759,2.154405548896706],[11.019573024727519,2.126220964703437],[11.031746993844859,2.123071031190144],[11.036299987567812,2.117070023330724],[11.090380854098388,2.117999890155773],[11.105455959518004,2.107132747818123],[11.114049634944074,2.080148244753721],[11.128327145858037,2.063211104593162],[11.128174301532809,2.057369527050052],[11.136853607496189,2.037339633562161],[11.13961091083851,2.036641211871264],[11.143208013755718,2.021976041251279],[11.196021032631961,2.021520239260953],[11.18837176967714,1.987816416292628],[11.18641479788202,1.945241623730249],[11.243462863321282,1.883270985815885],[11.245668002982338,1.845148957378179],[11.242151966368043,1.831266970781613],[11.247099975952201,1.818702973413886],[11.24504096414034,1.805701003608637],[11.236652238760085,1.788307769206516]]]},"properties":{"shapeName":"EBEBIYIN","shapeISO":"","shapeID":"11065452B6027875666302","shapeGroup":"GNQ","shapeType":"ADM2"}},
{"type":"Feature","geometry":{"type":"Polygon","coordinates":[[[11.127896509925483,1.753618504062085],[11.156444848564623,1.751018920729098],[11.179967743849577,1.736276715869009],[11.20490821012895,1.713996320720239],[11.207094995106438,1.700740957519769],[11.148866978809252,1.60685496935391],[11.069963589709605,1.504827106751228],[11.07503991098368,1.507010520945852],[11.091745654279244,1.504286698771103],[11.09908619781279,1.509618037321772],[11.1024341685378,1.506433223063129],[11.109414367378173,1.510672256971696],[11.118579478346595,1.506164564747992],[11.123998855797717,1.516835137295847],[11.127877281734351,1.516235984212531],[11.129774579044568,1.52064420582284],[11.140243553731043,1.52526657450759],[11.149381163752208,1.522542450099457],[11.163096798445377,1.504600196241417],[11.168377905023886,1.502693767205681],[11.175640270798667,1.490566116274556],[11.18456485937653,1.495785084168669],[11.204957442918028,1.49749889433521],[11.218963023124953,1.48398308917172],[11.245237928046127,1.4863081063203],[11.252245643759972,1.468552875567614],[11.273964126851343,1.464821529974712],[11.278380280884981,1.466616253217093],[11.283705915155437,1.460291557530882],[11.295515069377284,1.460600120093495],[11.303160601922697,1.441292717350172],[11.336620874505988,1.439510299696793],[11.33674849992885,1.642836053834813],[11.35172150259273,1.650560007900176],[11.365289494387515,1.666775069464193],[11.382179487126193,1.67664905444894],[11.391195503134911,1.690958055361726],[11.405575501847684,1.700631045684261],[11.405635494571793,1.706952979936553],[11.396606534136014,1.71383206045006],[11.393775506707811,1.723204034710577],[11.400036519259226,1.740426028388864],[11.399133043857978,1.761429337492467],[11.324286031880144,1.764799041022045],[11.255199910161322,1.789545051690743],[11.236652238760085,1.788307769206516],[11.228540040908593,1.787294991727962],[11.187892213613678,1.801290263471838],[11.157040118058584,1.793889768497894],[11.147167390098273,1.80529882303248],[11.135070482687976,1.81063247347297],[11.129594974327158,1.794190133164499],[11.131754973877886,1.788202003806129],[11.127896509925483,1.753618504062085]]]},"properties":{"shapeName":"MONGOMO","shapeISO":"","shapeID":"11065452B93694652116414","shapeGroup":"GNQ","shapeType":"ADM2"}},
{"type":"Feature","geometry":{"type":"Polygon","coordinates":[[[10.964335032630105,1.073285014745708],[10.962153995199793,1.059763963630564],[10.976528017030653,1.033274983799041],[10.973037976659018,1.013463009803316],[10.962913825658,1.000098865052132],[11.336444993888168,1.000012943850005],[11.336620874505988,1.439510299696793],[11.303160601922697,1.441292717350172],[11.295515069377284,1.460600120093495],[11.283705915155437,1.460291557530882],[11.278380280884981,1.466616253217093],[11.273964126851343,1.464821529974712],[11.252245643759972,1.468552875567614],[11.245237928046127,1.4863081063203],[11.218963023124953,1.48398308917172],[11.204957442918028,1.49749889433521],[11.18456485937653,1.495785084168669],[11.175640270798667,1.490566116274556],[11.168377905023886,1.502693767205681],[11.163096798445377,1.504600196241417],[11.149381163752208,1.522542450099457],[11.140243553731043,1.52526657450759],[11.129774579044568,1.52064420582284],[11.127877281734351,1.516235984212531],[11.123998855797717,1.516835137295847],[11.13106901868859,1.499897958676692],[11.16567087058622,1.346709206845063],[11.134554021439664,1.202682002993192],[11.068501983460232,1.098674022860506],[10.964335032630105,1.073285014745708]]]},"properties":{"shapeName":"NSORK","shapeISO":"","shapeID":"11065452B58050641555743","shapeGroup":"GNQ","shapeType":"ADM2"}},
{"type":"Feature","geometry":{"type":"Polygon","coordinates":[[[10.748207025936095,1.235388024897245],[10.635277999313079,1.216735986150107],[10.62802097321166,1.221766989306973],[10.606032681104313,1.223306033871448],[10.595214806356344,1.218288304433527],[10.576077616123532,1.215787414821956],[10.55961092874304,1.196196562882347],[10.551013647442717,1.180342347921455],[10.535646338021628,1.166244700586266],[10.531586353606428,1.155696144783799],[10.499595176065053,1.130396821749162],[10.479121313893621,1.151924969409312],[10.464514118279041,1.159853671333149],[10.446483646289096,1.164402358321692],[10.444353677037748,1.168102038953943],[10.421545423421701,1.17922388799039],[10.417884252252417,1.185478396917351],[10.403853506016219,1.174423473633959],[10.395308830960108,1.175449067101663],[10.393649644092891,1.166573001894956],[10.388287579385674,1.161444172592297],[10.374809844951777,1.161033930406375],[10.366694742428916,1.148806354847177],[10.373627363088382,1.140347247147698],[10.369338913627324,1.13838402384196],[10.370708084270268,1.134643976716307],[10.364472897061857,1.125510402598894],[10.356963510692657,1.125023985726981],[10.34028483320293,1.138594991463615],[10.32917314921479,1.124261425879247],[10.323318007686327,1.133210353201276],[10.310321245389337,1.133446536593351],[10.306886511088313,1.131169245131231],[10.306423895509665,1.125477654853207],[10.29917536817507,1.124943211344053],[10.295793932649618,1.127225487689677],[10.296763413604761,1.130850796542885],[10.287689343199181,1.127948307260464],[10.284029767684077,1.135399050617165],[10.279476959743155,1.137397271260552],[10.258044147055363,1.138849695395571],[10.247576771478728,1.125474727334842],[10.262441966321651,1.097030963839679],[10.258057017150605,1.057086992767585],[10.248446967012606,1.048002037078939],[10.23514799225175,1.014776005792092],[10.210389548002514,1.000141920396757],[10.696997560942695,1.000133915822133],[10.740072543535222,1.034141017332235],[10.874350655118553,1.034191703759256],[10.90619249883141,1.022715070583534],[10.9119255422557,1.011582028647054],[10.92789115153852,1.000104725382493],[10.962913825658,1.000098865052132],[10.973037976659018,1.013463009803316],[10.976528017030653,1.033274983799041],[10.962153995199793,1.059763963630564],[10.964335032630105,1.073285014745708],[10.827911258370614,1.205341443752415],[10.748207025936095,1.235388024897245]]]},"properties":{"shapeName":"ACURENAM","shapeISO":"","shapeID":"11065452B93144755032170","shapeGroup":"GNQ","shapeType":"ADM2"}},
{"type":"Feature","geometry":{"type":"Polygon","coordinates":[[[10.114330983836524,1.578139977664847],[10.056040037038201,1.57892501896246],[10.051104992596505,1.583932957722777],[10.046185975698291,1.606310037475014],[9.981106367094313,1.693285553937531],[9.970704172389153,1.688362878969356],[9.965184527520819,1.68183525807603],[9.96056516886836,1.679878866650639],[9.952220166245498,1.683891248183639],[9.933283275512741,1.671574375729887],[9.921986783850837,1.659999018281707],[9.759344893967276,1.65959004007436],[9.734416594238072,1.668851463555284],[9.716542981755252,1.702039963403006],[9.66319995332321,1.712760358914394],[9.658925590281664,1.705512069966217],[9.649027601455781,1.702173034979897],[9.64062659156853,1.691043038776111],[9.632555558159297,1.689764048075664],[9.610962561805078,1.665445073877545],[9.611761585912184,1.646749060772571],[9.607676543870742,1.622879051517798],[9.612735529332053,1.621410074607173],[9.617646536868131,1.61059307694123],[9.623798540714395,1.607565052244927],[9.632118581607896,1.587216090873163],[9.651982559185303,1.575246038225704],[9.67905553755837,1.568037071769818],[9.720254578185841,1.593079074690065],[9.738585531835543,1.596276068787407],[9.750754555286267,1.592924039408755],[9.759146559486297,1.595302028396536],[9.779646538620401,1.580674053990202],[9.79692259498893,1.578099081989],[9.800838563771011,1.574018039879941],[9.800647569663337,1.566091047120263],[9.804470580501398,1.560682043365106],[9.822752534681328,1.560122039024302],[9.804696575282252,1.558712062434846],[9.79873053301983,1.56458008179765],[9.799287531686302,1.572874054697903],[9.7945975676271,1.577962047917919],[9.777727547645584,1.577330007099091],[9.75727256668049,1.591363072794969],[9.740814549294598,1.591876038488038],[9.721888577452875,1.58680004362235],[9.716182572811707,1.580663044424309],[9.721864558913786,1.566135033656158],[9.738859562889827,1.556503035678892],[9.737483567182462,1.549585084664588],[9.732525533947902,1.559851060474063],[9.723633532563843,1.55806900753667],[9.71444252743289,1.57429500512923],[9.6997135891689,1.571875049362554],[9.69441253382987,1.561614038282151],[9.685338564524764,1.560473054242906],[9.67511955538442,1.554384090724904],[9.6617145392177,1.55425404469489],[9.661479539516101,1.547977027582333],[9.657972569787274,1.551003070514559],[9.658980546788944,1.554897085935304],[9.63415155992802,1.571223090457365],[9.620221569136367,1.590018017116712],[9.598820537312642,1.573763079590767],[9.597757562684844,1.560979039635399],[9.575979068027483,1.509272571507423],[9.595693008717634,1.509838014107907],[9.678962030721676,1.470033004832306],[10.106837966765044,1.468677019501731],[10.114330983836524,1.578139977664847]]]},"properties":{"shapeName":"MBINI","shapeISO":"","shapeID":"11065452B69337055746076","shapeGroup":"GNQ","shapeType":"ADM2"}},
{"type":"Feature","geometry":{"type":"Polygon","coordinates":[[[10.106837966765044,1.468677019501731],[9.678962030721676,1.470033004832306],[9.595693008717634,1.509838014107907],[9.575979068027483,1.509272571507423],[9.56286853411615,1.486530086323993],[9.549549584106064,1.48254109251303],[9.544278562837105,1.46412207487899],[9.536385575020851,1.455207051381535],[9.519190597029779,1.440498074061159],[9.49698454933907,1.43154002175643],[9.490646543968122,1.422803031292711],[9.480620572490922,1.418985048810222],[9.47036656592258,1.40122600880019],[9.463998576449073,1.397350095990702],[9.460550532301303,1.39162901367901],[9.46588759834572,1.35845208874863],[9.461677598531542,1.328611037063013],[9.454235543320818,1.317813072906923],[9.444260549352599,1.315692076815205],[9.429118569193012,1.284741084656317],[9.421702528434123,1.282107013897838],[9.409542557586148,1.283342041329689],[9.397625545962285,1.274623086544525],[9.40001557718418,1.263791079601323],[9.390822534291315,1.248780050558234],[9.387666559667915,1.219715056358605],[9.385043561842378,1.214312088601815],[9.379741579009423,1.211917617740236],[9.389368028657547,1.208767977808651],[9.40733897258877,1.209902035399352],[9.42676401746086,1.216306997268132],[9.449530982024953,1.243326026879482],[9.462996976636267,1.249045997536172],[9.476359035597905,1.243325996140048],[9.474563991752163,1.239708997953539],[9.478509009738927,1.229009995039213],[9.509077020410139,1.229958019973492],[9.54846101789298,1.249143956507502],[9.560451990022377,1.25808699969628],[9.570883137979818,1.271690991775229],[9.58686502821542,1.277802494890295],[9.600100987660804,1.275707235197707],[9.61933227333942,1.281512818964206],[9.631912249801623,1.281105601873046],[9.686057980336319,1.267679994699954],[9.802660014363232,1.359301018655132],[10.061133022163348,1.409191029022101],[10.109925992195132,1.442936001680753],[10.106837966765044,1.468677019501731]]]},"properties":{"shapeName":"BITICA","shapeISO":"","shapeID":"11065452B13026737962858","shapeGroup":"GNQ","shapeType":"ADM2"}},
{"type":"Feature","geometry":{"type":"MultiPolygon","coordinates":[[[[9.78274101988687,1.043405989179652],[9.77403702100375,1.062882019135694],[9.76872297913305,1.067805981056232],[9.760884985865069,1.068595008157875],[9.75817601143551,1.062643040058643],[9.761134019399533,1.055368971383857],[9.78274101988687,1.043405989179652]]],[[[9.730913999396773,1.073212959324996],[9.732526975903944,1.07557197057316],[9.729103003833096,1.079911992348344],[9.72755497176894,1.073912016749787],[9.730913999396773,1.073212959324996]]],[[[10.061133022163348,1.409191029022101],[9.802660014363232,1.359301018655132],[9.686057980336319,1.267679994699954],[9.631912249801623,1.281105601873046],[9.61933227333942,1.281512818964206],[9.600100987660804,1.275707235197707],[9.58686502821542,1.277802494890295],[9.570883137979818,1.271690991775229],[9.560451990022377,1.25808699969628],[9.54846101789298,1.249143956507502],[9.509077020410139,1.229958019973492],[9.478509009738927,1.229009995039213],[9.474563991752163,1.239708997953539],[9.476359035597905,1.243325996140048],[9.462996976636267,1.249045997536172],[9.449530982024953,1.243326026879482],[9.42676401746086,1.216306997268132],[9.40733897258877,1.209902035399352],[9.389368028657547,1.208767977808651],[9.379741579009423,1.211917617740236],[9.368215594075998,1.185386036648917],[9.360994539374596,1.186511047073633],[9.35233553202329,1.181313044544544],[9.346851574221876,1.182524086087555],[9.34235053284368,1.17625708926488],[9.357722580661386,1.164096061699415],[9.362569544276454,1.149541083391921],[9.357942551049886,1.146851068285684],[9.359072526384939,1.142628056891671],[9.367027538834721,1.142188079172103],[9.375744574560917,1.13692903738567],[9.387136578644293,1.109740094308128],[9.398253551227327,1.111673019390192],[9.41143958742834,1.102226016974495],[9.412922593898571,1.108412095683362],[9.41970858511106,1.114259034563271],[9.435578534078912,1.115030078512792],[9.448853576651478,1.11943306392701],[9.456371541196944,1.125369041418672],[9.470696543895347,1.129309070384926],[9.473411581401054,1.134666055028008],[9.481103573271362,1.137941099846209],[9.495275548429236,1.136929072321782],[9.501620564043458,1.133238026173941],[9.51086654149012,1.136233033281849],[9.524790559610254,1.128847042791494],[9.533162523815168,1.130056098638852],[9.55208753563642,1.113848033984576],[9.561001561975445,1.098453011826717],[9.574637521876499,1.072264095085882],[9.582708574443235,1.036327070166077],[9.589360556718285,1.028461056481038],[9.604669581803297,1.04001109038548],[9.61569552172049,1.041762030836052],[9.62175456526264,1.048987080495321],[9.642532581615832,1.054786044330005],[9.647403541290306,1.062336039710516],[9.656384583090993,1.068084030451989],[9.66159557927285,1.067469032956664],[9.674207583903392,1.079029071395419],[9.666002541859875,1.087358008854999],[9.668735569613808,1.098493020934689],[9.661884566415772,1.101039048223343],[9.662359581371012,1.106541093500409],[9.665010549485494,1.106119098148528],[9.66239051867719,1.102001033785724],[9.667831591482987,1.101661082478862],[9.66964756321385,1.0977110717914],[9.667512539386813,1.08758207523218],[9.67615453181844,1.087598047865233],[9.681735546429806,1.102622088512897],[9.681918586523452,1.117114067448883],[9.695587559734737,1.130550009904446],[9.715042583207465,1.137316046646974],[9.720228552409752,1.143214075530515],[9.721337546465477,1.146696010681],[9.710827568901014,1.1492090231182],[9.715977535697672,1.143733046541979],[9.714229545015355,1.140208030226748],[9.71086590269776,1.14085674257113],[9.710036543006495,1.144901031793926],[9.702486533377302,1.143230076634871],[9.699154527415304,1.145122063776097],[9.702149547104243,1.152357038772682],[9.695880558554448,1.151049086006405],[9.702884546446137,1.153364079818105],[9.700479527334087,1.144888021716185],[9.71040657121967,1.14604609366921],[9.711534548268498,1.141181010870231],[9.714875570533119,1.142270066886993],[9.70958957608207,1.147929050222106],[9.710929589820356,1.152373026916702],[9.704514539041295,1.16280602887295],[9.71307355874972,1.150760083344552],[9.721574556756293,1.149355096621296],[9.743022546008882,1.164599056936459],[9.731583588335962,1.17656304168774],[9.732457539877748,1.192703060623192],[9.741194527374908,1.208174058933472],[9.73198155112106,1.215636089826868],[9.742385518728417,1.208950035566278],[9.744816518638103,1.211143058158743],[9.75143857241808,1.222998029905827],[9.751725581998944,1.241388068950219],[9.754654571693287,1.213356075808863],[9.746965571601583,1.21108900899651],[9.7398925498996,1.201208027461652],[9.734258584441108,1.183799078846229],[9.736511559640046,1.173427030684705],[9.75214355058692,1.171080008776723],[9.754182540640963,1.165294049227625],[9.760447489294688,1.166533187358749],[9.786135565296268,1.190729010639507],[9.787088567706997,1.202925074208223],[9.790760542855715,1.207544060452835],[9.803833542332798,1.205802022419566],[9.809757537071688,1.19945307995145],[9.791758548311893,1.204743028529825],[9.788132524998538,1.200628082838097],[9.785938590534402,1.186327071320108],[9.777372561676271,1.181816072297765],[9.778405520624496,1.175621047985364],[9.774071526427393,1.178846028753928],[9.765660587364014,1.165392051740798],[9.747677573154531,1.161648082949313],[9.727253549895376,1.137870039265962],[9.69830054326407,1.120726019741037],[9.694299577412343,1.113631083695022],[9.696613557745922,1.107890092679872],[9.693823575803341,1.107671054058927],[9.69456153793647,1.080747039538391],[9.696702545431465,1.07821708632354],[9.714130526384357,1.080267080965451],[9.730400526810916,1.091722010169992],[9.742616546611032,1.093881037636665],[9.753715573951673,1.089853020512556],[9.763923519687577,1.093165017911184],[9.778537521770488,1.087245077155893],[9.77737455183176,1.095458058287929],[9.784724548331965,1.09176403964299],[9.784803518425026,1.087636069833514],[9.788637582889821,1.085375095257791],[9.819188584716963,1.072658028211626],[9.835334543438004,1.074115041182562],[9.84934653486284,1.080212081364695],[9.858710563561177,1.091324027325933],[9.849494571948505,1.098098052004949],[9.853732584327629,1.10785206718252],[9.837774582096865,1.122629067520984],[9.854879562688703,1.109132063231866],[9.850727582768931,1.097543094258847],[9.859999560583903,1.094301077895034],[9.862082520154948,1.087781084810734],[9.870915577573566,1.089998024921432],[9.87587152077088,1.095530018108737],[9.877775569278482,1.10487907600832],[9.873849567943973,1.121358015791097],[9.87711457846703,1.127079044954637],[9.87105454152708,1.134025064334302],[9.870962545628801,1.148472050460839],[9.87270355286816,1.134799034802889],[9.878030518804541,1.127672077778138],[9.876393587865556,1.116166051306373],[9.882520569131968,1.10160703992334],[9.870928573293366,1.079725042700856],[9.86144358231574,1.073658057821227],[9.844799551010524,1.073761045542148],[9.832335539930435,1.065641095946785],[9.820941524060888,1.063066036754817],[9.832059530903688,1.050508034205239],[9.851707563731418,1.060392073583817],[9.85679454479229,1.049321008927819],[9.878312573243269,1.052730067237197],[9.901173569636734,1.044267065571442],[9.884258582030624,1.044950046707158],[9.876242587144384,1.052360014817714],[9.855189514170826,1.047905093483468],[9.850008577414084,1.058242047092834],[9.832388516004752,1.039041080436176],[9.83085453084836,1.045421014821761],[9.824493544249675,1.04393008861226],[9.824886532598624,1.052688044592645],[9.81776951662075,1.057620096386201],[9.810599551231137,1.060534057052988],[9.788832548057162,1.060426027272064],[9.7843805775905,1.055304039484515],[9.796960522575496,1.027836013096798],[9.795738522685289,1.00284509769866],[9.838653529523436,1.010126055540341],[9.845509517698925,1.009002031576419],[9.854992582806368,1.000255018986002],[9.873092576391995,0.996166047882756],[9.88618258061145,0.982125055717077],[9.891652580545749,0.957495027512185],[9.902166521453449,0.949809019264544],[9.922200529506709,0.943341024049771],[9.933120571326016,0.931296048338243],[9.947159552273549,0.924119048741308],[9.951963524400524,0.924567071561403],[9.956096526265371,0.930110036950021],[9.977169555935786,0.930413084053325],[9.990532523563159,0.935711068091434],[9.983923571888846,0.941242054492478],[9.989147579709908,0.946314031065753],[9.988273542233582,0.95361205146407],[9.991796543035932,0.957833081136655],[9.986896570614503,0.960869070849657],[9.983999539655676,0.978870031120846],[9.99023053677754,0.984067087701603],[9.993833541020726,0.995163090810179],[9.990291850936895,1.000121678551615],[10.210389548002514,1.000141920396757],[10.23514799225175,1.014776005792092],[10.248446967012606,1.048002037078939],[10.258057017150605,1.057086992767585],[10.262441966321651,1.097030963839679],[10.247576771478728,1.125474727334842],[10.23476003106168,1.129998005634351],[10.22382403359784,1.139806029155445],[10.203200020880187,1.13616204443744],[10.199522995111225,1.139831965499556],[10.171633014238871,1.220534976628534],[10.165834986680307,1.228899990702745],[10.141418016692759,1.239174033811721],[10.127718012803891,1.254226974208382],[10.123732994746163,1.271282997367503],[10.125206963956343,1.282313009925952],[10.107694473133863,1.356912431363025],[10.061133022163348,1.409191029022101]]]]},"properties":{"shapeName":"COGO","shapeISO":"","shapeID":"11065452B22787327477805","shapeGroup":"GNQ","shapeType":"ADM2"}},
{"type":"Feature","geometry":{"type":"Polygon","coordinates":[[[9.51093000035537,0.979924967513965],[9.506121595995632,0.992200885027609],[9.49979203449865,0.978803438244011],[9.501893031052145,0.969908988030455],[9.506412764355584,0.971907818184933],[9.512408030262797,0.969841011222608],[9.51093000035537,0.979924967513965]]]},"properties":{"shapeName":"ELOBEY GRANDE","shapeISO":"","shapeID":"11065452B23490115173263","shapeGroup":"GNQ","shapeType":"ADM2"}},
{"type":"Feature","geometry":{"type":"Polygon","coordinates":[[[9.51616029506816,1.00417780813027],[9.519079782858443,0.99527581674365],[9.522041406800524,0.998012202720895],[9.51616029506816,1.00417780813027]]]},"properties":{"shapeName":"ELOBEY CHICO","shapeISO":"","shapeID":"11065452B42024070816207","shapeGroup":"GNQ","shapeType":"ADM2"}},
{"type":"Feature","geometry":{"type":"Polygon","coordinates":[[[5.619985500755477,-1.454461182093656],[5.627478127045505,-1.456705871045499],[5.628022629955123,-1.462890660220493],[5.634149877496103,-1.460344154239539],[5.636007520241028,-1.464578202757545],[5.643565273164053,-1.463592003703486],[5.644034937876172,-1.459416240636339],[5.651534399667804,-1.457289855283292],[5.64980096784394,-1.443104581506576],[5.655588595793121,-1.43825388764683],[5.648892578910204,-1.414265369233786],[5.641853331426747,-1.405107932711986],[5.631240386744831,-1.398376969924754],[5.617868756701577,-1.404745572863943],[5.616197635017985,-1.409570699669392],[5.619524238429579,-1.41138058229563],[5.617861990604204,-1.418171187636592],[5.620982410151489,-1.418782026638528],[5.621905726980926,-1.433590053743477],[5.626043852459726,-1.441150406327306],[5.619550228048348,-1.449748434091075],[5.619985500755477,-1.454461182093656]]]},"properties":{"shapeName":"ANNOBON","shapeISO":"","shapeID":"11065452B47830871634702","shapeGroup":"GNQ","shapeType":"ADM2"}},
{"type":"Feature","geometry":{"type":"Polygon","coordinates":[[[8.807064993540703,3.748375968520897],[8.796807022285373,3.756934033859743],[8.786784012684015,3.752767037701924],[8.782609027732587,3.761302965095298],[8.782060999968886,3.753726992911491],[8.776994996799006,3.754566987698497],[8.774869970860841,3.751553004283752],[8.768052012743834,3.754085990227261],[8.763723968370535,3.752299975927484],[8.754804005053295,3.75675000392558],[8.731169001931354,3.756272957993898],[8.724475975705639,3.764426993095609],[8.729070026626674,3.776651008271108],[8.713210987430983,3.783976030955119],[8.691285004198152,3.771829977244426],[8.683893031331237,3.761971039296374],[8.680195979655366,3.74471501174647],[8.669017017749603,3.734797958893981],[8.657488006105389,3.712835967100389],[8.63953802460959,3.690547016741052],[8.63170798562409,3.685726025268374],[8.623290993468746,3.669199984812656],[8.614433013626911,3.664134039072414],[8.6095720025534,3.629202981760511],[8.610762023830203,3.614544967372716],[8.629454965127659,3.610666033714039],[8.648835029431039,3.600772980661104],[8.663512991543868,3.58670403848633],[8.679337007940374,3.582453990815136],[8.692983970776783,3.569826994365843],[8.701469003345851,3.566921018622728],[8.72073303080943,3.566972044296454],[8.734033991467912,3.573751988949848],[8.754444022916086,3.576434030855788],[8.758012998195223,3.583954032008845],[8.763042992023234,3.583710955445555],[8.767744025914439,3.58776696668928],[8.776457004333452,3.603070017808156],[8.78907102835901,3.602065961422642],[8.791937026558173,3.60433195673375],[8.796636974549608,3.618330969179651],[8.807644005867084,3.625000040187529],[8.821402001827702,3.646274958999113],[8.824952974908888,3.685196005682206],[8.823460003602895,3.711796031092767],[8.807519023643282,3.73749000798834],[8.807064993540703,3.748375968520897]]]},"properties":{"shapeName":"MALABO","shapeISO":"","shapeID":"11065452B197102371645","shapeGroup":"GNQ","shapeType":"ADM2"}},
{"type":"Feature","geometry":{"type":"Polygon","coordinates":[[[8.754444022916086,3.576434030855788],[8.775427003642982,3.586780992368555],[8.783453036076553,3.589387999912695],[8.787237032220983,3.587576986354692],[8.7957229853486,3.579880044132455],[8.800885000142998,3.568479970236539],[8.814646014440374,3.55669097486783],[8.81785696301199,3.547214997831077],[8.836205006647939,3.533373032755748],[8.844689963597958,3.532503996068419],[8.854915970212009,3.525978983356715],[8.861313987872045,3.539950030694457],[8.86679796416316,3.541296025468244],[8.871680968912075,3.5565059653747],[8.896651982831239,3.583947982488314],[8.90430101912707,3.60470398151128],[8.914393981022886,3.611278970923474],[8.933625028196543,3.638748031292012],[8.931827970931474,3.642848040518773],[8.937879030420403,3.66312098760352],[8.934269028240262,3.678316035196791],[8.933602006972384,3.708117023165991],[8.929424027979664,3.716767960567652],[8.924031983656986,3.716685020358482],[8.923754993655324,3.725394958070894],[8.917011007088766,3.730108008455943],[8.915057973120646,3.736384019793551],[8.917150993467155,3.741116966442797],[8.912967998159237,3.743919990554233],[8.91171002092775,3.749863020567166],[8.902610985906199,3.751558002701346],[8.895785967316119,3.760626974301096],[8.880243014329249,3.763255005363382],[8.863986982911525,3.754866036561006],[8.843917988244932,3.753985030051563],[8.8418189645423,3.749595993567517],[8.834209992946363,3.751429006154415],[8.831837976030124,3.749329015957437],[8.8269509778615,3.752923012236154],[8.821705014765502,3.751122986674632],[8.817171025602752,3.754264022291768],[8.807064993540703,3.748375968520897],[8.807519023643282,3.73749000798834],[8.823460003602895,3.711796031092767],[8.824952974908888,3.685196005682206],[8.821402001827702,3.646274958999113],[8.807644005867084,3.625000040187529],[8.796636974549608,3.618330969179651],[8.791937026558173,3.60433195673375],[8.78907102835901,3.602065961422642],[8.776457004333452,3.603070017808156],[8.767744025914439,3.58776696668928],[8.763042992023234,3.583710955445555],[8.758012998195223,3.583954032008845],[8.754444022916086,3.576434030855788]]]},"properties":{"shapeName":"BANEY","shapeISO":"","shapeID":"11065452B68125244133984","shapeGroup":"GNQ","shapeType":"ADM2"}},
{"type":"Feature","geometry":{"type":"Polygon","coordinates":[[[8.610762023830203,3.614544967372716],[8.6106750232557,3.588286031460393],[8.606971000421927,3.57756595717755],[8.608877021786205,3.561428032620616],[8.578239994235199,3.530115021313248],[8.579010991983798,3.525654977716038],[8.570846981361434,3.514064024517449],[8.57375600116496,3.511929955907518],[8.572438971907898,3.508699967803937],[8.581689996866443,3.504943029901734],[8.585377025362032,3.4980049789816],[8.582253028710165,3.480757956246714],[8.572578982370256,3.46398401941194],[8.555825032374432,3.457651023710015],[8.540626012299121,3.46647596672431],[8.523013999376088,3.463110958371389],[8.503709970444701,3.46430604479558],[8.497909019527784,3.467656966118551],[8.489475968738283,3.464433037062409],[8.483135992345696,3.465940966870652],[8.479832012988556,3.470820973219705],[8.470119004780388,3.46849295630849],[8.469962015406859,3.464593041601988],[8.45867099725731,3.460751028938373],[8.438382963816029,3.428334971120634],[8.428562008090825,3.388512006559949],[8.423423018690249,3.380980955720255],[8.423633019645358,3.363440964243401],[8.418744023671831,3.354765998197543],[8.422344980238986,3.346221981400936],[8.421356967363133,3.337607040872261],[8.427558026423773,3.318897984457899],[8.439444022828797,3.303026968254875],[8.437572016391105,3.298755976669975],[8.44172798903211,3.297444035846933],[8.43985996655532,3.292943042718631],[8.443679009236046,3.285090008928672],[8.443127966335737,3.277628959619593],[8.450056996215995,3.269134982559617],[8.457585014327911,3.265467008766359],[8.464919998221525,3.266037975022146],[8.498343020550719,3.252331024210172],[8.505066005013212,3.254956005915932],[8.524192019595146,3.251007037354023],[8.560368993973658,3.237341991261289],[8.563820984594052,3.236821958694738],[8.568629991629257,3.243659999049466],[8.585763978936683,3.241859014767891],[8.588123027294634,3.244646006336358],[8.61895601443679,3.228263026771604],[8.62775001505893,3.230576028457298],[8.645873029572517,3.225006014525132],[8.662538024278353,3.217579039868913],[8.667139982683807,3.210769014635425],[8.675235967693487,3.2074530042198],[8.69822197524523,3.230507972176231],[8.688429996596359,3.237766007540308],[8.67730697916425,3.238884006929525],[8.672948966934493,3.242253959517465],[8.668934003156055,3.25963900416337],[8.659645025640977,3.271411964600509],[8.661937975471117,3.277153978401194],[8.658497002713162,3.28375602825046],[8.670535024728162,3.304078012089191],[8.677527019251718,3.328730995097834],[8.684403021775735,3.372911030989709],[8.682566022837696,3.402628013757199],[8.691963978913567,3.441648025731272],[8.754444022916086,3.576434030855788],[8.734033991467912,3.573751988949848],[8.72073303080943,3.566972044296454],[8.701469003345851,3.566921018622728],[8.692983970776783,3.569826994365843],[8.679337007940374,3.582453990815136],[8.663512991543868,3.58670403848633],[8.648835029431039,3.600772980661104],[8.629454965127659,3.610666033714039],[8.610762023830203,3.614544967372716]]]},"properties":{"shapeName":"LUBA","shapeISO":"","shapeID":"11065452B69220194361963","shapeGroup":"GNQ","shapeType":"ADM2"}},
{"type":"Feature","geometry":{"type":"Polygon","coordinates":[[[8.754444022916086,3.576434030855788],[8.691963978913567,3.441648025731272],[8.682566022837696,3.402628013757199],[8.684403021775735,3.372911030989709],[8.677527019251718,3.328730995097834],[8.670535024728162,3.304078012089191],[8.658497002713162,3.28375602825046],[8.661937975471117,3.277153978401194],[8.659645025640977,3.271411964600509],[8.668934003156055,3.25963900416337],[8.672948966934493,3.242253959517465],[8.67730697916425,3.238884006929525],[8.688429996596359,3.237766007540308],[8.69822197524523,3.230507972176231],[8.701334006710445,3.242135958775854],[8.720657009755154,3.270868014429575],[8.72668997105542,3.273597044032935],[8.764703984013732,3.315571994437616],[8.772952964953397,3.341152011408388],[8.770205026685518,3.34695795616644],[8.772941964860252,3.354109012381532],[8.770576970054853,3.357857014561547],[8.773174012446425,3.360189990093761],[8.764328028821302,3.385393996885871],[8.771038018478045,3.394899008516744],[8.78194701906516,3.394607032942613],[8.795212014760425,3.403410009445662],[8.798582009438768,3.413551992850691],[8.806528973161523,3.418259977161939],[8.808887021427267,3.427238977889772],[8.805085975588309,3.427983976775912],[8.810156021295478,3.433105972168554],[8.808335000340398,3.438467992320959],[8.811950991029452,3.447695978942054],[8.809450032394915,3.452587970710677],[8.817787963049506,3.454778977886938],[8.821520971213538,3.4638949773292],[8.832548972581511,3.475759015661184],[8.840192001798156,3.4906670354448],[8.84127097674847,3.500544016068522],[8.854915970212009,3.525978983356715],[8.844689963597958,3.532503996068419],[8.836205006647939,3.533373032755748],[8.81785696301199,3.547214997831077],[8.814646014440374,3.55669097486783],[8.800885000142998,3.568479970236539],[8.7957229853486,3.579880044132455],[8.787237032220983,3.587576986354692],[8.783453036076553,3.589387999912695],[8.775427003642982,3.586780992368555],[8.754444022916086,3.576434030855788]]]},"properties":{"shapeName":"RIABA","shapeISO":"","shapeID":"11065452B69866248222639","shapeGroup":"GNQ","shapeType":"ADM2"}}
]}