{"type":"FeatureCollection", "features": [
{"type":"Feature","geometry":{"type":"Polygon","coordinates":[[[144.663404,13.401061],[144.643095,13.348667],[144.635437,13.341376],[144.671535,13.329065],[144.705163,13.344986],[144.703613,13.351848],[144.668808,13.382064],[144.666043,13.391201],[144.669533,13.392356],[144.663404,13.401061]]]},"properties":{"shapeName":"Agat","shapeISO":"","shapeID":"77769853B39660846480906","shapeGroup":"GUM","shapeType":"ADM2"}},
{"type":"Feature","geometry":{"type":"Polygon","coordinates":[[[144.779713,13.481711],[144.784394,13.461709],[144.79296,13.45537],[144.829488,13.456892],[144.834625,13.497931],[144.820122,13.498722],[144.779713,13.481711]]]},"properties":{"shapeName":"Barrigada","shapeISO":"","shapeID":"77769853B91363375193449","shapeGroup":"GUM","shapeType":"ADM2"}},
{"type":"Feature","geometry":{"type":"Polygon","coordinates":[[[144.767595915563,13.4799844039806],[144.728636,13.47896],[144.732252,13.475443],[144.745247,13.474988],[144.7522,13.46728],[144.757922,13.463679],[144.761364,13.466579],[144.758958,13.476846],[144.767595915563,13.4799844039806]]]},"properties":{"shapeName":"Hagåtña","shapeISO":"","shapeID":"77769853B92026365900832","shapeGroup":"GUM","shapeType":"ADM2"}},
{"type":"Feature","geometry":{"type":"Polygon","coordinates":[[[144.779713,13.481711],[144.769783818626,13.4816608605435],[144.767595915563,13.4799844039806],[144.758958,13.476846],[144.761364,13.466579],[144.77259,13.46036],[144.781322,13.461258],[144.784394,13.461709],[144.779713,13.481711]]]},"properties":{"shapeName":"Mongmong-Toto-Maite","shapeISO":"","shapeID":"77769853B46824849398692","shapeGroup":"GUM","shapeType":"ADM2"}},
{"type":"Feature","geometry":{"type":"Polygon","coordinates":[[[144.7522,13.46728],[144.751981,13.457108],[144.76656,13.452053],[144.77259,13.46036],[144.761364,13.466579],[144.757922,13.463679],[144.7522,13.46728]]]},"properties":{"shapeName":"Sinajana","shapeISO":"","shapeID":"77769853B28089182733682","shapeGroup":"GUM","shapeType":"ADM2"}},
{"type":"Feature","geometry":{"type":"Polygon","coordinates":[[[144.671535,13.329065],[144.687485,13.2995],[144.696747,13.304559],[144.707003,13.301888],[144.714658,13.310136],[144.719255,13.306421],[144.727877,13.310515],[144.733276,13.322396],[144.749466,13.327588],[144.747319,13.332155],[144.754019,13.337807],[144.77123922076,13.3364325741897],[144.77031572853,13.3656643398328],[144.757786,13.372003],[144.722131,13.368083],[144.721915,13.357562],[144.706597,13.357982],[144.703613,13.351848],[144.705163,13.344986],[144.671535,13.329065]]]},"properties":{"shapeName":"Talofofo","shapeISO":"","shapeID":"77769853B17205204900927","shapeGroup":"GUM","shapeType":"ADM2"}},
{"type":"Feature","geometry":{"type":"Polygon","coordinates":[[[144.732252,13.475443],[144.741719,13.46852],[144.740387,13.456034],[144.751981,13.457108],[144.7522,13.46728],[144.745247,13.474988],[144.732252,13.475443]]]},"properties":{"shapeName":"Agana Heights","shapeISO":"","shapeID":"77769853B67534366547029","shapeGroup":"GUM","shapeType":"ADM2"}},
{"type":"Feature","geometry":{"type":"Polygon","coordinates":[[[144.703613,13.351848],[144.706597,13.357982],[144.721915,13.357562],[144.722131,13.368083],[144.722194,13.387898],[144.701202,13.418271],[144.688746,13.411172],[144.666977,13.436427],[144.666797,13.445752],[144.624038397801,13.454775348827],[144.618068,13.44781],[144.620764,13.441469],[144.638525,13.42928],[144.642235,13.418945],[144.658454,13.412463],[144.663404,13.401061],[144.669533,13.392356],[144.666043,13.391201],[144.668808,13.382064],[144.703613,13.351848]]]},"properties":{"shapeName":"Santa Rita","shapeISO":"","shapeID":"77769853B26973637010941","shapeGroup":"GUM","shapeType":"ADM2"}},
{"type":"Feature","geometry":{"type":"Polygon","coordinates":[[[144.728636,13.47896],[144.717133,13.473431],[144.707597,13.476545],[144.70667432465,13.4716715716147],[144.710897,13.436826],[144.728417,13.444472],[144.740488,13.435044],[144.74744,13.435565],[144.748129,13.444301],[144.743136,13.445031],[144.746196,13.446926],[144.740387,13.456034],[144.741719,13.46852],[144.732252,13.475443],[144.728636,13.47896]]]},"properties":{"shapeName":"Asan","shapeISO":"","shapeID":"77769853B60030225466541","shapeGroup":"GUM","shapeType":"ADM2"}},
{"type":"Feature","geometry":{"type":"Polygon","coordinates":[[[144.834625,13.497931],[144.87083,13.499692],[144.877791,13.545925],[144.875863,13.575615],[144.85977,13.654383],[144.836695,13.624138],[144.831817,13.578591],[144.821611,13.56929],[144.808734,13.543813],[144.820122,13.498722],[144.834625,13.497931]]]},"properties":{"shapeName":"Dededo","shapeISO":"","shapeID":"77769853B76375240183470","shapeGroup":"GUM","shapeType":"ADM2"}},
{"type":"Feature","geometry":{"type":"Polygon","coordinates":[[[144.687485,13.2995],[144.692762,13.27886],[144.709411,13.269977],[144.719073,13.251116],[144.726007,13.247572],[144.74208,13.264244],[144.737546,13.268158],[144.750174,13.272684],[144.747557,13.278512],[144.754433,13.275581],[144.763084,13.284521],[144.77211,13.302536],[144.77123922076,13.3364325741897],[144.754019,13.337807],[144.747319,13.332155],[144.749466,13.327588],[144.733276,13.322396],[144.727877,13.310515],[144.719255,13.306421],[144.714658,13.310136],[144.707003,13.301888],[144.696747,13.304559],[144.687485,13.2995]]]},"properties":{"shapeName":"Inarajan","shapeISO":"","shapeID":"77769853B63444042999452","shapeGroup":"GUM","shapeType":"ADM2"}},
{"type":"Feature","geometry":{"type":"Polygon","coordinates":[[[144.692762,13.27886],[144.67889,13.286833],[144.662195079615,13.2836953853105],[144.661895,13.271425],[144.677325,13.254589],[144.686718,13.256465],[144.689052,13.251007],[144.706197,13.246264],[144.719073,13.251116],[144.709411,13.269977],[144.692762,13.27886]]]},"properties":{"shapeName":"Merizo","shapeISO":"","shapeID":"77769853B7245743220793","shapeGroup":"GUM","shapeType":"ADM2"}},
{"type":"Feature","geometry":{"type":"Polygon","coordinates":[[[144.820122,13.498722],[144.808734,13.543813],[144.802124,13.535791],[144.804903,13.515444],[144.797674,13.506329],[144.77235,13.504479],[144.77005,13.495161],[144.775153,13.490944],[144.769783818626,13.4816608605435],[144.779713,13.481711],[144.820122,13.498722]]]},"properties":{"shapeName":"Tamuning","shapeISO":"","shapeID":"77769853B98386396694239","shapeGroup":"GUM","shapeType":"ADM2"}},
{"type":"Feature","geometry":{"type":"Polygon","coordinates":[[[144.77259,13.46036],[144.76656,13.452053],[144.751981,13.457108],[144.740387,13.456034],[144.746196,13.446926],[144.743136,13.445031],[144.748129,13.444301],[144.74744,13.435565],[144.759061,13.435481],[144.76949,13.424214],[144.783946078588,13.421627105694],[144.792785,13.426507],[144.792551,13.437905],[144.785749,13.440882],[144.781322,13.461258],[144.77259,13.46036]]]},"properties":{"shapeName":"Chalan Pago-Ordot","shapeISO":"","shapeID":"77769853B20896286289421","shapeGroup":"GUM","shapeType":"ADM2"}},
{"type":"Feature","geometry":{"type":"Polygon","coordinates":[[[144.784394,13.461709],[144.781322,13.461258],[144.785749,13.440882],[144.792551,13.437905],[144.792785,13.426507],[144.807605,13.427437],[144.813973,13.438028],[144.832671,13.44811],[144.870873257245,13.4860504992947],[144.87083,13.499692],[144.834625,13.497931],[144.829488,13.456892],[144.79296,13.45537],[144.784394,13.461709]]]},"properties":{"shapeName":"Mangilao","shapeISO":"","shapeID":"77769853B74833203647496","shapeGroup":"GUM","shapeType":"ADM2"}},
{"type":"Feature","geometry":{"type":"Polygon","coordinates":[[[144.635437,13.341376],[144.65201,13.328609],[144.650258,13.322216],[144.657415,13.316452],[144.653666,13.310014],[144.66289,13.298178],[144.657511,13.293191],[144.662195079615,13.2836953853105],[144.67889,13.286833],[144.692762,13.27886],[144.687485,13.2995],[144.671535,13.329065],[144.635437,13.341376]]]},"properties":{"shapeName":"Umatac","shapeISO":"","shapeID":"77769853B97114790292533","shapeGroup":"GUM","shapeType":"ADM2"}},
{"type":"Feature","geometry":{"type":"Polygon","coordinates":[[[144.701202,13.418271],[144.700671,13.425723],[144.710897,13.436826],[144.70667432465,13.4716715716147],[144.689829,13.463626],[144.686247,13.467902],[144.675368,13.4631],[144.638345,13.464794],[144.624038397801,13.454775348827],[144.666797,13.445752],[144.666977,13.436427],[144.688746,13.411172],[144.701202,13.418271]]]},"properties":{"shapeName":"Piti","shapeISO":"","shapeID":"77769853B27536991093250","shapeGroup":"GUM","shapeType":"ADM2"}},
{"type":"Feature","geometry":{"type":"Polygon","coordinates":[[[144.87083,13.499692],[144.870873257245,13.4860504992947],[144.886748,13.492247],[144.891812,13.506252],[144.926691,13.522049],[144.940171,13.552621],[144.94034,13.568053],[144.948746,13.57524],[144.956712,13.598168],[144.907852,13.605318],[144.878802,13.64573],[144.85977,13.654383],[144.875863,13.575615],[144.877791,13.545925],[144.87083,13.499692]]]},"properties":{"shapeName":"Yigo","shapeISO":"","shapeID":"77769853B33377803133936","shapeGroup":"GUM","shapeType":"ADM2"}},
{"type":"Feature","geometry":{"type":"Polygon","coordinates":[[[144.77031572853,13.3656643398328],[144.775955,13.387109],[144.771558,13.393052],[144.788908,13.413515],[144.783946078588,13.421627105694],[144.76949,13.424214],[144.759061,13.435481],[144.74744,13.435565],[144.740488,13.435044],[144.728417,13.444472],[144.710897,13.436826],[144.700671,13.425723],[144.701202,13.418271],[144.722194,13.387898],[144.722131,13.368083],[144.757786,13.372003],[144.77031572853,13.3656643398328]]]},"properties":{"shapeName":"Yona","shapeISO":"","shapeID":"77769853B72833595516841","shapeGroup":"GUM","shapeType":"ADM2"}}
]}