{"type":"FeatureCollection", "features": [
{"type":"Feature","geometry":{"type":"Polygon","coordinates":[[[-58.817829,6.751706],[-58.825038,6.580086],[-58.732479,6.569108],[-58.659309,6.51468],[-58.598873,6.516553],[-58.592029,6.79748],[-58.516071,7.001179],[-58.605838,6.956935],[-58.6338,6.886514],[-58.701679,6.876861],[-58.741348,6.800209],[-58.817829,6.751706]]]},"properties":{"shapeName":"III-1 Essequibo Islands","shapeISO":"","shapeID":"73187651B403858167670","shapeGroup":"GUY","shapeType":"ADM2"}},
{"type":"Feature","geometry":{"type":"Polygon","coordinates":[[[-58.612892,6.418539],[-58.575931,6.008345],[-58.623649,5.851847],[-58.609458,5.634923],[-58.68798,5.45437],[-58.84349,5.422122],[-58.87498,5.325168],[-58.82019,5.257094],[-58.84494,4.979125],[-58.79792,4.777637],[-58.69691,4.756368],[-58.644729,4.660827],[-58.575859,4.624124],[-58.500278,4.607182],[-58.274421,4.635559],[-58.34663,4.842072],[-58.33823,4.957087],[-58.365459,5.044343],[-58.32917,5.137784],[-58.27053,5.195003],[-58.265071,5.322844],[-58.13536,5.315863],[-58.134609,5.406693],[-58.07415,5.531682],[-58.07357,5.638122],[-58.207469,5.626256],[-58.23159,5.679257],[-58.225841,5.825733],[-58.160129,5.872432],[-58.151569,5.968577],[-58.113861,6.003779],[-58.105548,6.093175],[-58.127529,6.100513],[-58.158229,6.102479],[-58.193649,6.136505],[-58.272338,6.114797],[-58.37376,6.150975],[-58.425418,6.336649],[-58.51622,6.392803],[-58.574035,6.502366],[-58.585006,6.431569],[-58.612892,6.418539]]]},"properties":{"shapeName":"X-1 Right Bank Essequibo","shapeISO":"","shapeID":"73187651B95579298937311","shapeGroup":"GUY","shapeType":"ADM2"}},
{"type":"Feature","geometry":{"type":"Polygon","coordinates":[[[-58.84349,5.422122],[-58.880878,5.484281],[-58.93745,5.496228],[-58.989768,5.547284],[-59.09431,5.541553],[-59.09066,5.60535],[-59.206451,5.734539],[-59.284,5.709796],[-59.349178,5.613254],[-59.479728,5.641901],[-59.568149,5.587401],[-59.576408,5.40418],[-59.486629,5.356379],[-59.31866,5.343605],[-59.28738,5.30594],[-59.329441,5.198554],[-59.276519,5.122344],[-59.29047,4.921411],[-59.385501,4.807791],[-59.493869,4.75247],[-59.51165,4.642628],[-59.485679,4.521605],[-59.47121,4.461668],[-59.429389,4.423015],[-59.470359,4.371293],[-59.450748,4.268702],[-59.48645,4.217654],[-59.47599,4.191046],[-59.346199,4.14051],[-59.14402,4.145952],[-59.043289,4.17802],[-59.02388,4.086616],[-58.956531,4.004734],[-58.908439,3.992135],[-58.821418,4.03825],[-58.64384,4.233418],[-58.539619,4.280147],[-58.437049,4.244894],[-58.428829,4.266933],[-58.367591,4.461602],[-58.274421,4.635559],[-58.500278,4.607182],[-58.575859,4.624124],[-58.644729,4.660827],[-58.69691,4.756368],[-58.79792,4.777637],[-58.84494,4.979125],[-58.82019,5.257094],[-58.87498,5.325168],[-58.84349,5.422122]]]},"properties":{"shapeName":"VIII-2 Lower Potaro/Ladsm","shapeISO":"","shapeID":"73187651B19999842805850","shapeGroup":"GUY","shapeType":"ADM2"}},
{"type":"Feature","geometry":{"type":"Polygon","coordinates":[[[-58.516071,7.001179],[-58.466835,7.115934],[-58.468128,7.299808],[-58.485401,7.366342],[-58.557155,7.449017],[-58.621688,7.296615],[-58.714599,7.271255],[-58.85009,7.052104],[-58.93534,6.986413],[-58.94849,6.888423],[-58.936378,6.807773],[-58.8525,6.803366],[-58.817829,6.751706],[-58.741348,6.800209],[-58.701679,6.876861],[-58.6338,6.886514],[-58.605838,6.956935],[-58.516071,7.001179]]]},"properties":{"shapeName":"II-2 Somerset And Berks","shapeISO":"","shapeID":"73187651B32807906119363","shapeGroup":"GUY","shapeType":"ADM2"}},
{"type":"Feature","geometry":{"type":"Polygon","coordinates":[[[-59.765712,8.360348],[-59.5443,8.233697],[-59.443351,8.122293],[-59.428779,7.951251],[-59.459239,7.749711],[-59.517631,7.695055],[-59.59243,7.670533],[-59.74274,7.477083],[-59.89682,7.460902],[-59.93069,7.476222],[-59.96276,7.54953],[-60.18317,7.437509],[-60.23936,7.355587],[-60.186931,7.268661],[-60.301002,7.18468],[-60.293369,7.176341],[-60.243049,7.16645],[-60.222801,7.120687],[-60.156551,7.125226],[-60.087909,7.087594],[-60.026279,7.14852],[-59.945178,7.139236],[-59.891269,7.223731],[-59.84769,7.23142],[-59.674938,7.138958],[-59.580791,7.12355],[-59.514099,7.049362],[-59.4109,6.997104],[-59.331409,6.984099],[-59.258758,7.051024],[-59.149311,7.018301],[-59.17221,7.16609],[-59.077548,7.377071],[-59.087711,7.49335],[-59.01667,7.560286],[-58.881019,7.617094],[-58.785369,7.704515],[-59.139957,8.043218],[-59.687126,8.373714],[-59.803421,8.398232],[-59.765712,8.360348]]]},"properties":{"shapeName":"I-2  Waini","shapeISO":"","shapeID":"73187651B25125705574502","shapeGroup":"GUY","shapeType":"ADM2"}},
{"type":"Feature","geometry":{"type":"Polygon","coordinates":[[[-58.557155,7.449017],[-58.662483,7.600755],[-58.719123,7.635591],[-58.714389,7.584098],[-58.785369,7.704515],[-58.881019,7.617094],[-59.01667,7.560286],[-59.087711,7.49335],[-59.077548,7.377071],[-59.17221,7.16609],[-59.149311,7.018301],[-59.177871,6.905488],[-59.049869,6.866374],[-58.987869,6.903776],[-58.94849,6.888423],[-58.93534,6.986413],[-58.85009,7.052104],[-58.714599,7.271255],[-58.621688,7.296615],[-58.557155,7.449017]]]},"properties":{"shapeName":"II-1 Moruka/Pomeroon","shapeISO":"","shapeID":"73187651B89852633315","shapeGroup":"GUY","shapeType":"ADM2"}},
{"type":"Feature","geometry":{"type":"Polygon","coordinates":[[[-58.272338,6.114797],[-58.248771,6.17383],[-58.283401,6.238533],[-58.25481,6.288691],[-58.305469,6.357204],[-58.284809,6.438384],[-58.305038,6.488801],[-58.17995,6.684247],[-58.178527,6.817142],[-58.273529,6.880757],[-58.291679,6.719316],[-58.472721,6.589385],[-58.40982,6.407841],[-58.425418,6.336649],[-58.37376,6.150975],[-58.272338,6.114797]]]},"properties":{"shapeName":"III-3 Lower West Demerara","shapeISO":"","shapeID":"73187651B37275521975426","shapeGroup":"GUY","shapeType":"ADM2"}},
{"type":"Feature","geometry":{"type":"Polygon","coordinates":[[[-57.293479,5.601583],[-57.453071,5.371613],[-57.49073,5.140065],[-57.634941,5.055584],[-57.744461,5.068513],[-57.86399,5.034679],[-57.983379,4.901157],[-58.0536,4.663029],[-57.9048,4.607964],[-57.85419,4.61513],[-57.877395,4.746839],[-57.922645,4.772704],[-57.931274,4.816619],[-57.839267,4.936985],[-57.766334,4.933279],[-57.751335,4.975193],[-57.680843,5.020936],[-57.600078,5.007346],[-57.539367,5.027976],[-57.438392,5.002457],[-57.304092,5.034742],[-57.339962,5.071012],[-57.30125,5.177148],[-57.263908,5.195405],[-57.218162,5.155704],[-57.191822,5.169794],[-57.240436,5.255956],[-57.245143,5.212469],[-57.295169,5.22087],[-57.298583,5.299993],[-57.334579,5.291862],[-57.348628,5.312994],[-57.280708,5.396415],[-57.273799,5.476016],[-57.206089,5.560922],[-57.293479,5.601583]]]},"properties":{"shapeName":"VI-6 Upper Canje/Corentyn","shapeISO":"","shapeID":"73187651B40141145905740","shapeGroup":"GUY","shapeType":"ADM2"}},
{"type":"Feature","geometry":{"type":"Polygon","coordinates":[[[-58.274421,4.635559],[-58.100448,4.636025],[-58.0536,4.663029],[-57.983379,4.901157],[-57.86399,5.034679],[-57.745708,5.317276],[-57.698341,5.365238],[-57.589839,5.813252],[-57.654418,5.829438],[-57.68428,5.880137],[-57.778221,5.89089],[-57.84159,5.857921],[-57.939399,5.947414],[-58.113861,6.003779],[-58.151569,5.968577],[-58.160129,5.872432],[-58.225841,5.825733],[-58.23159,5.679257],[-58.207469,5.626256],[-58.07357,5.638122],[-58.07415,5.531682],[-58.134609,5.406693],[-58.13536,5.315863],[-58.265071,5.322844],[-58.27053,5.195003],[-58.32917,5.137784],[-58.365459,5.044343],[-58.33823,4.957087],[-58.34663,4.842072],[-58.274421,4.635559]]]},"properties":{"shapeName":"X-2 Torani/Bulletwood","shapeISO":"","shapeID":"73187651B8767068866486","shapeGroup":"GUY","shapeType":"ADM2"}},
{"type":"Feature","geometry":{"type":"Polygon","coordinates":[[[-58.158229,6.102479],[-58.18301,6.238931],[-58.148849,6.309089],[-58.193008,6.334012],[-58.121009,6.623144],[-58.17049,6.631093],[-58.113719,6.749812],[-58.039478,6.744524],[-58.02037,6.804819],[-58.148773,6.835969],[-58.178527,6.817142],[-58.17995,6.684247],[-58.305038,6.488801],[-58.284809,6.438384],[-58.305469,6.357204],[-58.25481,6.288691],[-58.283401,6.238533],[-58.248771,6.17383],[-58.272338,6.114797],[-58.193649,6.136505],[-58.158229,6.102479]]]},"properties":{"shapeName":"IV-1 Moblissa/La Reconnai","shapeISO":"","shapeID":"73187651B62691017600789","shapeGroup":"GUY","shapeType":"ADM2"}},
{"type":"Feature","geometry":{"type":"Polygon","coordinates":[[[-58.113861,6.003779],[-57.939399,5.947414],[-57.84159,5.857921],[-57.778221,5.89089],[-57.68428,5.880137],[-57.663158,5.890509],[-57.669128,5.956456],[-57.704978,5.999734],[-57.71746,5.967658],[-57.742809,5.996911],[-57.72615,6.111882],[-57.800621,6.258781],[-57.77708,6.379539],[-57.791885,6.590063],[-57.910587,6.700706],[-57.886089,6.547587],[-57.94065,6.545549],[-57.930809,6.470035],[-57.994068,6.470602],[-58.08147,6.376974],[-58.129379,6.23748],[-58.127529,6.100513],[-58.105548,6.093175],[-58.113861,6.003779]]]},"properties":{"shapeName":"V-1  Mahaica/Mahaicony","shapeISO":"","shapeID":"73187651B37503921444880","shapeGroup":"GUY","shapeType":"ADM2"}},
{"type":"Feature","geometry":{"type":"Polygon","coordinates":[[[-58.127529,6.100513],[-58.129379,6.23748],[-58.08147,6.376974],[-57.994068,6.470602],[-57.930809,6.470035],[-57.94065,6.545549],[-57.886089,6.547587],[-57.910587,6.700706],[-58.02037,6.804819],[-58.039478,6.744524],[-58.113719,6.749812],[-58.17049,6.631093],[-58.121009,6.623144],[-58.193008,6.334012],[-58.148849,6.309089],[-58.18301,6.238931],[-58.158229,6.102479],[-58.127529,6.100513]]]},"properties":{"shapeName":"IV-2 Buxton/Mahaica","shapeISO":"","shapeID":"73187651B35939089598366","shapeGroup":"GUY","shapeType":"ADM2"}},
{"type":"Feature","geometry":{"type":"Polygon","coordinates":[[[-57.206089,5.560922],[-57.171947,5.67518],[-57.190448,5.73149],[-57.160324,5.927917],[-57.32426,5.931557],[-57.35876,5.963881],[-57.377941,5.916471],[-57.454349,5.892189],[-57.46363,5.855669],[-57.44075,5.844832],[-57.4435,5.773108],[-57.410339,5.752438],[-57.420291,5.652801],[-57.293479,5.601583],[-57.206089,5.560922]]]},"properties":{"shapeName":"VI-4 Lower Corentyne Rive","shapeISO":"","shapeID":"73187651B56094109517329","shapeGroup":"GUY","shapeType":"ADM2"}},
{"type":"Feature","geometry":{"type":"Polygon","coordinates":[[[-57.293479,5.601583],[-57.420291,5.652801],[-57.410339,5.752438],[-57.4435,5.773108],[-57.44075,5.844832],[-57.589839,5.813252],[-57.698341,5.365238],[-57.745708,5.317276],[-57.86399,5.034679],[-57.744461,5.068513],[-57.634941,5.055584],[-57.49073,5.140065],[-57.453071,5.371613],[-57.293479,5.601583]]]},"properties":{"shapeName":"VI-5 Left Bank Upper Canj","shapeISO":"","shapeID":"73187651B6333666971836","shapeGroup":"GUY","shapeType":"ADM2"}},
{"type":"Feature","geometry":{"type":"Polygon","coordinates":[[[-57.589839,5.813252],[-57.44075,5.844832],[-57.46363,5.855669],[-57.454349,5.892189],[-57.377941,5.916471],[-57.35876,5.963881],[-57.39936,6.026052],[-57.400291,6.092905],[-57.45848,6.171475],[-57.428119,6.20276],[-57.499431,6.266026],[-57.483905,6.325119],[-57.521038,6.274505],[-57.522518,6.213745],[-57.619289,6.198421],[-57.606029,6.049748],[-57.642578,6.014776],[-57.689929,6.046236],[-57.704978,5.999734],[-57.669128,5.956456],[-57.663158,5.890509],[-57.68428,5.880137],[-57.654418,5.829438],[-57.589839,5.813252]]]},"properties":{"shapeName":"VI-1 East Berbice/W.Canje","shapeISO":"","shapeID":"73187651B47242148474539","shapeGroup":"GUY","shapeType":"ADM2"}},
{"type":"Feature","geometry":{"type":"Polygon","coordinates":[[[-57.704978,5.999734],[-57.689929,6.046236],[-57.642578,6.014776],[-57.606029,6.049748],[-57.619289,6.198421],[-57.522518,6.213745],[-57.521038,6.274505],[-57.63985,6.472836],[-57.791885,6.590063],[-57.77708,6.379539],[-57.800621,6.258781],[-57.72615,6.111882],[-57.742809,5.996911],[-57.71746,5.967658],[-57.704978,5.999734]]]},"properties":{"shapeName":"V-2 Mahaicony/Berbice","shapeISO":"","shapeID":"73187651B73006016371738","shapeGroup":"GUY","shapeType":"ADM2"}},
{"type":"Feature","geometry":{"type":"Polygon","coordinates":[[[-57.160324,5.927917],[-57.146224,5.999985],[-57.173427,6.091104],[-57.265361,6.207974],[-57.339008,6.116569],[-57.400291,6.092905],[-57.39936,6.026052],[-57.35876,5.963881],[-57.32426,5.931557],[-57.160324,5.927917]]]},"properties":{"shapeName":"VI-3 Black Bush Polder","shapeISO":"","shapeID":"73187651B65372022493743","shapeGroup":"GUY","shapeType":"ADM2"}},
{"type":"Feature","geometry":{"type":"Polygon","coordinates":[[[-57.400291,6.092905],[-57.339008,6.116569],[-57.265361,6.207974],[-57.389862,6.298792],[-57.483905,6.325119],[-57.499431,6.266026],[-57.428119,6.20276],[-57.45848,6.171475],[-57.400291,6.092905]]]},"properties":{"shapeName":"VI-2  East Canje/E.C.Berb","shapeISO":"","shapeID":"73187651B18433747523923","shapeGroup":"GUY","shapeType":"ADM2"}},
{"type":"Feature","geometry":{"type":"MultiPolygon","coordinates":[[[[-58.328964,6.956129],[-58.416095,6.964326],[-58.465679,6.911798],[-58.464988,6.877768],[-58.328964,6.956129]]],[[[-58.472949,6.890925],[-58.519489,6.879981],[-58.55891,6.727816],[-58.472949,6.890925]]],[[[-58.390518,7.004376],[-58.435153,7.037793],[-58.511486,6.907054],[-58.390518,7.004376]]]]},"properties":{"shapeName":"Essequibo I./L.B.E.River","shapeISO":"","shapeID":"73187651B51062108887281","shapeGroup":"GUY","shapeType":"ADM2"}},
{"type":"Feature","geometry":{"type":"Polygon","coordinates":[[[-58.425418,6.336649],[-58.40982,6.407841],[-58.472721,6.589385],[-58.291679,6.719316],[-58.273529,6.880757],[-58.403347,6.877109],[-58.473255,6.811151],[-58.563858,6.64047],[-58.574035,6.502366],[-58.51622,6.392803],[-58.425418,6.336649]]]},"properties":{"shapeName":"III-2 Bonasika/Boerasirie","shapeISO":"","shapeID":"73187651B69188247216871","shapeGroup":"GUY","shapeType":"ADM2"}},
{"type":"Feature","geometry":{"type":"Polygon","coordinates":[[[-58.428829,4.266933],[-58.35556,4.138638],[-58.310768,3.815577],[-58.155979,3.559477],[-58.11798,3.261373],[-57.977539,3.033533],[-57.930961,2.908205],[-58.041988,2.736907],[-58.02565,2.546529],[-58.22496,2.016544],[-58.297279,1.838749],[-58.5088,1.463345],[-58.385662,1.470437],[-58.394798,1.52697],[-58.322437,1.597468],[-58.317214,1.568863],[-58.236076,1.547142],[-58.193103,1.572687],[-58.160717,1.560575],[-58.129493,1.499336],[-58.060993,1.525797],[-58.004295,1.503502],[-57.978633,1.573258],[-57.980381,1.633633],[-58.002685,1.646072],[-57.79985,1.685642],[-57.792324,1.727046],[-57.705158,1.731356],[-57.650485,1.682803],[-57.553295,1.692885],[-57.514293,1.723453],[-57.49982,1.789288],[-57.43782,1.827226],[-57.43349,1.90644],[-57.367736,1.924175],[-57.369182,1.956804],[-57.307182,1.997125],[-57.232345,1.937265],[-57.199958,1.979153],[-57.086734,2.026909],[-57.063983,1.956449],[-57.014263,1.915385],[-56.97615,1.903373],[-56.919761,1.930863],[-56.79137,1.852887],[-56.721008,1.926247],[-56.670009,1.913707],[-56.621509,1.946339],[-56.579814,1.906391],[-56.480766,1.94509],[-56.555507,2.009793],[-56.707042,2.033957],[-56.813148,2.190869],[-56.820156,2.265836],[-56.881473,2.295864],[-56.881137,2.355206],[-56.934474,2.389616],[-56.958213,2.480428],[-56.942298,2.501347],[-56.994815,2.503531],[-57.026473,2.640176],[-57.054824,2.63782],[-57.103607,2.76793],[-57.14228,2.777976],[-57.123855,2.820574],[-57.171855,2.807363],[-57.204399,2.833981],[-57.225635,2.911926],[-57.181339,2.945379],[-57.224571,2.944597],[-57.216121,3.001996],[-57.236892,3.022794],[-57.205123,3.035743],[-57.213672,3.068397],[-57.261772,3.09061],[-57.2518,3.128595],[-57.294589,3.129192],[-57.305061,3.373513],[-57.477973,3.333537],[-57.590724,3.385714],[-57.6637,3.373558],[-57.699302,3.414417],[-57.68431,3.527203],[-57.740863,3.60413],[-57.838356,3.66529],[-57.857269,3.777523],[-57.919666,3.880651],[-58,3.89364],[-58,3.92863],[-58.050678,3.982],[-58.086563,4.141334],[-58.001838,4.268556],[-58,4.326353],[-57.967464,4.334259],[-57.96791,4.397531],[-57.85419,4.61513],[-57.9048,4.607964],[-58.0536,4.663029],[-58.100448,4.636025],[-58.274421,4.635559],[-58.367591,4.461602],[-58.428829,4.266933]]]},"properties":{"shapeName":"VI-7 Upper Corentyne","shapeISO":"","shapeID":"73187651B49855956252830","shapeGroup":"GUY","shapeType":"ADM2"}},
{"type":"Feature","geometry":{"type":"Polygon","coordinates":[[[-58.908439,3.992135],[-58.909839,3.913649],[-58.962108,3.839627],[-58.86333,3.838865],[-58.850101,3.8176],[-58.993469,3.570775],[-59.013698,3.342859],[-59.09769,3.102241],[-59.102401,2.991398],[-59.077178,2.926512],[-58.89151,2.929713],[-58.834789,2.890748],[-58.739768,2.508023],[-58.753879,2.398863],[-58.84143,2.260745],[-58.98751,2.165796],[-59.090438,2.163784],[-59.176498,2.200345],[-59.33974,2.18561],[-59.397979,2.039417],[-59.52843,2.02707],[-59.612121,1.949723],[-59.654922,1.816403],[-59.6902,1.75668],[-59.61742,1.715569],[-59.538253,1.722236],[-59.482975,1.626958],[-59.39603,1.555567],[-59.381862,1.507511],[-59.329917,1.514178],[-59.326309,1.463067],[-59.287139,1.453343],[-59.282974,1.410845],[-59.048526,1.323065],[-58.993804,1.327509],[-58.978805,1.301954],[-58.91658,1.315844],[-58.922416,1.290287],[-58.886859,1.260565],[-58.912139,1.23862],[-58.821304,1.171398],[-58.739635,1.200286],[-58.694637,1.297788],[-58.585468,1.262508],[-58.564636,1.295009],[-58.522968,1.258342],[-58.496299,1.26835],[-58.457942,1.371863],[-58.505191,1.403622],[-58.5088,1.463345],[-58.297279,1.838749],[-58.22496,2.016544],[-58.02565,2.546529],[-58.041988,2.736907],[-57.930961,2.908205],[-57.977539,3.033533],[-58.11798,3.261373],[-58.155979,3.559477],[-58.310768,3.815577],[-58.35556,4.138638],[-58.428829,4.266933],[-58.437049,4.244894],[-58.539619,4.280147],[-58.64384,4.233418],[-58.821418,4.03825],[-58.908439,3.992135]]]},"properties":{"shapeName":"IX-2 Rewa(Illiwa)/U.E","shapeISO":"","shapeID":"73187651B68809145182680","shapeGroup":"GUY","shapeType":"ADM2"}},
{"type":"Feature","geometry":{"type":"Polygon","coordinates":[[[-59.485679,4.521605],[-59.559669,4.464703],[-59.589248,4.390095],[-59.674087,4.376427],[-59.731868,4.284759],[-59.707977,4.26837],[-59.736587,4.234477],[-59.725479,4.18253],[-59.616588,4.132811],[-59.649642,4.070866],[-59.57492,4.001976],[-59.584922,3.967808],[-59.546031,3.979197],[-59.516307,3.944473],[-59.592422,3.888364],[-59.596031,3.796139],[-59.680198,3.759752],[-59.668533,3.703361],[-59.764644,3.625859],[-59.850479,3.605029],[-59.871868,3.56364],[-59.804088,3.50725],[-59.842144,3.42558],[-59.81409,3.428359],[-59.80381,3.361968],[-59.833534,3.353636],[-59.888534,3.242526],[-59.87548,3.223915],[-59.908256,3.210581],[-59.908813,3.112246],[-59.956035,3.081413],[-59.991035,2.68752],[-59.956592,2.610577],[-59.970756,2.593909],[-59.927978,2.570852],[-59.895477,2.481965],[-59.896591,2.363353],[-59.785755,2.284461],[-59.722423,2.27724],[-59.740478,2.163073],[-59.720199,2.028072],[-59.759368,1.900848],[-59.75159,1.858904],[-59.6777,1.838904],[-59.662975,1.870846],[-59.654922,1.816403],[-59.612121,1.949723],[-59.52843,2.02707],[-59.397979,2.039417],[-59.33974,2.18561],[-59.176498,2.200345],[-59.090438,2.163784],[-58.98751,2.165796],[-58.84143,2.260745],[-58.753879,2.398863],[-58.739768,2.508023],[-58.834789,2.890748],[-58.89151,2.929713],[-59.077178,2.926512],[-59.102401,2.991398],[-59.09769,3.102241],[-59.013698,3.342859],[-58.993469,3.570775],[-58.850101,3.8176],[-58.86333,3.838865],[-58.962108,3.839627],[-58.909839,3.913649],[-58.908439,3.992135],[-58.956531,4.004734],[-59.02388,4.086616],[-59.043289,4.17802],[-59.14402,4.145952],[-59.346199,4.14051],[-59.47599,4.191046],[-59.48645,4.217654],[-59.450748,4.268702],[-59.470359,4.371293],[-59.429389,4.423015],[-59.47121,4.461668],[-59.485679,4.521605]]]},"properties":{"shapeName":"IX-1 Rupununi West","shapeISO":"","shapeID":"73187651B14852666038275","shapeGroup":"GUY","shapeType":"ADM2"}},
{"type":"Feature","geometry":{"type":"Polygon","coordinates":[[[-59.576408,5.40418],[-59.84444,5.417219],[-59.91603,5.395707],[-60.0055,5.228019],[-60.097451,5.145704],[-59.996818,5.084918],[-59.989646,4.973093],[-60.038257,4.795319],[-60.0302,4.700871],[-60.078815,4.648929],[-60.075202,4.608923],[-60.160202,4.563092],[-60.163257,4.5067],[-60.104923,4.501428],[-60.09159,4.52365],[-60.071037,4.494203],[-59.972702,4.476702],[-59.969646,4.503372],[-59.934368,4.494482],[-59.904922,4.454761],[-59.871589,4.483922],[-59.85881,4.448647],[-59.7952,4.465035],[-59.674087,4.376427],[-59.589248,4.390095],[-59.559669,4.464703],[-59.485679,4.521605],[-59.51165,4.642628],[-59.493869,4.75247],[-59.385501,4.807791],[-59.29047,4.921411],[-59.276519,5.122344],[-59.329441,5.198554],[-59.28738,5.30594],[-59.31866,5.343605],[-59.486629,5.356379],[-59.576408,5.40418]]]},"properties":{"shapeName":"VIII-1 Ireng/Upper Potaro","shapeISO":"","shapeID":"73187651B95779409673376","shapeGroup":"GUY","shapeType":"ADM2"}},
{"type":"Feature","geometry":{"type":"Polygon","coordinates":[[[-58.612892,6.418539],[-58.611698,6.424057],[-58.698539,6.363265],[-58.868091,6.381172],[-59.013069,6.345145],[-59.099899,6.427825],[-59.17781,6.360929],[-59.341419,6.585402],[-59.39418,6.572639],[-59.442131,6.487417],[-59.48344,6.473896],[-59.737789,6.702579],[-59.875511,6.643688],[-59.93,6.661212],[-60.133979,6.596621],[-60.379978,6.647312],[-60.60102,6.619377],[-60.675621,6.586469],[-60.750461,6.479723],[-60.81187,6.135571],[-60.99205,6.055708],[-61.09811,5.935391],[-61.25217,5.993514],[-61.387406,5.960169],[-60.732162,5.208014],[-60.678539,5.232542],[-60.569374,5.196155],[-60.451873,5.203378],[-60.434371,5.181711],[-60.413539,5.213932],[-60.319927,5.208097],[-60.212425,5.272264],[-60.172424,5.226984],[-60.136035,5.249486],[-60.097451,5.145704],[-60.0055,5.228019],[-59.91603,5.395707],[-59.84444,5.417219],[-59.576408,5.40418],[-59.568149,5.587401],[-59.479728,5.641901],[-59.349178,5.613254],[-59.284,5.709796],[-59.206451,5.734539],[-59.09066,5.60535],[-59.09431,5.541553],[-58.989768,5.547284],[-58.93745,5.496228],[-58.880878,5.484281],[-58.84349,5.422122],[-58.68798,5.45437],[-58.609458,5.634923],[-58.623649,5.851847],[-58.575931,6.008345],[-58.612892,6.418539]]]},"properties":{"shapeName":"VII-2 Mazaruni/L.B.E.Rive","shapeISO":"","shapeID":"73187651B61605631045653","shapeGroup":"GUY","shapeType":"ADM2"}},
{"type":"Feature","geometry":{"type":"Polygon","coordinates":[[[-58.817829,6.751706],[-58.8525,6.803366],[-58.936378,6.807773],[-58.94849,6.888423],[-58.987869,6.903776],[-59.049869,6.866374],[-59.177871,6.905488],[-59.149311,7.018301],[-59.258758,7.051024],[-59.331409,6.984099],[-59.4109,6.997104],[-59.514099,7.049362],[-59.580791,7.12355],[-59.674938,7.138958],[-59.84769,7.23142],[-59.891269,7.223731],[-59.945178,7.139236],[-60.026279,7.14852],[-60.087909,7.087594],[-60.156551,7.125226],[-60.222801,7.120687],[-60.243049,7.16645],[-60.293369,7.176341],[-60.283485,7.096405],[-60.339958,7.048748],[-60.381927,6.95506],[-60.635532,6.840949],[-60.708759,6.85828],[-60.730148,6.810132],[-60.920036,6.858632],[-60.95861,6.825016],[-60.938411,6.780879],[-60.994327,6.72554],[-61.170005,6.68543],[-61.209045,6.581755],[-61.245117,6.555706],[-61.189502,6.537617],[-61.173919,6.453493],[-61.199398,6.356132],[-61.154842,6.245409],[-61.208396,6.185214],[-61.17332,6.153398],[-61.290931,6.085246],[-61.387406,5.960169],[-61.25217,5.993514],[-61.09811,5.935391],[-60.99205,6.055708],[-60.81187,6.135571],[-60.750461,6.479723],[-60.675621,6.586469],[-60.60102,6.619377],[-60.379978,6.647312],[-60.133979,6.596621],[-59.93,6.661212],[-59.875511,6.643688],[-59.737789,6.702579],[-59.48344,6.473896],[-59.442131,6.487417],[-59.39418,6.572639],[-59.341419,6.585402],[-59.17781,6.360929],[-59.099899,6.427825],[-59.013069,6.345145],[-58.868091,6.381172],[-58.698539,6.363265],[-58.611698,6.424057],[-58.620201,6.428358],[-58.620124,6.428647],[-58.598873,6.516553],[-58.659309,6.51468],[-58.732479,6.569108],[-58.825038,6.580086],[-58.817829,6.751706]]]},"properties":{"shapeName":"VII-1  Cuyuni","shapeISO":"","shapeID":"73187651B99697298922199","shapeGroup":"GUY","shapeType":"ADM2"}},
{"type":"Feature","geometry":{"type":"Polygon","coordinates":[[[-59.765712,8.360348],[-59.818164,8.330738],[-59.997871,8.557562],[-59.799724,8.296332],[-59.829387,8.241531],[-59.93486,8.222336],[-59.978389,8.174062],[-60.026092,8.033184],[-60.105617,8.0291],[-60.222084,7.957973],[-60.263538,7.883014],[-60.338935,7.82174],[-60.482913,7.862287],[-60.551055,7.838881],[-60.646316,7.626057],[-60.724338,7.561902],[-60.713409,7.497032],[-60.672672,7.486316],[-60.601993,7.379878],[-60.642391,7.288463],[-60.613594,7.212018],[-60.545951,7.167304],[-60.454219,7.24232],[-60.301002,7.18468],[-60.186931,7.268661],[-60.23936,7.355587],[-60.18317,7.437509],[-59.96276,7.54953],[-59.93069,7.476222],[-59.89682,7.460902],[-59.74274,7.477083],[-59.59243,7.670533],[-59.517631,7.695055],[-59.459239,7.749711],[-59.428779,7.951251],[-59.443351,8.122293],[-59.5443,8.233697],[-59.765712,8.360348]]]},"properties":{"shapeName":"I-1  Barima","shapeISO":"","shapeID":"73187651B60550575754674","shapeGroup":"GUY","shapeType":"ADM2"}}
]}