{"type":"FeatureCollection", "features": [
{"type":"Feature","geometry":{"type":"Polygon","coordinates":[[[18.966261660090254,47.005190416175196],[18.972116042302332,47.04178094354609],[19.064011326112222,47.01875876607096],[19.263783152604844,47.11692580752009],[19.327075268386068,47.09081201357344],[19.287055176951526,47.0305822057461],[19.322656992696068,46.98846222140628],[19.412422253287673,47.03742615849052],[19.458331858726922,47.03008961460682],[19.480339561803362,47.088690533719614],[19.551421476961366,47.09240306770437],[19.5995599993513,47.06645134814619],[19.648246242536402,46.96375575297088],[19.759007445378245,46.91597140047452],[19.81347518015491,46.91638710040803],[19.863682867597333,46.964586407329705],[19.95922961978073,46.941530945870966],[20.00487297265437,46.98431067159231],[20.074690258064606,46.981517327343056],[20.087810748727634,47.012742326448176],[20.02134083274734,47.101253695794355],[20.058531919146333,47.18765662614953],[19.963707185177782,47.23501623768385],[19.983230415876335,47.28112024270837],[19.957823471595134,47.31793828297418],[19.728091205324688,47.4635076671247],[19.756974890266804,47.520430838706204],[19.673265694028316,47.50778657731985],[19.633031791877954,47.54076364570324],[19.64568212341902,47.57035370876741],[19.58688208293313,47.64634556117949],[19.584763946223006,47.71414162067936],[19.542927317125077,47.73905412250775],[19.457975269779922,47.68344876389557],[19.398367904055192,47.7735320043634],[19.412916722851094,47.803661651628886],[19.30354383843303,47.83653132767512],[19.128754758269906,47.84354692912689],[18.965615430461355,47.92397692744544],[19.01425635723359,47.9919785749305],[18.971214987156657,48.02245229553188],[18.966969809096383,48.06800887293048],[18.94769684865139,48.08120915848599],[18.830735756993136,48.045939246815635],[18.819324918782456,47.99219360047755],[18.786994210519197,47.983283585604454],[18.777675359314003,47.877034282250065],[18.855395528767588,47.811136373343516],[18.931650357740807,47.71620732154963],[18.88217367615738,47.69713066466386],[18.85703417291279,47.63733595186187],[18.772790094601078,47.66021732031146],[18.765034290169638,47.61552626678673],[18.69081407152362,47.5746641677552],[18.69240140492758,47.52511536258805],[18.78071824980293,47.437196563676196],[18.75150650371222,47.4009596917798],[18.911489498362016,47.258934956495295],[18.87685456181572,47.12204743789732],[18.966261660090254,47.005190416175196]]]},"properties":{"shapeName":"Pest","shapeISO":"HU-PE","shapeID":"22733592B46801225244053","shapeGroup":"HUN","shapeType":"ADM1"}},
{"type":"Feature","geometry":{"type":"Polygon","coordinates":[[[22.074133389178257,47.581475006106984],[22.139664500813865,47.596084424300216],[22.28489157365175,47.76386841973277],[22.39506321657484,47.74502182276632],[22.437347218647915,47.81545933021869],[22.541426234689027,47.762206511284774],[22.637438929199106,47.78140311139549],[22.687123620574255,47.82902447114441],[22.75986771416666,47.84083323732693],[22.7479814243639,47.88166445658004],[22.82928364661427,47.900793020563526],[22.89066101547047,47.95309406597181],[22.844022645969687,47.98423830363055],[22.87920606378549,48.000147671110994],[22.882838513949253,48.04147635786103],[22.835464517311664,48.107883839266606],[22.74012696406237,48.12116520792],[22.673791957931485,48.084385441374934],[22.613542732179724,48.10267701251996],[22.59406823496704,48.08885731520047],[22.558260476942053,48.17904099539612],[22.586926936839063,48.191505746460166],[22.499276119784156,48.247170565305],[22.395367505593526,48.25201728564065],[22.377414453475694,48.233778910430544],[22.326731313756966,48.347017457399545],[22.278235251362105,48.35112520625705],[22.249708155835606,48.3849225615196],[22.28869518638851,48.40039236778989],[22.21404928642761,48.4149107630476],[22.117264942752172,48.37442425961336],[22.054498719898504,48.29843498720163],[21.999407464483113,48.300878228661134],[21.902814130078127,48.23633744485221],[21.650128903981965,48.16828592474218],[21.56896112073389,48.18616432159331],[21.427192956079693,48.17489920908224],[21.38605815239555,48.13692245197126],[21.36879622560889,48.04320810085699],[21.283617798790374,48.02655718355976],[21.197117182129375,48.053117507608306],[21.058763206646404,48.01350774968762],[21.031383880903093,47.98330844820816],[21.066295863214805,47.94640953489102],[21.217331999714077,47.90521175988499],[21.490467100165404,47.928054650475985],[21.48228421239338,47.782268286499175],[21.558310144956295,47.70323536923695],[21.653067104630054,47.6928533903108],[21.72027843614694,47.654273655630334],[21.85997516929939,47.72226362761393],[21.934901627734916,47.69452057898559],[21.95340523824666,47.623897485293696],[22.032741346748935,47.66530641446502],[22.074133389178257,47.581475006106984]]]},"properties":{"shapeName":"Szabolcs-Szatmár-Bereg","shapeISO":"HU-SZ","shapeID":"22733592B55295508761572","shapeGroup":"HUN","shapeType":"ADM1"}},
{"type":"Feature","geometry":{"type":"Polygon","coordinates":[[[21.066295863214805,47.94640953489102],[21.001550569806227,47.896229379841486],[20.974342834858533,47.78597001090708],[20.779668704432993,47.664212839208346],[20.779704694263444,47.601992028470534],[20.8997713115715,47.58229083434355],[20.932473481461557,47.539603007310745],[20.94646795605513,47.21308051951519],[21.2362099373064,47.131403643706506],[21.25677733914847,47.10166148183487],[21.22297334423996,47.00037369573636],[21.41029830459854,46.935400001085895],[21.503586163948228,46.936152346731035],[21.634761081619388,47.02473478093026],[21.829085641330664,47.19521514848128],[21.84916871658112,47.31128995971852],[21.913563880216145,47.38216229113186],[21.9668144585321,47.38377192005606],[21.993039699748977,47.41079452327267],[21.96642072518233,47.484286252536265],[21.989636134953287,47.53760108154546],[22.074133389178257,47.581475006106984],[22.032741346748935,47.66530641446502],[21.95340523824666,47.623897485293696],[21.934901627734916,47.69452057898559],[21.85997516929939,47.72226362761393],[21.72027843614694,47.654273655630334],[21.653067104630054,47.6928533903108],[21.558310144956295,47.70323536923695],[21.48228421239338,47.782268286499175],[21.490467100165404,47.928054650475985],[21.217331999714077,47.90521175988499],[21.066295863214805,47.94640953489102]]]},"properties":{"shapeName":"Hajdú-Bihar","shapeISO":"HU-HB","shapeID":"22733592B65065142275382","shapeGroup":"HUN","shapeType":"ADM1"}},
{"type":"Feature","geometry":{"type":"Polygon","coordinates":[[[22.117264942752172,48.37442425961336],[22.02291774640048,48.38819371264162],[21.843082936201938,48.36555657797908],[21.810219722155523,48.330368205529226],[21.71951725138723,48.352106972402225],[21.668230858688503,48.39534151961908],[21.632957006176184,48.501726840713275],[21.571387312521267,48.49724779312214],[21.456654900200874,48.57371045625587],[21.43430867537188,48.550425778152714],[21.342546518095105,48.550425778152714],[21.31069126142387,48.51705337461948],[21.231290845541878,48.53342749101131],[21.11639207270963,48.484071433209294],[21.09652808555262,48.51297766416377],[21.030935544627994,48.528641758383856],[20.972512052989828,48.51110700083126],[20.946951775398304,48.54919202057255],[20.887006838665286,48.54133555246267],[20.847144977183063,48.574566121267935],[20.589716467152698,48.52702962029048],[20.513644212415443,48.53549277273311],[20.515774235548065,48.500018677670255],[20.413038655525554,48.42248393264322],[20.394971495025572,48.36565765898291],[20.299424743075576,48.27429980219682],[20.235219760077484,48.295155534710375],[20.166754730814148,48.251409444569674],[20.12750144736964,48.27267958306817],[20.123849979142335,48.23154932969504],[20.03140103407253,48.169046243487344],[20.05121442857711,48.15119634727648],[20.141715634181594,48.13899107186228],[20.202595144604345,48.07809371377914],[20.262064318895455,48.09756360166682],[20.316362260405413,48.07950709916065],[20.37583143469658,48.145735564250856],[20.436710944221034,48.1306768733902],[20.479491140807113,48.07353920872282],[20.42489937923233,47.966293899633115],[20.474114234249782,47.91807197288847],[20.40662377371632,47.891293134385705],[20.403332988810746,47.86690761297325],[20.45504531482817,47.852713703208735],[20.489213058256496,47.77424915195644],[20.59972229713577,47.68172754806068],[20.70836177995767,47.66822497140299],[20.779668704432993,47.664212839208346],[20.974342834858533,47.78597001090708],[21.001550569806227,47.896229379841486],[21.066295863214805,47.94640953489102],[21.031383880903093,47.98330844820816],[21.058763206646404,48.01350774968762],[21.197117182129375,48.053117507608306],[21.283617798790374,48.02655718355976],[21.36879622560889,48.04320810085699],[21.38605815239555,48.13692245197126],[21.427192956079693,48.17489920908224],[21.56896112073389,48.18616432159331],[21.650128903981965,48.16828592474218],[21.902814130078127,48.23633744485221],[21.999407464483113,48.300878228661134],[22.054498719898504,48.29843498720163],[22.117264942752172,48.37442425961336]]]},"properties":{"shapeName":"Borsod-Abaúj-Zemplén","shapeISO":"HU-BZ","shapeID":"22733592B38895068362950","shapeGroup":"HUN","shapeType":"ADM1"}},
{"type":"Feature","geometry":{"type":"Polygon","coordinates":[[[19.542927317125077,47.73905412250775],[19.595440211372306,47.78184240110784],[19.590626263732304,47.82279985068021],[19.670056395302197,47.81220430921428],[19.743452377818528,47.8645772747671],[19.73969148116862,47.90185011615273],[19.803626719726424,47.877471667507336],[19.80083529930414,47.928457155182855],[19.92706769670241,47.94834467785654],[19.99585031280526,48.024408708346186],[19.945574649845355,48.07770231464434],[20.05121442857711,48.15119634727648],[20.03140103407253,48.169046243487344],[20.007611573903944,48.18572007687618],[19.88893885651413,48.12380583569956],[19.86735235007859,48.16981512800305],[19.776884425286198,48.15802015243918],[19.755660266214534,48.21675055950976],[19.69693248555751,48.20600356594889],[19.63485752569204,48.249383255485384],[19.51983627652953,48.20722031994512],[19.459282761758743,48.08255592638017],[19.441025420621884,48.106537734614164],[19.396294934836305,48.082352642919716],[19.315696380942427,48.0904198385324],[19.232016900731594,48.052931600020884],[19.141681098231174,48.07771502077935],[19.055795522632877,48.055918952364664],[18.966969809096383,48.06800887293048],[18.971214987156657,48.02245229553188],[19.01425635723359,47.9919785749305],[18.965615430461355,47.92397692744544],[19.128754758269906,47.84354692912689],[19.30354383843303,47.83653132767512],[19.412916722851094,47.803661651628886],[19.398367904055192,47.7735320043634],[19.457975269779922,47.68344876389557],[19.542927317125077,47.73905412250775]]]},"properties":{"shapeName":"Nógrád","shapeISO":"HU-NO","shapeID":"22733592B56459880018469","shapeGroup":"HUN","shapeType":"ADM1"}},
{"type":"Feature","geometry":{"type":"Polygon","coordinates":[[[19.64568212341902,47.57035370876741],[19.6927889247267,47.61210077903746],[19.77869114123763,47.59815853166339],[19.833730606081872,47.66021732031146],[19.873044509413774,47.64778695428481],[19.95889323753761,47.67894735377661],[20.00542806232977,47.56249622050217],[20.068544261028876,47.55347215888759],[20.07362565060373,47.593166405002535],[20.140528821350642,47.608545246303095],[20.264578895615102,47.51049631842744],[20.288916073953885,47.4484985919612],[20.37476480207772,47.41720084504226],[20.644813877812567,47.56824824858484],[20.70836177995767,47.66822497140299],[20.59972229713577,47.68172754806068],[20.489213058256496,47.77424915195644],[20.45504531482817,47.852713703208735],[20.403332988810746,47.86690761297325],[20.40662377371632,47.891293134385705],[20.474114234249782,47.91807197288847],[20.42489937923233,47.966293899633115],[20.479491140807113,48.07353920872282],[20.436710944221034,48.1306768733902],[20.37583143469658,48.145735564250856],[20.316362260405413,48.07950709916065],[20.262064318895455,48.09756360166682],[20.202595144604345,48.07809371377914],[20.141715634181594,48.13899107186228],[20.05121442857711,48.15119634727648],[19.945574649845355,48.07770231464434],[19.99585031280526,48.024408708346186],[19.92706769670241,47.94834467785654],[19.80083529930414,47.928457155182855],[19.803626719726424,47.877471667507336],[19.73969148116862,47.90185011615273],[19.743452377818528,47.8645772747671],[19.670056395302197,47.81220430921428],[19.590626263732304,47.82279985068021],[19.595440211372306,47.78184240110784],[19.542927317125077,47.73905412250775],[19.584763946223006,47.71414162067936],[19.58688208293313,47.64634556117949],[19.64568212341902,47.57035370876741]]]},"properties":{"shapeName":"Heves","shapeISO":"HU-HE","shapeID":"22733592B80362656403521","shapeGroup":"HUN","shapeType":"ADM1"}},
{"type":"Feature","geometry":{"type":"Polygon","coordinates":[[[20.94646795605513,47.21308051951519],[20.830769309808204,47.13708247757205],[20.785822419875956,47.0390819259884],[20.680450460155214,47.011371028213546],[20.702915547645034,46.95608862071879],[20.668148150018567,46.898373456915635],[20.457404232373733,46.86711558528481],[20.393753150703276,46.8201031249269],[20.415229094918402,46.782064899432726],[20.572404086476297,46.74794965841318],[20.54352040153418,46.62227493357159],[20.60503195131946,46.52428487908497],[20.540311103706358,46.386838214106604],[20.6435435306434,46.3541759511927],[20.722973662213292,46.37890511030247],[20.76850558087267,46.332309467991706],[20.7476117123918,46.29911802446634],[20.78462453931411,46.27627124298738],[20.858061345738804,46.29955172742109],[21.064692494493954,46.26085751930509],[21.124165658696256,46.31714331581651],[21.18034145293268,46.31990080293531],[21.21198751090327,46.414597048839255],[21.286116357257697,46.423250096935305],[21.310358064949014,46.4582237780063],[21.26797669038973,46.52106497650095],[21.312402887156225,46.62042830432193],[21.40490674891663,46.626279829721966],[21.44213809268797,46.66293610244742],[21.419080287988095,46.6853421128298],[21.49051893984938,46.69081114505849],[21.524585046423795,46.73269675006918],[21.477643996006066,46.764709179510476],[21.518939058767558,46.84049447080133],[21.587879539623145,46.86228005855378],[21.589832679548863,46.93196121804925],[21.665682438155272,46.969985350320485],[21.671083568241556,47.00286041022332],[21.634761081619388,47.02473478093026],[21.503586163948228,46.936152346731035],[21.41029830459854,46.935400001085895],[21.22297334423996,47.00037369573636],[21.25677733914847,47.10166148183487],[21.2362099373064,47.131403643706506],[20.94646795605513,47.21308051951519]]]},"properties":{"shapeName":"Békés","shapeISO":"HU-BE","shapeID":"22733592B23182986205710","shapeGroup":"HUN","shapeType":"ADM1"}},
{"type":"Feature","geometry":{"type":"Polygon","coordinates":[[[20.415229094918402,46.782064899432726],[20.302288150033178,46.72888794058838],[20.228608011527797,46.76568795403307],[20.172194565371683,46.72101614337305],[20.04933027506621,46.768201485773886],[19.96932345682569,46.702116851231494],[19.996067608984333,46.662669490935],[19.974329962838453,46.581659045050344],[19.934620245622682,46.55812524553039],[19.868722654394844,46.567775338361685],[19.772358126282313,46.51774100574028],[19.853146860904815,46.4957112908412],[19.90754446600397,46.396614640141195],[19.862560801738823,46.36381796351196],[19.813094818192212,46.37468349096872],[19.67219592808567,46.32260233260729],[19.65778751596872,46.250015534490444],[19.70354504421215,46.1782973321404],[19.821657166945442,46.1308254756903],[19.94178416284234,46.17785102727231],[20.01999650428388,46.18217425780324],[20.03593726111501,46.14839991246731],[20.07363396286968,46.14801117485325],[20.10543896089939,46.182704024773045],[20.136364029151537,46.15015803238947],[20.189797446050136,46.16601391301623],[20.268117011398033,46.12964613217929],[20.277917541729153,46.15920465913268],[20.36149301690409,46.178304755693205],[20.472204404175613,46.16271407569394],[20.512044949268102,46.20352424119545],[20.63829687693601,46.15147036408257],[20.752719102362505,46.2180271326942],[20.78462453931411,46.27627124298738],[20.7476117123918,46.29911802446634],[20.76850558087267,46.332309467991706],[20.722973662213292,46.37890511030247],[20.6435435306434,46.3541759511927],[20.540311103706358,46.386838214106604],[20.60503195131946,46.52428487908497],[20.54352040153418,46.62227493357159],[20.572404086476297,46.74794965841318],[20.415229094918402,46.782064899432726]]]},"properties":{"shapeName":"Csongrád-Csanád","shapeISO":"HU-CS","shapeID":"22733592B44371380589399","shapeGroup":"HUN","shapeType":"ADM1"}},
{"type":"Feature","geometry":{"type":"Polygon","coordinates":[[[20.074690258064606,46.981517327343056],[20.088334933662168,46.92449909799171],[20.142525272272394,46.903764054938165],[20.08109729724947,46.84806174740578],[20.10282692144,46.815470537959186],[19.994730402005246,46.7942928182448],[20.018661069321638,46.77319605556045],[20.052475946421453,46.78647391583462],[20.04933027506621,46.768201485773886],[20.172194565371683,46.72101614337305],[20.228608011527797,46.76568795403307],[20.302288150033178,46.72888794058838],[20.415229094918402,46.782064899432726],[20.393753150703276,46.8201031249269],[20.457404232373733,46.86711558528481],[20.668148150018567,46.898373456915635],[20.702915547645034,46.95608862071879],[20.680450460155214,47.011371028213546],[20.785822419875956,47.0390819259884],[20.830769309808204,47.13708247757205],[20.94646795605513,47.21308051951519],[20.932473481461557,47.539603007310745],[20.8997713115715,47.58229083434355],[20.779704694263444,47.601992028470534],[20.779668704432993,47.664212839208346],[20.70836177995767,47.66822497140299],[20.644813877812567,47.56824824858484],[20.37476480207772,47.41720084504226],[20.288916073953885,47.4484985919612],[20.264578895615102,47.51049631842744],[20.140528821350642,47.608545246303095],[20.07362565060373,47.593166405002535],[20.068544261028876,47.55347215888759],[20.00542806232977,47.56249622050217],[19.95889323753761,47.67894735377661],[19.873044509413774,47.64778695428481],[19.833730606081872,47.66021732031146],[19.77869114123763,47.59815853166339],[19.6927889247267,47.61210077903746],[19.64568212341902,47.57035370876741],[19.633031791877954,47.54076364570324],[19.673265694028316,47.50778657731985],[19.756974890266804,47.520430838706204],[19.728091205324688,47.4635076671247],[19.957823471595134,47.31793828297418],[19.983230415876335,47.28112024270837],[19.963707185177782,47.23501623768385],[20.058531919146333,47.18765662614953],[20.02134083274734,47.101253695794355],[20.087810748727634,47.012742326448176],[20.074690258064606,46.981517327343056]]]},"properties":{"shapeName":"Jász-Nagykun-Szolnok","shapeISO":"HU-JN","shapeID":"22733592B98149210561707","shapeGroup":"HUN","shapeType":"ADM1"}},
{"type":"Feature","geometry":{"type":"Polygon","coordinates":[[[18.855395528767588,47.811136373343516],[18.74237783311594,47.80963950428196],[18.666914156416738,47.74686331084092],[18.441816354649518,47.75683690574323],[18.32865887572808,47.724963447902155],[18.10876251437844,47.75094328561528],[17.890216143601606,47.732952123070845],[17.951477184808937,47.54733490942965],[17.9038725940743,47.51898593459907],[17.910757227883835,47.38454415305347],[17.96591902683093,47.377916659183654],[17.98962103158499,47.32606245638959],[18.041556493780888,47.32585962861265],[18.08280768583637,47.343620904561135],[18.132802535438657,47.45175393606536],[18.190837345461205,47.447775154931946],[18.211868946336438,47.47474539241745],[18.320279041585763,47.401092440672244],[18.434893779841218,47.483652873191375],[18.486071389075732,47.467224915754855],[18.53844713620174,47.48110803269378],[18.505081131978045,47.55293066553611],[18.69081407152362,47.5746641677552],[18.765034290169638,47.61552626678673],[18.772790094601078,47.66021732031146],[18.85703417291279,47.63733595186187],[18.88217367615738,47.69713066466386],[18.931650357740807,47.71620732154963],[18.855395528767588,47.811136373343516]]]},"properties":{"shapeName":"Komárom-Esztergom","shapeISO":"HU-KE","shapeID":"22733592B67277482146773","shapeGroup":"HUN","shapeType":"ADM1"}},
{"type":"Feature","geometry":{"type":"Polygon","coordinates":[[[17.890216143601606,47.732952123070845],[17.75146064290999,47.73925396286768],[17.62784322896215,47.809550097023646],[17.58790529522514,47.80827283367182],[17.387220601448178,47.9737170999997],[17.196589616857295,48.01257901781133],[17.11382300370326,47.9657390903061],[17.114735870760228,47.887646080138154],[17.03278475217695,47.86277840087388],[17.08582841396003,47.8071871351255],[17.095261373547544,47.70694981579476],[16.889561996738223,47.68728885938981],[16.878303303037114,47.71595860986406],[16.83768144930127,47.67888678310919],[16.76514284208332,47.67972593714239],[16.711922936100336,47.74019337723212],[16.623625565737996,47.76600274365342],[16.552105474724385,47.75075068283377],[16.557886966084368,47.719029433716514],[16.473903196854508,47.68257732102751],[16.449255786319725,47.693433704662766],[16.433432757334344,47.66085777435683],[16.67270129871406,47.60829188600127],[16.721971776662144,47.52945484284942],[16.65906915066512,47.49907094054862],[16.68516497693014,47.47406666560386],[16.663506683673518,47.45296591220364],[16.750397315980933,47.40996172200897],[16.80789724303213,47.44867944996747],[16.97932725734512,47.411952580015225],[17.07740341204368,47.45264369468356],[17.074664810763352,47.39647982373424],[17.216265827135658,47.439809512783256],[17.234188328823393,47.45646297665462],[17.397873236741702,47.4546474055752],[17.440396438799723,47.49080234707844],[17.49495450905971,47.43149518868364],[17.562349772427638,47.47146254725618],[17.59604740411163,47.44994543616866],[17.616907842687624,47.47110098794144],[17.674675210775206,47.457721542795014],[17.71583980978079,47.47636504708771],[17.746820235359678,47.45310665259808],[17.77112532048642,47.469191913592],[17.809123412014287,47.387557573617926],[17.753035576402567,47.322470751609785],[17.797698310345822,47.26660362705752],[17.816954100007763,47.31975131733151],[17.910757227883835,47.38454415305347],[17.9038725940743,47.51898593459907],[17.951477184808937,47.54733490942965],[17.890216143601606,47.732952123070845]]]},"properties":{"shapeName":"Győr-Moson-Sopron","shapeISO":"HU-GS","shapeID":"22733592B30896182433416","shapeGroup":"HUN","shapeType":"ADM1"}},
{"type":"Feature","geometry":{"type":"Polygon","coordinates":[[[16.663506683673518,47.45296591220364],[16.582729121591285,47.41150389957363],[16.461403003956093,47.408472655982564],[16.44932881568434,47.35163751916173],[16.50950501207143,47.28425611511847],[16.454732988660794,47.255556234445066],[16.435562780466967,47.19831653543156],[16.477858954100896,47.179705494639165],[16.468121705494525,47.14950037032082],[16.55027974061062,47.13666834135768],[16.48010308561561,47.09680722281786],[16.536681825076244,47.058600556262206],[16.461560473523434,47.02911738227806],[16.535271061257447,46.996895243634015],[16.30506639697012,47.010941834580194],[16.27946251374732,46.96491087868685],[16.21029916495837,46.94172272011281],[16.12729934171324,46.86868648135794],[16.300560678147008,46.87349202453004],[16.363660161904363,46.834341541547246],[16.332516871067128,46.78510957786193],[16.385395634893428,46.710619152956895],[16.43762445785967,46.74793820517516],[16.400851247967807,46.78886833379062],[16.47147252501452,46.78228726475601],[16.542511678568303,46.83033915500897],[16.603103897881738,46.83634262303622],[16.670699742476188,46.91737518615332],[16.82819070542496,46.91999835734242],[16.886257607761024,46.972515105956404],[16.987350502812944,46.95006431208941],[17.06704807631769,47.03087954088426],[17.119472688414817,47.02381932766025],[17.124013120397535,47.047465283516544],[17.257637601555473,47.07677480434239],[17.258335623972243,47.30396450318153],[17.331547740214546,47.330628214582816],[17.23744175459302,47.382964596927195],[17.216265827135658,47.439809512783256],[17.074664810763352,47.39647982373424],[17.07740341204368,47.45264369468356],[16.97932725734512,47.411952580015225],[16.80789724303213,47.44867944996747],[16.750397315980933,47.40996172200897],[16.663506683673518,47.45296591220364]]]},"properties":{"shapeName":"Vas","shapeISO":"HU-VA","shapeID":"22733592B45424907481292","shapeGroup":"HUN","shapeType":"ADM1"}},
{"type":"Feature","geometry":{"type":"Polygon","coordinates":[[[16.385395634893428,46.710619152956895],[16.437598340098248,46.68472887413475],[16.413439804305426,46.629158197554204],[16.53292661646981,46.55826765094565],[16.55797314168666,46.4881834687946],[16.687549407211293,46.45085823994543],[16.766105456875266,46.379819110109736],[16.8844496355901,46.34813821055866],[16.909905306503504,46.29961180548861],[17.076602370830017,46.30009254073326],[17.106647625045298,46.3375211024462],[17.091208243426195,46.40238604882887],[17.246988641597568,46.40674774612728],[17.27753049618002,46.4862971819843],[17.271444715557266,46.659913827060336],[17.322260981960255,46.70980399853386],[17.46570387864375,46.72748550114312],[17.366687178709356,46.80715518045906],[17.360345795049057,46.87598263129996],[17.27271055767517,46.900338743115185],[17.270568363183486,46.97506816471031],[17.119472688414817,47.02381932766025],[17.06704807631769,47.03087954088426],[16.987350502812944,46.95006431208941],[16.886257607761024,46.972515105956404],[16.82819070542496,46.91999835734242],[16.670699742476188,46.91737518615332],[16.603103897881738,46.83634262303622],[16.542511678568303,46.83033915500897],[16.47147252501452,46.78228726475601],[16.400851247967807,46.78886833379062],[16.43762445785967,46.74793820517516],[16.385395634893428,46.710619152956895]]]},"properties":{"shapeName":"Zala","shapeISO":"HU-ZA","shapeID":"22733592B73257172814754","shapeGroup":"HUN","shapeType":"ADM1"}},
{"type":"Feature","geometry":{"type":"Polygon","coordinates":[[[17.910757227883835,47.38454415305347],[17.816954100007763,47.31975131733151],[17.797698310345822,47.26660362705752],[17.753035576402567,47.322470751609785],[17.809123412014287,47.387557573617926],[17.77112532048642,47.469191913592],[17.746820235359678,47.45310665259808],[17.71583980978079,47.47636504708771],[17.674675210775206,47.457721542795014],[17.616907842687624,47.47110098794144],[17.59604740411163,47.44994543616866],[17.562349772427638,47.47146254725618],[17.49495450905971,47.43149518868364],[17.440396438799723,47.49080234707844],[17.397873236741702,47.4546474055752],[17.234188328823393,47.45646297665462],[17.216265827135658,47.439809512783256],[17.23744175459302,47.382964596927195],[17.331547740214546,47.330628214582816],[17.258335623972243,47.30396450318153],[17.257637601555473,47.07677480434239],[17.124013120397535,47.047465283516544],[17.119472688414817,47.02381932766025],[17.270568363183486,46.97506816471031],[17.27271055767517,46.900338743115185],[17.360345795049057,46.87598263129996],[17.366687178709356,46.80715518045906],[17.46570387864375,46.72748550114312],[17.55470127714682,46.735353290109],[17.922014638074188,46.85420416419629],[18.089069309879278,46.95170980646486],[18.197987940205962,46.93073153668166],[18.27194700950696,46.98576375070354],[18.219913587877784,47.04364717145535],[18.247603887914522,47.06831671289598],[18.241175782693233,47.195111765883155],[18.168342684533798,47.249021224027274],[18.12510930046335,47.23540333954679],[18.041556493780888,47.32585962861265],[17.98962103158499,47.32606245638959],[17.96591902683093,47.377916659183654],[17.910757227883835,47.38454415305347]]]},"properties":{"shapeName":"Veszprém","shapeISO":"HU-VE","shapeID":"22733592B83106366455538","shapeGroup":"HUN","shapeType":"ADM1"}},
{"type":"Feature","geometry":{"type":"Polygon","coordinates":[[[18.826461224105003,45.91737326309823],[18.798062723679436,45.93545312126133],[18.8421846313974,45.955130602315705],[18.86500630783422,46.02827796348811],[18.7764582033671,46.0227847000275],[18.740856387622387,46.046655298298106],[18.79732522643019,46.098107740245894],[18.736998003102997,46.10100794972965],[18.58506040996923,46.18776647986232],[18.582017520556235,46.23977449166472],[18.530178842900682,46.27129220113636],[18.3856780732209,46.199359898055775],[18.427438698129208,46.25345262544732],[18.372058097157492,46.28290163620619],[18.39502583247304,46.31932918810128],[18.35471362328093,46.36960845641471],[18.225999367602242,46.36380483947073],[18.217783564659896,46.313806069975044],[18.15841069066539,46.29968890188667],[18.15081563705911,46.2699460206415],[18.106563800568267,46.28204863351351],[17.99424067991731,46.29026982752373],[17.96405520856763,46.221596237819256],[17.882685281922647,46.188082466339324],[17.746230675530285,46.20881512784621],[17.693931000437374,46.061542793060084],[17.648287647563563,46.03877438791534],[17.659223034451657,45.94661513035277],[17.699636419097374,45.94793749428044],[17.749178475575604,45.88103924524671],[17.657878061330734,45.859686000822705],[17.827040614884083,45.82060303652082],[17.85919484780726,45.78639590786122],[17.90082208906199,45.80604004354666],[18.0806918504731,45.78356955521974],[18.14251456887638,45.80286277142375],[18.443953802330782,45.763328082301825],[18.48650334868728,45.80695034217371],[18.573996424261168,45.81741770720765],[18.678131490559338,45.91910771319823],[18.788158579397304,45.889185565615946],[18.826461224105003,45.91737326309823]]]},"properties":{"shapeName":"Baranya","shapeISO":"HU-BA","shapeID":"22733592B86637050333024","shapeGroup":"HUN","shapeType":"ADM1"}},
{"type":"Feature","geometry":{"type":"Polygon","coordinates":[[[16.909905306503504,46.29961180548861],[16.968106727440045,46.23746319772948],[17.19663341737197,46.142824799060065],[17.198627214801718,46.10816797925219],[17.301794870744914,46.02938020243215],[17.28335113453352,46.0055222406624],[17.425794105634907,45.932988404926334],[17.453725943545237,45.95164047955478],[17.569009496948468,45.944546870719364],[17.646178063138052,45.90244891825489],[17.657878061330734,45.859686000822705],[17.749178475575604,45.88103924524671],[17.699636419097374,45.94793749428044],[17.659223034451657,45.94661513035277],[17.648287647563563,46.03877438791534],[17.693931000437374,46.061542793060084],[17.746230675530285,46.20881512784621],[17.882685281922647,46.188082466339324],[17.96405520856763,46.221596237819256],[17.99424067991731,46.29026982752373],[18.106563800568267,46.28204863351351],[18.116151031853747,46.35372473464554],[18.06077043088203,46.37493279569617],[18.0948508005726,46.407463807318095],[18.084602346399322,46.48880288173848],[18.100328003133086,46.53718465762773],[18.13866841925943,46.55183476204979],[18.12257761622743,46.61723477667425],[18.194828000618088,46.64398102177665],[18.191906826637876,46.73521981781374],[18.230263645670277,46.75641080640236],[18.197987940205962,46.93073153668166],[18.089069309879278,46.95170980646486],[17.922014638074188,46.85420416419629],[17.55470127714682,46.735353290109],[17.46570387864375,46.72748550114312],[17.322260981960255,46.70980399853386],[17.271444715557266,46.659913827060336],[17.27753049618002,46.4862971819843],[17.246988641597568,46.40674774612728],[17.091208243426195,46.40238604882887],[17.106647625045298,46.3375211024462],[17.076602370830017,46.30009254073326],[16.909905306503504,46.29961180548861]]]},"properties":{"shapeName":"Somogy","shapeISO":"HU-SO","shapeID":"22733592B29270060230612","shapeGroup":"HUN","shapeType":"ADM1"}},
{"type":"Feature","geometry":{"type":"Polygon","coordinates":[[[18.79732522643019,46.098107740245894],[18.89726094333804,46.19197948767817],[18.843706076553076,46.17870741953891],[18.836707428836917,46.194928400386004],[18.93347133714485,46.268599807082865],[18.907283463132615,46.37308266739245],[18.938663268008725,46.4438938676937],[18.873514228533907,46.5867279340128],[18.966030261679805,46.62063729835734],[19.015629371958255,46.67432199645765],[18.93159088621013,46.821321882490054],[18.889653718457964,46.81881717390286],[18.81158532775595,46.73028110818177],[18.74303509773216,46.71839965676793],[18.74968076952547,46.68517778979867],[18.68182431827711,46.64738186241635],[18.5850969246888,46.74496243212889],[18.53262760904272,46.70079221334538],[18.481278836610613,46.69850968461952],[18.43896364484658,46.726219577443885],[18.442767258184972,46.7597783824998],[18.424237577665394,46.73868999197424],[18.316677495287422,46.7736128617928],[18.26684656127503,46.748268648610804],[18.230263645670277,46.75641080640236],[18.191906826637876,46.73521981781374],[18.194828000618088,46.64398102177665],[18.12257761622743,46.61723477667425],[18.13866841925943,46.55183476204979],[18.100328003133086,46.53718465762773],[18.084602346399322,46.48880288173848],[18.0948508005726,46.407463807318095],[18.06077043088203,46.37493279569617],[18.116151031853747,46.35372473464554],[18.106563800568267,46.28204863351351],[18.15081563705911,46.2699460206415],[18.15841069066539,46.29968890188667],[18.217783564659896,46.313806069975044],[18.225999367602242,46.36380483947073],[18.35471362328093,46.36960845641471],[18.39502583247304,46.31932918810128],[18.372058097157492,46.28290163620619],[18.427438698129208,46.25345262544732],[18.3856780732209,46.199359898055775],[18.530178842900682,46.27129220113636],[18.582017520556235,46.23977449166472],[18.58506040996923,46.18776647986232],[18.736998003102997,46.10100794972965],[18.79732522643019,46.098107740245894]]]},"properties":{"shapeName":"Tolna","shapeISO":"HU-TO","shapeID":"22733592B60351968143004","shapeGroup":"HUN","shapeType":"ADM1"}},
{"type":"Feature","geometry":{"type":"Polygon","coordinates":[[[18.966261660090254,47.005190416175196],[18.97089888617785,46.89123145063019],[18.93159088621013,46.821321882490054],[19.015629371958255,46.67432199645765],[18.966030261679805,46.62063729835734],[18.873514228533907,46.5867279340128],[18.938663268008725,46.4438938676937],[18.907283463132615,46.37308266739245],[18.93347133714485,46.268599807082865],[18.836707428836917,46.194928400386004],[18.843706076553076,46.17870741953891],[18.89726094333804,46.19197948767817],[18.79732522643019,46.098107740245894],[18.740856387622387,46.046655298298106],[18.7764582033671,46.0227847000275],[18.86500630783422,46.02827796348811],[18.8421846313974,45.955130602315705],[18.798062723679436,45.93545312126133],[18.826461224105003,45.91737326309823],[18.880997547182233,45.91545358338914],[18.91160380029811,45.940290269675586],[19.0069728850072,45.93197476631434],[19.009543810268838,45.96369753120041],[19.07789777556104,45.96369753120041],[19.117685904611562,46.03740120178378],[19.163778602988884,45.9974112047347],[19.304339395370505,45.993920743669264],[19.28681687549721,46.015669962075606],[19.3629750272504,46.05450681278933],[19.400399212201762,46.03373550329235],[19.52801373805221,46.112619255256504],[19.519052227139866,46.14480285384212],[19.70354504421215,46.1782973321404],[19.65778751596872,46.250015534490444],[19.67219592808567,46.32260233260729],[19.813094818192212,46.37468349096872],[19.862560801738823,46.36381796351196],[19.90754446600397,46.396614640141195],[19.853146860904815,46.4957112908412],[19.772358126282313,46.51774100574028],[19.868722654394844,46.567775338361685],[19.934620245622682,46.55812524553039],[19.974329962838453,46.581659045050344],[19.996067608984333,46.662669490935],[19.96932345682569,46.702116851231494],[20.04933027506621,46.768201485773886],[20.052475946421453,46.78647391583462],[20.018661069321638,46.77319605556045],[19.994730402005246,46.7942928182448],[20.10282692144,46.815470537959186],[20.08109729724947,46.84806174740578],[20.142525272272394,46.903764054938165],[20.088334933662168,46.92449909799171],[20.074690258064606,46.981517327343056],[20.00487297265437,46.98431067159231],[19.95922961978073,46.941530945870966],[19.863682867597333,46.964586407329705],[19.81347518015491,46.91638710040803],[19.759007445378245,46.91597140047452],[19.648246242536402,46.96375575297088],[19.5995599993513,47.06645134814619],[19.551421476961366,47.09240306770437],[19.480339561803362,47.088690533719614],[19.458331858726922,47.03008961460682],[19.412422253287673,47.03742615849052],[19.322656992696068,46.98846222140628],[19.287055176951526,47.0305822057461],[19.327075268386068,47.09081201357344],[19.263783152604844,47.11692580752009],[19.064011326112222,47.01875876607096],[18.972116042302332,47.04178094354609],[18.966261660090254,47.005190416175196]]]},"properties":{"shapeName":"Bács-Kiskun","shapeISO":"HU-BK","shapeID":"22733592B34864686161966","shapeGroup":"HUN","shapeType":"ADM1"}},
{"type":"Feature","geometry":{"type":"Polygon","coordinates":[[[18.69081407152362,47.5746641677552],[18.505081131978045,47.55293066553611],[18.53844713620174,47.48110803269378],[18.486071389075732,47.467224915754855],[18.434893779841218,47.483652873191375],[18.320279041585763,47.401092440672244],[18.211868946336438,47.47474539241745],[18.190837345461205,47.447775154931946],[18.132802535438657,47.45175393606536],[18.08280768583637,47.343620904561135],[18.041556493780888,47.32585962861265],[18.12510930046335,47.23540333954679],[18.168342684533798,47.249021224027274],[18.241175782693233,47.195111765883155],[18.247603887914522,47.06831671289598],[18.219913587877784,47.04364717145535],[18.27194700950696,46.98576375070354],[18.197987940205962,46.93073153668166],[18.230263645670277,46.75641080640236],[18.26684656127503,46.748268648610804],[18.316677495287422,46.7736128617928],[18.424237577665394,46.73868999197424],[18.442767258184972,46.7597783824998],[18.43896364484658,46.726219577443885],[18.481278836610613,46.69850968461952],[18.53262760904272,46.70079221334538],[18.5850969246888,46.74496243212889],[18.68182431827711,46.64738186241635],[18.74968076952547,46.68517778979867],[18.74303509773216,46.71839965676793],[18.81158532775595,46.73028110818177],[18.889653718457964,46.81881717390286],[18.93159088621013,46.821321882490054],[18.97089888617785,46.89123145063019],[18.966261660090254,47.005190416175196],[18.87685456181572,47.12204743789732],[18.911489498362016,47.258934956495295],[18.75150650371222,47.4009596917798],[18.78071824980293,47.437196563676196],[18.69240140492758,47.52511536258805],[18.69081407152362,47.5746641677552]]]},"properties":{"shapeName":"Fejér","shapeISO":"HU-FE","shapeID":"22733592B12094485051524","shapeGroup":"HUN","shapeType":"ADM1"}}
]}