{"type":"FeatureCollection", "features": [
{"type":"Feature","geometry":{"type":"Polygon","coordinates":[[[34.90097479537303,31.437817383188417],[34.86906527903875,31.439138614520743],[34.87403303352687,31.414213147248176],[34.86330268350906,31.413958771387],[34.84571683321417,31.421844096207337],[34.828031627452276,31.441935957445367],[34.78342119342477,31.45846400700333],[34.764444371980915,31.482699869996054],[34.74119528162345,31.4825304103432],[34.73096170804274,31.47532808641307],[34.73453849048366,31.45193789527781],[34.722615880251226,31.4607522765981],[34.705526805494856,31.45617568149555],[34.68247642517326,31.460837025795968],[34.68456288189657,31.497780560477906],[34.6729383371669,31.501762134597357],[34.64740407915207,31.483462435018737],[34.62296272768151,31.49362937726545],[34.615411740931506,31.466515077202814],[34.60567494288955,31.468464179339037],[34.60378719620206,31.46041327674095],[34.57129808244275,31.464904918543994],[34.56603226245187,31.478293816208122],[34.54715479647513,31.48303878838101],[34.5298670107847,31.472108044575407],[34.53095991732897,31.46092177568329],[34.52022956731139,31.454226323556497],[34.48903207013234,31.453717789026086],[34.475718488751,31.45770123830198],[34.47098995059599,31.46791643490718],[34.40185419094996,31.411573966051947],[34.36713132668183,31.37002962945121],[34.364206312914234,31.345106171636814],[34.372027545379865,31.308713668210373],[34.366050343332915,31.291544561105468],[34.26747022579701,31.21907457320981],[34.397090192139046,30.867959996116724],[34.49260885342892,30.68440395842015],[34.51814311084354,30.590283761600176],[34.51518108730596,30.53348210203103],[34.55579471469497,30.493907811595648],[34.54047018604285,30.44556921168811],[34.54091529683359,30.415907476974155],[34.565142041300305,30.39287366443699],[34.6081906134894,30.369614971892986],[34.618491748932,30.353484233120525],[34.848868376762084,29.76096679383039],[34.85668960922766,29.688573029009376],[34.878309276205925,29.64348693912524],[34.876973943833775,29.613086633774515],[34.866418459367935,29.59688781757785],[34.880598417415285,29.538871412685353],[34.90603331974273,29.490784930750863],[34.95461398318804,29.549050198756788],[34.97795050607334,29.542411976260837],[34.980303234538724,29.584391390125518],[35.019261874433425,29.654738252500124],[35.01148896828221,29.7048034914838],[35.02773932737915,29.76742502542328],[35.044144839380294,29.79054980676591],[35.06684548970742,29.860664126815152],[35.083441763476,29.88327115222205],[35.083950461522534,29.919321507014956],[35.077019450638375,29.926045052920074],[35.08458633408088,29.941749927322633],[35.077019450638375,29.95370601142031],[35.090627123383626,29.965330134045132],[35.09946575194226,29.991162769076368],[35.115934851199256,29.997826388338126],[35.10137336961674,30.01396040639213],[35.11447234431546,30.042587696962528],[35.1296061112003,30.06014534625291],[35.14658390850377,30.06317221253107],[35.16146332636532,30.122315099363618],[35.15192523799254,30.142278146365072],[35.15402361743446,30.155144747001884],[35.144167592782594,30.166250462706103],[35.1511343714983,30.20516213340079],[35.14602942763298,30.282831019094544],[35.15538947168943,30.30531980817085],[35.19071346404172,30.346629509892068],[35.16502421269104,30.40148455887487],[35.16000081948141,30.436688085714593],[35.192811843483696,30.49708569946739],[35.206673865252185,30.585531727510215],[35.22625874004416,30.623514116007016],[35.259896398372064,30.653987763124007],[35.27719213195462,30.701621198951386],[35.29251666060691,30.7084006270062],[35.29385199297923,30.71818621917356],[35.28596717325763,30.72113810230684],[35.29525091260717,30.75879400997104],[35.311847186375815,30.767591019040367],[35.31617111977147,30.790481329064505],[35.33626469260997,30.799603156261014],[35.340461451494036,30.815714448407675],[35.32946085623746,30.839794425928062],[35.33124129940029,30.865724152145106],[35.35044465065755,30.902286792322457],[35.36812190777505,30.923399450025443],[35.39304811205591,30.92770869645392],[35.414985715313264,30.94985188670796],[35.422425424243954,31.03820987138613],[35.451802736432,31.090226975819007],[35.45797070024639,31.137589512157945],[35.44850414753648,31.16927042124354],[35.40474816712651,31.22599068701146],[35.398961726847006,31.252522116570958],[35.418991712429715,31.303769720736568],[35.44894130992026,31.34320541902946],[35.466427805270314,31.38219031207177],[35.47505407785434,31.42308340412353],[35.47562808634649,31.491087745067944],[35.46499709201436,31.496255657204188],[35.40309887267864,31.494646010275574],[35.22753843356759,31.379102787839543],[35.150836306236556,31.35984588294241],[35.015403399750426,31.358681858985335],[34.925872543557944,31.341467554465908],[34.891535425416066,31.369160949037052],[34.88161581350835,31.38924712922585],[34.90097479537303,31.437817383188417]]]},"properties":{"shapeName":"Be'er Sheva","shapeISO":"","shapeID":"584046B9730835639199","shapeGroup":"ISR","shapeType":"ADM2"}},
{"type":"Feature","geometry":{"type":"Polygon","coordinates":[[[34.962584925759074,31.602270850906905],[34.993529383748694,31.642343392889927],[35.0817249075688,31.686939386208167],[35.10518860496592,31.712366830443898],[35.11828757966447,31.71296185736918],[35.133421346549255,31.73248744002109],[35.13971648487524,31.727403612372825],[35.151289365434195,31.737138357151252],[35.18193842273854,31.719669169475992],[35.207182563298545,31.72334716686356],[35.238594667672885,31.709067066377997],[35.26250347586051,31.74524986310388],[35.25073983353417,31.76774205537913],[35.262185539581424,31.78920186248024],[35.256144750278736,31.807036198900903],[35.2647926170701,31.824380841670916],[35.24806916878987,31.844369067045875],[35.23140930776543,31.842910613257004],[35.21786522227603,31.882496747018195],[35.20648310348457,31.877421167206478],[35.20508418385657,31.867053156582074],[35.21487662125247,31.850202651618076],[35.215894017345704,31.81611417524772],[35.189632480692694,31.82789260012845],[35.18390962766904,31.806928122380157],[35.14111540450324,31.812872143259597],[35.10805003147766,31.826379859017948],[35.07689227612656,31.856197895729338],[35.052220420869105,31.85279523744265],[35.02356243951243,31.82910817769948],[34.97984620113738,31.830880866295445],[34.979647490962805,31.838477717499018],[34.998257566096186,31.852532424373578],[34.98758347837634,31.856871112341423],[34.95110153284236,31.851201042132175],[34.91508531347739,31.835507634009105],[34.9129119204959,31.814534965389896],[34.87521489901411,31.809088381970582],[34.84289763239167,31.803717010102787],[34.825555899968094,31.791430638072256],[34.83847491273593,31.77908300757764],[34.84235881569782,31.755285314162847],[34.87423360487179,31.74936340624697],[34.873563966523136,31.740593731054332],[34.862046184768474,31.732962299658766],[34.869546135532175,31.724077153804103],[34.87182290663662,31.65672742130306],[34.931688582023014,31.6149939536985],[34.95043845758505,31.61248478846312],[34.962584925759074,31.602270850906905]]]},"properties":{"shapeName":"Jerusalem","shapeISO":"","shapeID":"584046B86518607604876","shapeGroup":"ISR","shapeType":"ADM2"}},
{"type":"Feature","geometry":{"type":"Polygon","coordinates":[[[34.90097479537303,31.437817383188417],[34.92383775137165,31.460220046772577],[34.945866761309446,31.500406724046798],[34.94000481116353,31.53318520385477],[34.94564818011759,31.578117907325066],[34.962584925759074,31.602270850906905],[34.95043845758505,31.61248478846312],[34.931688582023014,31.6149939536985],[34.87182290663662,31.65672742130306],[34.869546135532175,31.724077153804103],[34.862046184768474,31.732962299658766],[34.873563966523136,31.740593731054332],[34.87423360487179,31.74936340624697],[34.84235881569782,31.755285314162847],[34.83847491273593,31.77908300757764],[34.825555899968094,31.791430638072256],[34.798125746853316,31.758848560582862],[34.783520548891886,31.7645929367269],[34.77596956214171,31.790353767171723],[34.76623276320146,31.794069491895698],[34.76325211086794,31.78587781054415],[34.75768822627242,31.787820233416994],[34.7615630742161,31.80462471166237],[34.742188832700776,31.81340573568849],[34.726788793697835,31.80403365124772],[34.71168682109612,31.804286962771812],[34.72917331592407,31.7840198022231],[34.709078749518255,31.770991583566627],[34.68687909712685,31.782209264342725],[34.67570165020237,31.778778118246237],[34.69029442895504,31.801737978361245],[34.68299803912953,31.80912614572344],[34.67073389571425,31.80200185170912],[34.66995768393514,31.822713554072777],[34.692467821038235,31.83023193988788],[34.711562627211435,31.850805442721878],[34.69914324054213,31.860167505397158],[34.67803028464141,31.854233913804876],[34.664443848076985,31.860718250880325],[34.63577526494379,31.83017423502281],[34.599390345308905,31.74233908391551],[34.51377148700618,31.633820227142678],[34.492360465711045,31.594894176650428],[34.5659453271806,31.542912778041796],[34.56470338859043,31.53312169079112],[34.54529809811851,31.511815913609496],[34.5114552715354,31.500433197096186],[34.47098995059599,31.46791643490718],[34.475718488751,31.45770123830198],[34.48903207013234,31.453717789026086],[34.52022956731139,31.454226323556497],[34.53095991732897,31.46092177568329],[34.5298670107847,31.472108044575407],[34.54715479647513,31.48303878838101],[34.56603226245187,31.478293816208122],[34.57129808244275,31.464904918543994],[34.60378719620206,31.46041327674095],[34.60567494288955,31.468464179339037],[34.615411740931506,31.466515077202814],[34.62296272768151,31.49362937726545],[34.64740407915207,31.483462435018737],[34.6729383371669,31.501762134597357],[34.68456288189657,31.497780560477906],[34.68247642517326,31.460837025795968],[34.705526805494856,31.45617568149555],[34.722615880251226,31.4607522765981],[34.73453849048366,31.45193789527781],[34.73096170804274,31.47532808641307],[34.74119528162345,31.4825304103432],[34.764444371980915,31.482699869996054],[34.78342119342477,31.45846400700333],[34.828031627452276,31.441935957445367],[34.84571683321417,31.421844096207337],[34.86330268350906,31.413958771387],[34.87403303352687,31.414213147248176],[34.86906527903875,31.439138614520743],[34.90097479537303,31.437817383188417]]]},"properties":{"shapeName":"Ashqelon","shapeISO":"","shapeID":"584046B11408100439208","shapeGroup":"ISR","shapeType":"ADM2"}},
{"type":"Feature","geometry":{"type":"Polygon","coordinates":[[[34.733506466419044,32.00234474295581],[34.796855545211145,31.98992867707426],[34.814925351496186,32.01059020376539],[34.833026733844065,32.02648814863494],[34.85959798725992,32.017258802987044],[34.8689214012698,32.019856738857925],[34.87528359799677,32.027360163992796],[34.86859792781718,32.03281007645563],[34.86662651204415,32.06935243813183],[34.848798058232035,32.06710074663653],[34.85334088533625,32.0730294769711],[34.84490344106371,32.07779578857833],[34.85119804226082,32.110585812240686],[34.868474713994544,32.12090826184726],[34.85722478829797,32.14608560434948],[34.86485866619256,32.16740152149873],[34.843078069353226,32.18608750608928],[34.810435817332916,32.20107321117928],[34.7660332772366,32.07899765170151],[34.743474627062994,32.04425642927623],[34.733506466419044,32.00234474295581]]]},"properties":{"shapeName":"Tel Aviv","shapeISO":"","shapeID":"584046B34315111222202","shapeGroup":"ISR","shapeType":"ADM2"}},
{"type":"Feature","geometry":{"type":"Polygon","coordinates":[[[35.62786358209485,32.945580378301884],[35.62390721733016,32.95613935050676],[35.63350715344535,32.96886850218755],[35.62879289903873,33.0163888325402],[35.64396422697047,33.04771955000757],[35.654383586525,33.125452033817794],[35.66842692241204,33.1474091999504],[35.663935523858015,33.210014920130504],[35.6698497702788,33.229949134749916],[35.684592529954614,33.23977115936043],[35.6827068278327,33.247656658614176],[35.65407844589083,33.250237212245054],[35.62257426033915,33.24252427446845],[35.586210298417825,33.265289720112605],[35.58611094333065,33.27808229360522],[35.56812767254456,33.290291637996006],[35.556801192601995,33.25914197272516],[35.54567342283377,33.252412185678054],[35.54557406774643,33.23504527937621],[35.536035979373764,33.22939405879049],[35.54279212530429,33.196892454609326],[35.526994666437076,33.14416599813978],[35.532260486059556,33.13201945157891],[35.52083465102959,33.11745801992663],[35.50454041672606,33.114711879362744],[35.49987072762701,33.091324598715175],[35.45963191730431,33.09307261778122],[35.44145240992788,33.08443621045717],[35.4826818659746,33.074856164743835],[35.40887292522706,33.01188772060317],[35.435926317930694,32.949535830823834],[35.419854995763785,32.9480748084477],[35.415167526424,32.94121891909708],[35.39106054317364,32.94627659379762],[35.41248897302904,32.930203427252536],[35.40123904733247,32.91581377960949],[35.377051707085,32.90491656161271],[35.38253532810802,32.89330478032264],[35.39052247477633,32.90138742793499],[35.42239426447571,32.90120319537584],[35.43430847096852,32.884836623830836],[35.432597625018445,32.87660469289892],[35.41652458886597,32.87609791052182],[35.42403996819479,32.859787181316676],[35.43446275572029,32.86739001348775],[35.44757352625652,32.858727340601035],[35.45832545560393,32.86425680386537],[35.46737682381297,32.85794397281916],[35.49085552535365,32.86402641679098],[35.49853547514408,32.8594646225377],[35.499029185631116,32.86531657851009],[35.480432737827925,32.8724582054154],[35.47028423290794,32.89438631749994],[35.478073895740806,32.89153044216033],[35.48465670971859,32.89733422084237],[35.5266221460202,32.880889192979],[35.538745494684406,32.89226745057499],[35.564747608773985,32.90115713736475],[35.57473154233372,32.89788694151423],[35.587348601484734,32.91741420390622],[35.61285700418915,32.92805106424237],[35.61329585905327,32.93859456882166],[35.62786358209485,32.945580378301884]]]},"properties":{"shapeName":"Zefat","shapeISO":"","shapeID":"584046B13386645158990","shapeGroup":"ISR","shapeType":"ADM2"}},
{"type":"Feature","geometry":{"type":"Polygon","coordinates":[[[34.87521489901411,31.809088381970582],[34.86887649718352,31.824497965542037],[34.854010523684906,31.82688760812505],[34.85722478829797,31.851690719430678],[34.83887669592485,31.870914230188816],[34.83526064812304,31.88615369122647],[34.85119804226082,31.907643868877415],[34.81851968760725,31.922536233125868],[34.82026074749376,31.937653494928043],[34.83218031153888,31.947199958584974],[34.84249274282854,31.97208428875706],[34.814925351496186,32.01059020376539],[34.796855545211145,31.98992867707426],[34.733506466419044,32.00234474295581],[34.664443848076985,31.860718250880325],[34.67803028464141,31.854233913804876],[34.69914324054213,31.860167505397158],[34.711562627211435,31.850805442721878],[34.692467821038235,31.83023193988788],[34.66995768393514,31.822713554072777],[34.67073389571425,31.80200185170912],[34.68299803912953,31.80912614572344],[34.69029442895504,31.801737978361245],[34.67570165020237,31.778778118246237],[34.68687909712685,31.782209264342725],[34.709078749518255,31.770991583566627],[34.72917331592407,31.7840198022231],[34.71168682109612,31.804286962771812],[34.726788793697835,31.80403365124772],[34.742188832700776,31.81340573568849],[34.7615630742161,31.80462471166237],[34.75768822627242,31.787820233416994],[34.76325211086794,31.78587781054415],[34.76623276320146,31.794069491895698],[34.77596956214171,31.790353767171723],[34.783520548891886,31.7645929367269],[34.798125746853316,31.758848560582862],[34.825555899968094,31.791430638072256],[34.84289763239167,31.803717010102787],[34.87521489901411,31.809088381970582]]]},"properties":{"shapeName":"Rehovot","shapeISO":"","shapeID":"584046B25822139954764","shapeGroup":"ISR","shapeType":"ADM2"}},
{"type":"Feature","geometry":{"type":"Polygon","coordinates":[[[34.998257566096186,31.852532424373578],[35.03131213631531,31.856370050698388],[35.040011667752026,31.885250402019153],[35.037531764775,31.915805045617503],[35.02621323323933,31.92600566212542],[35.006310422168326,31.92881198249387],[35.00618324765668,31.947158889264017],[34.98818805425992,31.966203419838962],[35.00502907268276,32.02189938631852],[34.9616830257292,32.02140122235846],[34.94488313752737,31.999742292666213],[34.937597470891546,32.01093580115008],[34.92594040535204,32.00570264274086],[34.8689214012698,32.019856738857925],[34.85959798725992,32.017258802987044],[34.833026733844065,32.02648814863494],[34.814925351496186,32.01059020376539],[34.84249274282854,31.97208428875706],[34.83218031153888,31.947199958584974],[34.82026074749376,31.937653494928043],[34.81851968760725,31.922536233125868],[34.85119804226082,31.907643868877415],[34.83526064812304,31.88615369122647],[34.83887669592485,31.870914230188816],[34.85722478829797,31.851690719430678],[34.854010523684906,31.82688760812505],[34.86887649718352,31.824497965542037],[34.87521489901411,31.809088381970582],[34.9129119204959,31.814534965389896],[34.91508531347739,31.835507634009105],[34.95110153284236,31.851201042132175],[34.98758347837634,31.856871112341423],[34.998257566096186,31.852532424373578]]]},"properties":{"shapeName":"Ramla","shapeISO":"","shapeID":"584046B58948260517771","shapeGroup":"ISR","shapeType":"ADM2"}},
{"type":"Feature","geometry":{"type":"Polygon","coordinates":[[[34.8689214012698,32.019856738857925],[34.92594040535204,32.00570264274086],[34.937597470891546,32.01093580115008],[34.94488313752737,31.999742292666213],[34.9616830257292,32.02140122235846],[35.00502907268276,32.02189938631852],[34.98386412086444,32.09390992571497],[34.99285027185664,32.10913871175501],[34.98458901558075,32.12688949492497],[34.98829233735961,32.14928846698609],[34.97673471774198,32.1521827019526],[34.958706458972415,32.186803028038696],[34.959479680003085,32.19579182581418],[34.98947251682756,32.20853304452231],[35.01909146058773,32.23526228001896],[35.024114853797414,32.25170597871994],[34.9849971577064,32.24510338753487],[34.980025762346486,32.22197473492395],[34.96039732006358,32.21421552998993],[34.95448307364279,32.224150093899254],[34.93811175369666,32.22966077101756],[34.913511916053835,32.216826177762016],[34.88505496141437,32.2280656099299],[34.88891207930931,32.20986428457172],[34.87648359001116,32.201161168437636],[34.871340766450544,32.20776110717969],[34.84914091373497,32.20667323814075],[34.843078069353226,32.18608750608928],[34.86485866619256,32.16740152149873],[34.85722478829797,32.14608560434948],[34.868474713994544,32.12090826184726],[34.85119804226082,32.110585812240686],[34.84490344106371,32.07779578857833],[34.85334088533625,32.0730294769711],[34.848798058232035,32.06710074663653],[34.86662651204415,32.06935243813183],[34.86859792781718,32.03281007645563],[34.87528359799677,32.027360163992796],[34.8689214012698,32.019856738857925]]]},"properties":{"shapeName":"Petah Tiqwa","shapeISO":"","shapeID":"584046B54386898087809","shapeGroup":"ISR","shapeType":"ADM2"}},
{"type":"Feature","geometry":{"type":"Polygon","coordinates":[[[34.843078069353226,32.18608750608928],[34.84914091373497,32.20667323814075],[34.871340766450544,32.20776110717969],[34.87648359001116,32.201161168437636],[34.88891207930931,32.20986428457172],[34.88505496141437,32.2280656099299],[34.913511916053835,32.216826177762016],[34.93811175369666,32.22966077101756],[34.95448307364279,32.224150093899254],[34.96039732006358,32.21421552998993],[34.980025762346486,32.22197473492395],[34.9849971577064,32.24510338753487],[35.024114853797414,32.25170597871994],[35.031236626449015,32.26758205738656],[35.011397402633804,32.28548473408057],[35.01673873212235,32.33735994529292],[35.04172598016885,32.34784659691053],[35.05242898706831,32.36874750853616],[35.04365373461917,32.378716644343854],[35.027699732665496,32.37342909431902],[35.00504388253512,32.3819535479459],[34.981729750557804,32.404789559772325],[34.92692782722412,32.4125237755095],[34.90953822827612,32.404604301082145],[34.873073846732495,32.41172853111527],[34.810435817332916,32.20107321117928],[34.843078069353226,32.18608750608928]]]},"properties":{"shapeName":"HaSharon","shapeISO":"","shapeID":"584046B61571705909900","shapeGroup":"ISR","shapeType":"ADM2"}},
{"type":"Feature","geometry":{"type":"Polygon","coordinates":[[[35.0494086933316,32.64616931962655],[35.07405371131938,32.63779376213898],[35.07807154231028,32.65177739835315],[35.062225218477636,32.661997602605254],[35.08168223256001,32.6544205112271],[35.10216781135438,32.65947197659011],[35.11449987279485,32.70554890280806],[35.134455097923706,32.70487273252138],[35.134053314734786,32.71693032946854],[35.148881788061885,32.73001830205726],[35.13233903991528,32.73657959275204],[35.143824678152384,32.74004029823567],[35.14502467016678,32.75034952158302],[35.1542817516775,32.75561181230597],[35.15976742984259,32.77658579720668],[35.15033892102957,32.78696284776578],[35.159302909005476,32.79544399924981],[35.14871036075948,32.822480668180674],[35.114682014303696,32.830331577172785],[35.10191067040091,32.873247205385496],[35.07862184616647,32.88787803098012],[35.06473891347093,32.84999458627635],[35.03912393004805,32.820776127438194],[35.02727700021484,32.815900013375426],[35.02266824372782,32.82792673372802],[35.0032629532559,32.82711141431213],[34.971001657846216,32.837302369009706],[34.95256663189792,32.828742045659226],[34.9554474909454,32.77563046172361],[34.96674013563853,32.76808147794878],[34.962540163138954,32.756693066237005],[34.974025801376115,32.747177580208756],[34.97385437407388,32.728648301642465],[35.00582559110535,32.750998314150934],[35.013711253299334,32.73376767016748],[35.02553974614125,32.73355136493012],[35.00351132072774,32.72266331413368],[35.002301043003456,32.70962474745119],[35.0163992354116,32.70519350824253],[35.01458896212921,32.68308018407146],[35.03708024179781,32.669735675589266],[35.0494086933316,32.64616931962655]]]},"properties":{"shapeName":"Haifa","shapeISO":"","shapeID":"584046B37321511847561","shapeGroup":"ISR","shapeType":"ADM2"}},
{"type":"Feature","geometry":{"type":"Polygon","coordinates":[[[35.04365373461917,32.378716644343854],[35.07460822189762,32.46133397774861],[35.09243300144868,32.476544105910364],[35.112007702279755,32.476544105910364],[35.16006949371763,32.5040394164248],[35.20659266637506,32.54288709920263],[35.176106608067755,32.564343815058976],[35.15909779149388,32.565021047460846],[35.143562180544905,32.556781032864706],[35.14222290294907,32.54391155161693],[35.10137495918292,32.54210516085192],[35.08932146710845,32.532621013515154],[35.08208937240295,32.545830801510704],[35.045393186758474,32.55599085495794],[35.03642003216629,32.56231208566538],[35.047402101804664,32.57089018608485],[35.03119685160874,32.60079424938334],[35.057982389152414,32.620423944264815],[35.047268174673945,32.62877090042184],[35.0494086933316,32.64616931962655],[35.03708024179781,32.669735675589266],[35.01458896212921,32.68308018407146],[35.0163992354116,32.70519350824253],[35.002301043003456,32.70962474745119],[35.00351132072774,32.72266331413368],[35.02553974614125,32.73355136493012],[35.013711253299334,32.73376767016748],[35.00582559110535,32.750998314150934],[34.97385437407388,32.728648301642465],[34.974025801376115,32.747177580208756],[34.962540163138954,32.756693066237005],[34.96674013563853,32.76808147794878],[34.9554474909454,32.77563046172361],[34.9462599124945,32.71554602839353],[34.927824886546205,32.697176356756415],[34.91812224131036,32.59995834439758],[34.889499437864174,32.48237979445844],[34.88634607816249,32.47665030051405],[34.86863875060675,32.4752178700424],[34.86669822155966,32.46703211582184],[34.88052449102088,32.45700355275278],[34.873073846732495,32.41172853111527],[34.90953822827612,32.404604301082145],[34.92692782722412,32.4125237755095],[34.981729750557804,32.404789559772325],[35.00504388253512,32.3819535479459],[35.027699732665496,32.37342909431902],[35.04365373461917,32.378716644343854]]]},"properties":{"shapeName":"Hadera","shapeISO":"","shapeID":"584046B72217003232480","shapeGroup":"ISR","shapeType":"ADM2"}},
{"type":"Feature","geometry":{"type":"Polygon","coordinates":[[[35.44145240992788,33.08443621045717],[35.43211055814544,33.067764571191105],[35.38362527558394,33.06210256426465],[35.37488202790894,33.05394197237729],[35.35302390872141,33.057772548489595],[35.338617421075014,33.06818088085288],[35.3238135130797,33.08250073394299],[35.31685865697466,33.10356000228194],[35.303445720200386,33.100813427286994],[35.293808276740435,33.10680584388086],[35.23797071772498,33.09174079688324],[35.21223775013601,33.099564955732205],[35.19952029897223,33.08674628883534],[35.178854440831174,33.0933223319534],[35.16027503952182,33.08741223963318],[35.10523232120403,33.09215699308106],[35.10215231350071,33.05347354810158],[35.06706754832743,32.91921955554437],[35.08026314584845,32.91987113437381],[35.07862184616647,32.88787803098012],[35.10191067040091,32.873247205385496],[35.114682014303696,32.830331577172785],[35.14871036075948,32.822480668180674],[35.159302909005476,32.79544399924981],[35.17364071015504,32.79230817134953],[35.196367187629505,32.771757173353365],[35.212395653869294,32.793231729968625],[35.21496706520031,32.77305444106122],[35.22182416268231,32.77146888848523],[35.2381097689771,32.793231729968625],[35.27599523242952,32.79849148492855],[35.31182356735616,32.789268695211945],[35.3511500929161,32.79903635612811],[35.35798040443285,32.823349524635034],[35.37498922100673,32.81198169562214],[35.39446824303849,32.810198956824536],[35.40345153230032,32.81081106368197],[35.40396581510544,32.81967145970066],[35.385965933990974,32.84063033965879],[35.394794447246,32.8607202909638],[35.38253532810802,32.89330478032264],[35.377051707085,32.90491656161271],[35.40123904733247,32.91581377960949],[35.41248897302904,32.930203427252536],[35.39106054317364,32.94627659379762],[35.415167526424,32.94121891909708],[35.419854995763785,32.9480748084477],[35.435926317930694,32.949535830823834],[35.40887292522706,33.01188772060317],[35.4826818659746,33.074856164743835],[35.44145240992788,33.08443621045717]]]},"properties":{"shapeName":"Akko","shapeISO":"","shapeID":"584046B83749751332199","shapeGroup":"ISR","shapeType":"ADM2"}},
{"type":"Feature","geometry":{"type":"Polygon","coordinates":[[[35.0494086933316,32.64616931962655],[35.047268174673945,32.62877090042184],[35.057982389152414,32.620423944264815],[35.03119685160874,32.60079424938334],[35.047402101804664,32.57089018608485],[35.03642003216629,32.56231208566538],[35.045393186758474,32.55599085495794],[35.08208937240295,32.545830801510704],[35.08932146710845,32.532621013515154],[35.10137495918292,32.54210516085192],[35.14222290294907,32.54391155161693],[35.143562180544905,32.556781032864706],[35.15909779149388,32.565021047460846],[35.176106608067755,32.564343815058976],[35.20659266637506,32.54288709920263],[35.22676743809052,32.55161715545137],[35.25436430711585,32.522615875139365],[35.28736609288541,32.51167765616259],[35.319604831585366,32.51194576567849],[35.34376798879646,32.52014953024309],[35.370609759158754,32.51602093186716],[35.40180725654477,32.50135818358001],[35.419095041720254,32.46288853079864],[35.41194147544081,32.432201602323744],[35.42763957922091,32.41081519013801],[35.47721776774188,32.41257661565385],[35.504838481987974,32.39856813857898],[35.55457500277589,32.38919684787322],[35.551932793328376,32.40083312950537],[35.56007991048017,32.41056355511478],[35.55352247472399,32.42104775327044],[35.572996071818295,32.45517585988301],[35.56301684685815,32.46512172872889],[35.56765871653312,32.48019604249197],[35.57974029513855,32.48743725288858],[35.55347875848554,32.51516301749672],[35.56638697141659,32.52331287338518],[35.561808688997644,32.54196897059626],[35.570583730300655,32.541272117098856],[35.57776511600457,32.55706390182422],[35.57249929638209,32.56401422044212],[35.577467050742996,32.5941539478859],[35.56802831745739,32.59951106087698],[35.572201231120516,32.61415778128503],[35.561172816439466,32.62654285243167],[35.568916509446126,32.6456568798522],[35.57320219559682,32.65910665686948],[35.55695794594118,32.67573864209146],[35.559920211557426,32.683541896182135],[35.53325981651915,32.679294055934065],[35.53116497312442,32.665749829128515],[35.53913634896952,32.65564732175352],[35.555421956162604,32.65239984515938],[35.55653623452588,32.64482194031109],[35.54170776119895,32.60887227726374],[35.534593521865304,32.6074282137285],[35.48162244413243,32.62518857275336],[35.46790824916877,32.6348614320724],[35.46627968800021,32.6544205112271],[35.44047985924129,32.654997836325265],[35.41399431947656,32.67145002557709],[35.401822972030004,32.66748157296735],[35.39933727435016,32.673903162311376],[35.4129657556627,32.68090144862077],[35.41339432391845,32.68912553676245],[35.37842312640157,32.70867274216539],[35.386051647642034,32.727927239978044],[35.41365146487192,32.72720617248166],[35.411765763648305,32.73607489488239],[35.3823659579478,32.742491550634384],[35.388623058973224,32.758639290381154],[35.38262309890132,32.77341478963672],[35.39788014048395,32.77946843282683],[35.39446824303849,32.810198956824536],[35.37498922100673,32.81198169562214],[35.35798040443285,32.823349524635034],[35.3511500929161,32.79903635612811],[35.31182356735616,32.789268695211945],[35.27599523242952,32.79849148492855],[35.2381097689771,32.793231729968625],[35.22182416268231,32.77146888848523],[35.21496706520031,32.77305444106122],[35.212395653869294,32.793231729968625],[35.196367187629505,32.771757173353365],[35.17364071015504,32.79230817134953],[35.159302909005476,32.79544399924981],[35.15033892102957,32.78696284776578],[35.15976742984259,32.77658579720668],[35.1542817516775,32.75561181230597],[35.14502467016678,32.75034952158302],[35.143824678152384,32.74004029823567],[35.13233903991528,32.73657959275204],[35.148881788061885,32.73001830205726],[35.134053314734786,32.71693032946854],[35.134455097923706,32.70487273252138],[35.11449987279485,32.70554890280806],[35.10216781135438,32.65947197659011],[35.08168223256001,32.6544205112271],[35.062225218477636,32.661997602605254],[35.07807154231028,32.65177739835315],[35.07405371131938,32.63779376213898],[35.0494086933316,32.64616931962655]]]},"properties":{"shapeName":"Yizre'el","shapeISO":"","shapeID":"584046B83064859640631","shapeGroup":"ISR","shapeType":"ADM2"}},
{"type":"Feature","geometry":{"type":"Polygon","coordinates":[[[35.62786358209485,32.945580378301884],[35.62613577405665,32.9110332004073],[35.613707284758505,32.89707225253875],[35.64199281209574,32.869071763617],[35.649107050530915,32.83991018585573],[35.64293566225831,32.83544509810372],[35.64259280765367,32.81246795296022],[35.6525355992718,32.80901006216857],[35.66324981375044,32.77644166233216],[35.64833562677228,32.71256724556548],[35.633539810626644,32.685600946188174],[35.645723995660546,32.67865851426251],[35.656255634905506,32.68543215490877],[35.666290498714375,32.682087211390865],[35.67831246426738,32.70650241771153],[35.711198998135956,32.719627010967486],[35.71616675249692,32.715614601414416],[35.724313869648654,32.72698262629194],[35.747264894795535,32.73417048225605],[35.835988987679684,32.82797728328512],[35.85307806268082,32.896327850684145],[35.89510526457332,32.943032947528025],[35.86976971733304,32.990713412071045],[35.851885801634126,33.096318846695],[35.81641603549804,33.11387969860556],[35.82237734073095,33.136928189923424],[35.84403674974408,33.16803821257935],[35.83841325180765,33.19077980746124],[35.81660282306194,33.20525258792384],[35.81641603549804,33.24667899527901],[35.77816432691981,33.27658715447234],[35.810454730264894,33.318773464904666],[35.77468689886723,33.33396550253616],[35.74428424217905,33.32433588438738],[35.71984289072378,33.32840369774857],[35.70712543956017,33.30465827019526],[35.66092532400455,33.27559038082455],[35.642942053218405,33.2803249542917],[35.62396523156002,33.27409519901488],[35.62257426033915,33.24252427446845],[35.65407844589083,33.250237212245054],[35.6827068278327,33.247656658614176],[35.684592529954614,33.23977115936043],[35.6698497702788,33.229949134749916],[35.663935523858015,33.210014920130504],[35.66842692241204,33.1474091999504],[35.654383586525,33.125452033817794],[35.64396422697047,33.04771955000757],[35.62879289903873,33.0163888325402],[35.63350715344535,32.96886850218755],[35.62390721733016,32.95613935050676],[35.62786358209485,32.945580378301884]]]},"properties":{"shapeName":"Golan","shapeISO":"","shapeID":"584046B72335129252345","shapeGroup":"ISR","shapeType":"ADM2"}},
{"type":"Feature","geometry":{"type":"Polygon","coordinates":[[[35.38253532810802,32.89330478032264],[35.394794447246,32.8607202909638],[35.385965933990974,32.84063033965879],[35.40396581510544,32.81967145970066],[35.40345153230032,32.81081106368197],[35.39446824303849,32.810198956824536],[35.39788014048395,32.77946843282683],[35.38262309890132,32.77341478963672],[35.388623058973224,32.758639290381154],[35.3823659579478,32.742491550634384],[35.411765763648305,32.73607489488239],[35.41365146487192,32.72720617248166],[35.386051647642034,32.727927239978044],[35.37842312640157,32.70867274216539],[35.41339432391845,32.68912553676245],[35.4129657556627,32.68090144862077],[35.39933727435016,32.673903162311376],[35.401822972030004,32.66748157296735],[35.41399431947656,32.67145002557709],[35.44047985924129,32.654997836325265],[35.46627968800021,32.6544205112271],[35.46790824916877,32.6348614320724],[35.48162244413243,32.62518857275336],[35.534593521865304,32.6074282137285],[35.54170776119895,32.60887227726374],[35.55653623452588,32.64482194031109],[35.555421956162604,32.65239984515938],[35.53913634896952,32.65564732175352],[35.53116497312442,32.665749829128515],[35.53325981651915,32.679294055934065],[35.559920211557426,32.683541896182135],[35.55695794594118,32.67573864209146],[35.57320219559682,32.65910665686948],[35.568916509446126,32.6456568798522],[35.588793530685564,32.64294206594553],[35.592668379087,32.652897264666024],[35.60677680147171,32.65197708270074],[35.599523880104925,32.66720069359002],[35.61452649827453,32.68100007777184],[35.62436265190905,32.677654968252284],[35.633539810626644,32.685600946188174],[35.64833562677228,32.71256724556548],[35.66324981375044,32.77644166233216],[35.6525355992718,32.80901006216857],[35.64259280765367,32.81246795296022],[35.64293566225831,32.83544509810372],[35.649107050530915,32.83991018585573],[35.64199281209574,32.869071763617],[35.613707284758505,32.89707225253875],[35.62613577405665,32.9110332004073],[35.62786358209485,32.945580378301884],[35.61329585905327,32.93859456882166],[35.61285700418915,32.92805106424237],[35.587348601484734,32.91741420390622],[35.57473154233372,32.89788694151423],[35.564747608773985,32.90115713736475],[35.538745494684406,32.89226745057499],[35.5266221460202,32.880889192979],[35.48465670971859,32.89733422084237],[35.478073895740806,32.89153044216033],[35.47028423290794,32.89438631749994],[35.480432737827925,32.8724582054154],[35.499029185631116,32.86531657851009],[35.49853547514408,32.8594646225377],[35.49085552535365,32.86402641679098],[35.46737682381297,32.85794397281916],[35.45832545560393,32.86425680386537],[35.44757352625652,32.858727340601035],[35.43446275572029,32.86739001348775],[35.42403996819479,32.859787181316676],[35.41652458886597,32.87609791052182],[35.432597625018445,32.87660469289892],[35.43430847096852,32.884836623830836],[35.42239426447571,32.90120319537584],[35.39052247477633,32.90138742793499],[35.38253532810802,32.89330478032264]]]},"properties":{"shapeName":"Kinneret","shapeISO":"","shapeID":"584046B15624900320210","shapeGroup":"ISR","shapeType":"ADM2"}}
]}