{"type":"FeatureCollection", "features": [
{"type":"Feature","geometry":{"type":"Polygon","coordinates":[[[-62.7595487,17.3343148],[-62.7612782,17.3463072],[-62.760531,17.3516027],[-62.7563654,17.353671],[-62.7555622,17.3561849],[-62.7531525,17.358057],[-62.7520877,17.3633879],[-62.7452135,17.3705014],[-62.7432521,17.3710541],[-62.7408485,17.3767054],[-62.7435116,17.3766865],[-62.7468229,17.3797983],[-62.7495491,17.3797873],[-62.7543828,17.3832471],[-62.7592554,17.3849445],[-62.7647551,17.3892116],[-62.7698928,17.3874124],[-62.7729003,17.3833657],[-62.7748991,17.3823496],[-62.7767671,17.3792833],[-62.7778879,17.3733824],[-62.7948275,17.3544376],[-62.7873929,17.3469847],[-62.7869632,17.3435434],[-62.7673119,17.33609],[-62.7595487,17.3343148]]]},"properties":{"shapeName":"Christ Church Nichola Town","shapeISO":"KN-01","shapeID":"52472329B57902249562742","shapeGroup":"KNA","shapeType":"ADM1"}},
{"type":"Feature","geometry":{"type":"Polygon","coordinates":[[[-62.861721,17.3902216],[-62.8636584,17.3868993],[-62.862737,17.3833753],[-62.864082,17.3701385],[-62.8532967,17.3632587],[-62.8524243,17.3606125],[-62.8508577,17.3595174],[-62.8474923,17.3544807],[-62.8467304,17.3522797],[-62.8472759,17.3486587],[-62.8430426,17.3461598],[-62.8417143,17.3494988],[-62.8364278,17.3522981],[-62.8274428,17.3621577],[-62.8245474,17.363067],[-62.8214278,17.3627282],[-62.8177852,17.3646894],[-62.8106681,17.3717316],[-62.830992,17.3775077],[-62.8328039,17.3774543],[-62.8348774,17.3798431],[-62.8384266,17.3809127],[-62.83951,17.382125],[-62.8466084,17.3830341],[-62.8462162,17.3888813],[-62.849728,17.3907174],[-62.8517148,17.3857335],[-62.861721,17.3902216]]]},"properties":{"shapeName":"Saint Anne Sandy Point","shapeISO":"KN-02","shapeID":"52472329B96254136738283","shapeGroup":"KNA","shapeType":"ADM1"}},
{"type":"Feature","geometry":{"type":"MultiPolygon","coordinates":[[[[-62.6109411,17.2267083],[-62.6102212,17.2264316],[-62.6099386,17.227141],[-62.6109411,17.2267083]]],[[[-62.7468564,17.2929694],[-62.7445956,17.2926635],[-62.7438656,17.2907461],[-62.7423872,17.2905755],[-62.7418547,17.289748],[-62.7365721,17.2908814],[-62.735031,17.2886433],[-62.7318713,17.2905636],[-62.7323339,17.2917313],[-62.7313853,17.2926077],[-62.7272826,17.2939369],[-62.7250806,17.2943193],[-62.7250807,17.2924732],[-62.7249454,17.2935064],[-62.7242178,17.293522],[-62.7242304,17.2919447],[-62.726067,17.2923387],[-62.7248955,17.2916928],[-62.7210612,17.291767],[-62.7204443,17.2945963],[-62.7143848,17.2944339],[-62.7107705,17.2931474],[-62.7116298,17.2937103],[-62.7107384,17.2938415],[-62.7089418,17.2926223],[-62.7094353,17.2899795],[-62.7085733,17.2884276],[-62.7103865,17.2859476],[-62.7078749,17.2880664],[-62.7049398,17.2850167],[-62.7051047,17.2844087],[-62.7011885,17.2825251],[-62.697696,17.2829536],[-62.6879617,17.2808985],[-62.6868073,17.2803643],[-62.6864378,17.2785783],[-62.6828407,17.2756258],[-62.6792125,17.2751856],[-62.6795082,17.2744354],[-62.6834071,17.2754903],[-62.6827839,17.2750088],[-62.679409,17.2740693],[-62.6781816,17.2748846],[-62.6728604,17.2728533],[-62.6658274,17.2681568],[-62.6596117,17.260374],[-62.658968,17.2582756],[-62.6594082,17.2559146],[-62.6584229,17.2548001],[-62.6587676,17.2530254],[-62.657615,17.2523919],[-62.6568468,17.2506374],[-62.6568394,17.2495952],[-62.6600362,17.2457061],[-62.6572076,17.239677],[-62.6584901,17.238236],[-62.6590843,17.2352907],[-62.6642465,17.2317888],[-62.6649102,17.2293168],[-62.6641549,17.2274887],[-62.6621894,17.2273575],[-62.6601517,17.2258183],[-62.6605504,17.2235771],[-62.6594585,17.2229778],[-62.6584557,17.2201021],[-62.660288,17.2165308],[-62.6579499,17.2145986],[-62.6578372,17.213442],[-62.6542415,17.2128465],[-62.6514605,17.2151503],[-62.6523789,17.2177],[-62.651718,17.2203317],[-62.6523072,17.2240688],[-62.6488622,17.2268203],[-62.6456841,17.226964],[-62.6446428,17.2245516],[-62.6431494,17.2239449],[-62.64166,17.2219605],[-62.6404959,17.2226538],[-62.6392146,17.2268911],[-62.6339895,17.2296975],[-62.6313342,17.2294991],[-62.6305456,17.2266095],[-62.6268844,17.2266249],[-62.6257572,17.228898],[-62.6269763,17.2310633],[-62.628709,17.2317731],[-62.6285712,17.2342933],[-62.6279094,17.2354438],[-62.6240778,17.2369468],[-62.6212797,17.2401356],[-62.6242249,17.2473444],[-62.6256277,17.2478389],[-62.625753,17.2505742],[-62.6318152,17.2521292],[-62.6359444,17.2556858],[-62.6382494,17.2503807],[-62.6404917,17.2497044],[-62.6425946,17.2504627],[-62.6425832,17.2537375],[-62.6447458,17.2570707],[-62.6483421,17.2586281],[-62.6503495,17.2621935],[-62.6513891,17.2626772],[-62.6539211,17.2620051],[-62.6565957,17.26348],[-62.6561344,17.2654676],[-62.658269,17.2688457],[-62.6620024,17.2705828],[-62.6642992,17.2740531],[-62.668025,17.2741687],[-62.6683896,17.275228],[-62.6695188,17.2752597],[-62.6727279,17.2774839],[-62.6767915,17.2821869],[-62.6773835,17.2843813],[-62.6785763,17.2847569],[-62.6800967,17.2834376],[-62.6818651,17.2842636],[-62.6836187,17.2878774],[-62.6830047,17.2942242],[-62.6857033,17.2938714],[-62.6882782,17.2913924],[-62.6949301,17.2929392],[-62.6970544,17.2963913],[-62.7011957,17.2983684],[-62.7028802,17.3006014],[-62.7051976,17.3007244],[-62.7075901,17.2990854],[-62.7090063,17.2991571],[-62.7101488,17.3037532],[-62.7137727,17.3060896],[-62.7143648,17.3087324],[-62.7246284,17.3100029],[-62.7254436,17.3141001],[-62.7363066,17.314985],[-62.7391036,17.3138672],[-62.7408436,17.316258],[-62.7464052,17.3164598],[-62.7486168,17.3187886],[-62.7491047,17.3231975],[-62.7551216,17.3256348],[-62.7529163,17.3196369],[-62.7503652,17.3166367],[-62.7509938,17.3142835],[-62.7531382,17.3135893],[-62.7532861,17.3122363],[-62.751992,17.3109303],[-62.7518441,17.3085535],[-62.7500818,17.3068709],[-62.7500051,17.303502],[-62.7468294,17.2982574],[-62.7468564,17.2929694]]]]},"properties":{"shapeName":"Saint George Basseterre","shapeISO":"KN-03","shapeID":"52472329B55778484611891","shapeGroup":"KNA","shapeType":"ADM1"}},
{"type":"Feature","geometry":{"type":"Polygon","coordinates":[[[-62.5833171,17.1537021],[-62.5774772,17.1033705],[-62.5714176,17.1038855],[-62.5642421,17.1071832],[-62.5545518,17.1066418],[-62.5527408,17.1090946],[-62.5508869,17.1100708],[-62.5474536,17.1144102],[-62.5478399,17.1160754],[-62.5455482,17.1217599],[-62.5450761,17.1263452],[-62.5430248,17.1278216],[-62.5428188,17.1302249],[-62.5417716,17.1311026],[-62.5411966,17.135786],[-62.5422695,17.1376233],[-62.5408533,17.1394359],[-62.5403812,17.142487],[-62.5433314,17.144628],[-62.5469149,17.1449561],[-62.5509596,17.1479804],[-62.5592852,17.1492311],[-62.5666667,17.1532498],[-62.5833171,17.1537021]]]},"properties":{"shapeName":"Saint George Gingerland","shapeISO":"KN-04","shapeID":"52472329B22687598135129","shapeGroup":"KNA","shapeType":"ADM1"}},
{"type":"Feature","geometry":{"type":"Polygon","coordinates":[[[-62.5403812,17.142487],[-62.5396345,17.1448409],[-62.542321,17.1505327],[-62.542793,17.1547564],[-62.5418746,17.1602019],[-62.5442693,17.1652291],[-62.5448101,17.172011],[-62.544132,17.1745121],[-62.5457113,17.1760701],[-62.5453851,17.1804572],[-62.5515649,17.1861562],[-62.5532901,17.1899363],[-62.5550668,17.1906743],[-62.5552041,17.1931341],[-62.5561225,17.1944953],[-62.5602081,17.1959138],[-62.5675037,17.1957416],[-62.5686452,17.1981276],[-62.5708253,17.1992837],[-62.5721815,17.2022272],[-62.5745676,17.2049165],[-62.5806892,17.2076989],[-62.5866353,17.2062693],[-62.5907896,17.2076549],[-62.6013296,17.2048017],[-62.6053894,17.2049493],[-62.6082218,17.2058922],[-62.6121442,17.2029241],[-62.6110456,17.2024896],[-62.6107624,17.2013499],[-62.6140754,17.1958974],[-62.6010818,17.18299],[-62.5833171,17.1537021],[-62.5666667,17.1532498],[-62.5592852,17.1492311],[-62.5509596,17.1479804],[-62.5469149,17.1449561],[-62.5433314,17.144628],[-62.5403812,17.142487]]]},"properties":{"shapeName":"Saint James Windward","shapeISO":"KN-05","shapeID":"52472329B16958301240037","shapeGroup":"KNA","shapeType":"ADM1"}},
{"type":"Feature","geometry":{"type":"Polygon","coordinates":[[[-62.7647551,17.3892116],[-62.770789,17.3939594],[-62.7765315,17.4014119],[-62.7797988,17.4039035],[-62.7807367,17.4041802],[-62.7824613,17.4029913],[-62.7853901,17.40487],[-62.7898923,17.4062177],[-62.7901157,17.4073615],[-62.7914559,17.4068862],[-62.794067,17.4095671],[-62.7982989,17.408259],[-62.7996421,17.4071453],[-62.801547,17.4070989],[-62.8026842,17.407965],[-62.8043152,17.4115629],[-62.8068031,17.413422],[-62.8082561,17.4163257],[-62.8104448,17.4180222],[-62.8138726,17.4164203],[-62.8164351,17.4175323],[-62.8212354,17.416614],[-62.8206277,17.4114765],[-62.817284,17.4110665],[-62.8189839,17.4086068],[-62.8179378,17.401869],[-62.8215617,17.3939367],[-62.8221408,17.3891415],[-62.8244571,17.3848275],[-62.824289,17.3825457],[-62.8198431,17.3797825],[-62.8175642,17.3770193],[-62.81267,17.3763418],[-62.8112317,17.3745591],[-62.8106681,17.3717316],[-62.7948275,17.3544376],[-62.7778879,17.3733824],[-62.7767671,17.3792833],[-62.7748991,17.3823496],[-62.7729003,17.3833657],[-62.7698928,17.3874124],[-62.7647551,17.3892116]]]},"properties":{"shapeName":"Saint John Capisterre","shapeISO":"KN-06","shapeID":"52472329B65639645183115","shapeGroup":"KNA","shapeType":"ADM1"}},
{"type":"Feature","geometry":{"type":"Polygon","coordinates":[[[-62.5833171,17.1537021],[-62.6013993,17.1383691],[-62.611692,17.1369232],[-62.6188091,17.1339957],[-62.6302163,17.1340185],[-62.6309068,17.1331941],[-62.6335332,17.1329071],[-62.6323831,17.1288469],[-62.628907,17.1262057],[-62.6268728,17.1195124],[-62.6255939,17.1185855],[-62.622298,17.1126712],[-62.6227375,17.1092933],[-62.6242292,17.1083306],[-62.6253237,17.1087264],[-62.6243886,17.1080018],[-62.6220491,17.1088813],[-62.6197917,17.1079051],[-62.6195428,17.1063957],[-62.6172168,17.1056574],[-62.6163783,17.1040086],[-62.6134489,17.1021791],[-62.6110284,17.0994145],[-62.6108911,17.0978804],[-62.6092946,17.0967401],[-62.6074407,17.0966334],[-62.6059473,17.0951814],[-62.604574,17.0955423],[-62.6022909,17.0944184],[-62.599304,17.0942461],[-62.5976903,17.0946645],[-62.5961883,17.0962479],[-62.5918624,17.0958049],[-62.5872619,17.099718],[-62.5854251,17.0996688],[-62.5835884,17.1013342],[-62.5804641,17.1013342],[-62.5774772,17.1033705],[-62.5833171,17.1537021]]]},"properties":{"shapeName":"Saint John Figtree","shapeISO":"KN-07","shapeID":"52472329B19766585583682","shapeGroup":"KNA","shapeType":"ADM1"}},
{"type":"Feature","geometry":{"type":"Polygon","coordinates":[[[-62.7595487,17.3343148],[-62.7541315,17.3331558],[-62.7483221,17.3379168],[-62.7450717,17.339058],[-62.7402336,17.3369717],[-62.7341066,17.3371857],[-62.7306695,17.3361693],[-62.7239634,17.3365973],[-62.7194615,17.3353134],[-62.7089874,17.339963],[-62.7186253,17.3502222],[-62.7223388,17.3565865],[-62.7246525,17.3586415],[-62.7245454,17.3595829],[-62.7259911,17.3601451],[-62.7265425,17.3625483],[-62.7316246,17.3662535],[-62.735401,17.3712106],[-62.7387377,17.3721223],[-62.7394168,17.3753418],[-62.7408485,17.3767054],[-62.7432521,17.3710541],[-62.7452135,17.3705014],[-62.7520877,17.3633879],[-62.7531525,17.358057],[-62.7555622,17.3561849],[-62.7563654,17.353671],[-62.760531,17.3516027],[-62.7612782,17.3463072],[-62.7595487,17.3343148]]]},"properties":{"shapeName":"Saint Mary Cayon","shapeISO":"KN-08","shapeID":"52472329B33043462803625","shapeGroup":"KNA","shapeType":"ADM1"}},
{"type":"Feature","geometry":{"type":"Polygon","coordinates":[[[-62.8106681,17.3717316],[-62.8112317,17.3745591],[-62.81267,17.3763418],[-62.8175642,17.3770193],[-62.8198431,17.3797825],[-62.824289,17.3825457],[-62.8244571,17.3848275],[-62.8221408,17.3891415],[-62.8215617,17.3939367],[-62.8179378,17.401869],[-62.8189839,17.4086068],[-62.817284,17.4110665],[-62.8206277,17.4114765],[-62.8212354,17.416614],[-62.8235134,17.4155113],[-62.8242649,17.4142288],[-62.8310499,17.4117345],[-62.8376245,17.4124061],[-62.8409204,17.4100638],[-62.8438303,17.4103145],[-62.8454351,17.4072055],[-62.8496151,17.4055511],[-62.850791,17.4027665],[-62.8522758,17.4018082],[-62.8524301,17.3997645],[-62.8557317,17.397729],[-62.8581217,17.397308],[-62.8589676,17.3961556],[-62.8591783,17.3932457],[-62.8610143,17.3923031],[-62.861721,17.3902216],[-62.8517148,17.3857335],[-62.849728,17.3907174],[-62.8462162,17.3888813],[-62.8466084,17.3830341],[-62.83951,17.382125],[-62.8384266,17.3809127],[-62.8348774,17.3798431],[-62.8328039,17.3774543],[-62.830992,17.3775077],[-62.8106681,17.3717316]]]},"properties":{"shapeName":"Saint Paul Capisterre","shapeISO":"KN-09","shapeID":"52472329B35296791475509","shapeGroup":"KNA","shapeType":"ADM1"}},
{"type":"Feature","geometry":{"type":"Polygon","coordinates":[[[-62.5833171,17.1537021],[-62.6034728,17.1436706],[-62.6073583,17.1440276],[-62.6099735,17.1429388],[-62.6176509,17.1445631],[-62.6292243,17.145173],[-62.6299283,17.1438649],[-62.6298702,17.1389145],[-62.6309918,17.138857],[-62.630171,17.1387358],[-62.6297309,17.1372624],[-62.6302163,17.1340185],[-62.6188091,17.1339957],[-62.611692,17.1369232],[-62.6013993,17.1383691],[-62.5833171,17.1537021]]]},"properties":{"shapeName":"Saint Paul Charlestown","shapeISO":"KN-10","shapeID":"52472329B33869241417022","shapeGroup":"KNA","shapeType":"ADM1"}},
{"type":"Feature","geometry":{"type":"Polygon","coordinates":[[[-62.6830047,17.2942242],[-62.6826413,17.2956955],[-62.6851429,17.2983712],[-62.6839502,17.301646],[-62.6886217,17.3027044],[-62.6908904,17.3050977],[-62.6920303,17.3085322],[-62.6907511,17.312218],[-62.6989785,17.3219962],[-62.7039162,17.3339983],[-62.7089874,17.339963],[-62.7194615,17.3353134],[-62.7239634,17.3365973],[-62.7306695,17.3361693],[-62.7341066,17.3371857],[-62.7402336,17.3369717],[-62.7450717,17.339058],[-62.7483221,17.3379168],[-62.7541315,17.3331558],[-62.7551216,17.3256348],[-62.7491047,17.3231975],[-62.7486168,17.3187886],[-62.7464052,17.3164598],[-62.7408436,17.316258],[-62.7391036,17.3138672],[-62.7363066,17.314985],[-62.7254436,17.3141001],[-62.7246284,17.3100029],[-62.7143648,17.3087324],[-62.7137727,17.3060896],[-62.7101488,17.3037532],[-62.7090063,17.2991571],[-62.7075901,17.2990854],[-62.7051976,17.3007244],[-62.7028802,17.3006014],[-62.7011957,17.2983684],[-62.6970544,17.2963913],[-62.6949301,17.2929392],[-62.6882782,17.2913924],[-62.6857033,17.2938714],[-62.6830047,17.2942242]]]},"properties":{"shapeName":"Saint Peter Basseterre","shapeISO":"KN-11","shapeID":"52472329B95288510107666","shapeGroup":"KNA","shapeType":"ADM1"}},
{"type":"Feature","geometry":{"type":"Polygon","coordinates":[[[-62.6140754,17.1958974],[-62.618839,17.191281],[-62.6176631,17.1903709],[-62.6182039,17.1884932],[-62.6189191,17.1874702],[-62.6204171,17.1881428],[-62.6208677,17.1875586],[-62.6192351,17.1873285],[-62.6191344,17.1857312],[-62.6240833,17.179506],[-62.6276452,17.1714697],[-62.62972,17.1583107],[-62.6279285,17.1483921],[-62.6292243,17.145173],[-62.6176509,17.1445631],[-62.6099735,17.1429388],[-62.6073583,17.1440276],[-62.6034728,17.1436706],[-62.5833171,17.1537021],[-62.6010818,17.18299],[-62.6140754,17.1958974]]]},"properties":{"shapeName":"Saint Thomas Lowland","shapeISO":"KN-12","shapeID":"52472329B68765441097226","shapeGroup":"KNA","shapeType":"ADM1"}},
{"type":"Feature","geometry":{"type":"Polygon","coordinates":[[[-62.7948275,17.3544376],[-62.8106681,17.3717316],[-62.8177852,17.3646894],[-62.8214278,17.3627282],[-62.8245474,17.363067],[-62.8274428,17.3621577],[-62.8364278,17.3522981],[-62.8417143,17.3494988],[-62.8430426,17.3461598],[-62.8407164,17.3446782],[-62.8362573,17.3387788],[-62.8350321,17.3387089],[-62.8363065,17.3382487],[-62.8341732,17.3381814],[-62.8284936,17.332728],[-62.824099,17.3301876],[-62.8171898,17.3279863],[-62.8064431,17.3229796],[-62.8019218,17.3199823],[-62.7974565,17.3181932],[-62.7949973,17.3150742],[-62.79379,17.3114551],[-62.7905124,17.3140847],[-62.7855249,17.3228943],[-62.7777166,17.3263717],[-62.7673119,17.33609],[-62.7869632,17.3435434],[-62.7873929,17.3469847],[-62.7948275,17.3544376]]]},"properties":{"shapeName":"Saint Thomas Middle Island","shapeISO":"KN-13","shapeID":"52472329B72200716330993","shapeGroup":"KNA","shapeType":"ADM1"}},
{"type":"Feature","geometry":{"type":"Polygon","coordinates":[[[-62.7673119,17.33609],[-62.7777166,17.3263717],[-62.7855249,17.3228943],[-62.7905124,17.3140847],[-62.79379,17.3114551],[-62.7936745,17.3098066],[-62.791242,17.3083488],[-62.7888282,17.3030797],[-62.7856742,17.3032855],[-62.776317,17.2994832],[-62.7753776,17.2985069],[-62.7754485,17.2964101],[-62.774586,17.2958837],[-62.7704434,17.2959249],[-62.766966,17.2939575],[-62.7622782,17.2945604],[-62.7599958,17.2926694],[-62.7468564,17.2929694],[-62.7468294,17.2982574],[-62.7500051,17.303502],[-62.7500818,17.3068709],[-62.7518441,17.3085535],[-62.751992,17.3109303],[-62.7532861,17.3122363],[-62.7531382,17.3135893],[-62.7509938,17.3142835],[-62.7503652,17.3166367],[-62.7529163,17.3196369],[-62.7551216,17.3256348],[-62.7541315,17.3331558],[-62.7595487,17.3343148],[-62.7673119,17.33609]]]},"properties":{"shapeName":"Trinity Palmetto Point","shapeISO":"KN-15","shapeID":"52472329B86967002358759","shapeGroup":"KNA","shapeType":"ADM1"}}
]}