{"type":"FeatureCollection", "features": [
{"type":"Feature","geometry":{"type":"Polygon","coordinates":[[[47.9247634536864,29.991034101888513],[47.920127151746726,30.02264525147723],[47.71444990653799,30.106340753922723],[47.65746573385661,30.020864495799913],[47.656715970865434,30.00511946768451],[47.670907374394716,29.943181595815748],[47.6770540436093,29.93482212577918],[47.6771373073409,29.91324328339159],[47.706466902528646,29.950951335764397],[47.75080728351904,29.911297012299336],[47.8480065589556,29.848368605824415],[47.8480065589556,29.79808814809202],[47.88854242833582,29.80733587484036],[47.94723711389564,29.821752113225575],[47.9247634536864,29.991034101888513]]]},"properties":{"shapeName":"Abdali","shapeISO":"","shapeID":"36326507B53313800011186","shapeGroup":"KWT","shapeType":"ADM2"}},
{"type":"Feature","geometry":{"type":"MultiPolygon","coordinates":[[[[46.72525314231531,29.26668179162665],[46.715087773382095,29.26535940531238],[46.68535954011077,29.21732633873961],[46.55892688526757,29.10390283145057],[47.46550187191389,29.00552115177976],[47.53461296981277,28.913237509603448],[47.56405030380167,28.982150510901686],[47.57463696472422,29.01338987254462],[47.56244093537337,29.030195263877612],[47.56132560144699,29.030726375222116],[47.55453322742653,29.030726375222116],[47.560768583727494,29.071874815675123],[47.59674617414573,29.326287779602087],[47.58675887833211,29.33734855311569],[47.56463430832673,29.35845590151871],[47.54347037825539,29.359569791912406],[47.530858612238134,29.371480904686354],[47.214509964246325,29.330327934696772],[46.72525314231531,29.26668179162665]]],[[[47.563800376912255,29.030726375222116],[47.56378278880333,29.030702924411163],[47.563891630056965,29.03071707377456],[47.563800376912255,29.030726375222116]]]]},"properties":{"shapeName":"Salmy","shapeISO":"","shapeID":"36326507B33224331564429","shapeGroup":"KWT","shapeType":"ADM2"}},
{"type":"Feature","geometry":{"type":"Polygon","coordinates":[[[47.88854242833582,29.80733587484036],[47.8480065589556,29.79808814809202],[47.8480065589556,29.848368605824415],[47.75080728351904,29.911297012299336],[47.706466902528646,29.950951335764397],[47.6771373073409,29.91324328339159],[47.6770540436093,29.93482212577918],[47.670907374394716,29.943181595815748],[47.656715970865434,30.00511946768451],[47.656715970865434,30.020107202785255],[47.70832625815035,30.101421251889292],[47.37861449836049,30.09993606379834],[47.295815261165444,30.056123014665445],[47.207446568404464,30.02976092582611],[47.17700021298947,30.011567371037415],[47.14766774796823,29.98297750051131],[47.110538044794964,29.91577273872099],[47.086403738541776,29.842627223667478],[47.01474341157922,29.720841799309653],[47.006574877528635,29.664033354156004],[46.91300802689898,29.524425671807364],[46.882561670584664,29.450537564057413],[46.812386532612436,29.368480921357502],[46.789737413550824,29.35474293084161],[46.77822720562108,29.327638248406515],[46.72525314231531,29.26668179162665],[47.214509964246325,29.330327934696772],[47.530858612238134,29.371480904686354],[47.54347037825539,29.359569791912406],[47.56463430832673,29.35845590151871],[47.58675887833211,29.33734855311569],[47.59674617414573,29.326287779602087],[47.560768583727494,29.071874815675123],[47.555351882983075,29.03357100279959],[47.56132560144699,29.030726375222116],[47.56244093537337,29.030195263877612],[47.56378278880333,29.030702924411163],[47.563800376912255,29.030726375222116],[47.56871857580171,29.037283973476633],[47.69607345572547,29.045452507527273],[47.71426701051416,29.040996943254356],[47.72874759462587,29.048051586911242],[47.78407085168851,29.034313597294727],[47.7843093027295,29.039654901259667],[47.78464165746911,29.075923121937635],[47.75356871530195,29.07650940385862],[47.70909205521175,29.07734858611488],[47.707332784785876,29.087208371223028],[47.69471409468476,29.08878570729462],[47.694566961121716,29.103440219190887],[47.69426170749893,29.13384349872778],[47.57540192266066,29.13530638837915],[47.59698258200083,29.27824322579103],[47.603991793186765,29.324667872224552],[47.615143571726456,29.334580564259838],[47.618190023721276,29.336572475208136],[47.63045761767236,29.336913241500458],[47.63257352791755,29.346008388385787],[47.64011834818784,29.362212984106566],[47.66157052735129,29.376259963026673],[47.6651692762081,29.37274689881964],[47.75485428313825,29.330194165207978],[47.76234082130587,29.34474515186884],[47.75510968346515,29.380733722883065],[47.72990604103103,29.359198495114526],[47.705905401013524,29.35896086545165],[47.70162805988713,29.379397053331388],[47.6883947177908,29.391803311497753],[47.68671873136906,29.39337454876193],[47.68775674461633,29.410813166168822],[47.87940826804087,29.5966668364903],[47.9448157849269,29.64281593276336],[47.98045247952241,29.647961337897474],[48.01204722589881,29.652523146226258],[48.04596177058114,29.67330948086164],[48.05021381262446,29.678298543320835],[48.06138418990402,29.692465850462277],[48.03025277306819,29.72688757950312],[47.94558505770431,29.820349402303123],[47.88854242833582,29.80733587484036]]]},"properties":{"shapeName":"Bar Jahra","shapeISO":"","shapeID":"36326507B16040598622878","shapeGroup":"KWT","shapeType":"ADM2"}},
{"type":"Feature","geometry":{"type":"Polygon","coordinates":[[[47.694566961121716,29.103440219190887],[47.69471409468476,29.08878570729462],[47.707332784785876,29.087208371223028],[47.70909205521175,29.07734858611488],[47.75356871530195,29.07650940385862],[47.7846477113818,29.076583755337147],[47.784995553857506,29.114542075670006],[47.708323002604516,29.114817546092922],[47.70851317414372,29.134690427421333],[47.69426170749893,29.13384349872778],[47.694566961121716,29.103440219190887]]]},"properties":{"shapeName":"Kabad","shapeISO":"","shapeID":"36326507B60168938726366","shapeGroup":"KWT","shapeType":"ADM2"}},
{"type":"Feature","geometry":{"type":"Polygon","coordinates":[[[47.618190023721276,29.336572475208136],[47.615143571726456,29.334580564259838],[47.603991793186765,29.324667872224552],[47.59698258200083,29.27824322579103],[47.57673895104182,29.135694327131546],[47.708792654657316,29.135694327131546],[47.708792654657316,29.115857933996494],[47.785002728390864,29.115324996831934],[47.78996028532418,29.130880999659844],[47.78997114826428,29.13227145706213],[47.790405243607154,29.187835703654855],[47.82516136510745,29.24496853952954],[47.83006412539892,29.24839375629962],[47.852451896980035,29.252929864303564],[47.8635885332979,29.26076675708481],[47.86433824102137,29.267693542810544],[47.85967326992462,29.268399517436634],[47.83836323057039,29.267828712501764],[47.788955945713376,29.286471709176688],[47.75336012223575,29.297049872979926],[47.74505901707854,29.29783852439779],[47.70037834512716,29.302501670881497],[47.68161462761171,29.304807475545484],[47.67701461767424,29.30527890526002],[47.64168708674393,29.32495929097469],[47.63045761767236,29.336913241500458],[47.618190023721276,29.336572475208136]]]},"properties":{"shapeName":"Sulaibiya_Agriculture_2","shapeISO":"","shapeID":"36326507B42879578137416","shapeGroup":"KWT","shapeType":"ADM2"}},
{"type":"Feature","geometry":{"type":"Polygon","coordinates":[[[47.85967326992462,29.268399517436634],[47.866061867469625,29.297253694617634],[47.86606239573356,29.297476620882822],[47.85332847882631,29.297001475038087],[47.84119163296971,29.273342307073765],[47.83984635610672,29.270719868621804],[47.839723253918,29.27047989726564],[47.83836323057039,29.267828712501764],[47.85967326992462,29.268399517436634]]]},"properties":{"shapeName":"Sulaibiya_Industrial_2","shapeISO":"","shapeID":"36326507B22954302224107","shapeGroup":"KWT","shapeType":"ADM2"}},
{"type":"Feature","geometry":{"type":"Polygon","coordinates":[[[47.83289348969374,29.29672672434004],[47.843439581271696,29.27941064678396],[47.85190219543,29.2977621593962],[47.83274946455078,29.2974777127071],[47.83289348969374,29.29672672434004]]]},"properties":{"shapeName":"Sulaibiya_Industrial_1","shapeISO":"","shapeID":"36326507B1134321935046","shapeGroup":"KWT","shapeType":"ADM2"}},
{"type":"Feature","geometry":{"type":"Polygon","coordinates":[[[47.84119163296971,29.273342307073765],[47.83289348969374,29.29672672434004],[47.83274946455078,29.2974777127071],[47.81900436718581,29.297873919203095],[47.81812341533293,29.297881110662757],[47.8096275127424,29.297950465123574],[47.8206587106045,29.287881489993275],[47.83984635610672,29.270719868621804],[47.84119163296971,29.273342307073765]]]},"properties":{"shapeName":"Sulaibiya","shapeISO":"","shapeID":"36326507B56948781005211","shapeGroup":"KWT","shapeType":"ADM2"}},
{"type":"Feature","geometry":{"type":"Polygon","coordinates":[[[47.80959653989877,29.29797873628652],[47.78924081311311,29.297952330935402],[47.78904354527047,29.292034294723774],[47.788955945713376,29.286471709176688],[47.83836323057039,29.267828712501764],[47.839723253918,29.27047989726564],[47.8206587106045,29.287881489993275],[47.8096275127424,29.297950465123574],[47.80959653989877,29.29797873628652]]]},"properties":{"shapeName":"Sulaibiya_Agricultural_1","shapeISO":"","shapeID":"36326507B87168156958856","shapeGroup":"KWT","shapeType":"ADM2"}},
{"type":"Feature","geometry":{"type":"Polygon","coordinates":[[[47.788955945713376,29.286471709176688],[47.78904354527047,29.292034294723774],[47.786364684741216,29.31371534153294],[47.76450457509184,29.31688720068824],[47.75859379861634,29.307775679891872],[47.75336012223575,29.297049872979926],[47.788955945713376,29.286471709176688]]]},"properties":{"shapeName":"Sikrab","shapeISO":"","shapeID":"36326507B187213644255","shapeGroup":"KWT","shapeType":"ADM2"}},
{"type":"Feature","geometry":{"type":"Polygon","coordinates":[[[47.854295871273735,29.312545897113935],[47.85266287978811,29.297476902537085],[47.8658797725335,29.297952330935402],[47.86605161024812,29.31118380489298],[47.8647740228223,29.31261640817962],[47.85428221997077,29.312743841523396],[47.854295871273735,29.312545897113935]]]},"properties":{"shapeName":"Elnahda_Shark_Elsolybekhat","shapeISO":"","shapeID":"36326507B66174644630896","shapeGroup":"KWT","shapeType":"ADM2"}},
{"type":"Feature","geometry":{"type":"Polygon","coordinates":[[[47.85428221997077,29.312743841523396],[47.83470535100236,29.312895131101186],[47.8323313199345,29.312878625348333],[47.831882799768586,29.312883491743936],[47.808162838544206,29.31278567771693],[47.81812341533293,29.297881110662757],[47.81900436718581,29.297873919203095],[47.852377622929,29.298522843754313],[47.854295871273735,29.312545897113935],[47.85428221997077,29.312743841523396]]]},"properties":{"shapeName":"Makaber_Elsolybekhat","shapeISO":"","shapeID":"36326507B13479737703652","shapeGroup":"KWT","shapeType":"ADM2"}},
{"type":"Feature","geometry":{"type":"Polygon","coordinates":[[[47.80959653989877,29.29797873628652],[47.81738613795994,29.297952330935402],[47.808257924763495,29.30765105785008],[47.80798333752252,29.313142798341172],[47.78912977266928,29.316094763989565],[47.786364684741216,29.31371534153294],[47.78904354527047,29.292034294723774],[47.78924081311311,29.297952330935402],[47.80959653989877,29.29797873628652]]]},"properties":{"shapeName":"South Doha","shapeISO":"","shapeID":"36326507B47073202093840","shapeGroup":"KWT","shapeType":"ADM2"}},
{"type":"Feature","geometry":{"type":"Polygon","coordinates":[[[47.75336012223575,29.297049872979926],[47.75859379861634,29.307775679891872],[47.76319497626719,29.317205254718772],[47.74901581792574,29.32821996497944],[47.73907886074545,29.311588636510567],[47.731736953799626,29.299300602680034],[47.74505901707854,29.29783852439779],[47.75336012223575,29.297049872979926]]]},"properties":{"shapeName":"Amghara","shapeISO":"","shapeID":"36326507B92697676619958","shapeGroup":"KWT","shapeType":"ADM2"}},
{"type":"Feature","geometry":{"type":"Polygon","coordinates":[[[47.70037834512716,29.302501670881497],[47.731736953799626,29.299300602680034],[47.73907886074545,29.311588636510567],[47.74892453583874,29.328474795075806],[47.71516916272674,29.343403227177248],[47.705763311458455,29.331149389065104],[47.700751969537066,29.324620668710327],[47.691302688068674,29.312310250217934],[47.68179413179382,29.31135939432062],[47.68161462761171,29.304807475545484],[47.70037834512716,29.302501670881497]]]},"properties":{"shapeName":"Sad_Elabdallah","shapeISO":"","shapeID":"36326507B79072413715576","shapeGroup":"KWT","shapeType":"ADM2"}},
{"type":"Feature","geometry":{"type":"Polygon","coordinates":[[[47.68159030513639,29.312571984456465],[47.68146907666646,29.313218536395624],[47.65939913672464,29.321811340618197],[47.65050772321838,29.33692219540302],[47.6505106215775,29.33710479249354],[47.64764797825722,29.33718849562294],[47.63710391991003,29.337412836733108],[47.64168708674393,29.32495929097469],[47.67701461767424,29.30527890526002],[47.68159030513639,29.312571984456465]]]},"properties":{"shapeName":"Jahra_Industrial","shapeISO":"","shapeID":"36326507B14659465063446","shapeGroup":"KWT","shapeType":"ADM2"}},
{"type":"Feature","geometry":{"type":"Polygon","coordinates":[[[47.66157052735129,29.376259963026673],[47.64011834818784,29.362212984106566],[47.63257352791755,29.346008388385787],[47.631208614785805,29.33855386416957],[47.64764797825722,29.33718849562294],[47.6505106215775,29.33710479249354],[47.65305330436928,29.337467092675354],[47.654188663621895,29.344506321115556],[47.664553498781174,29.350700498573435],[47.670273985291374,29.35577859257598],[47.676469341287145,29.361374397610405],[47.6651692762081,29.37274689881964],[47.66157052735129,29.376259963026673]]]},"properties":{"shapeName":"West_Jahra","shapeISO":"","shapeID":"36326507B15663314220054","shapeGroup":"KWT","shapeType":"ADM2"}},
{"type":"Feature","geometry":{"type":"Polygon","coordinates":[[[47.65939913672464,29.321811340618197],[47.66338652900503,29.324422752030046],[47.66486429749547,29.327113814150554],[47.665218817994116,29.33692219540302],[47.65050772321838,29.33692219540302],[47.65939913672464,29.321811340618197]]]},"properties":{"shapeName":"Oyoun","shapeISO":"","shapeID":"36326507B88091187440628","shapeGroup":"KWT","shapeType":"ADM2"}},
{"type":"Feature","geometry":{"type":"Polygon","coordinates":[[[47.65305330436928,29.337467092675354],[47.66905266744669,29.33728732465039],[47.66442770597388,29.350614515647408],[47.654188663621895,29.344506321115556],[47.65305330436928,29.337467092675354]]]},"properties":{"shapeName":"Waha","shapeISO":"","shapeID":"36326507B64310566697141","shapeGroup":"KWT","shapeType":"ADM2"}},
{"type":"Feature","geometry":{"type":"Polygon","coordinates":[[[47.664553498781174,29.350700498573435],[47.671000019835105,29.33594851920884],[47.681793403997055,29.34524367344035],[47.69083364152186,29.354626344641442],[47.67629438357898,29.361081534285404],[47.670273985291374,29.35577859257598],[47.664553498781174,29.350700498573435]]]},"properties":{"shapeName":"Jahra","shapeISO":"","shapeID":"36326507B62523135438934","shapeGroup":"KWT","shapeType":"ADM2"}},
{"type":"Feature","geometry":{"type":"Polygon","coordinates":[[[47.69083364152186,29.354626344641442],[47.681793403997055,29.34524367344035],[47.68527895135585,29.33751816457544],[47.68759321411023,29.336253225979853],[47.69251120521344,29.340257875564898],[47.69396914685006,29.341445056518985],[47.70756231824646,29.333799585582483],[47.714978992086856,29.343403227177248],[47.69083364152186,29.354626344641442]]]},"properties":{"shapeName":"Qasr","shapeISO":"","shapeID":"36326507B73696883565220","shapeGroup":"KWT","shapeType":"ADM2"}},
{"type":"Feature","geometry":{"type":"Polygon","coordinates":[[[47.705763311458455,29.331149389065104],[47.69396914685006,29.341445056518985],[47.69251120521344,29.340257875564898],[47.700751969537066,29.324620668710327],[47.705763311458455,29.331149389065104]]]},"properties":{"shapeName":"Naeem","shapeISO":"","shapeID":"36326507B84491447347545","shapeGroup":"KWT","shapeType":"ADM2"}},
{"type":"Feature","geometry":{"type":"Polygon","coordinates":[[[47.68672290579841,29.317006544652955],[47.691701267773794,29.3220138556114],[47.66486429749547,29.327113814150554],[47.66338652900503,29.324422752030046],[47.68672290579841,29.317006544652955]]]},"properties":{"shapeName":"Nasseem","shapeISO":"","shapeID":"36326507B41851613035915","shapeGroup":"KWT","shapeType":"ADM2"}},
{"type":"Feature","geometry":{"type":"Polygon","coordinates":[[[47.68527895135585,29.33751816457544],[47.67824173596739,29.341364592701837],[47.66795728150339,29.330958429388033],[47.69176524486419,29.322098250916007],[47.69560765630722,29.327166963514973],[47.68759321411023,29.336253225979853],[47.68527895135585,29.33751816457544]]]},"properties":{"shapeName":"Taima","shapeISO":"","shapeID":"36326507B98019200258371","shapeGroup":"KWT","shapeType":"ADM2"}},
{"type":"Feature","geometry":{"type":"Polygon","coordinates":[[[47.68159030513639,29.312571984456465],[47.69108208976667,29.312336873747768],[47.70051457688629,29.324507825275987],[47.69560765630722,29.327166963514973],[47.69176524486419,29.322098250916007],[47.691701267773794,29.3220138556114],[47.68672290579841,29.317006544652955],[47.68146907666646,29.313218536395624],[47.68159030513639,29.312571984456465]]]},"properties":{"shapeName":"South_East_Jahra","shapeISO":"","shapeID":"36326507B55550795334924","shapeGroup":"KWT","shapeType":"ADM2"}},
{"type":"Feature","geometry":{"type":"Polygon","coordinates":[[[47.9247634536864,29.991034101888513],[47.94723711389564,29.821752113225575],[48.03025277306819,29.72688757950312],[48.06138418990402,29.692465850462277],[48.05021381262446,29.678298543320835],[48.04596177058114,29.67330948086164],[48.01333184448907,29.652254863171436],[47.98045247952241,29.647961337897474],[47.9448157849269,29.64281593276336],[47.87940826804087,29.5966668364903],[47.68775674461633,29.410813166168822],[47.68671873136906,29.39337454876193],[47.6883947177908,29.391803311497753],[47.71317162367154,29.379719596082566],[47.72686802953598,29.400844561227586],[47.74729656778243,29.393183859947214],[47.75727869355694,29.416630249586376],[47.767492963129826,29.418023105182215],[47.81345717261047,29.477683721426672],[47.88240348863013,29.527362210997296],[47.975724763187316,29.57820141326465],[48.01054613509609,29.5807549806579],[48.09643885127201,29.562415724905804],[48.146581625741476,29.537344337671072],[48.169099445583015,29.51645151452584],[48.189063698930624,29.547326463445586],[48.10943882933856,29.701469067843277],[48.10874240243999,29.731879731864183],[48.05372463518381,29.77273680745776],[48.02029611887082,29.843075978173886],[48.019367549073195,29.91991513747365],[48.00636757010733,29.967968630348082],[48.01751040947789,29.985843600301962],[47.97433190849085,29.994665014279065],[47.98686760255788,29.972147194437525],[47.96759977700816,29.988861452593994],[47.96226050022199,30.00789713614398],[47.92209985152698,30.01903997461517],[47.9247634536864,29.991034101888513]]]},"properties":{"shapeName":"Abdali","shapeISO":"","shapeID":"36326507B64398681573089","shapeGroup":"KWT","shapeType":"ADM2"}},
{"type":"Feature","geometry":{"type":"Polygon","coordinates":[[[48.01898864861005,28.604000345354045],[48.00971463014425,28.60079010860039],[48.009025743062345,28.602148034933577],[48.00386553386733,28.615048559543425],[47.981934640371435,28.61695559352586],[47.97589569822793,28.532092570515772],[48.232073962843174,28.534317443795032],[48.23395872188297,28.56564985768944],[48.23223123268531,28.586860862239064],[48.16527743300719,28.682984927912116],[48.01819099870321,28.61914413373016],[48.02589774672888,28.606813335318993],[48.02611426576078,28.606466904823833],[48.01898864861005,28.604000345354045]]]},"properties":{"shapeName":"Elwafra","shapeISO":"","shapeID":"36326507B76234884557849","shapeGroup":"KWT","shapeType":"ADM2"}},
{"type":"Feature","geometry":{"type":"MultiPolygon","coordinates":[[[[48.02589774672888,28.606813335318993],[48.01898864861005,28.604000345354045],[48.02611426576078,28.606466904823833],[48.02589774672888,28.606813335318993]]],[[[48.00971463014425,28.60079010860039],[48.007370863496206,28.607222999664774],[48.009025743062345,28.602148034933577],[48.00971463014425,28.60079010860039]]]]},"properties":{"shapeName":"Elwafra_Elgededa","shapeISO":"","shapeID":"36326507B94257104761136","shapeGroup":"KWT","shapeType":"ADM2"}},
{"type":"Feature","geometry":{"type":"Polygon","coordinates":[[[48.338559663460856,28.58198483105149],[48.40084649187213,28.53654231707435],[48.42976984360348,28.535588800083133],[48.402753525854564,28.571822450245918],[48.38972212547577,28.607102583417543],[48.39124276817466,28.658039924503388],[48.386544918985614,28.655575108756935],[48.38390329289067,28.650952262467907],[48.383272049559224,28.649155646109783],[48.383061013814824,28.647221152466194],[48.3801449489662,28.620709452983135],[48.37761551672476,28.614721352004025],[48.37666420049219,28.6132415267866],[48.36955711040706,28.606932203051723],[48.346855985025776,28.60141863744401],[48.34369406215153,28.601895438123133],[48.33513585965184,28.609843216406997],[48.338559663460856,28.58198483105149]]]},"properties":{"shapeName":"El_Noyseep","shapeISO":"","shapeID":"36326507B18500052278761","shapeGroup":"KWT","shapeType":"ADM2"}},
{"type":"Feature","geometry":{"type":"Polygon","coordinates":[[[48.29458384189486,28.650214078520044],[48.309308849024205,28.65255356599431],[48.30130739793963,28.668111942124916],[48.2978054620483,28.674360831441025],[48.26993519328853,28.671765624786648],[48.27521963141473,28.64751938247432],[48.29458384189486,28.650214078520044]]]},"properties":{"shapeName":"Elkeran_Elgededa","shapeISO":"","shapeID":"36326507B94211972616986","shapeGroup":"KWT","shapeType":"ADM2"}},
{"type":"Feature","geometry":{"type":"Polygon","coordinates":[[[48.30207053026659,28.679978896834083],[48.2989009565298,28.679473140142473],[48.298021478444795,28.675368908179077],[48.2978054620483,28.674360831441025],[48.30130739793963,28.668111942124916],[48.31046372631465,28.652423900696704],[48.33513585965184,28.609843216406997],[48.34369406215153,28.601895438123133],[48.346855985025776,28.60141863744401],[48.36955711040706,28.606932203051723],[48.37666420049219,28.6132415267866],[48.37761551672476,28.614721352004025],[48.3801449489662,28.620709452983135],[48.383061013814824,28.647221152466194],[48.383272049559224,28.649155646109783],[48.38390329289067,28.650952262467907],[48.386544918985614,28.655575108756935],[48.39124276817466,28.658039924503388],[48.37780479734388,28.699208889055406],[48.37348693576392,28.701360723460304],[48.362485138729156,28.70392253649922],[48.35221991190446,28.680641510861612],[48.319441645654614,28.682380597886322],[48.30207053026659,28.679978896834083]]]},"properties":{"shapeName":"El_Kehran_Loloet_Elkheran","shapeISO":"","shapeID":"36326507B17793499664589","shapeGroup":"KWT","shapeType":"ADM2"}},
{"type":"Feature","geometry":{"type":"Polygon","coordinates":[[[48.30207053026659,28.679978896834083],[48.319441645654614,28.682380597886322],[48.35221991190446,28.680641510861612],[48.362485138729156,28.70392253649922],[48.37348693576392,28.701360723460304],[48.37780479734388,28.699208889055406],[48.395460588835135,28.74424335434736],[48.35069303705404,28.746229345208178],[48.320721993373176,28.762559953449333],[48.32603388218592,28.756376873558434],[48.337314946467906,28.745729998284904],[48.315172648465605,28.74459122129819],[48.283683289652174,28.742971725564757],[48.29499275469323,28.692795931468073],[48.29828097263585,28.679374211696857],[48.2989009565298,28.679473140142473],[48.30207053026659,28.679978896834083]]]},"properties":{"shapeName":"El_Zoor","shapeISO":"","shapeID":"36326507B79472749769132","shapeGroup":"KWT","shapeType":"ADM2"}},
{"type":"Feature","geometry":{"type":"Polygon","coordinates":[[[48.315172648465605,28.74459122129819],[48.337314946467906,28.745729998284904],[48.32603388218592,28.756376873558434],[48.320721993373176,28.762559953449333],[48.29578865632146,28.781227268423777],[48.27910943305392,28.807862306000686],[48.27781647055372,28.85738278918444],[48.28673791522266,28.88143190176089],[48.25027635796761,28.88841390178021],[48.21484917215162,28.91272160631712],[48.15834668804928,29.00322901640601],[48.16373332151957,28.988864660496517],[48.15985488852973,28.988778473212204],[48.147026171863416,28.98820728876881],[48.179439881019746,28.94506939323596],[48.184879659091074,28.93894359633365],[48.19309191824525,28.931952078510907],[48.20540594862606,28.921468512264294],[48.267943993720394,28.803978009977243],[48.28046512623729,28.752094238781883],[48.28311761878314,28.743214155808687],[48.315172648465605,28.74459122129819]]]},"properties":{"shapeName":"South_Coast_Strip","shapeISO":"","shapeID":"36326507B3365314413647","shapeGroup":"KWT","shapeType":"ADM2"}},
{"type":"Feature","geometry":{"type":"Polygon","coordinates":[[[48.147026171863416,28.98820728876881],[48.13959872460151,28.995988423526967],[48.12034324876462,28.959130831920525],[48.12230036439598,28.957482734829554],[48.15454361340277,28.93838914228398],[48.15747632621948,28.937115094772377],[48.17927934574591,28.93393657112295],[48.18061665400766,28.934813128504356],[48.179439881019746,28.94506939323596],[48.147026171863416,28.98820728876881]]]},"properties":{"shapeName":"UmAl-Hayman-AliSabahAs-Salem","shapeISO":"","shapeID":"36326507B42122784272409","shapeGroup":"KWT","shapeType":"ADM2"}},
{"type":"Feature","geometry":{"type":"Polygon","coordinates":[[[48.16373332151957,28.988864660496517],[48.15834668804928,29.00322901640601],[48.15821739161936,29.020296128063933],[48.086133303062034,29.020190122682386],[48.070825776288586,29.01989288914558],[48.07847062627524,28.986473684331667],[48.073688385515304,28.971277705018196],[48.07314042618975,28.94155468140349],[48.09102613081038,28.941292428246864],[48.108955501295384,28.94013242157405],[48.12783276117307,28.978274830619],[48.13908153978127,28.995729831566507],[48.14050379871139,28.996764202106306],[48.15985488852973,28.988778473212204],[48.16373332151957,28.988864660496517]]]},"properties":{"shapeName":"Mina_Abdulla","shapeISO":"","shapeID":"36326507B88689680570131","shapeGroup":"KWT","shapeType":"ADM2"}},
{"type":"Feature","geometry":{"type":"Polygon","coordinates":[[[48.08931784463189,29.020461971380055],[48.1562314007586,29.02054437782084],[48.15556940350524,29.03651505672451],[48.17220207966233,29.03965954255392],[48.16127912812931,29.0464450119278],[48.15515565600879,29.041149035699505],[48.15995513452191,29.05289948402401],[48.146466944194174,29.052651235166422],[48.14654969351358,29.045865764893165],[48.111712098734415,29.045617516035577],[48.11397178000671,29.038077807447607],[48.108828260671004,29.038016937627244],[48.09870220399564,29.03704819603777],[48.09196161994965,29.035983856528],[48.0900068748035,29.035817495421693],[48.08931784463189,29.020461971380055]]]},"properties":{"shapeName":"South_Shuaiba","shapeISO":"","shapeID":"36326507B59239433897503","shapeGroup":"KWT","shapeType":"ADM2"}},
{"type":"Feature","geometry":{"type":"Polygon","coordinates":[[[48.09870220399564,29.03704819603777],[48.108828260671004,29.038016937627244],[48.11397178000671,29.038077807447607],[48.111050101481055,29.04603126443135],[48.14638419487477,29.045865764893165],[48.14638419487477,29.053064982662875],[48.14936318116594,29.05298223334347],[48.149197681627754,29.06142269540112],[48.16012063316077,29.068870162927738],[48.14259118677038,29.07179484708693],[48.137692104064044,29.071657474864036],[48.13176775150987,29.07228626556674],[48.114645264202,29.071773238740533],[48.10791969823535,29.071929647508348],[48.09710522331141,29.063278077114052],[48.09466424170462,29.063090308670265],[48.09300182011307,29.05183139327639],[48.09196161994965,29.035983856528],[48.09870220399564,29.03704819603777]]]},"properties":{"shapeName":"North_Shuaiba","shapeISO":"","shapeID":"36326507B5335163348166","shapeGroup":"KWT","shapeType":"ADM2"}},
{"type":"Feature","geometry":{"type":"Polygon","coordinates":[[[48.13176775150987,29.07228626556674],[48.137692104064044,29.071657474864036],[48.14259118677038,29.07179484708693],[48.13678523694915,29.095101796111067],[48.13413724883503,29.09245380799689],[48.113036092341815,29.09212280981984],[48.108236613828694,29.072180148295274],[48.114645264202,29.071773238740533],[48.13176775150987,29.07228626556674]]]},"properties":{"shapeName":"Fahaheel","shapeISO":"","shapeID":"36326507B79918830688436","shapeGroup":"KWT","shapeType":"ADM2"}},
{"type":"Feature","geometry":{"type":"Polygon","coordinates":[[[48.10791969823535,29.071929647508348],[48.11298051714203,29.09229222151538],[48.094192346599584,29.09302250354305],[48.094304133233855,29.071655933193156],[48.09467187917637,29.063424077961795],[48.09710522331141,29.063278077114052],[48.10791969823535,29.071929647508348]]]},"properties":{"shapeName":"South_Sabahiya","shapeISO":"","shapeID":"36326507B16099346977854","shapeGroup":"KWT","shapeType":"ADM2"}},
{"type":"Feature","geometry":{"type":"Polygon","coordinates":[[[48.1136777526085,29.09753497436541],[48.113595529110455,29.09234119668895],[48.13457155303479,29.093112890547502],[48.13400919425093,29.120829719244323],[48.11429699614568,29.11892702940884],[48.1136777526085,29.09753497436541]]]},"properties":{"shapeName":"Mangaf","shapeISO":"","shapeID":"36326507B78895325613219","shapeGroup":"KWT","shapeType":"ADM2"}},
{"type":"Feature","geometry":{"type":"Polygon","coordinates":[[[48.09959399884724,29.12187014844758],[48.08976089867323,29.123701528180643],[48.09343838309938,29.094872672018074],[48.094192346599584,29.09302250354305],[48.11298051714203,29.09229222151538],[48.1136777526085,29.09753497436541],[48.11429699614568,29.11892702940884],[48.114044437303484,29.11898006054462],[48.09959399884724,29.12187014844758]]]},"properties":{"shapeName":"Sabahiya","shapeISO":"","shapeID":"36326507B65225547487376","shapeGroup":"KWT","shapeType":"ADM2"}},
{"type":"Feature","geometry":{"type":"Polygon","coordinates":[[[48.13400919425093,29.120829719244323],[48.126223235513976,29.13745016978953],[48.114620317936016,29.13750018264442],[48.10996539296183,29.137439466071378],[48.114044437303484,29.11898006054462],[48.11429699614568,29.11892702940884],[48.13400919425093,29.120829719244323]]]},"properties":{"shapeName":"Abu_Halifa","shapeISO":"","shapeID":"36326507B33644428325327","shapeGroup":"KWT","shapeType":"ADM2"}},
{"type":"Feature","geometry":{"type":"Polygon","coordinates":[[[48.09959399884724,29.12187014844758],[48.11387614546777,29.1192101497287],[48.10975595919204,29.13743673431934],[48.10961862560124,29.13749270122844],[48.10946601066039,29.137457107330253],[48.10362125461588,29.1360939534319],[48.09671089472606,29.134482272131415],[48.08777499162986,29.13249114531035],[48.08976089867323,29.123701528180643],[48.09959399884724,29.12187014844758]]]},"properties":{"shapeName":"Fahad_Al-Ahmad","shapeISO":"","shapeID":"36326507B21383766387922","shapeGroup":"KWT","shapeType":"ADM2"}},
{"type":"Feature","geometry":{"type":"Polygon","coordinates":[[[48.09300182011307,29.05183139327639],[48.09466424170462,29.063090308670265],[48.09467187917637,29.063424077961795],[48.094304133233855,29.071655933193156],[48.093266704156775,29.094878394648727],[48.08945610159609,29.095005414717036],[48.0730860226019,29.10883613807738],[48.05313698806419,29.11104197472591],[48.04720580797264,29.106126738082],[48.04045316023235,29.076870195773385],[48.050681907842744,29.06903753921851],[48.052241761463875,29.067997636804403],[48.089446074841256,29.05180525543446],[48.09300182011307,29.05183139327639]]]},"properties":{"shapeName":"Elahmdi","shapeISO":"","shapeID":"36326507B76430938745051","shapeGroup":"KWT","shapeType":"ADM2"}},
{"type":"Feature","geometry":{"type":"Polygon","coordinates":[[[48.10996539296183,29.137439466071378],[48.114620317936016,29.13750018264442],[48.126195575965085,29.13765116466959],[48.129006024808234,29.134984841177527],[48.11891723479484,29.16257047655],[48.105859283213334,29.160753057889696],[48.1080966748684,29.14835417927991],[48.10961862560124,29.13749270122844],[48.10975595919204,29.13743673431934],[48.10996539296183,29.137439466071378]]]},"properties":{"shapeName":"Mahboula","shapeISO":"","shapeID":"36326507B70117597846307","shapeGroup":"KWT","shapeType":"ADM2"}},
{"type":"Feature","geometry":{"type":"Polygon","coordinates":[[[48.105859283213334,29.160753057889696],[48.10577139016633,29.16106696153947],[48.0891553040741,29.158549372955235],[48.09672189669823,29.1347686531509],[48.10362125461588,29.1360939534319],[48.10946601066039,29.137457107330253],[48.1080966748684,29.14835417927991],[48.105859283213334,29.160753057889696]]]},"properties":{"shapeName":"Riqqa","shapeISO":"","shapeID":"36326507B563633990170","shapeGroup":"KWT","shapeType":"ADM2"}},
{"type":"Feature","geometry":{"type":"Polygon","coordinates":[[[48.09671089472606,29.134482272131415],[48.089011177823636,29.158621435630778],[48.075744927974455,29.153620478536805],[48.08777499162986,29.13249114531035],[48.09671089472606,29.134482272131415]]]},"properties":{"shapeName":"Hadiya","shapeISO":"","shapeID":"36326507B36938484037444","shapeGroup":"KWT","shapeType":"ADM2"}},
{"type":"Feature","geometry":{"type":"Polygon","coordinates":[[[48.11891723479484,29.16257047655],[48.11697154000461,29.186653859587977],[48.108251942772995,29.185428792304947],[48.10577139016633,29.16106696153947],[48.105859283213334,29.160753057889696],[48.11891723479484,29.16257047655]]]},"properties":{"shapeName":"Al_Fantas","shapeISO":"","shapeID":"36326507B78873406652692","shapeGroup":"KWT","shapeType":"ADM2"}},
{"type":"Feature","geometry":{"type":"Polygon","coordinates":[[[48.08830935101312,29.17244808690085],[48.08872292712147,29.158693498306377],[48.10558561928093,29.161287759122843],[48.10803575384699,29.18557291765609],[48.10103028791391,29.1836886890937],[48.10026391166737,29.183482560332664],[48.096094250528914,29.182361065390342],[48.08773829598215,29.1738150727029],[48.08830935101312,29.17244808690085]]]},"properties":{"shapeName":"Egaila","shapeISO":"","shapeID":"36326507B6766902350009","shapeGroup":"KWT","shapeType":"ADM2"}},
{"type":"Feature","geometry":{"type":"Polygon","coordinates":[[[48.08830935101312,29.17244808690085],[48.08773829598215,29.1738150727029],[48.086993420210206,29.180240271571336],[48.08050776951802,29.18160946510477],[48.06551870962079,29.17634888079624],[48.07405932426653,29.15724658984983],[48.07499325236645,29.15524338170616],[48.088578801770325,29.15876556098192],[48.08830935101312,29.17244808690085]]]},"properties":{"shapeName":"Jaber_Al-Ali","shapeISO":"","shapeID":"36326507B53750879151657","shapeGroup":"KWT","shapeType":"ADM2"}},
{"type":"Feature","geometry":{"type":"Polygon","coordinates":[[[48.07405932426653,29.15724658984983],[48.06508633266816,29.1764930070467],[48.04980902206876,29.172313365569437],[48.05555871710888,29.16282772054648],[48.055973361672685,29.161946600848438],[48.07499325236645,29.15524338170616],[48.07405932426653,29.15724658984983]]]},"properties":{"shapeName":"Dhaher","shapeISO":"","shapeID":"36326507B63426314593937","shapeGroup":"KWT","shapeType":"ADM2"}},
{"type":"Feature","geometry":{"type":"Polygon","coordinates":[[[48.09343838309938,29.094872672018074],[48.08976089867323,29.123701528180643],[48.08777499162986,29.13249114531035],[48.075744927974455,29.153620478536805],[48.055973361672685,29.161946600848438],[48.05555871710888,29.16282772054648],[48.05243933850471,29.166338617033603],[48.04953127275007,29.172937690222284],[48.03420800049889,29.174391723099575],[48.014637809172534,29.182957497624912],[47.991764105186505,29.180216229139184],[47.985540237392115,29.180116090485228],[47.985432405980816,29.16486853755299],[48.04720580797264,29.106126738082],[48.05313698806419,29.11104197472591],[48.07301949975016,29.108960232828508],[48.08945610159609,29.095005414717036],[48.093266704156775,29.094878394648727],[48.09343838309938,29.094872672018074]]]},"properties":{"shapeName":"Magwa","shapeISO":"","shapeID":"36326507B15566861646735","shapeGroup":"KWT","shapeType":"ADM2"}},
{"type":"Feature","geometry":{"type":"Polygon","coordinates":[[[47.563891630056965,29.03071707377456],[47.56378278880333,29.030702924411163],[47.56244093537337,29.030195263877612],[47.57463696472422,29.01338987254462],[47.56405030380167,28.982150510901686],[47.535475308138984,28.90670019735626],[47.58692522651802,28.836530778172914],[47.60024708003874,28.758666838703675],[47.59553849420621,28.689645854672506],[47.605759571646956,28.6549630970693],[47.63883451859823,28.630271730056336],[47.65330480817039,28.59685225192993],[47.708889095255586,28.542990618921976],[47.704525039698865,28.524845335244095],[47.97417773591383,28.528979703950256],[47.9818722553004,28.6172944077108],[48.00449643796031,28.61511237993244],[48.007370863496206,28.607222999664774],[48.00971463014425,28.60079010860039],[48.01898864861005,28.604000345354045],[48.02589774672888,28.606813335318993],[48.01819099870321,28.61914413373016],[48.16527743300719,28.682984927912116],[48.23223123268531,28.586860862239064],[48.23395872188297,28.56564985768944],[48.23246092043519,28.53299922833179],[48.40311846174768,28.534492194659094],[48.338559663460856,28.58198483105149],[48.33513585965184,28.609843216406997],[48.31046372631465,28.652423900696704],[48.29458384189486,28.650214078520044],[48.27521963141473,28.64751938247432],[48.26993519328853,28.671765624786648],[48.2978054620483,28.674360831441025],[48.298021478444795,28.675368908179077],[48.29828097263585,28.679374211696857],[48.29499275469323,28.692795931468073],[48.28046512623729,28.752094238781883],[48.267943993720394,28.803978009977243],[48.20540594862606,28.921468512264294],[48.19309191824525,28.931952078510907],[48.184879659091074,28.93894359633365],[48.18061665400766,28.934813128504356],[48.17927934574591,28.93393657112295],[48.15747632621948,28.937115094772377],[48.15454361340277,28.93838914228398],[48.12230036439598,28.957482734829554],[48.12034324876462,28.959130831920525],[48.109233772220875,28.939775145206852],[48.09102613081038,28.941292428246864],[48.07314042618975,28.94155468140349],[48.073688385515304,28.971277705018196],[48.07847062627524,28.986473684331667],[48.070825776288586,29.01989288914558],[48.086133303062034,29.020190122682386],[48.08931784463189,29.020461971380055],[48.0900068748035,29.035817495421693],[48.089446074841256,29.05180525543446],[48.052241761463875,29.067997636804403],[48.050681907842744,29.06903753921851],[48.04045316023235,29.076870195773385],[48.04720580797264,29.106126738082],[47.985432405980816,29.16486853755299],[47.985540237392115,29.180116090485228],[47.94291427136978,29.183340244533692],[47.90810593464124,29.183275665139888],[47.880072170997344,29.1912104496365],[47.87499180506434,29.13227145706213],[47.78996028532418,29.130880999659844],[47.785002728390864,29.115324996831934],[47.784995553857506,29.114542075670006],[47.7846477113818,29.076583755337147],[47.78464165746911,29.075923121937635],[47.7843093027295,29.039654901259667],[47.78422647577128,29.030616407021625],[47.727608596959215,29.04313435656536],[47.71853595467064,29.03854061325876],[47.6689235337941,29.041526545913428],[47.563891630056965,29.03071707377456]],[[48.153403579711494,28.814300380758027],[48.11405052850915,28.72797755931697],[48.015479503776135,28.759082193288634],[48.05666028764222,28.837939013974392],[48.153403579711494,28.814300380758027]]]},"properties":{"shapeName":"Bar_Elahmadi","shapeISO":"","shapeID":"36326507B65172629586693","shapeGroup":"KWT","shapeType":"ADM2"}},
{"type":"Feature","geometry":{"type":"Polygon","coordinates":[[[48.153403579711494,28.814300380758027],[48.05666028764222,28.837939013974392],[48.015479503776135,28.759082193288634],[48.11405052850915,28.72797755931697],[48.153403579711494,28.814300380758027]]]},"properties":{"shapeName":"Saba_Elahmad","shapeISO":"","shapeID":"36326507B77828309021298","shapeGroup":"KWT","shapeType":"ADM2"}},
{"type":"Feature","geometry":{"type":"Polygon","coordinates":[[[48.08477563055865,29.26966508865541],[48.085819763571294,29.309659671156965],[48.08301268506342,29.308889830953195],[48.08477563055865,29.26966508865541]]]},"properties":{"shapeName":"Angafa","shapeISO":"","shapeID":"36326507B41253409402047","shapeGroup":"KWT","shapeType":"ADM2"}},
{"type":"Feature","geometry":{"type":"Polygon","coordinates":[[[48.08477563055865,29.26966508865541],[48.08301268506342,29.308889830953195],[48.06102285141964,29.304372894279275],[48.06574673623832,29.291626235632293],[48.08150217851119,29.275134550764005],[48.08477563055865,29.26966508865541]]]},"properties":{"shapeName":"Salwa","shapeISO":"","shapeID":"36326507B15879280159469","shapeGroup":"KWT","shapeType":"ADM2"}},
{"type":"Feature","geometry":{"type":"Polygon","coordinates":[[[48.08150217851119,29.275134550764005],[48.06574673623832,29.291626235632293],[48.052744602164886,29.280443563743713],[48.05317251666087,29.278860369026063],[48.056150122929864,29.270467190308636],[48.056599274936616,29.265032460379814],[48.0638438780078,29.265202421525103],[48.08277718866652,29.268697282301105],[48.082960306429115,29.26875342058857],[48.08150217851119,29.275134550764005]]]},"properties":{"shapeName":"Mishrift","shapeISO":"","shapeID":"36326507B37526421677528","shapeGroup":"KWT","shapeType":"ADM2"}},
{"type":"Feature","geometry":{"type":"Polygon","coordinates":[[[48.052744602164886,29.280443563743713],[48.03663384727412,29.277143610741007],[48.04199197814734,29.26525703548384],[48.056554359196355,29.265099833090858],[48.05317251666087,29.278860369026063],[48.052744602164886,29.280443563743713]]]},"properties":{"shapeName":"MubarakAlAbdullah_MishriftWest","shapeISO":"","shapeID":"36326507B57225521740596","shapeGroup":"KWT","shapeType":"ADM2"}},
{"type":"Feature","geometry":{"type":"Polygon","coordinates":[[[48.04757841138754,29.3213281839084],[48.05278598038876,29.31462773927882],[48.022073978028,29.3080022571081],[48.00483070959402,29.306321038348827],[48.02223920487546,29.30788148754067],[48.02949032431568,29.291211180498408],[48.03487742255504,29.280420381295585],[48.03663384727412,29.277143610741007],[48.052744602164886,29.280443563743713],[48.06574673623832,29.291626235632293],[48.06102285141964,29.304372894279275],[48.0537908418313,29.315327076817834],[48.04757841138754,29.3213281839084]]]},"properties":{"shapeName":"Bayan","shapeISO":"","shapeID":"36326507B81339423568424","shapeGroup":"KWT","shapeType":"ADM2"}},
{"type":"Feature","geometry":{"type":"Polygon","coordinates":[[[48.03487742255504,29.280420381295585],[48.01444433770688,29.2805825730181],[48.01274324990112,29.266090660255827],[48.0403125337471,29.26530490171732],[48.0406168339909,29.265296228785658],[48.04199197814734,29.26525703548384],[48.03663384727412,29.277143610741007],[48.03487742255504,29.280420381295585]]]},"properties":{"shapeName":"Shuhada","shapeISO":"","shapeID":"36326507B40790951405287","shapeGroup":"KWT","shapeType":"ADM2"}},
{"type":"Feature","geometry":{"type":"Polygon","coordinates":[[[47.988039037690434,29.266579532133562],[48.01271719923943,29.26604305014672],[48.014289228565076,29.2806404651854],[48.00335014650876,29.28575080960052],[48.00129802246405,29.286167609667917],[47.98528559787047,29.285806483908853],[47.988039037690434,29.266579532133562]]]},"properties":{"shapeName":"Zahra","shapeISO":"","shapeID":"36326507B36316951373685","shapeGroup":"KWT","shapeType":"ADM2"}},
{"type":"Feature","geometry":{"type":"Polygon","coordinates":[[[48.02949032431568,29.291211180498408],[48.00281851706097,29.290669365598774],[48.00129802246405,29.286167609667917],[48.00335014650876,29.28575080960052],[48.01444433770688,29.2805825730181],[48.03487742255504,29.280420381295585],[48.02949032431568,29.291211180498408]]]},"properties":{"shapeName":"Hitteen","shapeISO":"","shapeID":"36326507B57687792647375","shapeGroup":"KWT","shapeType":"ADM2"}},
{"type":"Feature","geometry":{"type":"Polygon","coordinates":[[[48.00129802246405,29.286167609667917],[48.00281851706097,29.290669365598774],[48.00028523872823,29.30587785491649],[47.99934282514216,29.305794752682495],[47.99926484252903,29.305792917793024],[47.979663893049576,29.304212658401582],[47.98008216925472,29.302485331604217],[47.98528559787047,29.285806483908853],[48.00129802246405,29.286167609667917]]]},"properties":{"shapeName":"Siddiq","shapeISO":"","shapeID":"36326507B87428492063113","shapeGroup":"KWT","shapeType":"ADM2"}},
{"type":"Feature","geometry":{"type":"Polygon","coordinates":[[[48.00483070959402,29.306321038348827],[48.00028523872823,29.30587785491649],[48.00281851706097,29.290669365598774],[48.02949032431568,29.291211180498408],[48.02223920487546,29.30788148754067],[48.00483070959402,29.306321038348827]]]},"properties":{"shapeName":"Salam","shapeISO":"","shapeID":"36326507B12035894090440","shapeGroup":"KWT","shapeType":"ADM2"}},
{"type":"Feature","geometry":{"type":"Polygon","coordinates":[[[48.085819763571294,29.309659671156965],[48.09076436007158,29.323552282365032],[48.06886918786279,29.325048048029032],[48.0537908418313,29.315327076817834],[48.06102285141964,29.304372894279275],[48.08301268506342,29.308889830953195],[48.085819763571294,29.309659671156965]]]},"properties":{"shapeName":"Rumaithiya","shapeISO":"","shapeID":"36326507B50347895237140","shapeGroup":"KWT","shapeType":"ADM2"}},
{"type":"Feature","geometry":{"type":"Polygon","coordinates":[[[48.0537908418313,29.315327076817834],[48.06886918786279,29.325048048029032],[48.09076436007158,29.323552282365032],[48.10082001013541,29.352313324200622],[48.06138093877934,29.340858170967863],[48.041448638454604,29.34735531578456],[48.03317514698653,29.343749177364526],[48.03800872342687,29.330952638100047],[48.04757841138754,29.3213281839084],[48.0537908418313,29.315327076817834]]]},"properties":{"shapeName":"Salmiya","shapeISO":"","shapeID":"36326507B70491786687626","shapeGroup":"KWT","shapeType":"ADM2"}},
{"type":"Feature","geometry":{"type":"Polygon","coordinates":[[[48.022073978028,29.3080022571081],[48.05278598038876,29.31462773927882],[48.04757841138754,29.3213281839084],[48.03800872342687,29.330952638100047],[48.012904733853595,29.323461395949863],[48.01246473084735,29.323263480026323],[48.022073978028,29.3080022571081]]]},"properties":{"shapeName":"Jabriya","shapeISO":"","shapeID":"36326507B95832780364820","shapeGroup":"KWT","shapeType":"ADM2"}},
{"type":"Feature","geometry":{"type":"Polygon","coordinates":[[[48.03317514698653,29.343749177364526],[48.014623864455686,29.351253797153756],[48.01332426590221,29.349488643586085],[48.00101121356525,29.341326954041158],[48.0122337399665,29.32358075713419],[48.012904733853595,29.323461395949863],[48.03800872342687,29.330952638100047],[48.03317514698653,29.343749177364526]]]},"properties":{"shapeName":"Hawalli","shapeISO":"","shapeID":"36326507B90885424076864","shapeGroup":"KWT","shapeType":"ADM2"}},
{"type":"Feature","geometry":{"type":"Polygon","coordinates":[[[48.041448638454604,29.34735531578456],[48.025148663948706,29.35996558295345],[48.014623864455686,29.351253797153756],[48.03317514698653,29.343749177364526],[48.041448638454604,29.34735531578456]]]},"properties":{"shapeName":"Shaab","shapeISO":"","shapeID":"36326507B73881491472371","shapeGroup":"KWT","shapeType":"ADM2"}},
{"type":"Feature","geometry":{"type":"Polygon","coordinates":[[[48.096094250528914,29.182361065390342],[48.10026391166737,29.183482560332664],[48.08981684435715,29.19818357488171],[48.06459073454201,29.194124192758135],[48.06812366157777,29.177863073821868],[48.080808798687144,29.182089933303814],[48.096094250528914,29.182361065390342]]]},"properties":{"shapeName":"Mubarak_Al_Kabeer","shapeISO":"","shapeID":"36326507B53350893337938","shapeGroup":"KWT","shapeType":"ADM2"}},
{"type":"Feature","geometry":{"type":"Polygon","coordinates":[[[48.10103028791391,29.1836886890937],[48.109681314642366,29.186918734976267],[48.10101264672575,29.214156909608036],[48.090379769984594,29.21139151512467],[48.08924602810999,29.209750916681685],[48.08981684435715,29.19818357488171],[48.10026391166737,29.183482560332664],[48.10103028791391,29.1836886890937]]]},"properties":{"shapeName":"Abu_Fataira","shapeISO":"","shapeID":"36326507B26642641984942","shapeGroup":"KWT","shapeType":"ADM2"}},
{"type":"Feature","geometry":{"type":"Polygon","coordinates":[[[48.109681314642366,29.186918734976267],[48.11633361310584,29.18840449697001],[48.10385682513473,29.21650660393716],[48.10101264672575,29.214156909608036],[48.109681314642366,29.186918734976267]]]},"properties":{"shapeName":"Abo_Elhaseena","shapeISO":"","shapeID":"36326507B25026169818342","shapeGroup":"KWT","shapeType":"ADM2"}},
{"type":"Feature","geometry":{"type":"Polygon","coordinates":[[[48.08981684435715,29.19818357488171],[48.08924602810999,29.209750916681685],[48.058380737481116,29.207296050672255],[48.06459073454201,29.194124192758135],[48.08981684435715,29.19818357488171]]]},"properties":{"shapeName":"Al_Qurain","shapeISO":"","shapeID":"36326507B42726526012183","shapeGroup":"KWT","shapeType":"ADM2"}},
{"type":"Feature","geometry":{"type":"Polygon","coordinates":[[[48.090379769984594,29.21139151512467],[48.10101264672575,29.214156909608036],[48.10385682513473,29.21650660393716],[48.099456449055936,29.23559118458553],[48.0905085538555,29.233152985153986],[48.08325147420836,29.2293938130524],[48.07943262684521,29.226976031687848],[48.090379769984594,29.21139151512467]]]},"properties":{"shapeName":"Fnaitees","shapeISO":"","shapeID":"36326507B11821748390108","shapeGroup":"KWT","shapeType":"ADM2"}},
{"type":"Feature","geometry":{"type":"Polygon","coordinates":[[[48.07943262684521,29.226976031687848],[48.08325147420836,29.2293938130524],[48.07992921118435,29.24629216883201],[48.07377555479143,29.244365300937602],[48.06548931138527,29.242838580376436],[48.04851055212032,29.239454792604647],[48.05433155165986,29.220296669056097],[48.07943262684521,29.226976031687848]]]},"properties":{"shapeName":"Al_Adan","shapeISO":"","shapeID":"36326507B95160782372907","shapeGroup":"KWT","shapeType":"ADM2"}},
{"type":"Feature","geometry":{"type":"Polygon","coordinates":[[[48.08277718866652,29.268697282301105],[48.08896969479565,29.249977368660666],[48.07991109624663,29.246471924568716],[48.07992921118435,29.24629216883201],[48.08325147420836,29.2293938130524],[48.0905085538555,29.233152985153986],[48.09931316277232,29.23559118458553],[48.10015241010569,29.248384589277407],[48.082960306429115,29.26875342058857],[48.08277718866652,29.268697282301105]]]},"properties":{"shapeName":"Messila","shapeISO":"","shapeID":"36326507B38695740973583","shapeGroup":"KWT","shapeType":"ADM2"}},
{"type":"Feature","geometry":{"type":"Polygon","coordinates":[[[48.0403125337471,29.26530490171732],[48.04857451909885,29.239550743072414],[48.06548931138527,29.242838580376436],[48.07377555479143,29.244365300937602],[48.07991109624663,29.246471924568716],[48.08896969479565,29.249977368660666],[48.08277718866652,29.268697282301105],[48.0638438780078,29.265202421525103],[48.04444864628806,29.264529866160444],[48.0406168339909,29.265296228785658],[48.0403125337471,29.26530490171732]]]},"properties":{"shapeName":"Sabah_Al-Salem","shapeISO":"","shapeID":"36326507B50245502217038","shapeGroup":"KWT","shapeType":"ADM2"}},
{"type":"Feature","geometry":{"type":"Polygon","coordinates":[[[48.014637809172534,29.182957497624912],[48.042305750709886,29.174560246158478],[48.06789256009364,29.178110416162838],[48.05832949051364,29.207279379939507],[48.00644133417703,29.196431525058905],[47.991764105186505,29.180216229139184],[48.014637809172534,29.182957497624912]]]},"properties":{"shapeName":"South_Wista","shapeISO":"","shapeID":"36326507B80315036059235","shapeGroup":"KWT","shapeType":"ADM2"}},
{"type":"Feature","geometry":{"type":"Polygon","coordinates":[[[48.0074505139786,29.2005396243875],[48.05822554417358,29.207543243725752],[48.040284792409295,29.265263488119558],[47.987586200915864,29.26491482116612],[47.990360528915346,29.24472407605532],[48.00855115101484,29.244474204820733],[48.0085011774874,29.233529847624425],[48.01619410216098,29.23308318087123],[48.0158990175314,29.223886355931633],[47.99727221666591,29.223155585954125],[48.0074505139786,29.2005396243875]]]},"properties":{"shapeName":"Wista","shapeISO":"","shapeID":"36326507B2821707601789","shapeGroup":"KWT","shapeType":"ADM2"}},
{"type":"Feature","geometry":{"type":"Polygon","coordinates":[[[47.990360528915346,29.24472407605532],[47.99727221666591,29.223155585954125],[48.0158990175314,29.223886355931633],[48.01619410216098,29.23308318087123],[48.0085011774874,29.233529847624425],[48.00855115101484,29.244474204820733],[47.990360528915346,29.24472407605532]]]},"properties":{"shapeName":"Subhan","shapeISO":"","shapeID":"36326507B14851901808766","shapeGroup":"KWT","shapeType":"ADM2"}},
{"type":"Feature","geometry":{"type":"Polygon","coordinates":[[[47.83006412539892,29.24839375629962],[47.82516136510745,29.24496853952954],[47.790405243607154,29.187835703654855],[47.78997114826428,29.13227145706213],[47.87499180506434,29.13227145706213],[47.880072170997344,29.1912104496365],[47.8837337106052,29.20954082330951],[47.88420392346554,29.219227098452084],[47.88438687342005,29.231428877130007],[47.88226263026989,29.237859018276563],[47.87903989156601,29.242426780359537],[47.875296133504726,29.246741321849544],[47.8606965604979,29.25696696345466],[47.852451896980035,29.252929864303564],[47.83006412539892,29.24839375629962]]]},"properties":{"shapeName":"Sebak_Al_Hegen","shapeISO":"","shapeID":"36326507B88130382359516","shapeGroup":"KWT","shapeType":"ADM2"}},
{"type":"Feature","geometry":{"type":"Polygon","coordinates":[[[47.8635885332979,29.26076675708481],[47.875296133504726,29.246741321849544],[47.87903989156601,29.242426780359537],[47.88226263026989,29.237859018276563],[47.88438687342005,29.231428877130007],[47.88420392346554,29.219227098452084],[47.8837337106052,29.20954082330951],[47.88104779392063,29.195997707728054],[47.887296720567235,29.18991767106371],[47.94258225082909,29.18366836905204],[47.94409955247142,29.23709445834069],[47.90807017849602,29.268198141431128],[47.88195794555946,29.267896846828577],[47.86499410558075,29.26770111046867],[47.86433824102137,29.267693542810544],[47.8635885332979,29.26076675708481]]]},"properties":{"shapeName":"West_Jleedb","shapeISO":"","shapeID":"36326507B82441915757932","shapeGroup":"KWT","shapeType":"ADM2"}},
{"type":"Feature","geometry":{"type":"Polygon","coordinates":[[[47.985540237392115,29.180116090485228],[47.991764105186505,29.180216229139184],[48.00644133417703,29.196431525058905],[48.0074505139786,29.2005396243875],[47.99727221666591,29.223155585954125],[47.990360528915346,29.24472407605532],[47.987586200915864,29.26491482116612],[47.97106611311068,29.26637729757425],[47.9717016371156,29.25937664450226],[47.970566211328,29.259022179052305],[47.960343274749825,29.25721470961766],[47.95187855312952,29.255999448562363],[47.94809711990052,29.252842627739543],[47.94409955247142,29.23709445834069],[47.94258225082909,29.18366836905204],[47.94291427136978,29.183340244533692],[47.985540237392115,29.180116090485228]]]},"properties":{"shapeName":"Airport_District","shapeISO":"","shapeID":"36326507B46214811972007","shapeGroup":"KWT","shapeType":"ADM2"}},
{"type":"Feature","geometry":{"type":"Polygon","coordinates":[[[47.9717016371156,29.25937664450226],[47.970893845274816,29.266377508914957],[47.95278884762729,29.26664773270676],[47.95360736174996,29.260457354179024],[47.95519541482738,29.259566171081982],[47.970566211328,29.259022179052305],[47.9717016371156,29.25937664450226]]]},"properties":{"shapeName":"Dhajeej","shapeISO":"","shapeID":"36326507B17858019706282","shapeGroup":"KWT","shapeType":"ADM2"}},
{"type":"Feature","geometry":{"type":"Polygon","coordinates":[[[47.95269048383424,29.26684015070904],[47.95251148168512,29.267134333925014],[47.92531664917845,29.267889745789454],[47.908017381996615,29.26830885247159],[47.90733244326281,29.278958551007683],[47.90605763019994,29.29554985933688],[47.906978339478826,29.27894832150787],[47.88899224029973,29.275869932251624],[47.8790998857512,29.297211130389428],[47.905843645673194,29.29890421118673],[47.91572926819123,29.299597747638018],[47.91644807688576,29.291342641610036],[47.91947095713875,29.29980687269115],[47.905823942720815,29.299074594017327],[47.866061867469625,29.297253694617634],[47.85967326992462,29.268399517436634],[47.86433824102137,29.267693542810544],[47.86499410558075,29.26770111046867],[47.87327485499131,29.275232592563135],[47.86535988884782,29.275547565767624],[47.86604612822629,29.29631182543045],[47.878951845651216,29.297153021594738],[47.88900373019689,29.27568668163492],[47.90728963710711,29.278809967106326],[47.907912233263005,29.26839878287757],[47.88195794555946,29.267896846828577],[47.90807017849602,29.268198141431128],[47.94409955247142,29.23709445834069],[47.94809711990052,29.252842627739543],[47.95187855312952,29.255999448562363],[47.960343274749825,29.25721470961766],[47.95519541482738,29.259566171081982],[47.95360736174996,29.260457354179024],[47.95269048383424,29.26684015070904]]]},"properties":{"shapeName":"Jleeb_Al- Shiyoukh","shapeISO":"","shapeID":"36326507B47545087989895","shapeGroup":"KWT","shapeType":"ADM2"}},
{"type":"Feature","geometry":{"type":"Polygon","coordinates":[[[47.988039037690434,29.266579532133562],[47.98528559787047,29.285806483908853],[47.98008216925472,29.302485331604217],[47.964246338197995,29.302533459451638],[47.97013721865778,29.271295582824962],[47.970623621483014,29.26664773270676],[47.988039037690434,29.266579532133562]]]},"properties":{"shapeName":"Khaitan","shapeISO":"","shapeID":"36326507B25478375809912","shapeGroup":"KWT","shapeType":"ADM2"}},
{"type":"Feature","geometry":{"type":"Polygon","coordinates":[[[47.95269048383424,29.26684015070904],[47.97062145951281,29.26653099530921],[47.96650540999673,29.29005127954298],[47.95721514949479,29.28960804200717],[47.94838095641603,29.289151974584],[47.952369129475244,29.267894330147108],[47.95251148168512,29.267134333925014],[47.95269048383424,29.26684015070904]]]},"properties":{"shapeName":"Farwaniya","shapeISO":"","shapeID":"36326507B82239068726526","shapeGroup":"KWT","shapeType":"ADM2"}},
{"type":"Feature","geometry":{"type":"Polygon","coordinates":[[[47.95721514949479,29.28960804200717],[47.96647082117153,29.29008586836818],[47.96416527335419,29.30257712036267],[47.96018374233688,29.30235854961371],[47.94620187121944,29.301361768730715],[47.94838095641603,29.289151974584],[47.95721514949479,29.28960804200717]]]},"properties":{"shapeName":"Omariya","shapeISO":"","shapeID":"36326507B66815976665838","shapeGroup":"KWT","shapeType":"ADM2"}},
{"type":"Feature","geometry":{"type":"Polygon","coordinates":[[[47.952369129475244,29.267894330147108],[47.94997851929327,29.28005083547771],[47.927658029594454,29.28032105926951],[47.92608910122319,29.272119841003306],[47.92531664917845,29.267889745789454],[47.95251148168512,29.267134333925014],[47.952369129475244,29.267894330147108]]]},"properties":{"shapeName":"Ashbelya","shapeISO":"","shapeID":"36326507B64117573621977","shapeGroup":"KWT","shapeType":"ADM2"}},
{"type":"Feature","geometry":{"type":"Polygon","coordinates":[[[47.94838095641603,29.289151974584],[47.94620187121944,29.301361768730715],[47.96018374233688,29.30235854961371],[47.92794388655339,29.300588705452178],[47.9279632432974,29.300262556246214],[47.927608395111406,29.280506194605266],[47.91523395848043,29.279576452091646],[47.91472727665409,29.289313556299735],[47.91512853884413,29.279540581187103],[47.927608395111406,29.280439785068097],[47.92608910122319,29.272119841003306],[47.927658029594454,29.28032105926951],[47.94997851929327,29.28005083547771],[47.952369129475244,29.267894330147108],[47.94838095641603,29.289151974584]],[[47.944507484679434,29.289153118640346],[47.92863083524492,29.289022267163944],[47.92798229814457,29.300587847251393],[47.9460872957921,29.301398519526117],[47.944507484679434,29.289153118640346]]]},"properties":{"shapeName":"Rehab","shapeISO":"","shapeID":"36326507B31420261158676","shapeGroup":"KWT","shapeType":"ADM2"}},
{"type":"Feature","geometry":{"type":"Polygon","coordinates":[[[47.944507484679434,29.289153118640346],[47.9460872957921,29.301398519526117],[47.92798229814457,29.300587847251393],[47.92863083524492,29.289022267163944],[47.944507484679434,29.289153118640346]]]},"properties":{"shapeName":"Rabiya","shapeISO":"","shapeID":"36326507B9010123919461","shapeGroup":"KWT","shapeType":"ADM2"}},
{"type":"Feature","geometry":{"type":"Polygon","coordinates":[[[47.963426744263046,29.307134973018478],[47.96147450249095,29.316179974682967],[47.943001256873565,29.314572378840552],[47.927206296899456,29.313394791334023],[47.912129444381335,29.30916138920507],[47.92646904491056,29.313072189130253],[47.92794388655339,29.300588705452178],[47.96018374233688,29.30235854961371],[47.96416527335419,29.30257712036267],[47.963426744263046,29.307134973018478]]]},"properties":{"shapeName":"Rai","shapeISO":"","shapeID":"36326507B53603358563085","shapeGroup":"KWT","shapeType":"ADM2"}},
{"type":"Feature","geometry":{"type":"Polygon","coordinates":[[[47.912129444381335,29.30916138920507],[47.90511889841968,29.30724942223176],[47.905823942720815,29.299074594017327],[47.91947095713875,29.29980687269115],[47.9279632432974,29.300262556246214],[47.92794388655339,29.300588705452178],[47.92646904491056,29.313072189130253],[47.912129444381335,29.30916138920507]]]},"properties":{"shapeName":"Riggai","shapeISO":"","shapeID":"36326507B72933182221430","shapeGroup":"KWT","shapeType":"ADM2"}},
{"type":"Feature","geometry":{"type":"Polygon","coordinates":[[[47.91947095713875,29.29980687269115],[47.91644807688576,29.291342641610036],[47.91472727665409,29.289313556299735],[47.91523395848043,29.279576452091646],[47.927608395111406,29.280506194605266],[47.9279632432974,29.300262556246214],[47.91947095713875,29.29980687269115]]]},"properties":{"shapeName":"Ardhiya_Makhzen","shapeISO":"","shapeID":"36326507B35314954602016","shapeGroup":"KWT","shapeType":"ADM2"}},
{"type":"Feature","geometry":{"type":"Polygon","coordinates":[[[47.91644807688576,29.291342641610036],[47.91572926819123,29.299597747638018],[47.905843645673194,29.29890421118673],[47.90605763019994,29.29554985933688],[47.90733244326281,29.278958551007683],[47.91512853884413,29.279540581187103],[47.91472727665409,29.289313556299735],[47.91644807688576,29.291342641610036]]]},"properties":{"shapeName":"Ardhiya_Herafiya","shapeISO":"","shapeID":"36326507B69203739304690","shapeGroup":"KWT","shapeType":"ADM2"}},
{"type":"Feature","geometry":{"type":"Polygon","coordinates":[[[47.92608910122319,29.272119841003306],[47.927608395111406,29.280439785068097],[47.91512853884413,29.279540581187103],[47.90733244326281,29.278958551007683],[47.908017381996615,29.26830885247159],[47.92531664917845,29.267889745789454],[47.92608910122319,29.272119841003306]]]},"properties":{"shapeName":"Ardhiya_Hkomeya","shapeISO":"","shapeID":"36326507B3157091791986","shapeGroup":"KWT","shapeType":"ADM2"}},
{"type":"Feature","geometry":{"type":"Polygon","coordinates":[[[47.88195794555946,29.267896846828577],[47.907912233263005,29.26839878287757],[47.90728963710711,29.278809967106326],[47.88900373019689,29.27568668163492],[47.87327485499131,29.275232592563135],[47.86499410558075,29.26770111046867],[47.88195794555946,29.267896846828577]]]},"properties":{"shapeName":"Sabah_Al_Nasser","shapeISO":"","shapeID":"36326507B874700590590","shapeGroup":"KWT","shapeType":"ADM2"}},
{"type":"Feature","geometry":{"type":"Polygon","coordinates":[[[47.90605763019994,29.29554985933688],[47.905843645673194,29.29890421118673],[47.8790998857512,29.297211130389428],[47.88899224029973,29.275869932251624],[47.906978339478826,29.27894832150787],[47.90605763019994,29.29554985933688]]]},"properties":{"shapeName":"Ardhiya","shapeISO":"","shapeID":"36326507B41657866795403","shapeGroup":"KWT","shapeType":"ADM2"}},
{"type":"Feature","geometry":{"type":"Polygon","coordinates":[[[47.87327485499131,29.275232592563135],[47.88900373019689,29.27568668163492],[47.878951845651216,29.297153021594738],[47.86604612822629,29.29631182543045],[47.86535988884782,29.275547565767624],[47.87327485499131,29.275232592563135]]]},"properties":{"shapeName":"Ferdous","shapeISO":"","shapeID":"36326507B16818514884382","shapeGroup":"KWT","shapeType":"ADM2"}},
{"type":"Feature","geometry":{"type":"Polygon","coordinates":[[[47.866061867469625,29.297253694617634],[47.905823942720815,29.299074594017327],[47.90511889841968,29.30724942223176],[47.889576178661954,29.309320859940733],[47.86609455222185,29.31104659122724],[47.86606239573356,29.297476620882822],[47.866061867469625,29.297253694617634]]]},"properties":{"shapeName":"Andalous","shapeISO":"","shapeID":"36326507B70605660478902","shapeGroup":"KWT","shapeType":"ADM2"}},
{"type":"Feature","geometry":{"type":"Polygon","coordinates":[[[48.275831727951925,29.453724782073095],[48.26988247969274,29.427783292664856],[48.33746870601601,29.42698775418154],[48.36150781993001,29.40208392413382],[48.40211489748458,29.3935751153993],[48.3993823937825,29.41128450577537],[48.35531645079362,29.450611803092272],[48.31591997582626,29.464274321602716],[48.31211522393846,29.475169746686504],[48.28800693327338,29.469531796055605],[48.275831727951925,29.453724782073095]]]},"properties":{"shapeName":"Fylaka","shapeISO":"","shapeID":"36326507B6393972495009","shapeGroup":"KWT","shapeType":"ADM2"}},
{"type":"Feature","geometry":{"type":"Polygon","coordinates":[[[47.75485428313825,29.330194165207978],[47.76450457509184,29.31688720068824],[47.786364684741216,29.31371534153294],[47.78912977266928,29.316094763989565],[47.78915836661526,29.317081256071255],[47.791588012920606,29.32722863109198],[47.79453680467006,29.329503413230494],[47.801239232404725,29.33451334151755],[47.79575623316367,29.33812423374644],[47.7846311293232,29.33916638342191],[47.78465725243304,29.339657972760403],[47.785397140365774,29.354598935892227],[47.78524736997019,29.35579709545965],[47.78367478486348,29.357120063839943],[47.778682451234204,29.357444566213815],[47.77316592256932,29.358717611428688],[47.76162720792934,29.359651741734524],[47.76234082130587,29.34474515186884],[47.75485428313825,29.330194165207978]]]},"properties":{"shapeName":"Mina_Doha","shapeISO":"","shapeID":"36326507B47648313259724","shapeGroup":"KWT","shapeType":"ADM2"}},
{"type":"Feature","geometry":{"type":"Polygon","coordinates":[[[47.7846311293232,29.33916638342191],[47.80406692194479,29.338962906870446],[47.8054576767511,29.35376385379479],[47.80343038650318,29.37871502817609],[47.805419519595205,29.381055185548405],[47.80452245934407,29.38378536810029],[47.79912330299811,29.369188891953854],[47.796464985270916,29.378155602199342],[47.79016681624563,29.36932180725563],[47.78683369401983,29.37534392038566],[47.775944815101184,29.368411844431137],[47.760761532218964,29.376803900479672],[47.7616585924701,29.360071781787326],[47.77304735415214,29.35882369815522],[47.7788197408384,29.357536611825253],[47.783344042993235,29.357302596537636],[47.78490414730862,29.35663955247344],[47.78548918687653,29.35531346344561],[47.78465725243304,29.339657972760403],[47.7846311293232,29.33916638342191]]]},"properties":{"shapeName":"Mina_Doha","shapeISO":"","shapeID":"36326507B93570712354614","shapeGroup":"KWT","shapeType":"ADM2"}},
{"type":"Feature","geometry":{"type":"Polygon","coordinates":[[[47.8323313199345,29.312878625348333],[47.833412409355276,29.322780794198366],[47.82373127587772,29.32784501783334],[47.82799672526869,29.353996860466793],[47.81900253713741,29.363038975268523],[47.851288958518694,29.377241167046293],[47.85085762118234,29.385372680504872],[47.83508983382882,29.39462247664602],[47.83734237475085,29.381969905786548],[47.80700495961128,29.36952501536723],[47.80413243326524,29.370212459837205],[47.8054576767511,29.35376385379479],[47.80406692194479,29.338962906870446],[47.803001357726544,29.336358195474418],[47.80109023003013,29.334330059684532],[47.79453680467006,29.329503413230494],[47.791588012920606,29.32722863109198],[47.78915836661526,29.317081256071255],[47.78912977266928,29.316094763989565],[47.80798333752252,29.313142798341172],[47.831882799768586,29.312883491743936],[47.8323313199345,29.312878625348333]]]},"properties":{"shapeName":"Doha","shapeISO":"","shapeID":"36326507B20459349391287","shapeGroup":"KWT","shapeType":"ADM2"}},
{"type":"Feature","geometry":{"type":"Polygon","coordinates":[[[47.83470535100236,29.312895131101186],[47.85428221997077,29.312743841523396],[47.8647740228223,29.31261640817962],[47.865080239232555,29.317319726718534],[47.83432201245097,29.321075413399683],[47.83470535100236,29.312895131101186]]]},"properties":{"shapeName":"Sulaibikhat","shapeISO":"","shapeID":"36326507B6172410953496","shapeGroup":"KWT","shapeType":"ADM2"}},
{"type":"Feature","geometry":{"type":"Polygon","coordinates":[[[47.8647740228223,29.31261640817962],[47.86605161024812,29.31118380489298],[47.88638243486123,29.31197675499439],[47.880485478746756,29.324610716970447],[47.865080239232555,29.317319726718534],[47.8647740228223,29.31261640817962]]]},"properties":{"shapeName":"Ghornata","shapeISO":"","shapeID":"36326507B7731209527342","shapeGroup":"KWT","shapeType":"ADM2"}},
{"type":"Feature","geometry":{"type":"Polygon","coordinates":[[[47.880485478746756,29.324610716970447],[47.88638243486123,29.31197675499439],[47.91424202581328,29.323168567576822],[47.90533359180022,29.333395997682636],[47.880485478746756,29.324610716970447]]]},"properties":{"shapeName":"Shuwaikh_Health","shapeISO":"","shapeID":"36326507B588443832973","shapeGroup":"KWT","shapeType":"ADM2"}},
{"type":"Feature","geometry":{"type":"Polygon","coordinates":[[[47.90511889841968,29.30724942223176],[47.912129444381335,29.30916138920507],[47.927206296899456,29.313394791334023],[47.926689257238934,29.316682631881534],[47.92139847296119,29.326618555701828],[47.889576178661954,29.309320859940733],[47.90511889841968,29.30724942223176]]]},"properties":{"shapeName":"Mubarakiya_Camps","shapeISO":"","shapeID":"36326507B75420344819789","shapeGroup":"KWT","shapeType":"ADM2"}},
{"type":"Feature","geometry":{"type":"Polygon","coordinates":[[[47.927206296899456,29.313394791334023],[47.943001256873565,29.314572378840552],[47.94148505172687,29.317355449674285],[47.936011918415375,29.324592002718816],[47.931361783119826,29.331653903904567],[47.921446747669336,29.326625452602627],[47.926689257238934,29.316682631881534],[47.927206296899456,29.313394791334023]]]},"properties":{"shapeName":"Suwaikh_Industrial-3","shapeISO":"","shapeID":"36326507B6022429723799","shapeGroup":"KWT","shapeType":"ADM2"}},
{"type":"Feature","geometry":{"type":"Polygon","coordinates":[[[47.91424202581328,29.323168567576822],[47.931314493169396,29.331685430538244],[47.92037216162942,29.343831076248097],[47.91988939402295,29.34388882299941],[47.90533359180022,29.333395997682636],[47.91424202581328,29.323168567576822]]]},"properties":{"shapeName":"Suwaikh_Educational","shapeISO":"","shapeID":"36326507B89380702788683","shapeGroup":"KWT","shapeType":"ADM2"}},
{"type":"Feature","geometry":{"type":"Polygon","coordinates":[[[47.91988939402295,29.34388882299941],[47.92037216162942,29.343831076248097],[47.935415274054286,29.345327731154914],[47.94038669080106,29.348422184348667],[47.94199716258093,29.349424620836395],[47.94555412279326,29.35165158707066],[47.94447811256425,29.353178827545637],[47.92526143526709,29.344579705888748],[47.91952364100331,29.352130265399467],[47.932937646255425,29.35793903146117],[47.925491578073945,29.36210393934539],[47.90181765725913,29.354721336320665],[47.91988939402295,29.34388882299941]]]},"properties":{"shapeName":"Suwaikh_Port","shapeISO":"","shapeID":"36326507B96225377310687","shapeGroup":"KWT","shapeType":"ADM2"}},
{"type":"Feature","geometry":{"type":"Polygon","coordinates":[[[47.935415274054286,29.345327731154914],[47.926289544726785,29.33955732051396],[47.93703486576652,29.32329720650091],[47.95006512003139,29.331663495363085],[47.952436912286025,29.33319637590307],[47.94038669080106,29.348422184348667],[47.935415274054286,29.345327731154914]]]},"properties":{"shapeName":"Suwaikh_Industrail-1","shapeISO":"","shapeID":"36326507B88112618561554","shapeGroup":"KWT","shapeType":"ADM2"}},
{"type":"Feature","geometry":{"type":"Polygon","coordinates":[[[47.94148505172687,29.317355449674285],[47.943001256873565,29.314572378840552],[47.96147450249095,29.316179974682967],[47.96132497506761,29.316872755573286],[47.9535744281688,29.331492329292086],[47.952436912286025,29.33319637590307],[47.95006512003139,29.331663495363085],[47.93712014577818,29.32329720650091],[47.94148505172687,29.317355449674285]]]},"properties":{"shapeName":"Suwaikh_Industrial-2","shapeISO":"","shapeID":"36326507B40345383267049","shapeGroup":"KWT","shapeType":"ADM2"}},
{"type":"Feature","geometry":{"type":"Polygon","coordinates":[[[47.963426744263046,29.307134973018478],[47.97908147463039,29.304046594874478],[47.970952891534694,29.31809264117775],[47.96132497506761,29.316872755573286],[47.96147450249095,29.316179974682967],[47.963426744263046,29.307134973018478]]]},"properties":{"shapeName":"Yarmouk","shapeISO":"","shapeID":"36326507B26148442025294","shapeGroup":"KWT","shapeType":"ADM2"}},
{"type":"Feature","geometry":{"type":"Polygon","coordinates":[[[47.97585612278837,29.318824622385936],[47.97484741768075,29.318697600278455],[47.979663893049576,29.304212658401582],[47.99926484252903,29.305792917793024],[47.99296631904042,29.320795650498894],[47.97585612278837,29.318824622385936]]]},"properties":{"shapeName":"Qortuba","shapeISO":"","shapeID":"36326507B11941126008030","shapeGroup":"KWT","shapeType":"ADM2"}},
{"type":"Feature","geometry":{"type":"Polygon","coordinates":[[[48.00028523872823,29.30587785491649],[48.00483070959402,29.306321038348827],[48.022073978028,29.3080022571081],[48.01246473084735,29.323263480026323],[47.99303560910613,29.32088093051061],[47.99934282514216,29.305794752682495],[48.00028523872823,29.30587785491649]]]},"properties":{"shapeName":"Surra","shapeISO":"","shapeID":"36326507B70357014789979","shapeGroup":"KWT","shapeType":"ADM2"}},
{"type":"Feature","geometry":{"type":"Polygon","coordinates":[[[48.00101121356525,29.341326954041158],[47.99987496427859,29.34084698672435],[47.99808610373558,29.339928051636235],[47.99170623005791,29.33695913741306],[47.99274423505847,29.3209733178644],[48.0122337399665,29.32358075713419],[48.00101121356525,29.341326954041158]]]},"properties":{"shapeName":"Rawda","shapeISO":"","shapeID":"36326507B37679014423839","shapeGroup":"KWT","shapeType":"ADM2"}},
{"type":"Feature","geometry":{"type":"Polygon","coordinates":[[[47.97585612278837,29.318824622385936],[47.99256656769302,29.32092890034852],[47.983182357925365,29.334052582507862],[47.972860024327616,29.332119643442],[47.97484741768075,29.318697600278455],[47.97585612278837,29.318824622385936]]]},"properties":{"shapeName":"Adailiya","shapeISO":"","shapeID":"36326507B36643936931430","shapeGroup":"KWT","shapeType":"ADM2"}},
{"type":"Feature","geometry":{"type":"Polygon","coordinates":[[[47.96132497506761,29.316872755573286],[47.970952891534694,29.31809264117775],[47.970935569321114,29.332033109340557],[47.9535744281688,29.331492329292086],[47.96132497506761,29.316872755573286]]]},"properties":{"shapeName":"Khaldiya","shapeISO":"","shapeID":"36326507B13150908659513","shapeGroup":"KWT","shapeType":"ADM2"}},
{"type":"Feature","geometry":{"type":"Polygon","coordinates":[[[47.97211252484743,29.343609987451224],[47.95381024290781,29.3464049949221],[47.952135014135344,29.34500263030506],[47.95210447736267,29.344978200889337],[47.946245140301016,29.341120793689754],[47.95249903030606,29.333275003838423],[47.97116997535465,29.332137554067053],[47.97211252484743,29.343609987451224]]]},"properties":{"shapeName":"Kifan","shapeISO":"","shapeID":"36326507B80008951470230","shapeGroup":"KWT","shapeType":"ADM2"}},
{"type":"Feature","geometry":{"type":"Polygon","coordinates":[[[47.94199716258093,29.349424620836395],[47.946151900389964,29.341160590488926],[47.95210447736267,29.344978200889337],[47.952135014135344,29.34500263030506],[47.94555412279326,29.35165158707066],[47.94199716258093,29.349424620836395]]]},"properties":{"shapeName":"Suwaikh_Commercial","shapeISO":"","shapeID":"36326507B66663279292596","shapeGroup":"KWT","shapeType":"ADM2"}},
{"type":"Feature","geometry":{"type":"Polygon","coordinates":[[[47.94555412279326,29.35165158707066],[47.952135014135344,29.34500263030506],[47.95381024290781,29.3464049949221],[47.96282486822868,29.35908277602594],[47.958184940317956,29.36483350317605],[47.9580788294269,29.36479552603088],[47.94447811256425,29.353178827545637],[47.94555412279326,29.35165158707066]]]},"properties":{"shapeName":"Suwaikh","shapeISO":"","shapeID":"36326507B65844780574226","shapeGroup":"KWT","shapeType":"ADM2"}},
{"type":"Feature","geometry":{"type":"Polygon","coordinates":[[[47.97211252484743,29.343609987451224],[47.972297765280494,29.344548058978553],[47.97386015087876,29.35888108697588],[47.9634059916782,29.35949531824181],[47.96282486822868,29.35908277602594],[47.95381024290781,29.3464049949221],[47.97211252484743,29.343609987451224]]]},"properties":{"shapeName":"Shamiya","shapeISO":"","shapeID":"36326507B94403328075981","shapeGroup":"KWT","shapeType":"ADM2"}},
{"type":"Feature","geometry":{"type":"Polygon","coordinates":[[[47.98610863785749,29.361323728868058],[47.97386015087876,29.35888108697588],[47.972297765280494,29.344548058978553],[47.982632363398515,29.345772429239883],[47.993350727569,29.35072311395664],[47.98610863785749,29.361323728868058]]]},"properties":{"shapeName":"Abdulla_Al-Salem","shapeISO":"","shapeID":"36326507B15087571652949","shapeGroup":"KWT","shapeType":"ADM2"}},
{"type":"Feature","geometry":{"type":"Polygon","coordinates":[[[47.99167315018369,29.365226112946182],[47.98610863785749,29.361323728868058],[47.993350727569,29.35072311395664],[47.99808610373558,29.339928051636235],[47.99987496427859,29.34084698672435],[47.99340208194059,29.350809815120897],[48.0023352699568,29.357333392022497],[48.01332426590221,29.349488643586085],[48.00241634890818,29.35746318349986],[47.99167315018369,29.365226112946182]]]},"properties":{"shapeName":"Mansouriya","shapeISO":"","shapeID":"36326507B96932424544514","shapeGroup":"KWT","shapeType":"ADM2"}},
{"type":"Feature","geometry":{"type":"Polygon","coordinates":[[[47.99597306690682,29.373762500284496],[47.995345050134006,29.373956172939074],[47.99167315018369,29.365226112946182],[48.00241634890818,29.35746318349986],[48.010929537266996,29.368189010119014],[47.99597306690682,29.373762500284496]]]},"properties":{"shapeName":"Dasma","shapeISO":"","shapeID":"36326507B79706889714566","shapeGroup":"KWT","shapeType":"ADM2"}},
{"type":"Feature","geometry":{"type":"Polygon","coordinates":[[[48.010929537266996,29.368189010119014],[48.01172346059124,29.369375332208882],[48.00136590989044,29.38268618150814],[47.996131033551855,29.379671960594976],[47.99597306690682,29.373762500284496],[48.010929537266996,29.368189010119014]]]},"properties":{"shapeName":"Bnaid_Al-QR","shapeISO":"","shapeID":"36326507B87618637753639","shapeGroup":"KWT","shapeType":"ADM2"}},
{"type":"Feature","geometry":{"type":"Polygon","coordinates":[[[47.983182357925365,29.334052582507862],[47.98696946777116,29.335217956000985],[47.982632363398515,29.345772429239883],[47.972297765280494,29.344548058978553],[47.97211252484743,29.343609987451224],[47.97116997535465,29.332137554067053],[47.972860024327616,29.332119643442],[47.983182357925365,29.334052582507862]]]},"properties":{"shapeName":"Faiha","shapeISO":"","shapeID":"36326507B99223407758894","shapeGroup":"KWT","shapeType":"ADM2"}},
{"type":"Feature","geometry":{"type":"Polygon","coordinates":[[[47.99808610373558,29.339928051636235],[47.993350727569,29.35072311395664],[47.982632363398515,29.345772429239883],[47.98696946777116,29.335217956000985],[47.99170623005791,29.33695913741306],[47.99808610373558,29.339928051636235]]]},"properties":{"shapeName":"Nuzha","shapeISO":"","shapeID":"36326507B34003832174664","shapeGroup":"KWT","shapeType":"ADM2"}},
{"type":"Feature","geometry":{"type":"Polygon","coordinates":[[[48.01332426590221,29.349488643586085],[48.0023352699568,29.357333392022497],[47.99340208194059,29.350809815120897],[47.99987496427859,29.34084698672435],[48.00101121356525,29.341326954041158],[48.01332426590221,29.349488643586085]]]},"properties":{"shapeName":"Qadsiya","shapeISO":"","shapeID":"36326507B55007443380882","shapeGroup":"KWT","shapeType":"ADM2"}},
{"type":"Feature","geometry":{"type":"Polygon","coordinates":[[[48.010929537266996,29.368189010119014],[48.00241634890818,29.35746318349986],[48.01332426590221,29.349488643586085],[48.014623864455686,29.351253797153756],[48.025148663948706,29.35996558295345],[48.02780543277453,29.366866043832886],[48.01172346059124,29.369375332208882],[48.010929537266996,29.368189010119014]]]},"properties":{"shapeName":"Daiya","shapeISO":"","shapeID":"36326507B65099017507843","shapeGroup":"KWT","shapeType":"ADM2"}},
{"type":"Feature","geometry":{"type":"Polygon","coordinates":[[[47.993703802057574,29.390882212444183],[48.001362415203495,29.38272798583957],[48.003036994761544,29.393552765447794],[47.98014922890383,29.391220733450155],[47.96537994263031,29.382267986978093],[47.9580788294269,29.36479552603088],[47.958184940317956,29.36483350317605],[47.97332389708026,29.379270949494753],[47.993703802057574,29.390882212444183]]]},"properties":{"shapeName":"The_Sea_Front","shapeISO":"","shapeID":"36326507B32378525048645","shapeGroup":"KWT","shapeType":"ADM2"}},
{"type":"Feature","geometry":{"type":"Polygon","coordinates":[[[47.98610863785749,29.361323728868058],[47.99167315018369,29.365226112946182],[47.995345050134006,29.373956172939074],[47.992939235220284,29.37532725900752],[47.97450690315749,29.361565825111914],[47.9634059916782,29.35949531824181],[47.97386015087876,29.35888108697588],[47.98610863785749,29.361323728868058]]]},"properties":{"shapeName":"The_Green_Belt","shapeISO":"","shapeID":"36326507B50646559812706","shapeGroup":"KWT","shapeType":"ADM2"}},
{"type":"Feature","geometry":{"type":"Polygon","coordinates":[[[47.958184940317956,29.36483350317605],[47.96282486822868,29.35908277602594],[47.9634059916782,29.35949531824181],[47.97450690315749,29.361565825111914],[47.981794319313316,29.37209960491922],[47.97332389708026,29.379270949494753],[47.958184940317956,29.36483350317605]]]},"properties":{"shapeName":"Qibla","shapeISO":"","shapeID":"36326507B38462583596387","shapeGroup":"KWT","shapeType":"ADM2"}},
{"type":"Feature","geometry":{"type":"Polygon","coordinates":[[[47.992939235220284,29.37532725900752],[47.981794319313316,29.37209960491922],[47.97450690315749,29.361565825111914],[47.992939235220284,29.37532725900752]]]},"properties":{"shapeName":"Mirqab","shapeISO":"","shapeID":"36326507B77408646080805","shapeGroup":"KWT","shapeType":"ADM2"}},
{"type":"Feature","geometry":{"type":"Polygon","coordinates":[[[47.992939235220284,29.37532725900752],[47.995345050134006,29.373956172939074],[47.99597306690682,29.373762500284496],[47.996131033551855,29.379671960594976],[47.993703802057574,29.390882212444183],[47.97332389708026,29.379270949494753],[47.981794319313316,29.37209960491922],[47.992939235220284,29.37532725900752]]]},"properties":{"shapeName":"Sharq","shapeISO":"","shapeID":"36326507B18350696257426","shapeGroup":"KWT","shapeType":"ADM2"}},
{"type":"Feature","geometry":{"type":"Polygon","coordinates":[[[48.00136590989044,29.38268618150814],[48.001362415203495,29.38272798583957],[47.993703802057574,29.390882212444183],[47.996131033551855,29.379671960594976],[48.00136590989044,29.38268618150814]]]},"properties":{"shapeName":"Dasman","shapeISO":"","shapeID":"36326507B62025152403860","shapeGroup":"KWT","shapeType":"ADM2"}}
]}