{"type":"FeatureCollection", "features": [
{"type":"Feature","geometry":{"type":"Polygon","coordinates":[[[35.30717053200004,33.10983345500006],[35.30674158900007,33.10156931600005],[35.32818874700007,33.09941332500006],[35.32518614500003,33.08467930900002],[35.35435428100004,33.05879896600004],[35.382235587000025,33.056282415000055],[35.43413771100006,33.064191332000064],[35.451295438000045,33.09222630900007],[35.50847261000007,33.09246588600007],[35.51378107800008,33.11824431300005],[35.48604219900005,33.12521900400003],[35.49010270900004,33.201829574000044],[35.455744551000066,33.20627250000007],[35.43200618800006,33.234492886000055],[35.43067871400007,33.25501553600003],[35.44947809200005,33.268531403000054],[35.45193782400003,33.284835807000036],[35.441213971000025,33.30936550900003],[35.43465432200003,33.310314592000054],[35.41684272200007,33.29493272800005],[35.417940817000044,33.28667169800008],[35.434412235000025,33.28529478300004],[35.415470104000065,33.259358838000026],[35.417666293000025,33.241681260000064],[35.398449639000034,33.24856905300004],[35.38719417000004,33.22767440600006],[35.36413418500007,33.22239255100004],[35.380948758000045,33.208942474000025],[35.36507786000004,33.198893042000066],[35.34963590600006,33.20104658900004],[35.35263850800004,33.18668861000003],[35.33719655400006,33.17376441700003],[35.31875199700005,33.176995644000044],[35.32690191800003,33.167301605000034],[35.30802841800005,33.14503716300004],[35.30717053200004,33.10983345500006]]]},"properties":{"shapeName":"Bent Jbail","shapeISO":"","shapeID":"6925839B74640193916916","shapeGroup":"LBN","shapeType":"ADM2"}},
{"type":"Feature","geometry":{"type":"Polygon","coordinates":[[[35.43465432200003,33.310314592000054],[35.42928852000006,33.317682027000046],[35.41316842200007,33.303461938000055],[35.39781594800007,33.31201565300006],[35.36288906900006,33.31105340200003],[35.345151411000074,33.327389003000064],[35.267911627000046,33.32609404200008],[35.25431829100006,33.34613528500006],[35.216736713000046,33.27981457100003],[35.19669853600004,33.27694009000004],[35.21627294000007,33.25319192200004],[35.19874553200003,33.18283221200005],[35.167760721000036,33.15723101400005],[35.15495449900004,33.132281481000064],[35.11591113800006,33.110830720000024],[35.11185062800007,33.094346700000074],[35.15839031500008,33.08858964600006],[35.182128678000026,33.094608375000064],[35.199620104000076,33.087804565000056],[35.21898561100005,33.099580057000026],[35.24491040200007,33.09382334700007],[35.30717053200004,33.10983345500006],[35.30802841800005,33.14503716300004],[35.32690191800003,33.167301605000034],[35.31875199700005,33.176995644000044],[35.33719655400006,33.17376441700003],[35.35263850800004,33.18668861000003],[35.34963590600006,33.20104658900004],[35.36507786000004,33.198893042000066],[35.380948758000045,33.208942474000025],[35.36413418500007,33.22239255100004],[35.38719417000004,33.22767440600006],[35.398449639000034,33.24856905300004],[35.417666293000025,33.241681260000064],[35.415470104000065,33.259358838000026],[35.434412235000025,33.28529478300004],[35.417940817000044,33.28667169800008],[35.41684272200007,33.29493272800005],[35.43465432200003,33.310314592000054]]]},"properties":{"shapeName":"Sour","shapeISO":"","shapeID":"6925839B77249045158285","shapeGroup":"LBN","shapeType":"ADM2"}},
{"type":"Feature","geometry":{"type":"Polygon","coordinates":[[[35.51378107800008,33.11824431300005],[35.535780318000036,33.13028311900007],[35.531382473000065,33.14183323000003],[35.548980097000026,33.19993472700003],[35.54556380300005,33.232598747000054],[35.56898981900002,33.26892313700006],[35.57094198800007,33.290547340000046],[35.58899954200007,33.28197990000007],[35.601200592000055,33.25668064700005],[35.62813504500008,33.24521424500006],[35.622737691000054,33.27714063900004],[35.64472691200007,33.31339887000007],[35.635131615000034,33.335113172000035],[35.64292779400006,33.37501995900004],[35.625136515000065,33.370846466000046],[35.62133837700003,33.395383733000074],[35.61034376600003,33.404395684000065],[35.593551998000066,33.38370018400008],[35.55725729000005,33.37597983400008],[35.54879933500007,33.352199608000035],[35.53601770100005,33.299521851000065],[35.480335497000056,33.313191723000045],[35.441213971000025,33.30936550900003],[35.45193782400003,33.284835807000036],[35.44947809200005,33.268531403000054],[35.43067871400007,33.25501553600003],[35.43200618800006,33.234492886000055],[35.455744551000066,33.20627250000007],[35.49010270900004,33.201829574000044],[35.48604219900005,33.12521900400003],[35.51378107800008,33.11824431300005]]]},"properties":{"shapeName":"Marjaayoun","shapeISO":"","shapeID":"6925839B57733890920365","shapeGroup":"LBN","shapeType":"ADM2"}},
{"type":"Feature","geometry":{"type":"Polygon","coordinates":[[[35.62813504500008,33.24521424500006],[35.68219604400008,33.25512981000003],[35.738106137000045,33.31335710700006],[35.76086997800007,33.32024781100006],[35.795453026000075,33.34964202800006],[35.76966566700003,33.36450237300005],[35.79325410400003,33.40790007900006],[35.77926096300007,33.412739249000026],[35.75807135000008,33.44543829600008],[35.760470174000034,33.47162201200007],[35.74847605400004,33.48246008900003],[35.70329820000006,33.46295057400005],[35.69330310000004,33.46845370200003],[35.66471711300005,33.42692147100007],[35.652722992000065,33.43826558000006],[35.63592926800004,33.42846919100003],[35.61034376600003,33.404395684000065],[35.62133837700003,33.395383733000074],[35.625136515000065,33.370846466000046],[35.64292779400006,33.37501995900004],[35.635131615000034,33.335113172000035],[35.64472691200007,33.31339887000007],[35.622737691000054,33.27714063900004],[35.62813504500008,33.24521424500006]]]},"properties":{"shapeName":"Hasbaya","shapeISO":"","shapeID":"6925839B87816606095601","shapeGroup":"LBN","shapeType":"ADM2"}},
{"type":"Feature","geometry":{"type":"Polygon","coordinates":[[[35.441213971000025,33.30936550900003],[35.480335497000056,33.313191723000045],[35.53601770100005,33.299521851000065],[35.54879933500007,33.352199608000035],[35.54212920500004,33.36684640200008],[35.52831197900008,33.36887650800003],[35.52856785300003,33.389281778000054],[35.54663749500003,33.421353139000075],[35.52789668200006,33.429955748000054],[35.54226463900005,33.448722117000045],[35.52754435500003,33.463277436000055],[35.55569055800004,33.50691914500004],[35.53038296300008,33.51346617100006],[35.53677982800008,33.50813258200003],[35.507818232000034,33.497529342000064],[35.48300618800005,33.47862523200007],[35.463215889000026,33.49129628700007],[35.45841824100006,33.47879196800005],[35.43782833400007,33.49029600800003],[35.41503950500004,33.47812502100004],[35.43243098000005,33.464784989000066],[35.42163627100007,33.45344434700007],[35.40064656000004,33.45911485400006],[35.39424969600003,33.42358468600003],[35.40924234700003,33.408567567000034],[35.37859487000003,33.39866944800008],[35.38421711400008,33.378066483000055],[35.36984915700003,33.37910978800005],[35.34923426300003,33.40232009700003],[35.33116062200003,33.40177897600006],[35.32015801600005,33.39195227100004],[35.32143738900004,33.37026550000007],[35.30135123500003,33.369410738000056],[35.369461847000025,33.35298165200004],[35.36246527700007,33.33628225000007],[35.345151411000074,33.327389003000064],[35.36288906900006,33.31105340200003],[35.39781594800007,33.31201565300006],[35.41316842200007,33.303461938000055],[35.42928852000006,33.317682027000046],[35.43465432200003,33.310314592000054],[35.441213971000025,33.30936550900003]]]},"properties":{"shapeName":"Nabatiye","shapeISO":"","shapeID":"6925839B53479738564512","shapeGroup":"LBN","shapeType":"ADM2"}},
{"type":"Feature","geometry":{"type":"Polygon","coordinates":[[[35.61034376600003,33.404395684000065],[35.63592926800004,33.42846919100003],[35.635331517000054,33.45137618800004],[35.61502147300007,33.43669751200002],[35.62663179700007,33.49361907100007],[35.616140925000025,33.508465941000054],[35.61779011600004,33.537546564000024],[35.60104832300004,33.55274958500007],[35.60629575100006,33.57940048100005],[35.596300650000046,33.59397171000006],[35.58280726500004,33.58939244600003],[35.567564737000055,33.59896699300003],[35.54582539300003,33.58585375700005],[35.48036748100003,33.57018186700003],[35.441228187000036,33.57247645600006],[35.448623042000065,33.55941308000007],[35.428632841000024,33.55087538500004],[35.42488467900006,33.52213255200007],[35.44612426700007,33.511091098000065],[35.50188013500008,33.52961693900005],[35.51119397000008,33.51724482000003],[35.507818232000034,33.497529342000064],[35.53677982800008,33.50813258200003],[35.53038296300008,33.51346617100006],[35.55569055800004,33.50691914500004],[35.52754435500003,33.463277436000055],[35.54226463900005,33.448722117000045],[35.52789668200006,33.429955748000054],[35.54663749500003,33.421353139000075],[35.52856785300003,33.389281778000054],[35.52831197900008,33.36887650800003],[35.54212920500004,33.36684640200008],[35.54879933500007,33.352199608000035],[35.55725729000005,33.37597983400008],[35.593551998000066,33.38370018400008],[35.61034376600003,33.404395684000065]]]},"properties":{"shapeName":"Jezzine","shapeISO":"","shapeID":"6925839B23310202718855","shapeGroup":"LBN","shapeType":"ADM2"}},
{"type":"Feature","geometry":{"type":"Polygon","coordinates":[[[35.345151411000074,33.327389003000064],[35.36246527700007,33.33628225000007],[35.369461847000025,33.35298165200004],[35.30135123500003,33.369410738000056],[35.32143738900004,33.37026550000007],[35.32015801600005,33.39195227100004],[35.33116062200003,33.40177897600006],[35.34923426300003,33.40232009700003],[35.36984915700003,33.37910978800005],[35.38421711400008,33.378066483000055],[35.37859487000003,33.39866944800008],[35.40924234700003,33.408567567000034],[35.39424969600003,33.42358468600003],[35.40064656000004,33.45911485400006],[35.42163627100007,33.45344434700007],[35.43243098000005,33.464784989000066],[35.41503950500004,33.47812502100004],[35.43782833400007,33.49029600800003],[35.45841824100006,33.47879196800005],[35.463215889000026,33.49129628700007],[35.48300618800005,33.47862523200007],[35.507818232000034,33.497529342000064],[35.51119397000008,33.51724482000003],[35.50188013500008,33.52961693900005],[35.44612426700007,33.511091098000065],[35.42488467900006,33.52213255200007],[35.428632841000024,33.55087538500004],[35.448623042000065,33.55941308000007],[35.441228187000036,33.57247645600006],[35.39275593800005,33.59096217900003],[35.37166076900007,33.56919915700007],[35.36141579100007,33.52067432700005],[35.31943637000006,33.47420659900007],[35.29419874100006,33.46461822500004],[35.279580907000025,33.44722356300008],[35.25496797200003,33.382030977000056],[35.25431829100006,33.34613528500006],[35.267911627000046,33.32609404200008],[35.345151411000074,33.327389003000064]]]},"properties":{"shapeName":"Saida","shapeISO":"","shapeID":"6925839B37776772134920","shapeGroup":"LBN","shapeType":"ADM2"}},
{"type":"Feature","geometry":{"type":"Polygon","coordinates":[[[35.795453026000075,33.34964202800006],[35.82228362300003,33.36476324100005],[35.83360619800004,33.401928964000035],[35.89763731000005,33.43288826100007],[35.956592785000055,33.478166705000035],[35.96050971500006,33.50350542800004],[35.947612812000045,33.51267969600008],[35.948937787000034,33.527931876000025],[36.031137493000074,33.54512758300007],[36.06856914400004,33.57981683600008],[36.021092417000034,33.62352292700007],[35.94013210400004,33.64495162600008],[35.95237610200007,33.67552509500007],[35.969367772000055,33.68592175800006],[35.94474182300007,33.68862590800006],[35.92738835100005,33.67926803900008],[35.925389331000076,33.66325541600003],[35.90689839500004,33.64931993000005],[35.860820982000064,33.644502302000035],[35.82659775900004,33.60042389600005],[35.80852661700004,33.61227801000007],[35.79477335900003,33.60921474400004],[35.78167852800004,33.595649845000025],[35.785973298000044,33.58426650400003],[35.77191768800003,33.57418286200004],[35.77504115700003,33.563772706000066],[35.69734486800007,33.54294862900008],[35.69226923200006,33.531558338000025],[35.71257177900003,33.52667632600003],[35.708831488000044,33.49573872000008],[35.72694740700007,33.499152743000025],[35.74847605400004,33.48246008900003],[35.760470174000034,33.47162201200007],[35.75807135000008,33.44543829600008],[35.77926096300007,33.412739249000026],[35.79325410400003,33.40790007900006],[35.76966566700003,33.36450237300005],[35.795453026000075,33.34964202800006]]]},"properties":{"shapeName":"Rachaya","shapeISO":"","shapeID":"6925839B61839988636559","shapeGroup":"LBN","shapeType":"ADM2"}},
{"type":"Feature","geometry":{"type":"Polygon","coordinates":[[[35.74847605400004,33.48246008900003],[35.72694740700007,33.499152743000025],[35.708831488000044,33.49573872000008],[35.71257177900003,33.52667632600003],[35.69226923200006,33.531558338000025],[35.69734486800007,33.54294862900008],[35.77504115700003,33.563772706000066],[35.77191768800003,33.57418286200004],[35.785973298000044,33.58426650400003],[35.78167852800004,33.595649845000025],[35.79477335900003,33.60921474400004],[35.80852661700004,33.61227801000007],[35.82659775900004,33.60042389600005],[35.860820982000064,33.644502302000035],[35.90689839500004,33.64931993000005],[35.925389331000076,33.66325541600003],[35.92738835100005,33.67926803900008],[35.94474182300007,33.68862590800006],[35.91935823000006,33.706870767000055],[35.89259217600005,33.70087577100003],[35.87852283900003,33.71315078900005],[35.87989545800008,33.72485324200005],[35.90906359300004,33.74425867000008],[35.896803344000034,33.77819725400008],[35.86705792500004,33.76649894900004],[35.832834701000024,33.73418737900005],[35.82867673900006,33.71051109800004],[35.81460363800005,33.752272721000054],[35.794133672000044,33.75307051600004],[35.77197791900005,33.73812452800007],[35.75575248700005,33.72248306800003],[35.741359542000055,33.72780340700007],[35.75007846800003,33.70800475400006],[35.76164399900006,33.70919674000004],[35.75898290300006,33.701789132000044],[35.74813382200006,33.70417326000006],[35.70546588700006,33.680255733000024],[35.712634249000075,33.65978475500003],[35.70153031700005,33.66902654300003],[35.67511455500005,33.629486083000074],[35.62663179700007,33.49361907100007],[35.61502147300007,33.43669751200002],[35.635331517000054,33.45137618800004],[35.63592926800004,33.42846919100003],[35.652722992000065,33.43826558000006],[35.66471711300005,33.42692147100007],[35.69330310000004,33.46845370200003],[35.70329820000006,33.46295057400005],[35.74847605400004,33.48246008900003]]]},"properties":{"shapeName":"West Bekaa","shapeISO":"","shapeID":"6925839B74004510975279","shapeGroup":"LBN","shapeType":"ADM2"}},
{"type":"Feature","geometry":{"type":"Polygon","coordinates":[[[35.969367772000055,33.68592175800006],[35.97861805300005,33.693294878000074],[35.975964539000074,33.72057653200005],[35.994728674000044,33.73145356100002],[36.01545550000003,33.77441784900003],[36.03532986500005,33.76805044300005],[36.07338572700007,33.82258001200006],[36.095988084000055,33.86952834300007],[36.08501577900006,33.86746558600004],[36.07776991600008,33.87588819800004],[36.04878646700007,33.87159105100005],[36.03802118500005,33.88551302400003],[35.99992865200005,33.86230847400003],[35.97115222700006,33.909742150000056],[35.92270846100007,33.92159644700007],[35.91856796800005,33.93636905900007],[35.90874908600006,33.93607028400004],[35.89880125600007,33.92231108800007],[35.868327229000045,33.920112173000064],[35.85812505400003,33.906477633000065],[35.863159894000034,33.89888972700004],[35.841427063000026,33.88175245000008],[35.800977973000045,33.843396400000074],[35.792075913000076,33.81192430900006],[35.771994523000046,33.812784356000066],[35.783397440000044,33.79457015100007],[35.81400396300006,33.79181738400007],[35.794133672000044,33.75307051600004],[35.81460363800005,33.752272721000054],[35.82867673900006,33.71051109800004],[35.832834701000024,33.73418737900005],[35.86705792500004,33.76649894900004],[35.896803344000034,33.77819725400008],[35.90906359300004,33.74425867000008],[35.87989545800008,33.72485324200005],[35.87852283900003,33.71315078900005],[35.89259217600005,33.70087577100003],[35.91935823000006,33.706870767000055],[35.94474182300007,33.68862590800006],[35.969367772000055,33.68592175800006]]]},"properties":{"shapeName":"Zahle","shapeISO":"","shapeID":"6925839B31149323573129","shapeGroup":"LBN","shapeType":"ADM2"}},
{"type":"Feature","geometry":{"type":"Polygon","coordinates":[[[35.62663179700007,33.49361907100007],[35.67511455500005,33.629486083000074],[35.70153031700005,33.66902654300003],[35.712634249000075,33.65978475500003],[35.70546588700006,33.680255733000024],[35.74813382200006,33.70417326000006],[35.75898290300006,33.701789132000044],[35.76164399900006,33.70919674000004],[35.75007846800003,33.70800475400006],[35.741359542000055,33.72780340700007],[35.75575248700005,33.72248306800003],[35.77197791900005,33.73812452800007],[35.708139843000026,33.758116345000076],[35.67906454800004,33.73781425800007],[35.65580401500006,33.73993871500005],[35.64361440400006,33.75161690700003],[35.597770867000065,33.72627541500003],[35.57060923500006,33.728258932000074],[35.52516318600004,33.70952388500007],[35.51045615500004,33.71823068000003],[35.493894184000055,33.70456392400007],[35.48938932800007,33.717569436000076],[35.47308174900007,33.72155445900006],[35.48181587000005,33.729453428000056],[35.46787532800005,33.73500117000003],[35.47470714100007,33.74584686700007],[35.49292530900004,33.74584686700007],[35.46364098400005,33.765068116000066],[35.44997919800005,33.74607180000004],[35.44385494900007,33.70669490600005],[35.42147788500006,33.69278133700004],[35.41984561100003,33.65680276100005],[35.400592320000044,33.64870326700003],[35.40328364000004,33.61302195700006],[35.393967531000044,33.60905645400004],[35.39275593800005,33.59096217900003],[35.441228187000036,33.57247645600006],[35.48036748100003,33.57018186700003],[35.54582539300003,33.58585375700005],[35.567564737000055,33.59896699300003],[35.58280726500004,33.58939244600003],[35.596300650000046,33.59397171000006],[35.60629575100006,33.57940048100005],[35.60104832300004,33.55274958500007],[35.61779011600004,33.537546564000024],[35.616140925000025,33.508465941000054],[35.62663179700007,33.49361907100007]]]},"properties":{"shapeName":"Chouf","shapeISO":"","shapeID":"6925839B22224450252528","shapeGroup":"LBN","shapeType":"ADM2"}},
{"type":"Feature","geometry":{"type":"Polygon","coordinates":[[[35.794133672000044,33.75307051600004],[35.81400396300006,33.79181738400007],[35.783397440000044,33.79457015100007],[35.771994523000046,33.812784356000066],[35.72822738000008,33.799039478000054],[35.715715068000065,33.81018804200005],[35.64199795500008,33.81169110900004],[35.583770481000045,33.83083723300007],[35.56963759900003,33.81733519900007],[35.551735948000044,33.81694380400006],[35.542078479000054,33.80265665700006],[35.51970141600003,33.831032899000036],[35.48931571900005,33.828489207000075],[35.46364098400005,33.765068116000066],[35.49292530900004,33.74584686700007],[35.47470714100007,33.74584686700007],[35.46787532800005,33.73500117000003],[35.48181587000005,33.729453428000056],[35.47308174900007,33.72155445900006],[35.48938932800007,33.717569436000076],[35.493894184000055,33.70456392400007],[35.51045615500004,33.71823068000003],[35.52516318600004,33.70952388500007],[35.57060923500006,33.728258932000074],[35.597770867000065,33.72627541500003],[35.64361440400006,33.75161690700003],[35.65580401500006,33.73993871500005],[35.67906454800004,33.73781425800007],[35.708139843000026,33.758116345000076],[35.77197791900005,33.73812452800007],[35.794133672000044,33.75307051600004]]]},"properties":{"shapeName":"Aley","shapeISO":"","shapeID":"6925839B64789983329466","shapeGroup":"LBN","shapeType":"ADM2"}},
{"type":"Feature","geometry":{"type":"Polygon","coordinates":[[[35.841427063000026,33.88175245000008],[35.801646547000075,33.88902935300007],[35.75272662800006,33.87992162100005],[35.68192089200005,33.88511949300005],[35.626841021000075,33.87112091200004],[35.60660759900003,33.84335026700006],[35.56352165000004,33.848410331000025],[35.53077061700003,33.88057816500003],[35.51190394200006,33.865520837000076],[35.48436400700007,33.87112091200004],[35.48931571900005,33.828489207000075],[35.51970141600003,33.831032899000036],[35.542078479000054,33.80265665700006],[35.551735948000044,33.81694380400006],[35.56963759900003,33.81733519900007],[35.583770481000045,33.83083723300007],[35.64199795500008,33.81169110900004],[35.715715068000065,33.81018804200005],[35.72822738000008,33.799039478000054],[35.771994523000046,33.812784356000066],[35.792075913000076,33.81192430900006],[35.800977973000045,33.843396400000074],[35.841427063000026,33.88175245000008]]]},"properties":{"shapeName":"Baabda","shapeISO":"","shapeID":"6925839B63468798885318","shapeGroup":"LBN","shapeType":"ADM2"}},
{"type":"Feature","geometry":{"type":"Polygon","coordinates":[[[35.53077061700003,33.88057816500003],[35.54050051200005,33.898882524000044],[35.544277418000036,33.905898483000044],[35.53492508000005,33.90948087800007],[35.51064497400006,33.900823167000055],[35.50309116300008,33.902465214000074],[35.50866659500008,33.907540433000065],[35.47449459300003,33.90321158800003],[35.48436400700007,33.87112091200004],[35.51190394200006,33.865520837000076],[35.53077061700003,33.88057816500003]]]},"properties":{"shapeName":"Beirut","shapeISO":"","shapeID":"6925839B60872420025543","shapeGroup":"LBN","shapeType":"ADM2"}},
{"type":"Feature","geometry":{"type":"Polygon","coordinates":[[[35.90874908600006,33.93607028400004],[35.88049906500004,33.951969467000026],[35.808098760000064,33.98304522900003],[35.79994918800003,33.98094800200005],[35.80304040500005,33.97139331000005],[35.78022624100004,33.968803242000035],[35.776690194000025,33.95908847700008],[35.74215848700004,33.96254834300004],[35.68330350900004,33.94529654000007],[35.61406024200005,33.94872808400004],[35.597154094000075,33.95842517600005],[35.579629702000034,33.91007792900007],[35.54050051200005,33.898882524000044],[35.53077061700003,33.88057816500003],[35.56352165000004,33.848410331000025],[35.60660759900003,33.84335026700006],[35.626841021000075,33.87112091200004],[35.68192089200005,33.88511949300005],[35.75272662800006,33.87992162100005],[35.801646547000075,33.88902935300007],[35.841427063000026,33.88175245000008],[35.863159894000034,33.89888972700004],[35.85812505400003,33.906477633000065],[35.868327229000045,33.920112173000064],[35.89880125600007,33.92231108800007],[35.90874908600006,33.93607028400004]]]},"properties":{"shapeName":"El Metn","shapeISO":"","shapeID":"6925839B978992545808","shapeGroup":"LBN","shapeType":"ADM2"}},
{"type":"Feature","geometry":{"type":"Polygon","coordinates":[[[35.88049906500004,33.951969467000026],[35.90308343600003,33.968596611000066],[35.913200147000055,34.00052011400004],[35.94298824100008,34.01519624000008],[35.96423333400003,34.04313545400004],[35.944269691000045,34.07559787500003],[35.919090321000056,34.05935839600005],[35.86783231900006,34.06233835000006],[35.79463229400005,34.04341386100003],[35.78348143000005,34.05906039400003],[35.791574799000045,34.083046136000064],[35.73294283800004,34.07708757900008],[35.69553348900007,34.086770020000074],[35.658483845000035,34.07187349900005],[35.65668531800003,34.06412627200007],[35.64391578100003,34.07187349900005],[35.62251331600004,34.02269639100007],[35.64463519100008,34.01032311600005],[35.64283666500006,33.998544467000045],[35.635642559000075,33.986316801000044],[35.615858769000056,33.984825502000035],[35.597154094000075,33.95842517600005],[35.61406024200005,33.94872808400004],[35.68330350900004,33.94529654000007],[35.74215848700004,33.96254834300004],[35.776690194000025,33.95908847700008],[35.78022624100004,33.968803242000035],[35.80304040500005,33.97139331000005],[35.79994918800003,33.98094800200005],[35.808098760000064,33.98304522900003],[35.88049906500004,33.951969467000026]]]},"properties":{"shapeName":"Kesrouan","shapeISO":"","shapeID":"6925839B71215768953802","shapeGroup":"LBN","shapeType":"ADM2"}},
{"type":"Feature","geometry":{"type":"Polygon","coordinates":[[[35.96423333400003,34.04313545400004],[35.98669754200006,34.08544749200007],[36.00525087400007,34.09484729700006],[36.01683758000007,34.13533395600007],[36.01168269600004,34.14925646700004],[35.94785729300003,34.16775189300006],[35.93022459500003,34.15727164900005],[35.88170751000007,34.15483682900003],[35.86140798200006,34.18012085700008],[35.83737229400003,34.19240615900003],[35.81359050200007,34.194920489000026],[35.80330890000005,34.183901251000066],[35.773715768000045,34.19514233900003],[35.73345547400004,34.18501063600007],[35.69224525000004,34.197952376000046],[35.68176807400005,34.21170079900003],[35.651174721000075,34.209852402000024],[35.63455093500005,34.19506376700008],[35.62829082300004,34.147250144000054],[35.65317411500007,34.10623412500007],[35.64391578100003,34.07187349900005],[35.65668531800003,34.06412627200007],[35.658483845000035,34.07187349900005],[35.69553348900007,34.086770020000074],[35.73294283800004,34.07708757900008],[35.791574799000045,34.083046136000064],[35.78348143000005,34.05906039400003],[35.79463229400005,34.04341386100003],[35.86783231900006,34.06233835000006],[35.919090321000056,34.05935839600005],[35.944269691000045,34.07559787500003],[35.96423333400003,34.04313545400004]]]},"properties":{"shapeName":"Jbail","shapeISO":"","shapeID":"6925839B71735997192739","shapeGroup":"LBN","shapeType":"ADM2"}},
{"type":"Feature","geometry":{"type":"Polygon","coordinates":[[[36.01683758000007,34.13533395600007],[36.03415578600004,34.163129482000045],[36.007531914000026,34.16894845100006],[36.023951743000055,34.18177753400005],[35.99868434900003,34.19469074500006],[35.98880799700004,34.212558655000066],[35.96617469100005,34.21136757900007],[35.95197743600005,34.21987489600008],[35.91370657300007,34.21528105200008],[35.90321295000007,34.23960856400004],[35.855249714000024,34.25066099900005],[35.836934400000075,34.25003151800007],[35.826149318000034,34.26155610200004],[35.824498971000025,34.26284667800007],[35.80444943400005,34.24709253900005],[35.73470611300007,34.26716360100005],[35.70880519800005,34.299216958000045],[35.72500241500006,34.30998603300003],[35.73698572200004,34.30770179900003],[35.740458905000025,34.318327038000064],[35.76412099800007,34.320536212000036],[35.746335335000026,34.340436546000035],[35.731323280000026,34.33815314100008],[35.71104383800008,34.30650527100005],[35.684180162000075,34.31270527800007],[35.65445234300006,34.28110221800006],[35.660007791000055,34.24403099400007],[35.651174721000075,34.209852402000024],[35.68176807400005,34.21170079900003],[35.69224525000004,34.197952376000046],[35.73345547400004,34.18501063600007],[35.773715768000045,34.19514233900003],[35.80330890000005,34.183901251000066],[35.81359050200007,34.194920489000026],[35.83737229400003,34.19240615900003],[35.86140798200006,34.18012085700008],[35.88170751000007,34.15483682900003],[35.93022459500003,34.15727164900005],[35.94785729300003,34.16775189300006],[36.01168269600004,34.14925646700004],[36.01683758000007,34.13533395600007]]]},"properties":{"shapeName":"Batroun","shapeISO":"","shapeID":"6925839B96562179351486","shapeGroup":"LBN","shapeType":"ADM2"}},
{"type":"Feature","geometry":{"type":"MultiPolygon","coordinates":[[[[35.855249714000024,34.25066099900005],[35.826149318000034,34.26155610200004],[35.836934400000075,34.25003151800007],[35.855249714000024,34.25066099900005]]],[[[35.824498971000025,34.26284667800007],[35.83579313300004,34.27403538300007],[35.85967195600006,34.26707073500006],[35.878868657000055,34.28602870200007],[35.87041681300008,34.29556592400007],[35.85431906200006,34.35084750200008],[35.87356676700006,34.401800636000075],[35.86656740700005,34.39269391200003],[35.849357706000035,34.391542456000025],[35.827425875000074,34.418392152000024],[35.80849980700003,34.40078436500005],[35.780276308000055,34.375914769000076],[35.771357630679624,34.38309080397584],[35.73614771900003,34.37589227500007],[35.73754310000004,34.36531055200004],[35.72576957200005,34.36055914000008],[35.731323280000026,34.33815314100008],[35.746335335000026,34.340436546000035],[35.76412099800007,34.320536212000036],[35.740458905000025,34.318327038000064],[35.73698572200004,34.30770179900003],[35.72500241500006,34.30998603300003],[35.70880519800005,34.299216958000045],[35.73470611300007,34.26716360100005],[35.80444943400005,34.24709253900005],[35.824498971000025,34.26284667800007]]]]},"properties":{"shapeName":"Koura","shapeISO":"","shapeID":"6925839B38007173727278","shapeGroup":"LBN","shapeType":"ADM2"}},
{"type":"Feature","geometry":{"type":"MultiPolygon","coordinates":[[[[35.80849980700003,34.40078436500005],[35.771357630679624,34.38309080397584],[35.780276308000055,34.375914769000076],[35.80849980700003,34.40078436500005]]],[[[35.87356676700006,34.401800636000075],[35.853884254000036,34.42552450300008],[35.864962097000046,34.435586914000055],[35.86111680700003,34.45563937600008],[35.806960858000025,34.453893883000035],[35.827425875000074,34.418392152000024],[35.849357706000035,34.391542456000025],[35.86656740700005,34.39269391200003],[35.87356676700006,34.401800636000075]]]]},"properties":{"shapeName":"Tripoli","shapeISO":"","shapeID":"6925839B99718329093557","shapeGroup":"LBN","shapeType":"ADM2"}},
{"type":"Feature","geometry":{"type":"Polygon","coordinates":[[[36.023951743000055,34.18177753400005],[36.13809809500003,34.28747437900006],[36.139715815000045,34.301852919000055],[36.13013251500007,34.31122218200005],[36.127133651000065,34.30437365600005],[36.117099806000056,34.30731713400007],[36.109196918000066,34.28726447500003],[36.06468672600005,34.27303817600006],[36.034399888981326,34.27981830403402],[35.995169539000074,34.26739363300004],[35.95125912000003,34.28047230100003],[35.95055350500007,34.26881063600007],[35.94120410600004,34.268664855000054],[35.922152502000074,34.284407748000035],[35.87041681300008,34.29556592400007],[35.878868657000055,34.28602870200007],[35.85967195600006,34.26707073500006],[35.83579313300004,34.27403538300007],[35.824498971000025,34.26284667800007],[35.826149318000034,34.26155610200004],[35.855249714000024,34.25066099900005],[35.90321295000007,34.23960856400004],[35.91370657300007,34.21528105200008],[35.95197743600005,34.21987489600008],[35.96617469100005,34.21136757900007],[35.98880799700004,34.212558655000066],[35.99868434900003,34.19469074500006],[36.023951743000055,34.18177753400005]]]},"properties":{"shapeName":"Bcharre","shapeISO":"","shapeID":"6925839B40760308631941","shapeGroup":"LBN","shapeType":"ADM2"}},
{"type":"Feature","geometry":{"type":"Polygon","coordinates":[[[35.87041681300008,34.29556592400007],[35.922152502000074,34.284407748000035],[35.94120410600004,34.268664855000054],[35.95055350500007,34.26881063600007],[35.95125912000003,34.28047230100003],[35.995169539000074,34.26739363300004],[36.034399888981326,34.27981830403402],[36.02495178300006,34.29615833200006],[36.013099657000055,34.295019782000054],[35.926959504000024,34.357953907000024],[35.92145240000008,34.38808799200007],[35.92672384000008,34.39371741600007],[35.936491508000074,34.38629673300005],[35.95370120900003,34.39973024600005],[35.94424362600006,34.40702182100006],[35.94811968400006,34.42109148600008],[35.97571722300006,34.42825331500006],[35.97736687400004,34.45153013600003],[35.95523922900003,34.454475718000026],[35.95752145300003,34.440483277000055],[35.939263665000055,34.43442734200005],[35.94005748200004,34.45510470900007],[35.92470828900008,34.45625529000006],[35.91748133100003,34.44724903800005],[35.890237537000075,34.45416152700005],[35.864962097000046,34.435586914000055],[35.853884254000036,34.42552450300008],[35.87356676700006,34.401800636000075],[35.85431906200006,34.35084750200008],[35.87041681300008,34.29556592400007]]]},"properties":{"shapeName":"Zgharta","shapeISO":"","shapeID":"6925839B15174750350375","shapeGroup":"LBN","shapeType":"ADM2"}},
{"type":"Feature","geometry":{"type":"Polygon","coordinates":[[[35.864962097000046,34.435586914000055],[35.890237537000075,34.45416152700005],[35.91748133100003,34.44724903800005],[35.92470828900008,34.45625529000006],[35.94005748200004,34.45510470900007],[35.939263665000055,34.43442734200005],[35.95752145300003,34.440483277000055],[35.95523922900003,34.454475718000026],[35.97736687400004,34.45153013600003],[35.97571722300006,34.42825331500006],[35.94811968400006,34.42109148600008],[35.94424362600006,34.40702182100006],[35.95370120900003,34.39973024600005],[35.936491508000074,34.38629673300005],[35.92672384000008,34.39371741600007],[35.92145240000008,34.38808799200007],[35.926959504000024,34.357953907000024],[36.013099657000055,34.295019782000054],[36.02495178300006,34.29615833200006],[36.034399888981326,34.27981830403402],[36.06468672600005,34.27303817600006],[36.109196918000066,34.28726447500003],[36.117099806000056,34.30731713400007],[36.127133651000065,34.30437365600005],[36.13013251500007,34.31122218200005],[36.139715815000045,34.301852919000055],[36.16430989200006,34.33997957400004],[36.18210039600007,34.346542803000034],[36.18588561000007,34.36497960200006],[36.18285743900003,34.38809798800003],[36.15708770400005,34.399642295000035],[36.143392024000036,34.42026950300004],[36.117600355000036,34.446602701000074],[35.99162844400007,34.44300666700008],[35.98775238600007,34.49493435200003],[35.964496033000046,34.49792919400005],[35.95625940800005,34.51150446200006],[35.90672337600006,34.469038459000046],[35.86111680700003,34.45563937600008],[35.864962097000046,34.435586914000055]]]},"properties":{"shapeName":"Minieh-Dinnieh","shapeISO":"","shapeID":"6925839B71643877987616","shapeGroup":"LBN","shapeType":"ADM2"}},
{"type":"Feature","geometry":{"type":"Polygon","coordinates":[[[36.143392024000036,34.42026950300004],[36.18013681600007,34.41278846100005],[36.232035644000064,34.425138283000024],[36.24168350300005,34.41882638000004],[36.24866988400004,34.43144971000004],[36.24301424300006,34.45806222300007],[36.27994225500004,34.47287376300005],[36.31148374700007,34.512488517000065],[36.329692,34.52199921600004],[36.33749553700005,34.50404853600003],[36.34766655400006,34.50923152300004],[36.414474179000024,34.55882618500004],[36.39745474600005,34.57451454300008],[36.40495711500006,34.60842976500004],[36.41525778400006,34.61271147000008],[36.43315389600008,34.593356406000055],[36.452298573000064,34.59267118900004],[36.46511588300007,34.63644416600005],[36.42089584000007,34.627214104000075],[36.40317530800007,34.63791553000004],[36.38175459800004,34.634202292000055],[36.351372827000034,34.660394729000075],[36.355950902000075,34.68332771100006],[36.33979189100006,34.692813855000054],[36.312103559000036,34.683832374000076],[36.302450746000034,34.64476204700003],[36.277330412000026,34.62873423000008],[36.24498237600005,34.63567411900004],[36.22613000100006,34.62700427000004],[36.19754406800007,34.637369456000044],[36.17622574400008,34.62959568800005],[36.12607923400003,34.64215295100007],[36.11298239400003,34.63408064300006],[36.09894682200007,34.637332084000036],[36.09431372100005,34.62925930700004],[36.063653490000036,34.63643514700004],[36.03532790600008,34.62783608400008],[36.00769935900007,34.64583796800002],[35.98052626500004,34.65005498700003],[35.97506083600007,34.634008599000026],[35.99216990700006,34.55648216900005],[35.983391819000076,34.52266996000003],[35.95625940800005,34.51150446200006],[35.964496033000046,34.49792919400005],[35.98775238600007,34.49493435200003],[35.99162844400007,34.44300666700008],[36.117600355000036,34.446602701000074],[36.143392024000036,34.42026950300004]]]},"properties":{"shapeName":"Akkar","shapeISO":"","shapeID":"6925839B28822850251568","shapeGroup":"LBN","shapeType":"ADM2"}},
{"type":"Feature","geometry":{"type":"Polygon","coordinates":[[[36.13809809500003,34.28747437900006],[36.15359421200003,34.287894108000046],[36.16604126000004,34.27005268000005],[36.18052048000004,34.26690380000008],[36.26417480300006,34.271009916000025],[36.29522637800005,34.26012700900003],[36.308394847000045,34.274099868000064],[36.302867341000024,34.28726447500003],[36.32156331600004,34.28847336600006],[36.348174596000035,34.268373292000035],[36.36730360400003,34.30435210400003],[36.37248284000003,34.35078976800003],[36.41650635000008,34.36529626600003],[36.43500362300006,34.39781223400007],[36.49674752100003,34.44857904000003],[36.50281344200005,34.46253395800005],[36.46459926000006,34.46280627800007],[36.43999788700006,34.501991850000024],[36.38820552200008,34.49741860800003],[36.34766655400006,34.50923152300004],[36.33749553700005,34.50404853600003],[36.329692,34.52199921600004],[36.31148374700007,34.512488517000065],[36.27994225500004,34.47287376300005],[36.24301424300006,34.45806222300007],[36.24866988400004,34.43144971000004],[36.24168350300005,34.41882638000004],[36.232035644000064,34.425138283000024],[36.18013681600007,34.41278846100005],[36.143392024000036,34.42026950300004],[36.15708770400005,34.399642295000035],[36.18285743900003,34.38809798800003],[36.18588561000007,34.36497960200006],[36.18210039600007,34.346542803000034],[36.16430989200006,34.33997957400004],[36.139715815000045,34.301852919000055],[36.13809809500003,34.28747437900006]]]},"properties":{"shapeName":"Hermel","shapeISO":"","shapeID":"6925839B79875972026239","shapeGroup":"LBN","shapeType":"ADM2"}},
{"type":"Feature","geometry":{"type":"Polygon","coordinates":[[[36.07338572700007,33.82258001200006],[36.09771741000003,33.81483399100006],[36.11043428500005,33.81939632800004],[36.11419154300006,33.83356203400007],[36.13818019400003,33.832361641000034],[36.147139811000045,33.844124761000046],[36.16332492500004,33.84652519900004],[36.17459670100004,33.831641398000045],[36.226620281000066,33.83188148000005],[36.23847009700006,33.83452233600008],[36.252054032000046,33.85804636100005],[36.28008896100005,33.85252599800003],[36.30147643300006,33.832121561000065],[36.39491453200003,33.83165171400003],[36.38737327200005,33.85736465600007],[36.33180609300007,33.874502318000054],[36.27941418200004,33.906461454000066],[36.317120482000064,33.958163744000046],[36.369512393000036,33.990091505000066],[36.390945448000025,34.02759952400004],[36.40761560100003,34.02759952400004],[36.40523415100006,34.042071871000076],[36.42785793100006,34.05391104600005],[36.48223438500003,34.03911181900003],[36.50168289700008,34.04996483800005],[36.51438396700007,34.07824193600004],[36.510961663000046,34.09940701800008],[36.54217581200004,34.12699998000005],[36.56664640300005,34.13420228000007],[36.56872734700005,34.151683337000065],[36.59138420000005,34.17877923700007],[36.621549240000036,34.195523825000066],[36.58339840300005,34.23498849500004],[36.57476167600004,34.274251004000064],[36.59990979300005,34.288733611000055],[36.55841511700004,34.30782818100005],[36.56159433600004,34.329311724000036],[36.52989463400007,34.36911334800004],[36.560910861000025,34.39701856800008],[36.555228499000066,34.418603619000066],[36.531788755000036,34.42495110400006],[36.52965786900006,34.433055653000054],[36.52421227200006,34.426806432000035],[36.50870415800006,34.448188550000054],[36.49674752100003,34.44857904000003],[36.43500362300006,34.39781223400007],[36.41650635000008,34.36529626600003],[36.37248284000003,34.35078976800003],[36.36730360400003,34.30435210400003],[36.348174596000035,34.268373292000035],[36.32156331600004,34.28847336600006],[36.302867341000024,34.28726447500003],[36.308394847000045,34.274099868000064],[36.29522637800005,34.26012700900003],[36.26417480300006,34.271009916000025],[36.18052048000004,34.26690380000008],[36.16604126000004,34.27005268000005],[36.15359421200003,34.287894108000046],[36.13809809500003,34.28747437900006],[36.023951743000055,34.18177753400005],[36.007531914000026,34.16894845100006],[36.03415578600004,34.163129482000045],[36.01683758000007,34.13533395600007],[36.00525087400007,34.09484729700006],[35.98669754200006,34.08544749200007],[35.96423333400003,34.04313545400004],[35.94298824100008,34.01519624000008],[35.913200147000055,34.00052011400004],[35.90308343600003,33.968596611000066],[35.88049906500004,33.951969467000026],[35.90874908600006,33.93607028400004],[35.91856796800005,33.93636905900007],[35.92270846100007,33.92159644700007],[35.97115222700006,33.909742150000056],[35.99992865200005,33.86230847400003],[36.03802118500005,33.88551302400003],[36.04878646700007,33.87159105100005],[36.07776991600008,33.87588819800004],[36.08501577900006,33.86746558600004],[36.095988084000055,33.86952834300007],[36.07338572700007,33.82258001200006]]]},"properties":{"shapeName":"Baalbek","shapeISO":"","shapeID":"6925839B96972958912663","shapeGroup":"LBN","shapeType":"ADM2"}}
]}