{"type":"FeatureCollection", "features": [
{"type":"Feature","geometry":{"type":"Polygon","coordinates":[[[11.526085437193217,32.41786270330118],[10.873216999564931,32.13669586192452],[10.498872924445948,31.74431671144714],[10.263951863088039,31.68049631795077],[10.106235392449435,31.42919382763307],[10.27015303573404,30.915633443428703],[10.192224976401576,30.731251932930434],[9.871314331091583,30.35515085862528],[9.286543823238901,30.11712921184369],[9.66770918772886,29.60832305856235],[9.827275803935265,28.618646663412846],[10.137913853241798,28.71726553028003],[10.440737746349953,28.62458384906546],[10.909856397754595,28.84464793485438],[11.016309848920457,28.641559557227822],[11.323887973850958,28.544898790546824],[11.951859979254664,28.595050767778787],[11.729341261390175,29.087010403207614],[11.589918246729724,30.542425442280376],[11.963022088398702,31.080893866258975],[11.836724887643527,31.33594289804637],[11.862666457091393,32.307563178198166],[11.526085437193217,32.41786270330118]]]},"properties":{"shapeName":"Ghadamis","shapeISO":"LY-NL","shapeID":"10800210B65194490964920","shapeGroup":"LBY","shapeType":"ADM1"}},
{"type":"Feature","geometry":{"type":"Polygon","coordinates":[[[11.862666457091393,32.307563178198166],[12.286413202407402,32.47419383417815],[12.57321619487152,32.81256759681719],[11.505111802767544,33.1812253152961],[11.526085437193217,32.41786270330118],[11.862666457091393,32.307563178198166]]]},"properties":{"shapeName":"An Nuqat al Khams","shapeISO":"LY-NQ","shapeID":"10800210B63841479422356","shapeGroup":"LBY","shapeType":"ADM1"}},
{"type":"Feature","geometry":{"type":"Polygon","coordinates":[[[19.185837029855065,21.864177058924156],[23.98130578613319,19.49612375900432],[23.98130578613319,19.99542144774165],[24.976800578184168,19.995964050100895],[24.98124475074468,23.45443511998485],[24.98124475074468,27.049239432553804],[21.922827589921383,27.00762828171986],[19.169817336101232,27.012873439957332],[19.16806033691506,26.00376190848533],[19.185837029855065,21.864177058924156]]]},"properties":{"shapeName":"Al Kufrah","shapeISO":"LY-KF","shapeID":"10800210B89898169718474","shapeGroup":"LBY","shapeType":"ADM1"}},
{"type":"Feature","geometry":{"type":"Polygon","coordinates":[[[19.16806033691506,26.00376190848533],[18.514973586162114,26.149773668520027],[18.204088169333602,26.37645233810497],[17.40982140473409,26.052286077740348],[16.940496046855117,26.163416246362715],[16.278417596395002,26.846216946454945],[16.279657829845007,27.075169379163583],[14.827550082670257,26.757901923435043],[14.424370558254736,26.37627147095168],[13.934374626687713,26.246873683873446],[13.481895785761935,26.11799266253138],[13.205426873251668,25.87676707574002],[12.363617791328068,25.732253933372363],[12.159909295177897,25.57590688739299],[11.594052361827096,25.651974596550417],[11.399542270959103,25.5514380971905],[11.334016554220625,24.79678131830326],[11.467240355857768,24.32633855817795],[11.968860717348264,23.517351175916076],[13.482256713376671,23.179671529817313],[14.216217081952834,22.61629506426584],[15.98510135934032,23.444719950765148],[19.185837029855065,21.864177058924156],[19.16806033691506,26.00376190848533]]]},"properties":{"shapeName":"Murzuq","shapeISO":"LY-MQ","shapeID":"10800210B53073192190863","shapeGroup":"LBY","shapeType":"ADM1"}},
{"type":"Feature","geometry":{"type":"Polygon","coordinates":[[[24.98124475074468,28.09670061284305],[24.9743201085862,29.23893992174004],[24.688652791693016,30.182758279570976],[24.994887328587367,30.785098775688027],[24.848953083817833,31.34863026997101],[25.156260612637197,31.663072007267374],[24.981700065805455,31.96792226809822],[24.090668164604153,32.00576406525943],[23.84034264379801,32.14911530242932],[23.251355873175044,32.21672618636444],[22.985398389624038,31.40363902422166],[22.96886193193268,30.799360663563846],[23.057021926220955,30.769956773486342],[23.062086216405817,28.139264634954998],[24.98124475074468,28.09670061284305]]]},"properties":{"shapeName":"Al Butnan","shapeISO":"LY-BU","shapeID":"10800210B28216506156245","shapeGroup":"LBY","shapeType":"ADM1"}},
{"type":"Feature","geometry":{"type":"Polygon","coordinates":[[[24.98124475074468,27.049239432553804],[24.98124475074468,28.09670061284305],[23.062086216405817,28.139264634954998],[23.057021926220955,30.769956773486342],[22.96886193193268,30.799360663563846],[22.619219191012917,30.829022936059687],[22.258931104886642,31.14515351022635],[22.112480096179524,31.11988373524622],[21.71715538901003,31.065623481338662],[21.319040154779373,31.035056871277618],[20.593709750704477,31.006996568337],[20.141647983867415,31.223858137742923],[20.03646894578526,30.819077866850137],[19.61638431088727,30.421372789122984],[19.146006706644243,30.264715887128546],[18.780528191422945,30.375921942343837],[18.733151483354334,29.6660189888853],[18.513629998125964,29.164705919442667],[18.49926394987142,28.502084865724044],[19.172194452012377,28.347417304565],[19.169817336101232,27.012873439957332],[21.922827589921383,27.00762828171986],[24.98124475074468,27.049239432553804]]]},"properties":{"shapeName":"Ajdabiya","shapeISO":"LY-WA","shapeID":"10800210B39782956615971","shapeGroup":"LBY","shapeType":"ADM1"}},
{"type":"Feature","geometry":{"type":"Polygon","coordinates":[[[9.827275803935265,28.618646663412846],[9.776953165955888,28.26757802310732],[9.931273723703441,27.818641967852614],[11.106846958220615,27.436232612545098],[11.374737583073056,26.217469793796],[13.01236372230801,27.250352485278995],[13.983157179260445,27.12891286913367],[14.42116662004355,27.172708644988006],[15.06846561019978,27.632008775284817],[15.795863070924042,27.721202297448144],[15.878855422240008,28.079190782029002],[15.589674106974485,28.21484141679798],[15.017616000977739,28.14484568907733],[14.958704868035284,28.40772369968903],[14.42251020718038,28.878495999290976],[14.419823032007343,29.20909597449969],[14.287014601142971,29.400608831832187],[13.910500115687853,29.56754954707401],[12.688455845261103,28.43030630129482],[11.951859979254664,28.595050767778787],[11.323887973850958,28.544898790546824],[11.016309848920457,28.641559557227822],[10.909856397754595,28.84464793485438],[10.440737746349953,28.62458384906546],[10.137913853241798,28.71726553028003],[9.827275803935265,28.618646663412846]]]},"properties":{"shapeName":"Ash Shati'","shapeISO":"LY-WS","shapeID":"10800210B20515568933500","shapeGroup":"LBY","shapeType":"ADM1"}},
{"type":"Feature","geometry":{"type":"Polygon","coordinates":[[[11.399542270959103,25.5514380971905],[11.303666393888989,25.74921821474885],[11.374737583073056,26.217469793796],[11.106846958220615,27.436232612545098],[9.931273723703441,27.818641967852614],[9.721349324012124,27.29187530560091],[9.896325724552582,26.652792866997288],[9.835760945211518,26.50422312479742],[9.482604206818735,26.35255279537523],[9.40116215001325,26.113394267031822],[10.007946817791435,25.331426493138224],[10.032028035265682,24.856339213084254],[10.26033451282757,24.57664052394108],[11.467240355857768,24.32633855817795],[11.334016554220625,24.79678131830326],[11.399542270959103,25.5514380971905]]]},"properties":{"shapeName":"Ghat","shapeISO":"LY-GT","shapeID":"10800210B26344076542723","shapeGroup":"LBY","shapeType":"ADM1"}},
{"type":"Feature","geometry":{"type":"Polygon","coordinates":[[[18.780528191422945,30.375921942343837],[18.17530358209467,30.78607819225482],[17.36589603027761,31.08661530185475],[16.13737798830357,31.26123555287853],[16.5312187025811,29.632946071703884],[16.418564079668613,29.408799546761713],[16.981217074808228,29.43050364832476],[17.333857049263486,29.282605698794043],[17.580146926239706,29.394562689716395],[17.982086216305902,28.73305268003719],[18.49926394987142,28.502084865724044],[18.513629998125964,29.164705919442667],[18.733151483354334,29.6660189888853],[18.780528191422945,30.375921942343837]]]},"properties":{"shapeName":"Surt","shapeISO":"LY-SR","shapeID":"10800210B41812565387288","shapeGroup":"LBY","shapeType":"ADM1"}},
{"type":"Feature","geometry":{"type":"Polygon","coordinates":[[[16.13737798830357,31.26123555287853],[15.761485222165334,31.388128972673996],[15.51441490992022,31.62836334828995],[15.269704622870108,32.32884349223343],[14.755825181686816,32.44967525301058],[14.666733025708595,31.967764796807955],[14.36504601416226,31.9771440701428],[14.12206342908405,32.142560330195124],[13.397663201895284,32.05078298654564],[13.632377556778863,31.50828380025723],[13.934167922012023,31.243209539988356],[14.211670363296662,30.721045029704385],[14.950126580377457,30.409203600265982],[14.979685500085793,30.017108669729396],[14.854215121630602,29.861950182155226],[15.051929151609102,29.701959947493606],[15.56745324057465,29.587496650350204],[15.740569289141433,29.393994248935485],[16.13558393704909,29.499956772786902],[16.418564079668613,29.408799546761713],[16.5312187025811,29.632946071703884],[16.13737798830357,31.26123555287853]]]},"properties":{"shapeName":"Misratah","shapeISO":"LY-MI","shapeID":"10800210B58781405840719","shapeGroup":"LBY","shapeType":"ADM1"}},
{"type":"Feature","geometry":{"type":"Polygon","coordinates":[[[14.755825181686816,32.44967525301058],[13.954435639892893,32.75823593404118],[13.236432732884339,32.33373729074344],[13.250798781138883,32.317381700205374],[13.397663201895284,32.05078298654564],[14.12206342908405,32.142560330195124],[14.36504601416226,31.9771440701428],[14.666733025708595,31.967764796807955],[14.755825181686816,32.44967525301058]]]},"properties":{"shapeName":"Al Marqab","shapeISO":"LY-MB","shapeID":"10800210B66581866957995","shapeGroup":"LBY","shapeType":"ADM1"}},
{"type":"Feature","geometry":{"type":"Polygon","coordinates":[[[13.954435639892893,32.75823593404118],[13.103203947204463,32.87741870780718],[13.07633914633459,32.72120717976759],[13.236432732884339,32.33373729074344],[13.954435639892893,32.75823593404118]]]},"properties":{"shapeName":"Tajura' wa an Nawahi al Arba","shapeISO":"LY-TB","shapeID":"10800210B53685260454781","shapeGroup":"LBY","shapeType":"ADM1"}},
{"type":"Feature","geometry":{"type":"Polygon","coordinates":[[[11.862666457091393,32.307563178198166],[12.81961062972681,32.26020172802737],[13.07633914633459,32.72120717976759],[13.103203947204463,32.87741870780718],[12.57321619487152,32.81256759681719],[12.286413202407402,32.47419383417815],[11.862666457091393,32.307563178198166]]]},"properties":{"shapeName":"Az Zawiyah","shapeISO":"LY-ZA","shapeID":"10800210B15874653580067","shapeGroup":"LBY","shapeType":"ADM1"}},
{"type":"Feature","geometry":{"type":"Polygon","coordinates":[[[23.251355873175044,32.21672618636444],[23.080577018714507,32.334051825031736],[23.106130404794385,32.63983795815528],[21.986179386269725,32.91309459933632],[21.9177632988372,31.28201854092299],[22.112480096179524,31.11988373524622],[22.258931104886642,31.14515351022635],[22.619219191012917,30.829022936059687],[22.96886193193268,30.799360663563846],[22.985398389624038,31.40363902422166],[23.251355873175044,32.21672618636444]]]},"properties":{"shapeName":"Al Qubbah","shapeISO":"LY-DR","shapeID":"10800210B44488917334986","shapeGroup":"LBY","shapeType":"ADM1"}},
{"type":"Feature","geometry":{"type":"Polygon","coordinates":[[[22.112480096179524,31.11988373524622],[21.9177632988372,31.28201854092299],[21.986179386269725,32.91309459933632],[21.623220248016082,32.93675364806245],[21.357043511548852,32.78033651701668],[21.461563754863448,32.63346059842792],[21.331855910322076,32.51171092392008],[21.36441206176727,32.32696767821585],[21.661758254439917,31.906321519222786],[21.71715538901003,31.065623481338662],[22.112480096179524,31.11988373524622]]]},"properties":{"shapeName":"Al Jabal al Akhdar","shapeISO":"LY-JA","shapeID":"10800210B23470577588067","shapeGroup":"LBY","shapeType":"ADM1"}},
{"type":"Feature","geometry":{"type":"Polygon","coordinates":[[[21.71715538901003,31.065623481338662],[21.661758254439917,31.906321519222786],[21.36441206176727,32.32696767821585],[21.331855910322076,32.51171092392008],[21.461563754863448,32.63346059842792],[21.357043511548852,32.78033651701668],[20.57603285103528,32.56271194030387],[20.31103966644747,32.109048163442026],[20.35041710816307,31.928697415253566],[20.54854454929159,31.5797264670029],[21.215377231574053,31.54104665817681],[21.319040154779373,31.035056871277618],[21.71715538901003,31.065623481338662]]]},"properties":{"shapeName":"Al Marj","shapeISO":"LY-MJ","shapeID":"10800210B54463644997685","shapeGroup":"LBY","shapeType":"ADM1"}},
{"type":"Feature","geometry":{"type":"Polygon","coordinates":[[[21.319040154779373,31.035056871277618],[21.215377231574053,31.54104665817681],[20.54854454929159,31.5797264670029],[20.35041710816307,31.928697415253566],[20.31103966644747,32.109048163442026],[20.57603285103528,32.56271194030387],[19.94011477957349,31.957749742356782],[19.954844597300394,31.559475001670023],[20.141647983867415,31.223858137742923],[20.593709750704477,31.006996568337],[21.319040154779373,31.035056871277618]]]},"properties":{"shapeName":"Benghazi","shapeISO":"LY-BA","shapeID":"10800210B74925506200485","shapeGroup":"LBY","shapeType":"ADM1"}},
{"type":"Feature","geometry":{"type":"Polygon","coordinates":[[[13.236432732884339,32.33373729074344],[13.07633914633459,32.72120717976759],[12.81961062972681,32.26020172802737],[13.250798781138883,32.317381700205374],[13.236432732884339,32.33373729074344]]]},"properties":{"shapeName":"Al Jifarah","shapeISO":"LY-JI","shapeID":"10800210B86029592505559","shapeGroup":"LBY","shapeType":"ADM1"}},
{"type":"Feature","geometry":{"type":"Polygon","coordinates":[[[11.951859979254664,28.595050767778787],[12.688455845261103,28.43030630129482],[13.910500115687853,29.56754954707401],[14.287014601142971,29.400608831832187],[14.419823032007343,29.20909597449969],[14.752412551298278,29.405337226132133],[14.854215121630602,29.861950182155226],[14.979685500085793,30.017108669729396],[14.950126580377457,30.409203600265982],[14.211670363296662,30.721045029704385],[13.934167922012023,31.243209539988356],[13.632377556778863,31.50828380025723],[13.397663201895284,32.05078298654564],[13.250798781138883,32.317381700205374],[12.81961062972681,32.26020172802737],[11.862666457091393,32.307563178198166],[11.836724887643527,31.33594289804637],[11.963022088398702,31.080893866258975],[11.589918246729724,30.542425442280376],[11.729341261390175,29.087010403207614],[11.951859979254664,28.595050767778787]]]},"properties":{"shapeName":"Mizdah","shapeISO":"LY-JG","shapeID":"10800210B39461050964926","shapeGroup":"LBY","shapeType":"ADM1"}},
{"type":"Feature","geometry":{"type":"Polygon","coordinates":[[[19.169817336101232,27.012873439957332],[19.172194452012377,28.347417304565],[18.49926394987142,28.502084865724044],[17.982086216305902,28.73305268003719],[17.580146926239706,29.394562689716395],[17.333857049263486,29.282605698794043],[16.981217074808228,29.43050364832476],[16.418564079668613,29.408799546761713],[16.13558393704909,29.499956772786902],[15.740569289141433,29.393994248935485],[15.56745324057465,29.587496650350204],[15.051929151609102,29.701959947493606],[14.854215121630602,29.861950182155226],[14.752412551298278,29.405337226132133],[14.419823032007343,29.20909597449969],[14.42251020718038,28.878495999290976],[14.958704868035284,28.40772369968903],[15.017616000977739,28.14484568907733],[15.589674106974485,28.21484141679798],[15.878855422240008,28.079190782029002],[15.795863070924042,27.721202297448144],[16.279657829845007,27.075169379163583],[16.278417596395002,26.846216946454945],[16.940496046855117,26.163416246362715],[17.40982140473409,26.052286077740348],[18.204088169333602,26.37645233810497],[18.514973586162114,26.149773668520027],[19.16806033691506,26.00376190848533],[19.169817336101232,27.012873439957332]]]},"properties":{"shapeName":"Al Jufrah","shapeISO":"LY-JUU","shapeID":"10800210B94224648391824","shapeGroup":"LBY","shapeType":"ADM1"}},
{"type":"Feature","geometry":{"type":"Polygon","coordinates":[[[16.279657829845007,27.075169379163583],[15.795863070924042,27.721202297448144],[15.06846561019978,27.632008775284817],[14.42116662004355,27.172708644988006],[13.983157179260445,27.12891286913367],[14.146248000245066,26.671188869970422],[13.934374626687713,26.246873683873446],[14.424370558254736,26.37627147095168],[14.827550082670257,26.757901923435043],[16.279657829845007,27.075169379163583]]]},"properties":{"shapeName":"Sabha","shapeISO":"LY-SB","shapeID":"10800210B80153830865201","shapeGroup":"LBY","shapeType":"ADM1"}},
{"type":"Feature","geometry":{"type":"Polygon","coordinates":[[[13.934374626687713,26.246873683873446],[14.146248000245066,26.671188869970422],[13.983157179260445,27.12891286913367],[13.01236372230801,27.250352485278995],[11.374737583073056,26.217469793796],[11.303666393888989,25.74921821474885],[11.399542270959103,25.5514380971905],[11.594052361827096,25.651974596550417],[12.159909295177897,25.57590688739299],[12.363617791328068,25.732253933372363],[13.205426873251668,25.87676707574002],[13.481895785761935,26.11799266253138],[13.934374626687713,26.246873683873446]]]},"properties":{"shapeName":"Wadi al Hayaa","shapeISO":"LY-WD","shapeID":"10800210B2800497533490","shapeGroup":"LBY","shapeType":"ADM1"}}
]}