{"type":"FeatureCollection", "features": [
{"type":"Feature","geometry":{"type":"Polygon","coordinates":[[[9.5127602,47.0851421],[9.5162324,47.0821383],[9.5186057,47.0845698],[9.5225085,47.0826274],[9.5252003,47.0796991],[9.5241221,47.0790709],[9.5262886,47.0772049],[9.5326234,47.0768466],[9.5336744,47.0757656],[9.5325546,47.0734015],[9.5338233,47.0721636],[9.5341049,47.0692611],[9.5365087,47.0674175],[9.5395596,47.0662999],[9.5397528,47.0651482],[9.5446973,47.06238],[9.5488898,47.0610121],[9.5516187,47.058843],[9.5532726,47.0569836],[9.5543856,47.050507],[9.5569197,47.0485165],[9.5597869,47.0485724],[9.5645747,47.0508387],[9.5719941,47.0520824],[9.5729162,47.0527638],[9.576013,47.053272],[9.5821595,47.052704],[9.5836777,47.0537897],[9.588064,47.0548518],[9.5916895,47.057157],[9.5997619,47.0589706],[9.6015494,47.0609444],[9.603472,47.0617744],[9.6015491,47.0637358],[9.5999646,47.0636307],[9.5977072,47.0664356],[9.5973871,47.0692762],[9.5963936,47.0697897],[9.5963566,47.0737767],[9.5932692,47.0821582],[9.5910461,47.0851873],[9.5905645,47.0901769],[9.5889669,47.0914801],[9.5877625,47.0936442],[9.5883929,47.0945773],[9.5853623,47.0985212],[9.5852822,47.0991526],[9.5866163,47.0995595],[9.5855708,47.1004339],[9.5800284,47.1002405],[9.5765215,47.099208],[9.5808945,47.091586],[9.5811905,47.0897628],[9.5785133,47.0887059],[9.5785472,47.0862578],[9.5800929,47.0847172],[9.5823989,47.0788073],[9.5836793,47.0788734],[9.5859332,47.0759518],[9.5811471,47.0748444],[9.5762834,47.0717857],[9.5725259,47.0733403],[9.5699008,47.0735691],[9.5653424,47.0771899],[9.564523,47.0791127],[9.5666686,47.0817275],[9.5658811,47.0851164],[9.5684688,47.0855903],[9.5686668,47.0862615],[9.572145,47.0875917],[9.5693412,47.0942754],[9.567142,47.0959629],[9.5652882,47.0950704],[9.564435,47.0934935],[9.5562604,47.0973518],[9.5544179,47.1007421],[9.5516011,47.1021617],[9.547211,47.1027822],[9.5450986,47.1016782],[9.5424796,47.1014293],[9.5401781,47.1032261],[9.5410494,47.1052797],[9.5424668,47.1061356],[9.5429159,47.112534],[9.5413243,47.1140229],[9.5395627,47.1139968],[9.5384013,47.1132429],[9.5378004,47.1153001],[9.5357715,47.1152111],[9.5363066,47.1187736],[9.533299,47.1210779],[9.534295,47.1229494],[9.5322189,47.1244719],[9.532016,47.1236658],[9.5294831,47.1229471],[9.5190127,47.1228402],[9.5145259,47.1219427],[9.5188549,47.1055048],[9.5195806,47.0983373],[9.5156005,47.0878537],[9.5127602,47.0851421]]]},"properties":{"shapeName":"Triesen","shapeISO":"LI-09","shapeID":"41692755B66371769109520","shapeGroup":"LIE","shapeType":"ADM1"}},
{"type":"Feature","geometry":{"type":"Polygon","coordinates":[[[9.5294222,47.2260195],[9.5284564,47.2256385],[9.5289548,47.2242015],[9.5297432,47.2240972],[9.5341131,47.2253944],[9.5376037,47.2251508],[9.5441435,47.2292154],[9.5448421,47.2261614],[9.5460186,47.2258519],[9.5472724,47.2281684],[9.5501732,47.2297079],[9.5576199,47.2314552],[9.5580632,47.2326511],[9.5674105,47.240918],[9.5667246,47.2429152],[9.5613517,47.2488196],[9.5559307,47.25247],[9.5388558,47.2408742],[9.5450713,47.2369996],[9.5496519,47.2409197],[9.5575445,47.2457056],[9.5562185,47.2429227],[9.5512363,47.2382183],[9.5451418,47.2344339],[9.5375895,47.2315126],[9.534292,47.2289453],[9.5334339,47.2299686],[9.5333874,47.2287818],[9.5317304,47.2293068],[9.5294222,47.2260195]]]},"properties":{"shapeName":"Schellenberg","shapeISO":"LI-08","shapeID":"41692755B68962474767900","shapeGroup":"LIE","shapeType":"ADM1"}},
{"type":"Feature","geometry":{"type":"MultiPolygon","coordinates":[[[[9.5294222,47.2260195],[9.5271289,47.2258092],[9.5240945,47.2292834],[9.5208057,47.2313224],[9.5214586,47.2318055],[9.5178844,47.2333097],[9.5167811,47.232115],[9.5149867,47.2328492],[9.5135669,47.2309852],[9.5103331,47.2318006],[9.5046405,47.2251254],[9.5016427,47.2201756],[9.4996332,47.2113569],[9.4965658,47.2067135],[9.4989266,47.2058745],[9.5001025,47.2072661],[9.5018647,47.2067396],[9.501455,47.2046775],[9.4922287,47.1954668],[9.4954856,47.1936541],[9.4966432,47.1945781],[9.4975458,47.1940221],[9.4990849,47.1952543],[9.5005698,47.2012382],[9.5064602,47.1975889],[9.5077443,47.1938842],[9.5157675,47.1931367],[9.524455,47.1925027],[9.5310327,47.1919334],[9.5318199,47.1918111],[9.5332374,47.1926131],[9.5113483,47.1983182],[9.5060486,47.2101107],[9.5072119,47.2111695],[9.5107152,47.2102517],[9.5110685,47.2108482],[9.509438,47.2123892],[9.5120946,47.2127912],[9.5115575,47.2159681],[9.5126096,47.216534],[9.5119555,47.2177155],[9.5133119,47.2186359],[9.5251564,47.2233256],[9.5294669,47.2231124],[9.5299764,47.2209437],[9.5320908,47.2226598],[9.5335433,47.2224594],[9.5345405,47.2245048],[9.5376037,47.2251508],[9.5341131,47.2253944],[9.5297432,47.2240972],[9.5289548,47.2242015],[9.5284564,47.2256385],[9.5294222,47.2260195]]],[[[9.5651924,47.1912171],[9.5609309,47.1985841],[9.5557193,47.1986621],[9.549373,47.202099],[9.5482063,47.1999698],[9.5493682,47.1983019],[9.551536,47.1980372],[9.5492384,47.1966847],[9.546044,47.1960234],[9.5424748,47.1935513],[9.5401566,47.1940165],[9.539816,47.1913954],[9.5434918,47.1915531],[9.5469192,47.19311],[9.549068,47.1923688],[9.5512198,47.1900348],[9.5514795,47.1909298],[9.5554117,47.1902277],[9.5577214,47.1875578],[9.5604758,47.1871201],[9.5631199,47.188223],[9.5628848,47.1906118],[9.5651924,47.1912171]]]]},"properties":{"shapeName":"Gamprin","shapeISO":"LI-03","shapeID":"41692755B90684947638296","shapeGroup":"LIE","shapeType":"ADM1"}},
{"type":"Feature","geometry":{"type":"MultiPolygon","coordinates":[[[[9.572145,47.0875917],[9.5745835,47.0869615],[9.5785133,47.0887059],[9.5811905,47.0897628],[9.5808945,47.091586],[9.5765215,47.099208],[9.5800284,47.1002405],[9.5855708,47.1004339],[9.5879779,47.099669],[9.585132,47.1118429],[9.5865095,47.1123391],[9.5855069,47.1169199],[9.5884129,47.1219946],[9.5885982,47.1259503],[9.5798427,47.1269057],[9.5704207,47.131328],[9.573501,47.1364897],[9.5746041,47.1370361],[9.5741034,47.1383681],[9.5802268,47.1424384],[9.5818964,47.1446118],[9.5817455,47.1464412],[9.5827329,47.1480425],[9.5825454,47.1532379],[9.5841092,47.1544055],[9.5845054,47.1560628],[9.5731221,47.1633562],[9.5653476,47.1652548],[9.5639131,47.1650114],[9.560873,47.1665343],[9.5572728,47.1612468],[9.5570594,47.160189],[9.5545512,47.1584805],[9.5552478,47.1577479],[9.5528691,47.155974],[9.5524004,47.1514566],[9.5541583,47.1485449],[9.5496475,47.1468732],[9.5476745,47.1453348],[9.5438985,47.1465737],[9.5418407,47.1455586],[9.5406178,47.1469937],[9.5393658,47.1470166],[9.5388884,47.1442629],[9.5401058,47.1433588],[9.5399045,47.1422647],[9.5378785,47.1427247],[9.5334375,47.1455051],[9.5332899,47.1434202],[9.5352787,47.1403247],[9.5311187,47.1384839],[9.5316853,47.1371239],[9.5305573,47.1359297],[9.531268,47.134882],[9.5304765,47.1338616],[9.5315782,47.1326988],[9.530582,47.1308273],[9.5323773,47.1312176],[9.5337202,47.1301583],[9.5329911,47.128372],[9.5352766,47.1278174],[9.5346712,47.1264968],[9.53548,47.1252673],[9.5322189,47.1244719],[9.534295,47.1229494],[9.533299,47.1210779],[9.5363066,47.1187736],[9.5357715,47.1152111],[9.5378004,47.1153001],[9.5384013,47.1132429],[9.5395627,47.1139968],[9.5413243,47.1140229],[9.5429159,47.112534],[9.5424668,47.1061356],[9.5410494,47.1052797],[9.5401781,47.1032261],[9.5424796,47.1014293],[9.5450986,47.1016782],[9.547211,47.1027822],[9.5516011,47.1021617],[9.5544179,47.1007421],[9.5562604,47.0973518],[9.564435,47.0934935],[9.5652882,47.0950704],[9.567142,47.0959629],[9.5693412,47.0942754],[9.572145,47.0875917]]],[[[9.6022693,47.1119084],[9.5983291,47.1089861],[9.6056836,47.1041054],[9.6074635,47.1002206],[9.6110621,47.0986228],[9.6116778,47.0975584],[9.6097706,47.0960197],[9.6076921,47.0918748],[9.6070828,47.088215],[9.6055209,47.0870567],[9.6059581,47.0841869],[9.6100749,47.0823995],[9.6115263,47.0794026],[9.6186837,47.0781382],[9.6235432,47.0825254],[9.6335324,47.0834247],[9.6332009,47.0862337],[9.635374,47.0906322],[9.6356388,47.0946055],[9.6343754,47.1011664],[9.6301654,47.1047393],[9.6282318,47.1054767],[9.6284894,47.1075456],[9.6229985,47.1079803],[9.6209049,47.1106166],[9.6180911,47.1104125],[9.6146624,47.1119892],[9.6047957,47.1108259],[9.6022693,47.1119084]]]]},"properties":{"shapeName":"Triesenberg","shapeISO":"LI-10","shapeID":"41692755B18610673403937","shapeGroup":"LIE","shapeType":"ADM1"}},
{"type":"Feature","geometry":{"type":"MultiPolygon","coordinates":[[[[9.5376037,47.2251508],[9.5345405,47.2245048],[9.5335433,47.2224594],[9.5320908,47.2226598],[9.5299764,47.2209437],[9.5294669,47.2231124],[9.5251564,47.2233256],[9.5133119,47.2186359],[9.5119555,47.2177155],[9.5126096,47.216534],[9.5115575,47.2159681],[9.5120946,47.2127912],[9.509438,47.2123892],[9.5110685,47.2108482],[9.5107152,47.2102517],[9.5072119,47.2111695],[9.5060486,47.2101107],[9.5113483,47.1983182],[9.5332374,47.1926131],[9.5318199,47.1918111],[9.5354057,47.190684],[9.5355351,47.1916264],[9.539816,47.1913954],[9.5401566,47.1940165],[9.5424748,47.1935513],[9.546044,47.1960234],[9.5492384,47.1966847],[9.551536,47.1980372],[9.5493682,47.1983019],[9.5482063,47.1999698],[9.549373,47.202099],[9.5557193,47.1986621],[9.5609309,47.1985841],[9.5651924,47.1912171],[9.5650995,47.1888793],[9.5686162,47.1893541],[9.571777,47.1875229],[9.5730911,47.187826],[9.5725939,47.1907921],[9.5764879,47.1928698],[9.579003,47.1952079],[9.5601633,47.2001999],[9.5589229,47.2012126],[9.5668301,47.2041709],[9.5589425,47.2096436],[9.550774,47.2077692],[9.5486166,47.2059642],[9.5476437,47.206405],[9.5456072,47.2036976],[9.5305299,47.2114679],[9.5293256,47.2134243],[9.5316075,47.2160552],[9.5359652,47.2177305],[9.5323387,47.2195511],[9.5366283,47.2228472],[9.5370206,47.2220752],[9.5398028,47.2222944],[9.5408705,47.2242544],[9.5448421,47.2261614],[9.5441435,47.2292154],[9.5376037,47.2251508]]],[[[9.4965658,47.2067135],[9.4906306,47.1981947],[9.4878765,47.1901944],[9.4901003,47.1898812],[9.4922929,47.1868278],[9.4964331,47.1891202],[9.5027018,47.1942267],[9.5041202,47.1940393],[9.5077443,47.1938842],[9.5064602,47.1975889],[9.5005698,47.2012382],[9.4990849,47.1952543],[9.4975458,47.1940221],[9.4966432,47.1945781],[9.4954856,47.1936541],[9.4922287,47.1954668],[9.501455,47.2046775],[9.5018647,47.2067396],[9.5001025,47.2072661],[9.4989266,47.2058745],[9.4965658,47.2067135]]]]},"properties":{"shapeName":"Eschen","shapeISO":"LI-02","shapeID":"41692755B941757218579","shapeGroup":"LIE","shapeType":"ADM1"}},
{"type":"Feature","geometry":{"type":"Polygon","coordinates":[[[9.5559307,47.25247],[9.5485015,47.2571098],[9.5440129,47.2585207],[9.5395219,47.2613519],[9.5403944,47.2627686],[9.5398081,47.2651056],[9.5382445,47.2660213],[9.5364188,47.2659637],[9.5307487,47.270581],[9.5301131,47.2624922],[9.5204517,47.2439624],[9.5103331,47.2318006],[9.5135669,47.2309852],[9.5149867,47.2328492],[9.5167811,47.232115],[9.5178844,47.2333097],[9.5214586,47.2318055],[9.5208057,47.2313224],[9.5240945,47.2292834],[9.5271289,47.2258092],[9.5294222,47.2260195],[9.5317304,47.2293068],[9.5333874,47.2287818],[9.5334339,47.2299686],[9.534292,47.2289453],[9.5375895,47.2315126],[9.5451418,47.2344339],[9.5512363,47.2382183],[9.5562185,47.2429227],[9.5575445,47.2457056],[9.5496519,47.2409197],[9.5450713,47.2369996],[9.5388558,47.2408742],[9.5559307,47.25247]]]},"properties":{"shapeName":"Ruggell","shapeISO":"LI-06","shapeID":"41692755B33734108210637","shapeGroup":"LIE","shapeType":"ADM1"}},
{"type":"Feature","geometry":{"type":"Polygon","coordinates":[[[9.5448421,47.2261614],[9.5408705,47.2242544],[9.5398028,47.2222944],[9.5370206,47.2220752],[9.5366283,47.2228472],[9.5323387,47.2195511],[9.5359652,47.2177305],[9.5316075,47.2160552],[9.5293256,47.2134243],[9.5305299,47.2114679],[9.5456072,47.2036976],[9.5476437,47.206405],[9.5486166,47.2059642],[9.550774,47.2077692],[9.5589425,47.2096436],[9.5668301,47.2041709],[9.5589229,47.2012126],[9.5601633,47.2001999],[9.579003,47.1952079],[9.5803175,47.1957775],[9.5811691,47.2000083],[9.5848953,47.2053468],[9.5784836,47.2088984],[9.5756621,47.2137077],[9.5685593,47.2197899],[9.5642017,47.2206377],[9.5619156,47.2229643],[9.5585475,47.2241186],[9.5554131,47.2225117],[9.5554392,47.2237924],[9.5517691,47.223753],[9.5545798,47.2264944],[9.5544165,47.2274619],[9.5576199,47.2314552],[9.5501732,47.2297079],[9.5472724,47.2281684],[9.5460186,47.2258519],[9.5448421,47.2261614]]]},"properties":{"shapeName":"Mauren","shapeISO":"LI-04","shapeID":"41692755B54662867343220","shapeGroup":"LIE","shapeType":"ADM1"}},
{"type":"Feature","geometry":{"type":"MultiPolygon","coordinates":[[[[9.5310327,47.1919334],[9.5373147,47.1882018],[9.5359594,47.1872997],[9.5301921,47.1906889],[9.5247314,47.19113],[9.524455,47.1925027],[9.5157675,47.1931367],[9.5187852,47.1818079],[9.5092994,47.182231],[9.5040247,47.1915666],[9.5034443,47.1936285],[9.5041202,47.1940393],[9.5027018,47.1942267],[9.4964331,47.1891202],[9.4922929,47.1868278],[9.4901003,47.1898812],[9.4878765,47.1901944],[9.4859776,47.180525],[9.4906624,47.1644987],[9.4950763,47.1569405],[9.4967024,47.157371],[9.5042745,47.1570373],[9.5067988,47.1557952],[9.5106979,47.1559949],[9.51092,47.1566208],[9.5159241,47.1557207],[9.5162366,47.1569747],[9.5197774,47.1571176],[9.5198266,47.1610938],[9.5225775,47.1605941],[9.5225553,47.1634109],[9.5243824,47.1635757],[9.5285247,47.1625557],[9.5341566,47.1621833],[9.5483871,47.1634077],[9.5572728,47.1612468],[9.560873,47.1665343],[9.5609643,47.1678373],[9.5646263,47.1702461],[9.5666218,47.1726738],[9.5632457,47.173122],[9.5561922,47.1766084],[9.5541561,47.1768438],[9.5519623,47.1754264],[9.5490706,47.1750476],[9.5431679,47.1759476],[9.5434667,47.1791814],[9.5450599,47.18043],[9.541186,47.1825974],[9.5387258,47.1827953],[9.5391288,47.1839846],[9.5405138,47.1846342],[9.5400804,47.1853619],[9.540695,47.1852157],[9.5433326,47.1885147],[9.5444317,47.1879368],[9.5469275,47.1893037],[9.5487441,47.1891804],[9.5484445,47.1899508],[9.5498011,47.189206],[9.5514687,47.1896523],[9.5512198,47.1900348],[9.549068,47.1923688],[9.5469192,47.19311],[9.5434918,47.1915531],[9.539816,47.1913954],[9.5355351,47.1916264],[9.5354057,47.190684],[9.5318199,47.1918111],[9.5310327,47.1919334]],[[9.5214775,47.1763874],[9.5223096,47.1780999],[9.5300208,47.1761874],[9.5279461,47.1737507],[9.5246065,47.1743962],[9.5244101,47.1754525],[9.5214775,47.1763874]],[[9.5324044,47.1841522],[9.5343316,47.1851699],[9.5351512,47.1841922],[9.5342716,47.1829665],[9.5324044,47.1841522]]],[[[9.585132,47.1118429],[9.5887477,47.1116223],[9.5933734,47.1102939],[9.5962616,47.1132811],[9.6022693,47.1119084],[9.6047957,47.1108259],[9.6146624,47.1119892],[9.6180911,47.1104125],[9.6209049,47.1106166],[9.6246481,47.1145579],[9.6246703,47.1176116],[9.6126834,47.1223298],[9.6104751,47.1280135],[9.6054329,47.1281986],[9.6038526,47.1298751],[9.6011498,47.1305289],[9.5930607,47.1303659],[9.5913309,47.1316131],[9.5915596,47.1340203],[9.595423,47.1350006],[9.602074,47.1403466],[9.5974642,47.1431057],[9.5938412,47.1432007],[9.5853039,47.1463748],[9.5817455,47.1464412],[9.5818964,47.1446118],[9.5802268,47.1424384],[9.5741034,47.1383681],[9.5746041,47.1370361],[9.573501,47.1364897],[9.5704207,47.131328],[9.5798427,47.1269057],[9.5885982,47.1259503],[9.5884129,47.1219946],[9.5855069,47.1169199],[9.5865095,47.1123391],[9.585132,47.1118429]]],[[[9.603472,47.0617744],[9.6070544,47.0607725],[9.6118038,47.064657],[9.6111551,47.0668441],[9.6134454,47.0694836],[9.6133534,47.071394],[9.6105067,47.0751823],[9.6115263,47.0794026],[9.6100749,47.0823995],[9.6059581,47.0841869],[9.6055209,47.0870567],[9.6045608,47.0877497],[9.5991492,47.0884815],[9.598848,47.08918],[9.5947524,47.0895539],[9.5932937,47.0903012],[9.5905645,47.0901769],[9.5910461,47.0851873],[9.5932692,47.0821582],[9.5963566,47.0737767],[9.5963936,47.0697897],[9.5973871,47.0692762],[9.5977072,47.0664356],[9.5999646,47.0636307],[9.6015491,47.0637358],[9.603472,47.0617744]]],[[[9.5577214,47.1875578],[9.5566096,47.1871463],[9.5583399,47.1865116],[9.5581588,47.1852732],[9.5556911,47.1856156],[9.5556583,47.1854542],[9.5573561,47.1850001],[9.56161,47.1851016],[9.5648985,47.1864805],[9.5604758,47.1871201],[9.5577214,47.1875578]]],[[[9.5473035,47.1794261],[9.5510696,47.1772154],[9.5543717,47.1772897],[9.5520933,47.1797431],[9.5502049,47.1803806],[9.5475587,47.1808791],[9.5473035,47.1794261]]]]},"properties":{"shapeName":"Schaan","shapeISO":"LI-07","shapeID":"41692755B26730620500431","shapeGroup":"LIE","shapeType":"ADM1"}},
{"type":"Feature","geometry":{"type":"MultiPolygon","coordinates":[[[[9.5817455,47.1464412],[9.5853039,47.1463748],[9.5938412,47.1432007],[9.5974642,47.1431057],[9.602074,47.1403466],[9.6062873,47.1379006],[9.6087467,47.1351368],[9.6087755,47.13097],[9.6104751,47.1280135],[9.6126834,47.1223298],[9.6246703,47.1176116],[9.6253799,47.1193384],[9.6325986,47.1247607],[9.6350038,47.1280857],[9.6331507,47.1283191],[9.6300424,47.1304459],[9.6247287,47.132625],[9.6250204,47.1384657],[9.6226095,47.1411745],[9.6258533,47.1458871],[9.6232709,47.1471389],[9.621412,47.1503676],[9.6217929,47.1511697],[9.6207023,47.1516376],[9.6187092,47.1497541],[9.613981,47.1475323],[9.6098209,47.1475332],[9.6052806,47.1492082],[9.6028449,47.1516071],[9.6033703,47.152609],[9.6022085,47.1552379],[9.600189,47.1567702],[9.6006427,47.159186],[9.5967665,47.1628904],[9.5914268,47.164571],[9.5884213,47.1609386],[9.5886873,47.1600068],[9.5853584,47.1575945],[9.5845054,47.1560628],[9.5841092,47.1544055],[9.5825454,47.1532379],[9.5827329,47.1480425],[9.5817455,47.1464412]]],[[[9.5127602,47.0851421],[9.4922746,47.073844],[9.4731659,47.0657468],[9.4718614,47.0642006],[9.4717767,47.0615162],[9.4757865,47.0517524],[9.4768199,47.0521202],[9.4768917,47.0546023],[9.4787954,47.0556553],[9.4800873,47.055386],[9.4822741,47.0561191],[9.4818879,47.0525407],[9.4843747,47.0492595],[9.4857484,47.0490919],[9.4913076,47.0562517],[9.4933243,47.0565165],[9.4973872,47.0541601],[9.4995322,47.0541548],[9.4999962,47.0571275],[9.5027639,47.0562259],[9.5120732,47.0568181],[9.5141386,47.0573392],[9.5165385,47.0600894],[9.5322106,47.0629483],[9.5397528,47.0651482],[9.5395596,47.0662999],[9.5365087,47.0674175],[9.5341049,47.0692611],[9.5338233,47.0721636],[9.5325546,47.0734015],[9.5336744,47.0757656],[9.5326234,47.0768466],[9.5262886,47.0772049],[9.5241221,47.0790709],[9.5252003,47.0796991],[9.5225085,47.0826274],[9.5186057,47.0845698],[9.5162324,47.0821383],[9.5127602,47.0851421]]],[[[9.5785133,47.0887059],[9.5745835,47.0869615],[9.572145,47.0875917],[9.5686668,47.0862615],[9.5684688,47.0855903],[9.5658811,47.0851164],[9.5666686,47.0817275],[9.564523,47.0791127],[9.5653424,47.0771899],[9.5699008,47.0735691],[9.5725259,47.0733403],[9.5762834,47.0717857],[9.5811471,47.0748444],[9.5859332,47.0759518],[9.5836793,47.0788734],[9.5823989,47.0788073],[9.5800929,47.0847172],[9.5785472,47.0862578],[9.5785133,47.0887059]]]]},"properties":{"shapeName":"Balzers","shapeISO":"LI-01","shapeID":"41692755B63992629942054","shapeGroup":"LIE","shapeType":"ADM1"}},
{"type":"Feature","geometry":{"type":"MultiPolygon","coordinates":[[[[9.5604758,47.1871201],[9.5648985,47.1864805],[9.56161,47.1851016],[9.5573561,47.1850001],[9.5556583,47.1854542],[9.5538914,47.188501],[9.5514687,47.1896523],[9.5498011,47.189206],[9.5484445,47.1899508],[9.5487441,47.1891804],[9.5469275,47.1893037],[9.5444317,47.1879368],[9.5433326,47.1885147],[9.540695,47.1852157],[9.5400804,47.1853619],[9.5405138,47.1846342],[9.5391288,47.1839846],[9.5387258,47.1827953],[9.541186,47.1825974],[9.5450599,47.18043],[9.5434667,47.1791814],[9.5431679,47.1759476],[9.5490706,47.1750476],[9.5519623,47.1754264],[9.5541561,47.1768438],[9.5561922,47.1766084],[9.5632457,47.173122],[9.5666218,47.1726738],[9.5731328,47.1755934],[9.5742961,47.1781046],[9.5735291,47.1787821],[9.5730911,47.187826],[9.571777,47.1875229],[9.5686162,47.1893541],[9.5650995,47.1888793],[9.5651924,47.1912171],[9.5628848,47.1906118],[9.5631199,47.188223],[9.5604758,47.1871201]],[[9.5473035,47.1794261],[9.5475587,47.1808791],[9.5502049,47.1803806],[9.5520933,47.1797431],[9.5543717,47.1772897],[9.5510696,47.1772154],[9.5473035,47.1794261]],[[9.5485855,47.1851613],[9.549704,47.1877501],[9.552538,47.1876531],[9.5526985,47.1867054],[9.5507665,47.186246],[9.5498767,47.1844357],[9.5485855,47.1851613]]],[[[9.5845054,47.1560628],[9.5853584,47.1575945],[9.5886873,47.1600068],[9.5884213,47.1609386],[9.5914268,47.164571],[9.5794579,47.1711394],[9.5727569,47.1695436],[9.5646263,47.1702461],[9.5609643,47.1678373],[9.560873,47.1665343],[9.5639131,47.1650114],[9.5653476,47.1652548],[9.5731221,47.1633562],[9.5845054,47.1560628]]],[[[9.524455,47.1925027],[9.5247314,47.19113],[9.5301921,47.1906889],[9.5359594,47.1872997],[9.5373147,47.1882018],[9.5310327,47.1919334],[9.524455,47.1925027]]],[[[9.5324044,47.1841522],[9.5342716,47.1829665],[9.5351512,47.1841922],[9.5343316,47.1851699],[9.5324044,47.1841522]]],[[[9.5566096,47.1871463],[9.5556911,47.1856156],[9.5581588,47.1852732],[9.5583399,47.1865116],[9.5566096,47.1871463]]]]},"properties":{"shapeName":"Planken","shapeISO":"LI-05","shapeID":"41692755B23424129986871","shapeGroup":"LIE","shapeType":"ADM1"}},
{"type":"Feature","geometry":{"type":"MultiPolygon","coordinates":[[[[9.5322189,47.1244719],[9.53548,47.1252673],[9.5346712,47.1264968],[9.5352766,47.1278174],[9.5329911,47.128372],[9.5337202,47.1301583],[9.5323773,47.1312176],[9.530582,47.1308273],[9.5315782,47.1326988],[9.5304765,47.1338616],[9.531268,47.134882],[9.5305573,47.1359297],[9.5316853,47.1371239],[9.5311187,47.1384839],[9.5352787,47.1403247],[9.5332899,47.1434202],[9.5334375,47.1455051],[9.5378785,47.1427247],[9.5399045,47.1422647],[9.5401058,47.1433588],[9.5388884,47.1442629],[9.5393658,47.1470166],[9.5406178,47.1469937],[9.5418407,47.1455586],[9.5438985,47.1465737],[9.5476745,47.1453348],[9.5496475,47.1468732],[9.5541583,47.1485449],[9.5524004,47.1514566],[9.5528691,47.155974],[9.5552478,47.1577479],[9.5545512,47.1584805],[9.5570594,47.160189],[9.5572728,47.1612468],[9.5483871,47.1634077],[9.5341566,47.1621833],[9.5285247,47.1625557],[9.5243824,47.1635757],[9.5225553,47.1634109],[9.5225775,47.1605941],[9.5198266,47.1610938],[9.5197774,47.1571176],[9.5162366,47.1569747],[9.5159241,47.1557207],[9.51092,47.1566208],[9.5106979,47.1559949],[9.5067988,47.1557952],[9.5042745,47.1570373],[9.4967024,47.157371],[9.4950763,47.1569405],[9.4997225,47.1497721],[9.5081841,47.1407276],[9.5116654,47.1324563],[9.5145259,47.1219427],[9.5190127,47.1228402],[9.5294831,47.1229471],[9.532016,47.1236658],[9.5322189,47.1244719]]],[[[9.5905645,47.0901769],[9.5932937,47.0903012],[9.5947524,47.0895539],[9.598848,47.08918],[9.5991492,47.0884815],[9.6045608,47.0877497],[9.6055209,47.0870567],[9.6070828,47.088215],[9.6076921,47.0918748],[9.6097706,47.0960197],[9.6116778,47.0975584],[9.6110621,47.0986228],[9.6074635,47.1002206],[9.6056836,47.1041054],[9.5983291,47.1089861],[9.6022693,47.1119084],[9.5962616,47.1132811],[9.5933734,47.1102939],[9.5887477,47.1116223],[9.585132,47.1118429],[9.5879779,47.099669],[9.5855708,47.1004339],[9.5866163,47.0995595],[9.5852822,47.0991526],[9.5853623,47.0985212],[9.5883929,47.0945773],[9.5877625,47.0936442],[9.5889669,47.0914801],[9.5905645,47.0901769]]],[[[9.6104751,47.1280135],[9.6087755,47.13097],[9.6087467,47.1351368],[9.6062873,47.1379006],[9.602074,47.1403466],[9.595423,47.1350006],[9.5915596,47.1340203],[9.5913309,47.1316131],[9.5930607,47.1303659],[9.6011498,47.1305289],[9.6038526,47.1298751],[9.6054329,47.1281986],[9.6104751,47.1280135]]],[[[9.5512198,47.1900348],[9.5514687,47.1896523],[9.5538914,47.188501],[9.5556583,47.1854542],[9.5556911,47.1856156],[9.5566096,47.1871463],[9.5577214,47.1875578],[9.5554117,47.1902277],[9.5514795,47.1909298],[9.5512198,47.1900348]]],[[[9.5077443,47.1938842],[9.5041202,47.1940393],[9.5034443,47.1936285],[9.5040247,47.1915666],[9.5092994,47.182231],[9.5187852,47.1818079],[9.5157675,47.1931367],[9.5077443,47.1938842]]],[[[9.5485855,47.1851613],[9.5498767,47.1844357],[9.5507665,47.186246],[9.5526985,47.1867054],[9.552538,47.1876531],[9.549704,47.1877501],[9.5485855,47.1851613]]],[[[9.5214775,47.1763874],[9.5244101,47.1754525],[9.5246065,47.1743962],[9.5279461,47.1737507],[9.5300208,47.1761874],[9.5223096,47.1780999],[9.5214775,47.1763874]]]]},"properties":{"shapeName":"Vaduz","shapeISO":"LI-11","shapeID":"41692755B54479018835512","shapeGroup":"LIE","shapeType":"ADM1"}}
]}