{"type":"FeatureCollection", "features": [
{"type":"Feature","geometry":{"type":"Polygon","coordinates":[[[7.4120416,43.7280955],[7.4185234,43.7247599],[7.4209984,43.7265595],[7.42398,43.7279639],[7.4228222,43.728465],[7.4228046,43.7294114],[7.4219882,43.729558],[7.4215266,43.7302011],[7.4203453,43.7298846],[7.4194618,43.7307693],[7.4185849,43.7309319],[7.4187626,43.7307165],[7.4175186,43.7315738],[7.416195,43.7311567],[7.4158604,43.7313885],[7.4128197,43.7301514],[7.4120416,43.7280955]]]},"properties":{"shapeName":"Fontvieille","shapeISO":"","shapeID":"19026983B99457100396608","shapeGroup":"MCO","shapeType":"ADM2"}},
{"type":"Feature","geometry":{"type":"Polygon","coordinates":[[[7.4228046,43.7294114],[7.4242381,43.7294197],[7.4261472,43.7306739],[7.4268442,43.7305617],[7.4283095,43.7320876],[7.4282603,43.7328137],[7.4275506,43.7329977],[7.4217547,43.7320465],[7.4190111,43.7324998],[7.4175186,43.7315738],[7.4187626,43.7307165],[7.4185849,43.7309319],[7.4194618,43.7307693],[7.4203453,43.7298846],[7.4215266,43.7302011],[7.4219882,43.729558],[7.4228046,43.7294114]]]},"properties":{"shapeName":"Monaco-Ville","shapeISO":"","shapeID":"19026983B74869350206013","shapeGroup":"MCO","shapeType":"ADM2"}},
{"type":"Feature","geometry":{"type":"Polygon","coordinates":[[[7.4175186,43.7315738],[7.4190111,43.7324998],[7.4217547,43.7320465],[7.4275506,43.7329977],[7.4282603,43.7328137],[7.4320852,43.7364127],[7.4300739,43.7364333],[7.4295135,43.7377459],[7.4222651,43.7370711],[7.420872,43.7370979],[7.4185805,43.7353408],[7.4181192,43.7344466],[7.4172152,43.7342958],[7.4174456,43.7334715],[7.4158604,43.7313885],[7.416195,43.7311567],[7.4175186,43.7315738]]]},"properties":{"shapeName":"La Condamine","shapeISO":"","shapeID":"19026983B96648976473188","shapeGroup":"MCO","shapeType":"ADM2"}},
{"type":"Feature","geometry":{"type":"Polygon","coordinates":[[[7.4286031,43.7460312],[7.429936,43.7460863],[7.4307593,43.745595],[7.4352433,43.7484715],[7.4376057,43.749495],[7.4383805,43.7494132],[7.4386621,43.7512496],[7.4369097,43.7519311],[7.4367898,43.7515916],[7.437595,43.7512061],[7.4359783,43.7499924],[7.4324103,43.7492551],[7.4319086,43.7488672],[7.4306408,43.7490241],[7.4286031,43.7460312]]]},"properties":{"shapeName":"La Rousse","shapeISO":"","shapeID":"19026983B26120633437362","shapeGroup":"MCO","shapeType":"ADM2"}},
{"type":"Feature","geometry":{"type":"Polygon","coordinates":[[[7.4307593,43.745595],[7.4296307,43.7434206],[7.4295254,43.7420186],[7.4295997,43.7410534],[7.4305082,43.7409359],[7.4325005,43.7433773],[7.4326133,43.7442919],[7.4334949,43.7448648],[7.4328201,43.7448286],[7.4329186,43.7456355],[7.433945,43.7460706],[7.4343421,43.7457824],[7.4339501,43.7461358],[7.4344424,43.7466709],[7.4355333,43.7468696],[7.4360278,43.7466948],[7.4355536,43.7463081],[7.435938,43.7463883],[7.4364543,43.7469203],[7.4361351,43.7468144],[7.4359545,43.7472742],[7.436619,43.7476607],[7.4378927,43.7463003],[7.4398163,43.7465797],[7.4390605,43.7491873],[7.4383805,43.7494132],[7.4376057,43.749495],[7.4352433,43.7484715],[7.4307593,43.745595]]]},"properties":{"shapeName":"Larvotto","shapeISO":"","shapeID":"19026983B17154892482417","shapeGroup":"MCO","shapeType":"ADM2"}},
{"type":"Feature","geometry":{"type":"Polygon","coordinates":[[[7.4295135,43.7377459],[7.4305551,43.739427],[7.4305082,43.7409359],[7.4295997,43.7410534],[7.4295254,43.7420186],[7.4296307,43.7434206],[7.4307593,43.745595],[7.429936,43.7460863],[7.4286031,43.7460312],[7.4280584,43.7439452],[7.4257418,43.7417566],[7.424472,43.7408725],[7.4229712,43.7417073],[7.4222221,43.7414143],[7.4207594,43.7397914],[7.4191482,43.7388875],[7.4212711,43.7378344],[7.4213506,43.7374667],[7.4222905,43.7376124],[7.4222651,43.7370711],[7.4295135,43.7377459]]]},"properties":{"shapeName":"Monte-Carlo","shapeISO":"","shapeID":"19026983B65741742743586","shapeGroup":"MCO","shapeType":"ADM2"}},
{"type":"Feature","geometry":{"type":"Polygon","coordinates":[[[7.4158604,43.7313885],[7.4174456,43.7334715],[7.4172152,43.7342958],[7.4162486,43.7343917],[7.4164243,43.7351293],[7.4150521,43.7351534],[7.4154788,43.7356129],[7.4144819,43.7359169],[7.4122892,43.734343],[7.4130778,43.7329606],[7.4129057,43.7316907],[7.4105449,43.7311058],[7.4090279,43.7295783],[7.4120416,43.7280955],[7.4128197,43.7301514],[7.4158604,43.7313885]]]},"properties":{"shapeName":"Jardin Exotique","shapeISO":"","shapeID":"19026983B36240121695843","shapeGroup":"MCO","shapeType":"ADM2"}},
{"type":"Feature","geometry":{"type":"Polygon","coordinates":[[[7.420872,43.7370979],[7.4204492,43.7376089],[7.4200385,43.737426],[7.4191504,43.7378324],[7.4188535,43.7386945],[7.4144819,43.7359169],[7.4154788,43.7356129],[7.4150521,43.7351534],[7.4164243,43.7351293],[7.4162486,43.7343917],[7.4172152,43.7342958],[7.4181192,43.7344466],[7.4185805,43.7353408],[7.420872,43.7370979]]]},"properties":{"shapeName":"Les Monegetti","shapeISO":"","shapeID":"19026983B74744845285354","shapeGroup":"MCO","shapeType":"ADM2"}},
{"type":"Feature","geometry":{"type":"Polygon","coordinates":[[[7.4222651,43.7370711],[7.4222905,43.7376124],[7.4213506,43.7374667],[7.4212711,43.7378344],[7.4191482,43.7388875],[7.4188535,43.7386945],[7.4191504,43.7378324],[7.4200385,43.737426],[7.4204492,43.7376089],[7.420872,43.7370979],[7.4222651,43.7370711]]]},"properties":{"shapeName":"Sainte-Dévote","shapeISO":"","shapeID":"19026983B23086528752726","shapeGroup":"MCO","shapeType":"ADM2"}}
]}