{"type":"FeatureCollection", "features": [
{"type":"Feature","geometry":{"type":"MultiPolygon","coordinates":[[[[28.485791499999777,45.66006249905694],[28.437448999999805,45.65195199905689],[28.436281999999817,45.56698599905681],[28.538931999999786,45.59574399905692],[28.515477499999783,45.66490749905692],[28.485791499999777,45.66006249905694]]],[[[28.504979999999758,46.10856599905739],[28.441287999999762,46.125517999057415],[28.432248999999754,46.07905999905736],[28.40839899999978,46.07912899905735],[28.39871199999976,46.09893799905736],[28.372612999999774,46.09359599905737],[28.358682999999758,46.11903499905739],[28.34103599999977,46.11369499905739],[28.30445299999976,46.1538499990574],[28.23929199999978,46.10512199905738],[28.12020899999976,46.10619099905739],[28.08889899999979,46.06919399905739],[28.103917999999762,46.05137899905735],[28.08719749999976,46.00968099905723],[28.122899999999763,45.92551149905721],[28.112281499999746,45.88467149905714],[28.130306499999786,45.88112449905713],[28.10574899999978,45.859642999057144],[28.10934549999981,45.818114499056996],[28.11330249999983,45.79068299905702],[28.153679499999797,45.782665999057016],[28.14343949999977,45.75983049905704],[28.170529999999744,45.710021999056984],[28.157615999999802,45.65113099905691],[28.174342499999813,45.6446899990569],[28.088517499999792,45.60462599905689],[28.120801999999806,45.57218199905691],[28.15635249999979,45.57535799905688],[28.162055999999765,45.500473999056794],[28.18767399999976,45.473352999056836],[28.214302999999767,45.467682999056784],[28.305106499999752,45.54697549905687],[28.29228399999978,45.59590099905688],[28.329191999999818,45.604081999056916],[28.30230199999982,45.74381399905703],[28.33163799999981,45.74905799905703],[28.342611999999793,45.721422999056934],[28.38427199999983,45.715554999057005],[28.416833999999785,45.72686399905695],[28.423821999999777,45.71543999905703],[28.5124659999998,45.719400999056994],[28.52058849999981,45.73770099905697],[28.55548849999981,45.73652899905698],[28.52548699999977,45.799064999057045],[28.466340999999765,45.79597499905705],[28.459737999999806,45.82668499905703],[28.405085999999773,45.814713999057076],[28.4060359999998,45.848239999057064],[28.38634499999978,45.854629999057046],[28.39327799999977,45.878884999057085],[28.465661999999774,45.89579099905712],[28.441005999999764,45.92788899905719],[28.45003299999978,46.06905099905733],[28.47686499999981,46.06652099905731],[28.49961899999978,46.03261499905732],[28.56392199999976,46.050598999057314],[28.55260599999982,46.07840699905733],[28.513071999999756,46.072486999057375],[28.48463999999978,46.09069799905736],[28.511866999999814,46.09617199905738],[28.504979999999758,46.10856599905739]]]]},"properties":{"shapeName":"Cahul","shapeISO":"MD-CA","shapeID":"25212430B51059014460141","shapeGroup":"MDA","shapeType":"ADM1"}},
{"type":"Feature","geometry":{"type":"MultiPolygon","coordinates":[[[[28.485791499999777,45.66006249905694],[28.5124659999998,45.719400999056994],[28.423821999999777,45.71543999905703],[28.416833999999785,45.72686399905695],[28.38427199999983,45.715554999057005],[28.342611999999793,45.721422999056934],[28.33163799999981,45.74905799905703],[28.30230199999982,45.74381399905703],[28.329191999999818,45.604081999056916],[28.29228399999978,45.59590099905688],[28.305106499999752,45.54697549905687],[28.420770999999785,45.51266549905687],[28.4206664999998,45.485097999056755],[28.51377799999977,45.49934799905684],[28.4913354999998,45.57090699905679],[28.544286999999763,45.57951849905686],[28.538931999999786,45.59574399905692],[28.436281999999817,45.56698599905681],[28.437448999999805,45.65195199905689],[28.485791499999777,45.66006249905694]]],[[[28.697313499999773,45.81776499905706],[28.785390499999824,45.83214699905707],[28.768465499999746,45.884560499057166],[28.595600999999814,45.85696799905715],[28.582004999999803,45.83463799905704],[28.577437999999763,45.85740799905708],[28.5340329999998,45.848905999057116],[28.544430999999786,45.81835499905708],[28.576978999999803,45.823993999057045],[28.57562399999979,45.80423299905701],[28.697313499999773,45.81776499905706]]],[[[28.38634499999978,45.854629999057046],[28.496463999999765,45.874152999057124],[28.491026999999804,45.89289499905714],[28.465661999999774,45.89579099905712],[28.39327799999977,45.878884999057085],[28.38634499999978,45.854629999057046]]],[[[28.49961899999978,46.03261499905732],[28.51620999999979,46.00129099905724],[28.569370999999748,46.00527399905722],[28.557375999999817,45.978574999057216],[28.57235899999978,45.97063699905722],[28.518116999999783,45.97079399905726],[28.532183999999777,45.9518769990572],[28.594704999999795,45.963529999057236],[28.60655399999979,45.94330799905719],[28.732986999999774,45.96372599905718],[28.70439799999979,46.04767999905728],[28.774492999999772,46.058814999057304],[28.803173999999753,45.97518349905721],[28.900797499999797,45.99058249905724],[28.868314999999747,46.08916899905742],[28.945622999999777,46.10166799905737],[28.91570499999981,46.15206699905744],[29.002249999999822,46.231750499057526],[28.95186749999976,46.259544499057576],[28.897689999999788,46.29544399905764],[28.732978999999776,46.2695839990576],[28.72773199999978,46.315126999057675],[28.87219799999977,46.33875499905772],[28.822859999999764,46.421725999057834],[28.755200999999776,46.412438999057834],[28.602735999999766,46.47137699905794],[28.551420999999763,46.46709699905793],[28.533020999999767,46.46451999905792],[28.52207799999977,46.428845999057884],[28.54734099999976,46.429080999057874],[28.569970999999782,46.374942999057794],[28.54702999999978,46.33661899905771],[28.514707999999757,46.347281999057714],[28.508508999999776,46.29251099905764],[28.556069999999757,46.29053199905761],[28.554501999999747,46.198284999057584],[28.473656999999776,46.179285999057484],[28.504979999999758,46.10856599905739],[28.511866999999814,46.09617199905738],[28.48463999999978,46.09069799905736],[28.513071999999756,46.072486999057375],[28.55260599999982,46.07840699905733],[28.56392199999976,46.050598999057314],[28.49961899999978,46.03261499905732]]]]},"properties":{"shapeName":"Gagauzia","shapeISO":"MD-GA","shapeID":"25212430B55748044124793","shapeGroup":"MDA","shapeType":"ADM1"}},
{"type":"Feature","geometry":{"type":"MultiPolygon","coordinates":[[[[28.465661999999774,45.89579099905712],[28.491026999999804,45.89289499905714],[28.496463999999765,45.874152999057124],[28.38634499999978,45.854629999057046],[28.4060359999998,45.848239999057064],[28.405085999999773,45.814713999057076],[28.459737999999806,45.82668499905703],[28.466340999999765,45.79597499905705],[28.52548699999977,45.799064999057045],[28.55548849999981,45.73652899905698],[28.56408099999978,45.725830999056946],[28.59454449999982,45.734576999057005],[28.585310999999745,45.77273149905704],[28.70925549999979,45.78012799905705],[28.697313499999773,45.81776499905706],[28.57562399999979,45.80423299905701],[28.576978999999803,45.823993999057045],[28.544430999999786,45.81835499905708],[28.5340329999998,45.848905999057116],[28.577437999999763,45.85740799905708],[28.582004999999803,45.83463799905704],[28.595600999999814,45.85696799905715],[28.768465499999746,45.884560499057166],[28.75676599999976,45.95732099905722],[28.803173999999753,45.97518349905721],[28.774492999999772,46.058814999057304],[28.70439799999979,46.04767999905728],[28.732986999999774,45.96372599905718],[28.60655399999979,45.94330799905719],[28.594704999999795,45.963529999057236],[28.532183999999777,45.9518769990572],[28.518116999999783,45.97079399905726],[28.57235899999978,45.97063699905722],[28.557375999999817,45.978574999057216],[28.569370999999748,46.00527399905722],[28.51620999999979,46.00129099905724],[28.49961899999978,46.03261499905732],[28.47686499999981,46.06652099905731],[28.45003299999978,46.06905099905733],[28.441005999999764,45.92788899905719],[28.465661999999774,45.89579099905712]]],[[[28.900797499999797,45.99058249905724],[28.978786999999794,46.00359199905729],[29.005504499999763,46.04945149905735],[28.950378499999772,46.09372499905732],[29.067093499999753,46.19558599905748],[29.002249999999822,46.231750499057526],[28.91570499999981,46.15206699905744],[28.945622999999777,46.10166799905737],[28.868314999999747,46.08916899905742],[28.900797499999797,45.99058249905724]]]]},"properties":{"shapeName":"Taraclia","shapeISO":"MD-TA","shapeID":"25212430B43456438192105","shapeGroup":"MDA","shapeType":"ADM1"}},
{"type":"Feature","geometry":{"type":"Polygon","coordinates":[[[28.504979999999758,46.10856599905739],[28.473656999999776,46.179285999057484],[28.554501999999747,46.198284999057584],[28.556069999999757,46.29053199905761],[28.508508999999776,46.29251099905764],[28.514707999999757,46.347281999057714],[28.45692299999976,46.373146999057774],[28.491500999999772,46.390360999057805],[28.448515999999785,46.42063699905786],[28.41515499999977,46.41409499905782],[28.41830799999977,46.39032599905781],[28.383092999999775,46.369418999057764],[28.352732999999773,46.37019599905777],[28.337338999999755,46.40848699905781],[28.23465549999977,46.3910894990578],[28.218641999999765,46.3939049990578],[28.208729999999775,46.359535499057756],[28.182813999999777,46.35288849905773],[28.202451499999764,46.31071599905768],[28.18014999999977,46.285365999057625],[28.172465999999755,46.29785249905764],[28.169407499999778,46.282534499057626],[28.148988499999774,46.29175249905765],[28.12777899999978,46.26010149905758],[28.146624499999778,46.25162349905758],[28.110154499999766,46.24362299905757],[28.109443499999767,46.20506299905751],[28.12367149999977,46.211002999057506],[28.118721999999764,46.191892499057495],[28.141680999999778,46.192103999057515],[28.14401049999978,46.178876999057486],[28.12805699999978,46.177124999057476],[28.142905499999788,46.164149499057444],[28.12020899999976,46.10619099905739],[28.23929199999978,46.10512199905738],[28.30445299999976,46.1538499990574],[28.34103599999977,46.11369499905739],[28.358682999999758,46.11903499905739],[28.372612999999774,46.09359599905737],[28.39871199999976,46.09893799905736],[28.40839899999978,46.07912899905735],[28.432248999999754,46.07905999905736],[28.441287999999762,46.125517999057415],[28.504979999999758,46.10856599905739]]]},"properties":{"shapeName":"Cantemir","shapeISO":"MD-CT","shapeID":"25212430B81482951983667","shapeGroup":"MDA","shapeType":"ADM1"}},
{"type":"Feature","geometry":{"type":"Polygon","coordinates":[[[28.95186749999976,46.259544499057576],[28.983829999999784,46.31612649905769],[29.003656499999785,46.31642399905767],[28.93080749999976,46.4577149990579],[29.02557799999976,46.46237299905792],[29.023425999999777,46.48017899905796],[28.98542199999977,46.47757949905796],[28.98154749999978,46.488864999057945],[28.963558999999776,46.53537599905805],[28.93344999999977,46.53701199905804],[28.917110999999778,46.51094699905801],[28.877638999999757,46.495837999057976],[28.88691199999977,46.48435599905797],[28.794936999999777,46.4454829990579],[28.822859999999764,46.421725999057834],[28.87219799999977,46.33875499905772],[28.72773199999978,46.315126999057675],[28.732978999999776,46.2695839990576],[28.897689999999788,46.29544399905764],[28.95186749999976,46.259544499057576]]]},"properties":{"shapeName":"Basarabeasca","shapeISO":"MD-BS","shapeID":"25212430B41329206409501","shapeGroup":"MDA","shapeType":"ADM1"}},
{"type":"Feature","geometry":{"type":"Polygon","coordinates":[[[28.551420999999763,46.46709699905793],[28.576811999999762,46.51532799905799],[28.575429999999784,46.659185999058266],[28.492391999999768,46.665144999058306],[28.44894499999978,46.70378699905836],[28.409006999999775,46.706819999058375],[28.411253999999758,46.69195199905834],[28.367224999999763,46.679000999058346],[28.395989999999784,46.61938099905821],[28.29444099999978,46.60522899905817],[28.302276999999773,46.63636099905824],[28.24451299999978,46.636605999058254],[28.251309499999763,46.61361899905822],[28.222701499999772,46.57920249905813],[28.22982549999978,46.52564899905803],[28.209102999999775,46.505135999058],[28.25827049999978,46.46180549905793],[28.239890999999773,46.45230449905792],[28.25909249999978,46.43586599905786],[28.230308499999783,46.415653999057845],[28.23465549999977,46.3910894990578],[28.337338999999755,46.40848699905781],[28.352732999999773,46.37019599905777],[28.383092999999775,46.369418999057764],[28.41830799999977,46.39032599905781],[28.41515499999977,46.41409499905782],[28.448515999999785,46.42063699905786],[28.491500999999772,46.390360999057805],[28.45692299999976,46.373146999057774],[28.514707999999757,46.347281999057714],[28.54702999999978,46.33661899905771],[28.569970999999782,46.374942999057794],[28.54734099999976,46.429080999057874],[28.52207799999977,46.428845999057884],[28.533020999999767,46.46451999905792],[28.551420999999763,46.46709699905793]]]},"properties":{"shapeName":"Leova","shapeISO":"MD-LE","shapeID":"25212430B269818099865","shapeGroup":"MDA","shapeType":"ADM1"}},
{"type":"Feature","geometry":{"type":"Polygon","coordinates":[[[28.822859999999764,46.421725999057834],[28.794936999999777,46.4454829990579],[28.88691199999977,46.48435599905797],[28.877638999999757,46.495837999057976],[28.917110999999778,46.51094699905801],[28.93344999999977,46.53701199905804],[28.963558999999776,46.53537599905805],[28.98154749999978,46.488864999057945],[29.033585499999756,46.490703999057985],[29.06293199999976,46.512408499058],[29.05707399999977,46.60762099905819],[28.965114999999773,46.60216799905817],[28.967003999999772,46.62845799905823],[28.937682999999762,46.66933799905829],[28.92751499999978,46.66213199905829],[28.91279599999976,46.659049999058276],[28.904547999999785,46.69799299905837],[28.86283699999976,46.71311199905839],[28.850958999999772,46.696240999058354],[28.825580999999772,46.69830399905835],[28.747721999999783,46.759866999058474],[28.727349999999777,46.746895999058474],[28.723472999999757,46.771856999058514],[28.66906599999976,46.749174999058454],[28.651258999999786,46.7221649990584],[28.604675999999785,46.733332999058426],[28.619245999999777,46.6645709990583],[28.575429999999784,46.659185999058266],[28.576811999999762,46.51532799905799],[28.551420999999763,46.46709699905793],[28.602735999999766,46.47137699905794],[28.755200999999776,46.412438999057834],[28.822859999999764,46.421725999057834]]]},"properties":{"shapeName":"Cimislia","shapeISO":"MD-CM","shapeID":"25212430B51243918943413","shapeGroup":"MDA","shapeType":"ADM1"}},
{"type":"Feature","geometry":{"type":"Polygon","coordinates":[[[29.875648499999784,46.54662999905807],[29.87547999999979,46.55962299905808],[29.895981999999776,46.552544999058085],[29.859785999999758,46.56668699905812],[29.873507999999756,46.587352999058204],[29.829400999999763,46.58045899905813],[29.839138999999765,46.59593699905817],[29.824011999999772,46.60275799905819],[29.81454299999976,46.58548799905815],[29.802958999999756,46.60527499905817],[29.809548999999777,46.58783999905816],[29.796721999999757,46.594856999058166],[29.78811399999978,46.57918299905815],[29.72232799999978,46.60000299905817],[29.75530599999976,46.61584799905824],[29.741746999999776,46.625208999058216],[29.77882999999977,46.63365899905828],[29.75816999999978,46.646903999058246],[29.774293999999777,46.65558399905826],[29.755023999999764,46.64854299905826],[29.762643999999767,46.668933999058304],[29.726520999999764,46.67209699905832],[29.71732499999976,46.65756599905827],[29.69823299999976,46.678752999058325],[29.66556499999976,46.67610399905831],[29.626070999999772,46.66522799905829],[29.60028899999978,46.6224409990582],[29.55143099999978,46.63944299905827],[29.494814999999754,46.59815599905817],[29.476622999999762,46.61328899905818],[29.406343999999763,46.57827399905812],[29.428009999999773,46.55098799905807],[29.39609899999977,46.53281999905805],[29.442077499999787,46.49340799905797],[29.502387499999774,46.46149549905792],[29.484692999999762,46.447433499057894],[29.494708499999774,46.42791799905785],[29.565950499999754,46.416471499057856],[29.580296499999783,46.360999499057755],[29.60319949999976,46.353750999057745],[29.678648999999776,46.361444999057724],[29.660397499999757,46.436173999057885],[29.678716499999783,46.44195349905788],[29.685691999999758,46.42607299905787],[29.734574999999783,46.434980999057885],[29.74126499999978,46.47286699905793],[29.823047499999774,46.39570099905783],[29.805287999999763,46.38561199905779],[29.891137999999753,46.35250599905774],[29.886853499999777,46.37154299905778],[29.93881099999976,46.40096049905782],[30.021929499999768,46.382966999057786],[30.07105899999976,46.39689799905782],[30.096769999999765,46.37535849905776],[30.163138499999775,46.413372999057835],[30.156719499999785,46.42893349905788],[30.133694999999765,46.41083349905783],[30.095764499999778,46.43972099905788],[30.077711499999765,46.42359849905785],[30.05584749999977,46.42808699905783],[30.063487999999783,46.442706499057884],[30.02251399999977,46.44178899905789],[30.02554549999976,46.45310049905789],[29.993718999999775,46.461675999057924],[30.022756499999762,46.46874699905792],[29.994173499999764,46.47386699905793],[29.986652499999764,46.509686999058],[29.961004499999774,46.490501999057976],[29.96093499999978,46.509845999057994],[29.936242999999763,46.49364299905799],[29.875648499999784,46.54662999905807]]]},"properties":{"shapeName":"Stefan Voda","shapeISO":"MD-SV","shapeID":"25212430B10989766506063","shapeGroup":"MDA","shapeType":"ADM1"}},
{"type":"Feature","geometry":{"type":"Polygon","coordinates":[[[29.489287999999757,46.85368799905867],[29.431817999999765,46.863502999058696],[29.437347999999762,46.84922299905868],[29.39663599999978,46.84852999905867],[29.405573999999778,46.8151179990586],[29.45839699999976,46.81224049905861],[29.47664899999978,46.78121499905851],[29.510377999999772,46.79296399905854],[29.489287999999757,46.85368799905867]]]},"properties":{"shapeName":"Bender","shapeISO":"MD-BD","shapeID":"25212430B95154791539173","shapeGroup":"MDA","shapeType":"ADM1"}},
{"type":"Feature","geometry":{"type":"Polygon","coordinates":[[[29.06293199999976,46.512408499058],[29.163612999999764,46.515522499057994],[29.161791499999765,46.544497999058045],[29.235529999999788,46.558319499058086],[29.255132999999773,46.485298999057974],[29.21966899999978,46.46355599905792],[29.24588099999977,46.41681149905785],[29.206901999999754,46.38631699905779],[29.240614499999765,46.37620599905777],[29.265255999999763,46.40659649905781],[29.32415599999976,46.41482449905783],[29.305878999999777,46.44439649905788],[29.308348999999765,46.465272499057924],[29.336376499999776,46.47401449905793],[29.331406999999757,46.496066999057966],[29.351262499999756,46.504287999058015],[29.39617249999978,46.42539249905785],[29.38673149999977,46.4466329990579],[29.442077499999787,46.49340799905797],[29.39609899999977,46.53281999905805],[29.428009999999773,46.55098799905807],[29.406343999999763,46.57827399905812],[29.476622999999762,46.61328899905818],[29.494814999999754,46.59815599905817],[29.55143099999978,46.63944299905827],[29.60028899999978,46.6224409990582],[29.626070999999772,46.66522799905829],[29.66556499999976,46.67610399905831],[29.69459699999976,46.708965999058364],[29.666290999999774,46.755082999058466],[29.673632999999754,46.7777279990586],[29.651209999999764,46.79184999905854],[29.66603999999978,46.80770999905858],[29.60313199999976,46.81510799905859],[29.607741999999778,46.83430299905863],[29.581141999999776,46.82340399905861],[29.58735899999975,46.79976399905859],[29.561838999999758,46.797465999058545],[29.559084999999783,46.77622299905851],[29.541609999999764,46.79626299905855],[29.541370999999774,46.77781499905851],[29.510377999999772,46.79296399905854],[29.47664899999978,46.78121499905851],[29.45839699999976,46.81224049905861],[29.405573999999778,46.8151179990586],[29.39524699999976,46.79965499905858],[29.315458999999773,46.807691999058584],[29.31414799999976,46.79596499905857],[29.271317999999784,46.79602299905857],[29.292722999999764,46.77253699905853],[29.228208999999765,46.76325899905848],[29.22211899999977,46.7137419990584],[29.173825999999764,46.7077969990584],[29.152803999999776,46.75059699905849],[29.081037999999783,46.74017599905846],[29.00165899999977,46.680318999058336],[28.949007999999765,46.67650599905833],[28.931375999999773,46.68854199905832],[28.92751499999978,46.66213199905829],[28.937682999999762,46.66933799905829],[28.967003999999772,46.62845799905823],[28.965114999999773,46.60216799905817],[29.05707399999977,46.60762099905819],[29.06293199999976,46.512408499058]]]},"properties":{"shapeName":"Causeni","shapeISO":"MD-CS","shapeID":"25212430B31479954216778","shapeGroup":"MDA","shapeType":"ADM1"}},
{"type":"Feature","geometry":{"type":"Polygon","coordinates":[[[28.575429999999784,46.659185999058266],[28.619245999999777,46.6645709990583],[28.604675999999785,46.733332999058426],[28.651258999999786,46.7221649990584],[28.66906599999976,46.749174999058454],[28.723472999999757,46.771856999058514],[28.70424099999977,46.79869499905856],[28.74272299999979,46.82406999905861],[28.703086999999783,46.87490399905873],[28.66603799999976,46.88050699905875],[28.66045299999976,46.85779799905869],[28.641852999999774,46.86907099905872],[28.648154999999775,46.898057999058786],[28.59470399999978,46.92213099905883],[28.591377999999768,46.939658999058864],[28.571133999999773,46.92809499905884],[28.56291399999978,46.96533599905893],[28.535635999999784,46.981325999058974],[28.54940199999976,46.989483999058976],[28.51393399999978,47.00115899905903],[28.526668999999767,47.01984299905906],[28.464125999999762,47.05398899905917],[28.476330999999757,47.063367999059174],[28.452165999999778,47.072220999059184],[28.43074499999977,47.05377999905915],[28.39270499999978,47.08965199905925],[28.40095099999976,47.06297299905918],[28.38613499999977,47.0804159990592],[28.368402999999773,47.07994899905922],[28.376082999999767,47.06259499905918],[28.32206499999978,47.08396899905922],[28.300122999999758,47.053367999059134],[28.327512499999784,47.00450049905902],[28.312638999999763,46.993141999058984],[28.290806999999774,47.00573099905905],[28.248058999999785,46.99997599905901],[28.23672099999976,46.90850799905881],[28.17599599999977,46.938197999058886],[28.15806299999977,46.92735099905885],[28.169221999999763,46.91108299905882],[28.12825699999976,46.93014299905886],[28.110389999999768,46.92325899905885],[28.082766499999764,46.90285799905879],[28.11443549999976,46.89099699905878],[28.114335499999783,46.82224349905862],[28.17126049999976,46.782441999058506],[28.24451299999978,46.636605999058254],[28.302276999999773,46.63636099905824],[28.29444099999978,46.60522899905817],[28.395989999999784,46.61938099905821],[28.367224999999763,46.679000999058346],[28.411253999999758,46.69195199905834],[28.409006999999775,46.706819999058375],[28.44894499999978,46.70378699905836],[28.492391999999768,46.665144999058306],[28.575429999999784,46.659185999058266]]]},"properties":{"shapeName":"Hincesti","shapeISO":"MD-HI","shapeID":"25212430B73317679220215","shapeGroup":"MDA","shapeType":"ADM1"}},
{"type":"Feature","geometry":{"type":"Polygon","coordinates":[[[28.92751499999978,46.66213199905829],[28.931375999999773,46.68854199905832],[28.949007999999765,46.67650599905833],[29.00165899999977,46.680318999058336],[29.081037999999783,46.74017599905846],[29.08422799999977,46.77335699905851],[29.102994999999773,46.77952399905851],[29.083751999999777,46.801809999058584],[29.094723999999765,46.821286999058614],[29.055630999999778,46.849783999058694],[29.072614999999757,46.86599599905871],[29.010967999999764,46.859897999058695],[28.927235999999763,46.8601429990587],[28.84808599999976,46.87967199905876],[28.823207999999767,46.9509949990589],[28.793603999999767,46.96530799905894],[28.78601799999976,46.95435599905892],[28.765911999999762,46.973775999058965],[28.756456999999788,46.964613999058926],[28.671591999999777,47.02868599905909],[28.64224649999977,47.04084999905911],[28.60762399999976,47.027742999059086],[28.633265999999765,46.99670899905901],[28.614683999999784,46.98830199905898],[28.529153999999775,47.04757699905913],[28.51576099999977,47.0757199990592],[28.492543999999782,47.05845499905915],[28.50441599999976,47.0434719990591],[28.476330999999757,47.063367999059174],[28.464125999999762,47.05398899905917],[28.526668999999767,47.01984299905906],[28.51393399999978,47.00115899905903],[28.54940199999976,46.989483999058976],[28.535635999999784,46.981325999058974],[28.56291399999978,46.96533599905893],[28.571133999999773,46.92809499905884],[28.591377999999768,46.939658999058864],[28.59470399999978,46.92213099905883],[28.648154999999775,46.898057999058786],[28.641852999999774,46.86907099905872],[28.66045299999976,46.85779799905869],[28.66603799999976,46.88050699905875],[28.703086999999783,46.87490399905873],[28.74272299999979,46.82406999905861],[28.70424099999977,46.79869499905856],[28.723472999999757,46.771856999058514],[28.727349999999777,46.746895999058474],[28.747721999999783,46.759866999058474],[28.825580999999772,46.69830399905835],[28.850958999999772,46.696240999058354],[28.86283699999976,46.71311199905839],[28.904547999999785,46.69799299905837],[28.91279599999976,46.659049999058276],[28.92751499999978,46.66213199905829]]]},"properties":{"shapeName":"Ialoveni","shapeISO":"MD-IA","shapeID":"25212430B74275153833775","shapeGroup":"MDA","shapeType":"ADM1"}},
{"type":"Feature","geometry":{"type":"Polygon","coordinates":[[[28.32206499999978,47.08396899905922],[28.314727999999775,47.10227199905927],[28.270987999999765,47.09577399905924],[28.234216999999774,47.1216549990593],[28.236947999999785,47.14555499905939],[28.265028999999775,47.13563699905933],[28.275377999999762,47.15902899905939],[28.12474999999978,47.204508999059534],[28.046793999999778,47.25965599905965],[27.97735499999976,47.24155699905963],[27.991346999999763,47.17684599905945],[27.95229699999976,47.178770999059445],[27.94462699999977,47.13373399905934],[27.98995599999978,47.112223999059296],[28.004009999999766,47.05875199905917],[28.044370999999785,47.05811499905915],[28.05445499999976,47.0370339990591],[28.03498399999978,47.03012199905908],[28.053850999999785,47.01458099905906],[28.032940999999767,47.01064099905905],[28.095993499999768,46.978529499058965],[28.080973499999775,46.93780299905885],[28.110389999999768,46.92325899905885],[28.12825699999976,46.93014299905886],[28.169221999999763,46.91108299905882],[28.15806299999977,46.92735099905885],[28.17599599999977,46.938197999058886],[28.23672099999976,46.90850799905881],[28.248058999999785,46.99997599905901],[28.290806999999774,47.00573099905905],[28.312638999999763,46.993141999058984],[28.327512499999784,47.00450049905902],[28.300122999999758,47.053367999059134],[28.32206499999978,47.08396899905922]]]},"properties":{"shapeName":"Nisporeni","shapeISO":"MD-NI","shapeID":"25212430B5738533784066","shapeGroup":"MDA","shapeType":"ADM1"}},
{"type":"Feature","geometry":{"type":"Polygon","coordinates":[[[29.010967999999764,46.859897999058695],[29.034994999999782,46.86497999905869],[29.02686499999976,46.92645699905887],[28.94973699999977,46.942109999058886],[28.993994999999757,46.96689399905895],[28.99784299999976,46.992777999059],[28.966523999999772,47.010149999059024],[28.97085599999977,47.053441999059146],[29.01739699999976,47.04335599905912],[29.03466499999975,47.07070299905917],[29.06022099999976,47.060678999059164],[29.080385999999773,47.067716499059195],[29.066409499999764,47.07659399905923],[29.117399999999776,47.06578399905917],[29.121905999999765,47.0751689990592],[29.065350999999765,47.10886499905927],[29.02901399999976,47.109597999059275],[29.01107499999978,47.092445999059244],[28.956718999999765,47.10922199905928],[28.96583999999975,47.10091799905925],[28.90874099999976,47.09003199905923],[28.900755999999774,47.105722999059246],[28.923120999999785,47.113711999059284],[28.897682999999773,47.150737999059395],[28.839703999999784,47.1554589990594],[28.832014999999757,47.114117999059296],[28.78678499999977,47.13713999905934],[28.75981699999977,47.13342099905936],[28.73568799999978,47.09389599905926],[28.66196499999978,47.135168999059346],[28.715882999999764,47.082812999059215],[28.660457999999778,47.08290999905923],[28.630943999999772,47.06644999905916],[28.671591999999777,47.02868599905909],[28.756456999999788,46.964613999058926],[28.765911999999762,46.973775999058965],[28.78601799999976,46.95435599905892],[28.793603999999767,46.96530799905894],[28.823207999999767,46.9509949990589],[28.84808599999976,46.87967199905876],[28.927235999999763,46.8601429990587],[29.010967999999764,46.859897999058695]]]},"properties":{"shapeName":"Chisinau","shapeISO":"MD-CU","shapeID":"25212430B29368029244886","shapeGroup":"MDA","shapeType":"ADM1"}},
{"type":"Feature","geometry":{"type":"Polygon","coordinates":[[[29.489287999999757,46.85368799905867],[29.464347999999774,46.90265799905881],[29.469386499999754,46.95083849905889],[29.429578999999762,46.964691999058935],[29.36416999999977,46.933598999058916],[29.29400999999976,46.98051199905896],[29.302900999999764,47.00007399905902],[29.304146999999766,46.98303999905898],[29.312132999999754,46.995996999058995],[29.37557099999977,46.994643999059036],[29.35481299999978,47.03796799905913],[29.38436299999978,47.02678399905908],[29.391704999999767,47.058498999059196],[29.344484999999757,47.10548899905926],[29.294641999999783,47.11012399905928],[29.296008999999767,47.13237399905935],[29.27358099999978,47.12312499905932],[29.294763999999756,47.10864499905929],[29.27304599999976,47.118368999059314],[29.23856599999976,47.02622999905909],[29.171375999999782,47.024723999059084],[29.149535999999788,46.986760999058994],[29.107740999999777,46.96949599905895],[29.086016999999767,47.01706399905905],[29.03764499999977,47.01363899905905],[29.01136499999978,47.02889299905908],[29.01203699999977,46.989881999059],[28.99784299999976,46.992777999059],[28.993994999999757,46.96689399905895],[28.94973699999977,46.942109999058886],[29.02686499999976,46.92645699905887],[29.034994999999782,46.86497999905869],[29.010967999999764,46.859897999058695],[29.072614999999757,46.86599599905871],[29.055630999999778,46.849783999058694],[29.094723999999765,46.821286999058614],[29.083751999999777,46.801809999058584],[29.102994999999773,46.77952399905851],[29.08422799999977,46.77335699905851],[29.081037999999783,46.74017599905846],[29.152803999999776,46.75059699905849],[29.173825999999764,46.7077969990584],[29.22211899999977,46.7137419990584],[29.228208999999765,46.76325899905848],[29.292722999999764,46.77253699905853],[29.271317999999784,46.79602299905857],[29.31414799999976,46.79596499905857],[29.315458999999773,46.807691999058584],[29.39524699999976,46.79965499905858],[29.405573999999778,46.8151179990586],[29.39663599999978,46.84852999905867],[29.437347999999762,46.84922299905868],[29.431817999999765,46.863502999058696],[29.489287999999757,46.85368799905867]]]},"properties":{"shapeName":"Anenii Noi","shapeISO":"MD-AN","shapeID":"25212430B26910735221199","shapeGroup":"MDA","shapeType":"ADM1"}},
{"type":"Feature","geometry":{"type":"MultiPolygon","coordinates":[[[[28.99784299999976,46.992777999059],[29.01203699999977,46.989881999059],[29.01136499999978,47.02889299905908],[29.03764499999977,47.01363899905905],[29.086016999999767,47.01706399905905],[29.107740999999777,46.96949599905895],[29.149535999999788,46.986760999058994],[29.171375999999782,47.024723999059084],[29.23856599999976,47.02622999905909],[29.27304599999976,47.118368999059314],[29.294763999999756,47.10864499905929],[29.27358099999978,47.12312499905932],[29.296008999999767,47.13237399905935],[29.251051999999778,47.16240799905947],[29.227636999999785,47.16879199905948],[29.2277119999998,47.144381999059355],[29.212309999999817,47.16127399905937],[29.18277599999976,47.15981999905943],[29.1873499999998,47.11549599905927],[29.175485999999776,47.104823999059306],[29.161477999999782,47.12538899905929],[29.121905999999765,47.0751689990592],[29.117399999999776,47.06578399905917],[29.066409499999764,47.07659399905923],[29.080385999999773,47.067716499059195],[29.06022099999976,47.060678999059164],[29.03466499999975,47.07070299905917],[29.01739699999976,47.04335599905912],[28.97085599999977,47.053441999059146],[28.966523999999772,47.010149999059024],[28.99784299999976,46.992777999059]]],[[[29.065350999999765,47.10886499905927],[29.10090999999977,47.146796999059426],[29.14400299999981,47.16254599905943],[29.180273999999777,47.21158699905956],[29.148665999999807,47.24496899905964],[29.130226999999802,47.25290299905968],[29.101874999999765,47.23376899905964],[29.125994999999783,47.240581999059664],[29.130125999999755,47.2296349990596],[29.08270499999977,47.21898599905957],[29.063069999999772,47.24281399905966],[29.08009399999981,47.28987999905977],[29.026908999999808,47.31136299905979],[29.023545999999786,47.32714399905983],[28.999686999999756,47.31703999905988],[29.002408999999776,47.297257999059774],[28.950298999999763,47.30339699905982],[28.880922999999765,47.256566999059665],[28.79514899999978,47.25993099905968],[28.785886999999768,47.20988599905957],[28.804195999999763,47.19493799905951],[28.78046299999976,47.18230599905949],[28.747288999999768,47.14393799905939],[28.75981699999977,47.13342099905936],[28.78678499999977,47.13713999905934],[28.832014999999757,47.114117999059296],[28.839703999999784,47.1554589990594],[28.897682999999773,47.150737999059395],[28.923120999999785,47.113711999059284],[28.900755999999774,47.105722999059246],[28.90874099999976,47.09003199905923],[28.96583999999975,47.10091799905925],[28.956718999999765,47.10922199905928],[29.01107499999978,47.092445999059244],[29.02901399999976,47.109597999059275],[29.065350999999765,47.10886499905927]]]]},"properties":{"shapeName":"Criuleni","shapeISO":"MD-CR","shapeID":"25212430B57403780332927","shapeGroup":"MDA","shapeType":"ADM1"}},
{"type":"Feature","geometry":{"type":"Polygon","coordinates":[[[28.476330999999757,47.063367999059174],[28.50441599999976,47.0434719990591],[28.492543999999782,47.05845499905915],[28.51576099999977,47.0757199990592],[28.529153999999775,47.04757699905913],[28.614683999999784,46.98830199905898],[28.633265999999765,46.99670899905901],[28.60762399999976,47.027742999059086],[28.64224649999977,47.04084999905911],[28.671591999999777,47.02868599905909],[28.630943999999772,47.06644999905916],[28.660457999999778,47.08290999905923],[28.715882999999764,47.082812999059215],[28.66196499999978,47.135168999059346],[28.73568799999978,47.09389599905926],[28.75981699999977,47.13342099905936],[28.747288999999768,47.14393799905939],[28.78046299999976,47.18230599905949],[28.763679999999766,47.213151999059534],[28.733206999999766,47.21240699905955],[28.73373099999978,47.236003999059584],[28.707518999999763,47.24287199905962],[28.68607199999977,47.22732399905958],[28.654395999999767,47.26125499905965],[28.662769999999767,47.27583199905971],[28.61525399999977,47.29652799905978],[28.613456999999784,47.33515399905987],[28.582372999999762,47.32298699905984],[28.52883099999977,47.331276999059874],[28.553642999999767,47.307658999059804],[28.510955999999766,47.31740399905981],[28.514088999999757,47.30343899905979],[28.493762999999774,47.303506999059806],[28.47516799999977,47.317087999059815],[28.491435999999766,47.29003099905976],[28.430210999999755,47.27987099905972],[28.461038999999772,47.2688339990597],[28.487236999999762,47.229747999059605],[28.46423299999978,47.21916799905957],[28.47847299999978,47.199002999059495],[28.46437199999977,47.19118699905949],[28.42268999999976,47.219687999059566],[28.422672999999776,47.18361299905947],[28.407116999999772,47.18786699905947],[28.389441999999775,47.166969999059425],[28.360889999999785,47.174132999059445],[28.35042799999977,47.16253899905941],[28.33059199999977,47.17642699905945],[28.317530999999775,47.15995899905941],[28.275377999999762,47.15902899905939],[28.265028999999775,47.13563699905933],[28.236947999999785,47.14555499905939],[28.234216999999774,47.1216549990593],[28.270987999999765,47.09577399905924],[28.314727999999775,47.10227199905927],[28.32206499999978,47.08396899905922],[28.376082999999767,47.06259499905918],[28.368402999999773,47.07994899905922],[28.38613499999977,47.0804159990592],[28.40095099999976,47.06297299905918],[28.39270499999978,47.08965199905925],[28.43074499999977,47.05377999905915],[28.452165999999778,47.072220999059184],[28.476330999999757,47.063367999059174]]]},"properties":{"shapeName":"Straseni","shapeISO":"MD-ST","shapeID":"25212430B9063126289167","shapeGroup":"MDA","shapeType":"ADM1"}},
{"type":"Feature","geometry":{"type":"Polygon","coordinates":[[[28.046793999999778,47.25965599905965],[28.082000999999767,47.287180999059736],[28.132034999999778,47.28542299905973],[28.142275999999782,47.29923499905977],[28.096664999999774,47.293025999059765],[28.08476399999978,47.310461999059825],[28.101880999999764,47.311839999059806],[28.076120999999773,47.32948899905987],[28.14076899999978,47.331872999059875],[28.159482999999764,47.370273999059975],[28.184447999999776,47.366533999059975],[28.18528699999976,47.43919099906018],[28.153272999999785,47.4564539990602],[28.063288999999774,47.468053999060245],[28.049733999999777,47.43435699906014],[28.02886899999976,47.47387399906027],[27.98542999999978,47.48030499906029],[27.93610499999977,47.464665999060244],[27.944642999999758,47.482086999060265],[27.884121999999763,47.4908909990603],[27.88401299999978,47.44043999906016],[27.843327999999758,47.42921999906014],[27.829045999999774,47.445787999060194],[27.803286999999784,47.42772399906011],[27.784178999999767,47.441124999060165],[27.77280799999977,47.42701799906011],[27.73723599999977,47.43644699906015],[27.719067999999762,47.4185379990601],[27.66286599999978,47.415035999060095],[27.664410999999774,47.39610399906003],[27.58364549999976,47.37593449905999],[27.573271999999776,47.368961999059955],[27.596682999999782,47.369445999059955],[27.594256499999773,47.347788499059895],[27.614822499999775,47.34094099905988],[27.581132499999768,47.33010799905987],[27.59536099999977,47.31821499905982],[27.62206699999976,47.32574349905984],[27.634327499999785,47.30223649905979],[27.677615499999774,47.30632849905978],[27.68542199999976,47.28423899905973],[27.70987649999978,47.299701999059785],[27.747544499999776,47.27683549905971],[27.745209499999756,47.242572499059634],[27.786191999999772,47.218512499059536],[27.776816999999767,47.20464049905952],[27.80827599999978,47.16431899905941],[27.782547499999765,47.14111399905936],[27.84227149999978,47.13553799905936],[27.850641999999763,47.12463699905931],[27.828725999999758,47.118397499059284],[27.875329999999767,47.10739599905927],[27.898609999999763,47.0756069990592],[27.960016999999766,47.05623399905915],[27.94432349999977,47.04978649905914],[28.015951999999775,47.02312849905907],[28.03498399999978,47.03012199905908],[28.05445499999976,47.0370339990591],[28.044370999999785,47.05811499905915],[28.004009999999766,47.05875199905917],[27.98995599999978,47.112223999059296],[27.94462699999977,47.13373399905934],[27.95229699999976,47.178770999059445],[27.991346999999763,47.17684599905945],[27.97735499999976,47.24155699905963],[28.046793999999778,47.25965599905965]]]},"properties":{"shapeName":"Ungheni","shapeISO":"MD-UN","shapeID":"25212430B23943377724140","shapeGroup":"MDA","shapeType":"ADM1"}},
{"type":"Feature","geometry":{"type":"MultiPolygon","coordinates":[[[[29.121905999999765,47.0751689990592],[29.161477999999782,47.12538899905929],[29.175485999999776,47.104823999059306],[29.1873499999998,47.11549599905927],[29.18277599999976,47.15981999905943],[29.212309999999817,47.16127399905937],[29.2277119999998,47.144381999059355],[29.227636999999785,47.16879199905948],[29.251051999999778,47.16240799905947],[29.242160999999793,47.18892399905951],[29.28196699999981,47.190653999059506],[29.299732999999772,47.22938299905961],[29.363380999999773,47.269832999059716],[29.339370999999822,47.27933499905969],[29.310036999999816,47.2519929990597],[29.242435999999792,47.24989799905967],[29.180273999999777,47.21158699905956],[29.14400299999981,47.16254599905943],[29.10090999999977,47.146796999059426],[29.065350999999765,47.10886499905927],[29.121905999999765,47.0751689990592]]],[[[29.148665999999807,47.24496899905964],[29.14096899999976,47.27771499905974],[29.167716499999784,47.278317499059746],[29.224860999999795,47.323404999059875],[29.337273999999827,47.37027249906001],[29.335982999999796,47.376531999060006],[29.301780999999785,47.37634199906005],[29.261789999999774,47.34709799905997],[29.24075799999978,47.36291399905998],[29.218052999999763,47.34432799905993],[29.164984999999792,47.33638799905994],[29.150484999999765,47.36865499905992],[29.07569399999977,47.4147629990601],[29.04572599999977,47.40479799906011],[29.064753999999763,47.38644099906002],[29.029219999999786,47.37282799905998],[29.019213999999767,47.40825499906008],[29.01741499999978,47.37802999905999],[28.990794999999743,47.37667799906002],[28.99761399999977,47.36219899905992],[29.017684999999773,47.367004999059944],[29.023545999999786,47.32714399905983],[29.026908999999808,47.31136299905979],[29.08009399999981,47.28987999905977],[29.063069999999772,47.24281399905966],[29.08270499999977,47.21898599905957],[29.130125999999755,47.2296349990596],[29.125994999999783,47.240581999059664],[29.101874999999765,47.23376899905964],[29.130226999999802,47.25290299905968],[29.148665999999807,47.24496899905964]]]]},"properties":{"shapeName":"Dubasari","shapeISO":"MD-DU","shapeID":"25212430B37177221829666","shapeGroup":"MDA","shapeType":"ADM1"}},
{"type":"Feature","geometry":{"type":"Polygon","coordinates":[[[28.275377999999762,47.15902899905939],[28.317530999999775,47.15995899905941],[28.33059199999977,47.17642699905945],[28.35042799999977,47.16253899905941],[28.360889999999785,47.174132999059445],[28.389441999999775,47.166969999059425],[28.407116999999772,47.18786699905947],[28.422672999999776,47.18361299905947],[28.42268999999976,47.219687999059566],[28.46437199999977,47.19118699905949],[28.47847299999978,47.199002999059495],[28.46423299999978,47.21916799905957],[28.487236999999762,47.229747999059605],[28.461038999999772,47.2688339990597],[28.430210999999755,47.27987099905972],[28.491435999999766,47.29003099905976],[28.47516799999977,47.317087999059815],[28.493762999999774,47.303506999059806],[28.514088999999757,47.30343899905979],[28.510955999999766,47.31740399905981],[28.553642999999767,47.307658999059804],[28.52883099999977,47.331276999059874],[28.56323199999977,47.3425229990599],[28.545328999999782,47.369385999059965],[28.541684999999774,47.347871999059926],[28.511308999999784,47.365183999059965],[28.49708099999978,47.430637999060146],[28.447813999999767,47.4235059990601],[28.45702799999978,47.39488899906002],[28.373463999999785,47.42624599906013],[28.358359999999777,47.409740999060084],[28.33125999999976,47.4114729990601],[28.242914999999783,47.43958699906017],[28.18528699999976,47.43919099906018],[28.184447999999776,47.366533999059975],[28.159482999999764,47.370273999059975],[28.14076899999978,47.331872999059875],[28.076120999999773,47.32948899905987],[28.101880999999764,47.311839999059806],[28.08476399999978,47.310461999059825],[28.096664999999774,47.293025999059765],[28.142275999999782,47.29923499905977],[28.132034999999778,47.28542299905973],[28.082000999999767,47.287180999059736],[28.046793999999778,47.25965599905965],[28.12474999999978,47.204508999059534],[28.275377999999762,47.15902899905939]]]},"properties":{"shapeName":"Calarasi","shapeISO":"MD-CL","shapeID":"25212430B70495112373630","shapeGroup":"MDA","shapeType":"ADM1"}},
{"type":"Feature","geometry":{"type":"MultiPolygon","coordinates":[[[[29.875648499999784,46.54662999905807],[29.94526699999981,46.555184499058115],[29.93602049999975,46.588997499058195],[29.963286499999796,46.58455149905817],[29.945690999999787,46.64838599905832],[29.970563999999793,46.68574399905834],[29.974515499999793,46.75168349905852],[29.934866999999773,46.80593749905865],[29.979398499999764,46.819413999058646],[29.949503499999786,46.841878499058666],[29.90506749999976,46.82017449905864],[29.884074999999775,46.88605349905879],[29.749957499999795,46.86109099905871],[29.71834849999981,46.93216799905887],[29.648043499999794,46.9197919990589],[29.64010149999978,46.95533849905896],[29.57148849999979,46.94014149905887],[29.5560859999998,46.957884499058885],[29.595872999999806,46.96363699905893],[29.60242249999982,47.04169749905913],[29.628898499999814,47.04462799905917],[29.612050999999767,47.10032799905926],[29.5475044999998,47.093821499059274],[29.549943999999815,47.075946999059184],[29.530314999999796,47.075473999059255],[29.495501999999806,47.13188499905939],[29.580186999999796,47.13554899905934],[29.551902499999812,47.251496999059704],[29.598922499999777,47.25744699905968],[29.57406149999976,47.37054049905998],[29.487401499999798,47.355966499059925],[29.48579749999978,47.30574449905978],[29.42701499999981,47.292207999059805],[29.423511499999798,47.30493849905985],[29.398375999999747,47.30036699905979],[29.3905614999998,47.37969199905997],[29.337273999999827,47.37027249906001],[29.224860999999795,47.323404999059875],[29.167716499999784,47.278317499059746],[29.14096899999976,47.27771499905974],[29.148665999999807,47.24496899905964],[29.180273999999777,47.21158699905956],[29.242435999999792,47.24989799905967],[29.310036999999816,47.2519929990597],[29.339370999999822,47.27933499905969],[29.363380999999773,47.269832999059716],[29.299732999999772,47.22938299905961],[29.28196699999981,47.190653999059506],[29.242160999999793,47.18892399905951],[29.251051999999778,47.16240799905947],[29.296008999999767,47.13237399905935],[29.294641999999783,47.11012399905928],[29.344484999999757,47.10548899905926],[29.391704999999767,47.058498999059196],[29.38436299999978,47.02678399905908],[29.35481299999978,47.03796799905913],[29.37557099999977,46.994643999059036],[29.312132999999754,46.995996999058995],[29.304146999999766,46.98303999905898],[29.302900999999764,47.00007399905902],[29.29400999999976,46.98051199905896],[29.36416999999977,46.933598999058916],[29.429578999999762,46.964691999058935],[29.469386499999754,46.95083849905889],[29.464347999999774,46.90265799905881],[29.489287999999757,46.85368799905867],[29.510377999999772,46.79296399905854],[29.541370999999774,46.77781499905851],[29.541609999999764,46.79626299905855],[29.559084999999783,46.77622299905851],[29.561838999999758,46.797465999058545],[29.58735899999975,46.79976399905859],[29.581141999999776,46.82340399905861],[29.607741999999778,46.83430299905863],[29.60313199999976,46.81510799905859],[29.66603999999978,46.80770999905858],[29.651209999999764,46.79184999905854],[29.673632999999754,46.7777279990586],[29.666290999999774,46.755082999058466],[29.69459699999976,46.708965999058364],[29.66556499999976,46.67610399905831],[29.69823299999976,46.678752999058325],[29.71732499999976,46.65756599905827],[29.726520999999764,46.67209699905832],[29.762643999999767,46.668933999058304],[29.755023999999764,46.64854299905826],[29.774293999999777,46.65558399905826],[29.75816999999978,46.646903999058246],[29.77882999999977,46.63365899905828],[29.741746999999776,46.625208999058216],[29.75530599999976,46.61584799905824],[29.72232799999978,46.60000299905817],[29.78811399999978,46.57918299905815],[29.796721999999757,46.594856999058166],[29.809548999999777,46.58783999905816],[29.802958999999756,46.60527499905817],[29.81454299999976,46.58548799905815],[29.824011999999772,46.60275799905819],[29.839138999999765,46.59593699905817],[29.829400999999763,46.58045899905813],[29.873507999999756,46.587352999058204],[29.859785999999758,46.56668699905812],[29.895981999999776,46.552544999058085],[29.87547999999979,46.55962299905808],[29.875648499999784,46.54662999905807]]],[[[29.335982999999796,47.376531999060006],[29.31745899999976,47.44923849906021],[29.24395649999976,47.415278499060086],[29.24229449999981,47.46194149906022],[29.1893954999998,47.425769999060165],[29.1904989999998,47.467044999060306],[29.157415499999786,47.4592529990602],[29.187749999999795,47.475273999060285],[29.189851499999822,47.51384999906039],[29.15165749999981,47.50662949906036],[29.11717949999977,47.55440449906053],[29.184451499999756,47.571959999060624],[29.2175314999998,47.61217049906073],[29.20939399999976,47.62866199906076],[29.233962499999805,47.642045499060764],[29.209196999999754,47.64229299906077],[29.209405999999785,47.658151999060834],[29.23102599999977,47.68387599906096],[29.204474499999826,47.71915349906101],[29.27650349999976,47.801954999061344],[29.247098499999794,47.811060999061304],[29.21925199999979,47.798380999061266],[29.199266999999807,47.818542999061364],[29.28144349999977,47.88771799906157],[29.215713999999764,47.88586699906153],[29.21618699999976,47.89601249906156],[29.20055099999977,47.88430599906159],[29.17503899999981,47.99374949906197],[29.09227099999979,47.98283949906192],[29.097991499999775,47.96004249906183],[29.07773199999982,47.97041249906183],[29.073648999999783,47.94402499906178],[29.032791499999785,47.94263299906172],[28.96138549999979,47.979312499061884],[28.925959499999774,47.96001699906183],[28.877662499999786,48.00073249906195],[28.90184399999978,48.012548499062035],[28.839481999999816,48.03467749906208],[28.85199099999978,48.060743999062154],[28.833178999999795,48.072782499062235],[28.8575864999998,48.102511499062366],[28.841088499999813,48.12557649906241],[28.755441499999804,48.13598249906247],[28.68809749999981,48.12446299906246],[28.682352499999777,48.14681599906247],[28.647563999999765,48.14319199906251],[28.591935999999805,48.173349499062624],[28.579451499999823,48.16656949906256],[28.5772544999998,48.182176499062635],[28.502813999999763,48.15117449906252],[28.520678999999824,48.13808749906242],[28.499128499999774,48.115085999062394],[28.54851899999977,48.11715299906235],[28.624770999999782,48.092202999062316],[28.62827799999977,48.06698899906217],[28.604721999999782,48.07734099906222],[28.593385999999782,48.06458699906216],[28.584658999999764,48.04640499906211],[28.54478199999977,48.03687999906208],[28.539095999999773,47.99868799906193],[28.57077099999978,47.99766999906195],[28.59339199999977,48.03509799906205],[28.68644499999976,48.02667399906205],[28.753226999999782,47.97594399906188],[28.78666599999977,47.986561999061905],[28.834375999999764,47.941741999061726],[28.829545999999763,47.89954499906158],[28.926517999999763,47.88439199906155],[28.997169999999784,47.87091299906148],[29.02401199999977,47.84636599906142],[28.966695999999757,47.719466999061005],[28.996293999999775,47.64946499906079],[28.98460799999978,47.61360099906068],[29.025998999999747,47.57740699906055],[29.01783499999976,47.531064999060426],[29.117863999999766,47.464380999060225],[29.07569399999977,47.4147629990601],[29.150484999999765,47.36865499905992],[29.164984999999792,47.33638799905994],[29.218052999999763,47.34432799905993],[29.24075799999978,47.36291399905998],[29.261789999999774,47.34709799905997],[29.301780999999785,47.37634199906005],[29.335982999999796,47.376531999060006]]]]},"properties":{"shapeName":"Transnistria","shapeISO":"MD-SN","shapeID":"25212430B22111314945643","shapeGroup":"MDA","shapeType":"ADM1"}},
{"type":"Feature","geometry":{"type":"Polygon","coordinates":[[[27.944642999999758,47.482086999060265],[27.96947899999978,47.523613999060395],[27.898385999999764,47.53423399906045],[27.886258999999768,47.56013699906052],[27.942800999999776,47.57269399906054],[27.95333999999977,47.61417499906069],[27.999635999999782,47.61839999906068],[28.00324699999976,47.63037399906073],[27.96639799999977,47.64664799906079],[27.95697999999976,47.67532699906087],[27.93216099999978,47.66743799906083],[27.914939999999774,47.6869749990609],[27.90961299999978,47.70320999906095],[27.941371999999774,47.72219599906103],[27.923607999999774,47.73796699906107],[27.850935999999763,47.72934899906104],[27.871650999999755,47.74243699906108],[27.78348399999976,47.7774349990612],[27.72940799999978,47.71218599906097],[27.704607999999777,47.70980799906098],[27.680008999999785,47.73311199906105],[27.609254999999767,47.631922999060734],[27.54382099999978,47.64984999906079],[27.401127499999774,47.58437749906059],[27.42845199999977,47.581929499060585],[27.417742999999774,47.566050999060536],[27.456625499999774,47.536335999060434],[27.44401899999977,47.53030049906042],[27.473709999999784,47.48593949906031],[27.506335499999775,47.47833749906026],[27.516162999999782,47.49071749906032],[27.51471999999978,47.47365749906027],[27.540573499999766,47.48645449906029],[27.572960499999766,47.46259799906023],[27.55230649999976,47.432978499060155],[27.584147499999773,47.40866049906008],[27.568283999999778,47.38460549906],[27.58364549999976,47.37593449905999],[27.664410999999774,47.39610399906003],[27.66286599999978,47.415035999060095],[27.719067999999762,47.4185379990601],[27.73723599999977,47.43644699906015],[27.77280799999977,47.42701799906011],[27.784178999999767,47.441124999060165],[27.803286999999784,47.42772399906011],[27.829045999999774,47.445787999060194],[27.843327999999758,47.42921999906014],[27.88401299999978,47.44043999906016],[27.884121999999763,47.4908909990603],[27.944642999999758,47.482086999060265]]]},"properties":{"shapeName":"Falesti","shapeISO":"MD-FA","shapeID":"25212430B61222791146584","shapeGroup":"MDA","shapeType":"ADM1"}},
{"type":"Feature","geometry":{"type":"Polygon","coordinates":[[[29.023545999999786,47.32714399905983],[29.017684999999773,47.367004999059944],[28.99761399999977,47.36219899905992],[28.990794999999743,47.37667799906002],[29.01741499999978,47.37802999905999],[29.019213999999767,47.40825499906008],[29.029219999999786,47.37282799905998],[29.064753999999763,47.38644099906002],[29.04572599999977,47.40479799906011],[29.07569399999977,47.4147629990601],[29.117863999999766,47.464380999060225],[29.01783499999976,47.531064999060426],[28.97373899999977,47.52947199906045],[28.94652699999978,47.57974799906058],[28.928608999999767,47.573763999060546],[28.893761999999782,47.59754999906063],[28.86535299999977,47.56832999906052],[28.82527199999976,47.58069699906058],[28.814770999999784,47.55670099906049],[28.75538399999977,47.57509999906056],[28.696460999999776,47.6217929990607],[28.688065999999765,47.56458499906054],[28.704945999999783,47.5570369990605],[28.59573199999977,47.52188499906041],[28.55343199999976,47.49423199906032],[28.54617999999976,47.43601999906014],[28.49708099999978,47.430637999060146],[28.511308999999784,47.365183999059965],[28.541684999999774,47.347871999059926],[28.545328999999782,47.369385999059965],[28.56323199999977,47.3425229990599],[28.52883099999977,47.331276999059874],[28.582372999999762,47.32298699905984],[28.613456999999784,47.33515399905987],[28.61525399999977,47.29652799905978],[28.662769999999767,47.27583199905971],[28.654395999999767,47.26125499905965],[28.68607199999977,47.22732399905958],[28.707518999999763,47.24287199905962],[28.73373099999978,47.236003999059584],[28.733206999999766,47.21240699905955],[28.763679999999766,47.213151999059534],[28.78046299999976,47.18230599905949],[28.804195999999763,47.19493799905951],[28.785886999999768,47.20988599905957],[28.79514899999978,47.25993099905968],[28.880922999999765,47.256566999059665],[28.950298999999763,47.30339699905982],[29.002408999999776,47.297257999059774],[28.999686999999756,47.31703999905988],[29.023545999999786,47.32714399905983]]]},"properties":{"shapeName":"Orhei","shapeISO":"MD-OR","shapeID":"25212430B45328982281571","shapeGroup":"MDA","shapeType":"ADM1"}},
{"type":"Feature","geometry":{"type":"Polygon","coordinates":[[[27.78348399999976,47.7774349990612],[27.803585999999765,47.79637099906125],[27.719293999999763,47.85676199906144],[27.643148999999767,47.82023799906134],[27.59752599999976,47.85338499906143],[27.564980999999765,47.838672999061394],[27.548434999999788,47.85501799906147],[27.461402999999763,47.87006699906149],[27.425908999999763,47.82114899906134],[27.361534999999776,47.84870999906143],[27.310511999999765,47.79478099906126],[27.32285399999978,47.778123999061194],[27.296514999999772,47.780868999061205],[27.28492799999978,47.75828249906112],[27.294192999999783,47.72419599906102],[27.263169499999773,47.73272199906106],[27.25107099999977,47.719219499061005],[27.314464499999758,47.642892499060764],[27.401127499999774,47.58437749906059],[27.54382099999978,47.64984999906079],[27.609254999999767,47.631922999060734],[27.680008999999785,47.73311199906105],[27.704607999999777,47.70980799906098],[27.72940799999978,47.71218599906097],[27.78348399999976,47.7774349990612]]]},"properties":{"shapeName":"Glodeni","shapeISO":"MD-GL","shapeID":"25212430B89307550133505","shapeGroup":"MDA","shapeType":"ADM1"}},
{"type":"Feature","geometry":{"type":"Polygon","coordinates":[[[27.923607999999774,47.73796699906107],[27.973329999999777,47.7543659990611],[27.96160199999977,47.78145099906119],[28.007527999999784,47.76448199906116],[28.050790999999776,47.79066299906123],[28.002884999999765,47.82482299906133],[27.966751999999758,47.80937699906128],[27.973473999999783,47.78557299906123],[27.91988299999977,47.79751499906124],[27.886671999999773,47.78825099906122],[27.894548999999785,47.768404999061175],[27.863520999999764,47.7549509990611],[27.803585999999765,47.79637099906125],[27.78348399999976,47.7774349990612],[27.871650999999755,47.74243699906108],[27.850935999999763,47.72934899906104],[27.923607999999774,47.73796699906107]]]},"properties":{"shapeName":"Balti","shapeISO":"MD-BA","shapeID":"25212430B53322619224262","shapeGroup":"MDA","shapeType":"ADM1"}},
{"type":"Feature","geometry":{"type":"Polygon","coordinates":[[[28.18528699999976,47.43919099906018],[28.242914999999783,47.43958699906017],[28.33125999999976,47.4114729990601],[28.358359999999777,47.409740999060084],[28.373463999999785,47.42624599906013],[28.45702799999978,47.39488899906002],[28.447813999999767,47.4235059990601],[28.49708099999978,47.430637999060146],[28.54617999999976,47.43601999906014],[28.55343199999976,47.49423199906032],[28.59573199999977,47.52188499906041],[28.704945999999783,47.5570369990605],[28.688065999999765,47.56458499906054],[28.696460999999776,47.6217929990607],[28.70398099999977,47.651294999060774],[28.59514399999978,47.66547799906082],[28.61869999999976,47.70320799906095],[28.538652999999783,47.73795999906107],[28.512902999999767,47.73365399906106],[28.471000999999774,47.701918999060936],[28.39533399999976,47.692909999060916],[28.40693399999978,47.60751299906065],[28.371771999999766,47.618903999060706],[28.357635999999758,47.55817599906051],[28.218447999999768,47.57218399906056],[28.21056599999977,47.54837099906046],[28.152155999999763,47.57099599906055],[28.153272999999785,47.4564539990602],[28.18528699999976,47.43919099906018]]]},"properties":{"shapeName":"Telenesti","shapeISO":"MD-TE","shapeID":"25212430B80524279714584","shapeGroup":"MDA","shapeType":"ADM1"}},
{"type":"Feature","geometry":{"type":"Polygon","coordinates":[[[28.153272999999785,47.4564539990602],[28.152155999999763,47.57099599906055],[28.21056599999977,47.54837099906046],[28.218447999999768,47.57218399906056],[28.357635999999758,47.55817599906051],[28.371771999999766,47.618903999060706],[28.40693399999978,47.60751299906065],[28.39533399999976,47.692909999060916],[28.232568999999785,47.75396499906111],[28.213524999999777,47.747342999061104],[28.265443999999775,47.77503499906117],[28.176841999999766,47.7790479990612],[28.157104999999774,47.83727299906138],[28.130849999999782,47.82163999906131],[28.070202999999765,47.85100799906142],[28.083289999999774,47.8696439990615],[28.051773999999767,47.87823399906153],[28.04457999999977,47.910256999061616],[28.023285999999786,47.90572999906161],[27.99279199999978,47.86715499906149],[27.91667899999976,47.851823999061445],[27.906046999999774,47.82076099906132],[27.91988299999977,47.79751499906124],[27.973473999999783,47.78557299906123],[27.966751999999758,47.80937699906128],[28.002884999999765,47.82482299906133],[28.050790999999776,47.79066299906123],[28.007527999999784,47.76448199906116],[27.96160199999977,47.78145099906119],[27.973329999999777,47.7543659990611],[27.923607999999774,47.73796699906107],[27.941371999999774,47.72219599906103],[27.90961299999978,47.70320999906095],[27.914939999999774,47.6869749990609],[27.93216099999978,47.66743799906083],[27.95697999999976,47.67532699906087],[27.96639799999977,47.64664799906079],[28.00324699999976,47.63037399906073],[27.999635999999782,47.61839999906068],[27.95333999999977,47.61417499906069],[27.942800999999776,47.57269399906054],[27.886258999999768,47.56013699906052],[27.898385999999764,47.53423399906045],[27.96947899999978,47.523613999060395],[27.944642999999758,47.482086999060265],[27.93610499999977,47.464665999060244],[27.98542999999978,47.48030499906029],[28.02886899999976,47.47387399906027],[28.049733999999777,47.43435699906014],[28.063288999999774,47.468053999060245],[28.153272999999785,47.4564539990602]]]},"properties":{"shapeName":"SIngerei","shapeISO":"MD-SI","shapeID":"25212430B37613660942888","shapeGroup":"MDA","shapeType":"ADM1"}},
{"type":"Feature","geometry":{"type":"Polygon","coordinates":[[[27.803585999999765,47.79637099906125],[27.863520999999764,47.7549509990611],[27.894548999999785,47.768404999061175],[27.886671999999773,47.78825099906122],[27.91988299999977,47.79751499906124],[27.906046999999774,47.82076099906132],[27.880421999999783,47.85979299906147],[27.816626999999784,47.841802999061414],[27.799533999999767,47.87548099906151],[27.73967099999976,47.909638999061634],[27.74807199999978,47.93094899906171],[27.642927999999785,47.94229799906175],[27.62395799999976,47.96233299906182],[27.651149999999774,47.972478999061856],[27.623779999999783,48.00029599906194],[27.676290999999765,48.05372699906212],[27.634923999999785,48.071397999062185],[27.577001999999766,48.06210799906218],[27.52181299999978,48.092982999062265],[27.52404999999976,48.05881899906216],[27.413498999999774,48.01304699906199],[27.394072999999764,48.02758199906206],[27.363295999999764,48.00061399906194],[27.30045999999976,48.03455199906207],[27.243439999999765,48.00723399906196],[27.225451999999763,47.955684999061795],[27.174519499999775,47.943391499061754],[27.151727999999764,47.921076499061684],[27.199800499999782,47.90141799906159],[27.210355499999764,47.84639649906142],[27.247776999999783,47.833092999061385],[27.21448649999977,47.81965999906135],[27.24151349999977,47.81570849906134],[27.231201999999765,47.799593499061274],[27.28492799999978,47.75828249906112],[27.296514999999772,47.780868999061205],[27.32285399999978,47.778123999061194],[27.310511999999765,47.79478099906126],[27.361534999999776,47.84870999906143],[27.425908999999763,47.82114899906134],[27.461402999999763,47.87006699906149],[27.548434999999788,47.85501799906147],[27.564980999999765,47.838672999061394],[27.59752599999976,47.85338499906143],[27.643148999999767,47.82023799906134],[27.719293999999763,47.85676199906144],[27.803585999999765,47.79637099906125]]]},"properties":{"shapeName":"RIscani","shapeISO":"MD-RI","shapeID":"25212430B1615629371845","shapeGroup":"MDA","shapeType":"ADM1"}},
{"type":"Feature","geometry":{"type":"Polygon","coordinates":[[[28.926517999999763,47.88439199906155],[28.975683999999777,47.84733099906142],[28.92701499999978,47.85690399906145],[28.90317799999977,47.84667899906144],[28.902158999999784,47.8083049990613],[28.856395999999762,47.81820399906132],[28.81848799999977,47.780022999061224],[28.75767599999978,47.7821699990612],[28.77479699999978,47.72539799906102],[28.73728099999977,47.721675999061006],[28.755607999999768,47.71050999906098],[28.66662999999977,47.75046499906111],[28.61869999999976,47.70320799906095],[28.59514399999978,47.66547799906082],[28.70398099999977,47.651294999060774],[28.696460999999776,47.6217929990607],[28.75538399999977,47.57509999906056],[28.814770999999784,47.55670099906049],[28.82527199999976,47.58069699906058],[28.86535299999977,47.56832999906052],[28.893761999999782,47.59754999906063],[28.928608999999767,47.573763999060546],[28.94652699999978,47.57974799906058],[28.97373899999977,47.52947199906045],[29.01783499999976,47.531064999060426],[29.025998999999747,47.57740699906055],[28.98460799999978,47.61360099906068],[28.996293999999775,47.64946499906079],[28.966695999999757,47.719466999061005],[29.02401199999977,47.84636599906142],[28.997169999999784,47.87091299906148],[28.926517999999763,47.88439199906155]]]},"properties":{"shapeName":"Rezina","shapeISO":"MD-RE","shapeID":"25212430B36697629718061","shapeGroup":"MDA","shapeType":"ADM1"}},
{"type":"Feature","geometry":{"type":"Polygon","coordinates":[[[28.753226999999782,47.97594399906188],[28.739672999999783,47.95714699906179],[28.67820599999976,47.941648999061734],[28.672479999999776,47.89253199906157],[28.621052999999762,47.881518999061534],[28.605857999999785,47.86078999906147],[28.570188999999772,47.89452699906157],[28.503513999999768,47.89527999906157],[28.409556999999783,47.83425299906138],[28.40937699999978,47.80024699906127],[28.42156499999976,47.820768999061336],[28.480691999999777,47.82080899906132],[28.525281999999777,47.74575299906107],[28.512902999999767,47.73365399906106],[28.538652999999783,47.73795999906107],[28.61869999999976,47.70320799906095],[28.66662999999977,47.75046499906111],[28.755607999999768,47.71050999906098],[28.73728099999977,47.721675999061006],[28.77479699999978,47.72539799906102],[28.75767599999978,47.7821699990612],[28.81848799999977,47.780022999061224],[28.856395999999762,47.81820399906132],[28.902158999999784,47.8083049990613],[28.90317799999977,47.84667899906144],[28.92701499999978,47.85690399906145],[28.975683999999777,47.84733099906142],[28.926517999999763,47.88439199906155],[28.829545999999763,47.89954499906158],[28.834375999999764,47.941741999061726],[28.78666599999977,47.986561999061905],[28.753226999999782,47.97594399906188]]]},"properties":{"shapeName":"Soldanesti","shapeISO":"MD-SD","shapeID":"25212430B52468939139965","shapeGroup":"MDA","shapeType":"ADM1"}},
{"type":"Feature","geometry":{"type":"Polygon","coordinates":[[[28.593385999999782,48.06458699906216],[28.54562199999978,48.070741999062186],[28.518515999999778,48.039585999062076],[28.42753899999977,48.01566399906199],[28.443149999999775,48.003001999061944],[28.42434899999978,47.97526099906186],[28.386203999999765,47.99874699906193],[28.302777999999762,47.991855999061904],[28.281710999999774,48.014447999061986],[28.22586499999977,47.985377999061896],[28.02370499999978,47.99243499906193],[28.058856999999758,47.92648399906168],[28.023285999999786,47.90572999906161],[28.04457999999977,47.910256999061616],[28.051773999999767,47.87823399906153],[28.083289999999774,47.8696439990615],[28.070202999999765,47.85100799906142],[28.130849999999782,47.82163999906131],[28.157104999999774,47.83727299906138],[28.176841999999766,47.7790479990612],[28.265443999999775,47.77503499906117],[28.213524999999777,47.747342999061104],[28.232568999999785,47.75396499906111],[28.39533399999976,47.692909999060916],[28.471000999999774,47.701918999060936],[28.512902999999767,47.73365399906106],[28.525281999999777,47.74575299906107],[28.480691999999777,47.82080899906132],[28.42156499999976,47.820768999061336],[28.40937699999978,47.80024699906127],[28.409556999999783,47.83425299906138],[28.503513999999768,47.89527999906157],[28.570188999999772,47.89452699906157],[28.605857999999785,47.86078999906147],[28.621052999999762,47.881518999061534],[28.672479999999776,47.89253199906157],[28.67820599999976,47.941648999061734],[28.739672999999783,47.95714699906179],[28.753226999999782,47.97594399906188],[28.68644499999976,48.02667399906205],[28.59339199999977,48.03509799906205],[28.57077099999978,47.99766999906195],[28.539095999999773,47.99868799906193],[28.54478199999977,48.03687999906208],[28.584658999999764,48.04640499906211],[28.593385999999782,48.06458699906216]]]},"properties":{"shapeName":"Floresti","shapeISO":"MD-FL","shapeID":"25212430B38040597710669","shapeGroup":"MDA","shapeType":"ADM1"}},
{"type":"Feature","geometry":{"type":"Polygon","coordinates":[[[28.023285999999786,47.90572999906161],[28.058856999999758,47.92648399906168],[28.02370499999978,47.99243499906193],[27.989800999999776,48.030288999062044],[28.09055799999976,48.06066799906216],[28.081675999999764,48.11613499906236],[27.99130699999978,48.185318999062616],[27.979039999999774,48.17295999906256],[27.93665699999977,48.20163499906267],[27.903733999999755,48.187963999062625],[27.854689999999774,48.24059199906282],[27.761989999999773,48.22046999906273],[27.753325999999756,48.20532599906269],[27.709746999999762,48.214638999062714],[27.741245999999762,48.19973499906264],[27.733624999999765,48.17220099906254],[27.642822999999765,48.096598999062294],[27.69214299999976,48.06888499906219],[27.69881599999977,48.048079999062125],[27.676290999999765,48.05372699906212],[27.623779999999783,48.00029599906194],[27.651149999999774,47.972478999061856],[27.62395799999976,47.96233299906182],[27.642927999999785,47.94229799906175],[27.74807199999978,47.93094899906171],[27.73967099999976,47.909638999061634],[27.799533999999767,47.87548099906151],[27.816626999999784,47.841802999061414],[27.880421999999783,47.85979299906147],[27.906046999999774,47.82076099906132],[27.91667899999976,47.851823999061445],[27.99279199999978,47.86715499906149],[28.023285999999786,47.90572999906161]]]},"properties":{"shapeName":"Drochia","shapeISO":"MD-DR","shapeID":"25212430B3857280687737","shapeGroup":"MDA","shapeType":"ADM1"}},
{"type":"Feature","geometry":{"type":"Polygon","coordinates":[[[27.52181299999978,48.092982999062265],[27.507162999999764,48.158690999062514],[27.517256999999777,48.16952999906255],[27.541901999999766,48.16255199906252],[27.541237999999765,48.1822229990626],[27.496846999999775,48.19666899906263],[27.489758999999765,48.21513699906273],[27.426347999999763,48.22099799906274],[27.363470999999777,48.24912499906284],[27.366272999999783,48.29434799906302],[27.346168999999776,48.30077199906306],[27.372241999999773,48.30169999906305],[27.368997999999777,48.33574599906319],[27.32321799999977,48.34907499906324],[27.26970499999976,48.32189799906312],[27.278693999999774,48.295062999063035],[27.257111999999776,48.27434499906294],[27.276096999999766,48.2385169990628],[27.235443999999774,48.227585999062754],[27.221198999999785,48.24182399906282],[27.20926799999978,48.22117099906276],[27.173596999999774,48.223032999062745],[27.14111499999979,48.26304499906289],[27.100533999999783,48.26742299906291],[27.072932999999775,48.237653999062815],[27.09079699999978,48.18315299906258],[27.03549499999977,48.15729599906249],[27.028315999999762,48.137353999062434],[27.04107399999978,48.10386899906229],[27.025409499999768,48.08924849906227],[27.10781799999978,48.03229649906206],[27.090308999999763,48.008361499061955],[27.12565699999976,48.01567999906199],[27.120658499999767,47.994085999061916],[27.164651499999763,47.994683499061914],[27.141527499999764,47.96716899906182],[27.174519499999775,47.943391499061754],[27.225451999999763,47.955684999061795],[27.243439999999765,48.00723399906196],[27.30045999999976,48.03455199906207],[27.363295999999764,48.00061399906194],[27.394072999999764,48.02758199906206],[27.413498999999774,48.01304699906199],[27.52404999999976,48.05881899906216],[27.52181299999978,48.092982999062265]]]},"properties":{"shapeName":"Edinet","shapeISO":"MD-ED","shapeID":"25212430B65458906379390","shapeGroup":"MDA","shapeType":"ADM1"}},
{"type":"Feature","geometry":{"type":"Polygon","coordinates":[[[27.26970499999976,48.32189799906312],[27.216500999999766,48.34793899906324],[27.235929999999772,48.37284799906331],[27.191890999999774,48.394896499063414],[27.123758499999784,48.37928799906333],[27.084838499999762,48.43471949906359],[27.012055499999775,48.423459499063526],[27.040246499999764,48.41081849906346],[27.04729299999977,48.378869999063326],[27.001630499999777,48.37956749906335],[26.995181999999772,48.35982199906326],[26.93139599999978,48.36359699906331],[26.87180249999977,48.42012749906351],[26.775101999999773,48.4184034990635],[26.753619499999786,48.398950499063425],[26.709111999999777,48.40539899906345],[26.764948999999774,48.353768999063256],[26.824046999999776,48.34451749906323],[26.826404999999767,48.304485999063075],[26.79385749999977,48.291851499063],[26.75789899999978,48.32390449906315],[26.73660849999976,48.31297599906309],[26.694181999999785,48.36004849906326],[26.695875999999767,48.32717449906314],[26.61635499999977,48.27444349906295],[26.629750499999773,48.26023849906288],[26.64588599999976,48.251894999062856],[26.66164049999978,48.26314749906288],[26.667767999999768,48.246355499062844],[26.700205999999778,48.26481299906288],[26.723042999999763,48.24530299906284],[26.729614499999766,48.25829199906288],[26.738726999999784,48.24449249906282],[26.808389999999775,48.25436049906286],[26.831078499999762,48.22710649906277],[26.85281799999979,48.23365449906281],[26.88397899999978,48.20218349906266],[26.90838299999976,48.201613999062666],[26.903793999999774,48.18043049906259],[26.92087749999976,48.18273199906259],[26.915970999999786,48.19914049906267],[26.94523849999976,48.19407499906265],[26.934729999999778,48.16446399906253],[26.991669999999772,48.15013749906248],[26.953305999999767,48.15110399906248],[26.960408999999775,48.13245249906243],[27.001896499999763,48.12168349906238],[27.028315999999762,48.137353999062434],[27.03549499999977,48.15729599906249],[27.09079699999978,48.18315299906258],[27.072932999999775,48.237653999062815],[27.100533999999783,48.26742299906291],[27.14111499999979,48.26304499906289],[27.173596999999774,48.223032999062745],[27.20926799999978,48.22117099906276],[27.221198999999785,48.24182399906282],[27.235443999999774,48.227585999062754],[27.276096999999766,48.2385169990628],[27.257111999999776,48.27434499906294],[27.278693999999774,48.295062999063035],[27.26970499999976,48.32189799906312]]]},"properties":{"shapeName":"Briceni","shapeISO":"MD-BR","shapeID":"25212430B46101437811477","shapeGroup":"MDA","shapeType":"ADM1"}},
{"type":"Feature","geometry":{"type":"Polygon","coordinates":[[[28.499128499999774,48.115085999062394],[28.494396499999766,48.06574599906218],[28.43688899999978,48.09852799906229],[28.421177499999775,48.123072999062366],[28.435361499999768,48.166106999062535],[28.412814499999765,48.17721649906258],[28.38251499999978,48.17489549906258],[28.348391499999767,48.135848499062426],[28.306926999999774,48.13920049906244],[28.306871499999772,48.160861499062506],[28.36825399999978,48.20608299906267],[28.35256949999976,48.24664149906284],[28.202547999999783,48.20620399906268],[28.17767349999977,48.25739549906286],[28.14529199999978,48.2630744990629],[28.11132399999977,48.2332389990628],[28.082917999999783,48.23796699906282],[28.093002999999783,48.29298349906301],[28.07155199999977,48.31843649906311],[27.96512549999977,48.32460149906315],[27.90449149999978,48.353694499063245],[27.81670699999978,48.308211999063076],[27.911535999999785,48.297512999063024],[27.95405999999977,48.26297099906291],[27.93451699999977,48.26936599906293],[27.854689999999774,48.24059199906282],[27.903733999999755,48.187963999062625],[27.93665699999977,48.20163499906267],[27.979039999999774,48.17295999906256],[27.99130699999978,48.185318999062616],[28.081675999999764,48.11613499906236],[28.09055799999976,48.06066799906216],[27.989800999999776,48.030288999062044],[28.02370499999978,47.99243499906193],[28.22586499999977,47.985377999061896],[28.281710999999774,48.014447999061986],[28.302777999999762,47.991855999061904],[28.386203999999765,47.99874699906193],[28.42434899999978,47.97526099906186],[28.443149999999775,48.003001999061944],[28.42753899999977,48.01566399906199],[28.518515999999778,48.039585999062076],[28.54562199999978,48.070741999062186],[28.593385999999782,48.06458699906216],[28.604721999999782,48.07734099906222],[28.62827799999977,48.06698899906217],[28.624770999999782,48.092202999062316],[28.54851899999977,48.11715299906235],[28.499128499999774,48.115085999062394]]]},"properties":{"shapeName":"Soroca","shapeISO":"MD-SO","shapeID":"25212430B70903588336793","shapeGroup":"MDA","shapeType":"ADM1"}},
{"type":"Feature","geometry":{"type":"Polygon","coordinates":[[[27.676290999999765,48.05372699906212],[27.69881599999977,48.048079999062125],[27.69214299999976,48.06888499906219],[27.642822999999765,48.096598999062294],[27.733624999999765,48.17220099906254],[27.741245999999762,48.19973499906264],[27.709746999999762,48.214638999062714],[27.753325999999756,48.20532599906269],[27.761989999999773,48.22046999906273],[27.854689999999774,48.24059199906282],[27.93451699999977,48.26936599906293],[27.95405999999977,48.26297099906291],[27.911535999999785,48.297512999063024],[27.81670699999978,48.308211999063076],[27.90449149999978,48.353694499063245],[27.87767999999977,48.385389499063365],[27.840685999999778,48.38572199906338],[27.777699999999783,48.351258999063255],[27.780915999999763,48.33343699906315],[27.686490999999762,48.37461199906333],[27.631716999999785,48.336835999063176],[27.533971999999775,48.352830999063244],[27.52110799999977,48.33354599906316],[27.543016999999768,48.325649999063145],[27.508998999999765,48.32023899906312],[27.508777999999776,48.29115899906303],[27.491070999999778,48.291846999063004],[27.50928299999978,48.26604599906291],[27.489758999999765,48.21513699906273],[27.496846999999775,48.19666899906263],[27.541237999999765,48.1822229990626],[27.541901999999766,48.16255199906252],[27.517256999999777,48.16952999906255],[27.507162999999764,48.158690999062514],[27.52181299999978,48.092982999062265],[27.577001999999766,48.06210799906218],[27.634923999999785,48.071397999062185],[27.676290999999765,48.05372699906212]]]},"properties":{"shapeName":"Donduseni","shapeISO":"MD-DO","shapeID":"25212430B39831138215863","shapeGroup":"MDA","shapeType":"ADM1"}},
{"type":"Feature","geometry":{"type":"Polygon","coordinates":[[[27.489758999999765,48.21513699906273],[27.50928299999978,48.26604599906291],[27.491070999999778,48.291846999063004],[27.508777999999776,48.29115899906303],[27.508998999999765,48.32023899906312],[27.543016999999768,48.325649999063145],[27.52110799999977,48.33354599906316],[27.533971999999775,48.352830999063244],[27.631716999999785,48.336835999063176],[27.686490999999762,48.37461199906333],[27.780915999999763,48.33343699906315],[27.777699999999783,48.351258999063255],[27.840685999999778,48.38572199906338],[27.87767999999977,48.385389499063365],[27.872851999999767,48.40395249906343],[27.759458499999763,48.45580449906366],[27.680931499999755,48.439715499063574],[27.62984949999978,48.44533849906361],[27.589923499999774,48.46140699906366],[27.60401999999976,48.48612949906376],[27.587882499999775,48.49149899906379],[27.466467999999765,48.44878899906362],[27.44508499999978,48.40901249906346],[27.38316349999977,48.41066399906349],[27.373388499999777,48.44181249906361],[27.319503999999768,48.44341249906361],[27.286166499999776,48.37161199906333],[27.235929999999772,48.37284799906331],[27.216500999999766,48.34793899906324],[27.26970499999976,48.32189799906312],[27.32321799999977,48.34907499906324],[27.368997999999777,48.33574599906319],[27.372241999999773,48.30169999906305],[27.346168999999776,48.30077199906306],[27.366272999999783,48.29434799906302],[27.363470999999777,48.24912499906284],[27.426347999999763,48.22099799906274],[27.489758999999765,48.21513699906273]]]},"properties":{"shapeName":"Ocnita","shapeISO":"MD-OC","shapeID":"25212430B35951071556291","shapeGroup":"MDA","shapeType":"ADM1"}}
]}