{"type":"FeatureCollection", "features": [
{"type":"Feature","geometry":{"type":"Polygon","coordinates":[[[73.035537,0.580148],[73.012268,0.568435],[72.993881,0.545522],[72.982368,0.491362],[72.999954,0.428889],[72.998596,0.394876],[73.021095,0.358565],[73.016677,0.306809],[73.022987,0.294793],[73.095146,0.247299],[73.121475,0.21723],[73.158287,0.19548],[73.202445,0.175754],[73.229568,0.175888],[73.259605,0.188962],[73.301948,0.217768],[73.356231,0.241247],[73.434539,0.255394],[73.4664,0.279826],[73.48281,0.300415],[73.547401,0.340084],[73.035537,0.580148]]]},"properties":{"shapeName":"South Huvadhoo","shapeISO":"","shapeID":"70690204B13652617140021","shapeGroup":"MDV","shapeType":"ADM2"}},
{"type":"Feature","geometry":{"type":"Polygon","coordinates":[[[72.880508,2.657679],[72.927558,2.664107],[72.975128,2.692954],[73.009048,2.721132],[73.025375,2.749919],[73.034652,2.825118],[73.031684,2.969497],[73.017921,2.998641],[73.002807,3.01129],[72.937118,3.0063],[72.882286,2.989604],[72.834465,2.928659],[72.823211,2.904423],[72.825691,2.839194],[72.816146,2.787525],[72.827667,2.721837],[72.850219,2.67307],[72.86473,2.660672],[72.880508,2.657679]]]},"properties":{"shapeName":"South Nilandhoo","shapeISO":"","shapeID":"70690204B67340170019172","shapeGroup":"MDV","shapeType":"ADM2"}},
{"type":"Feature","geometry":{"type":"Polygon","coordinates":[[[72.90129,3.045103],[72.94551,3.054423],[73.016281,3.095793],[73.039497,3.137196],[73.048179,3.201311],[73.042976,3.228856],[72.976943,3.308615],[72.939781,3.326545],[72.903656,3.330439],[72.868354,3.323713],[72.826301,3.305711],[72.800369,3.271399],[72.813453,3.197813],[72.838195,3.168066],[72.85012,3.138326],[72.84922,3.115004],[72.832366,3.081715],[72.86251,3.05234],[72.90129,3.045103]]]},"properties":{"shapeName":"North Nilandhoo","shapeISO":"","shapeID":"70690204B63708858601891","shapeGroup":"MDV","shapeType":"ADM2"}},
{"type":"Feature","geometry":{"type":"Polygon","coordinates":[[[73.047203,2.156424],[73.082031,2.161498],[73.151306,2.197741],[73.320411,2.311758],[73.372123,2.355669],[73.380416,2.393292],[73.365341,2.442065],[73.336227,2.471278],[73.316421,2.51545],[73.254081,2.51388],[73.150299,2.559279],[73.08039,2.564702],[73.040832,2.557945],[72.948997,2.526396],[72.915054,2.504059],[72.896194,2.480324],[72.879623,2.449105],[72.877624,2.414058],[72.892906,2.36835],[72.891937,2.332901],[72.906669,2.3029],[72.932159,2.220388],[72.959045,2.185074],[72.982208,2.170649],[73.047203,2.156424]]]},"properties":{"shapeName":"Kolhumadulu","shapeISO":"","shapeID":"70690204B68081100071984","shapeGroup":"MDV","shapeType":"ADM2"}},
{"type":"Feature","geometry":{"type":"MultiPolygon","coordinates":[[[[73.058074,6.499876],[73.062133,6.525687],[73.05577,6.553125],[73.079849,6.618774],[73.089401,6.669394],[73.113945,6.677918],[73.142852,6.723235],[73.161094,6.730955],[73.200141,6.804941],[72.931427,6.803772],[72.937637,6.769165],[72.896873,6.728947],[72.891197,6.700562],[72.866493,6.639507],[72.871368,6.601903],[72.860015,6.563772],[72.878799,6.547611],[72.883346,6.528308],[72.875259,6.493699],[72.861038,6.476858],[72.870086,6.434875],[72.88208,6.415011],[72.958602,6.499576],[73.058074,6.499876]]],[[[72.727096,6.414474],[72.724548,6.43464],[72.702575,6.44702],[72.643821,6.425924],[72.612411,6.393956],[72.573471,6.331217],[72.546791,6.264957],[72.544609,6.221642],[72.568771,6.187918],[72.603012,6.190876],[72.633598,6.225042],[72.644767,6.273013],[72.691513,6.355401],[72.71363,6.377374],[72.727096,6.414474]]]]},"properties":{"shapeName":"South Thiladhunmathe","shapeISO":"","shapeID":"70690204B40080676832228","shapeGroup":"MDV","shapeType":"ADM2"}},
{"type":"Feature","geometry":{"type":"MultiPolygon","coordinates":[[[[73.055046,5.583022],[73.057983,5.596798],[73.049224,5.616765],[73.050888,5.634025],[73.031135,5.704059],[73.024658,5.782764],[73.004913,5.822113],[73.00605,5.851633],[72.999244,5.879886],[72.983177,5.912151],[72.970458,5.923627],[72.942115,5.91866],[72.928588,5.908185],[72.897926,5.846049],[72.848213,5.773962],[72.83641,5.736144],[72.834213,5.646348],[72.784378,5.530849],[72.793022,5.515594],[72.814849,5.50983],[72.824958,5.498507],[72.839126,5.452344],[72.852798,5.432812],[72.861976,5.389879],[72.851089,5.347744],[72.859336,5.327613],[72.888183,5.33005],[72.932464,5.350123],[73.010437,5.394097],[73.040153,5.419085],[73.051483,5.461232],[73.055046,5.583022]]],[[[72.962648,5.967483],[72.937776,5.984725],[72.93256,5.980583],[72.932584,5.971125],[72.943336,5.957561],[72.958984,5.95849],[72.962648,5.967483]]]]},"properties":{"shapeName":"North Maalhosmadulu","shapeISO":"","shapeID":"70690204B68213949051923","shapeGroup":"MDV","shapeType":"ADM2"}},
{"type":"Feature","geometry":{"type":"MultiPolygon","coordinates":[[[[73.197631,5.223642],[73.198211,5.246142],[73.18888,5.262621],[73.147407,5.274322],[73.142288,5.280154],[73.145401,5.284445],[73.133132,5.292166],[73.089874,5.293518],[73.06652,5.283198],[72.971664,5.285883],[72.931549,5.280124],[72.888664,5.289197],[72.859313,5.288962],[72.845718,5.24578],[72.851211,5.223435],[72.841636,5.196816],[72.84436,5.161506],[72.82727,5.148691],[72.822914,5.134971],[72.810119,5.123238],[72.808044,5.106142],[72.817802,5.073344],[72.813278,5.05126],[72.82312,5.045032],[72.834838,5.013516],[72.856025,4.995462],[72.924461,4.996182],[72.976867,5.013339],[73.042205,5.056487],[73.162681,5.175442],[73.189964,5.205626],[73.197631,5.223642]]],[[[73.099052,5.317599],[73.066291,5.371709],[73.054603,5.379704],[73.038314,5.380712],[72.990852,5.36446],[72.935302,5.331995],[72.913246,5.32657],[72.894073,5.314608],[72.887466,5.300701],[72.893913,5.293543],[72.941055,5.286718],[72.973304,5.292276],[73.050102,5.289387],[73.086898,5.301087],[73.099052,5.317599]]],[[[73.014717,4.869676],[73.00811,4.880846],[72.967758,4.889272],[72.886108,4.88776],[72.858978,4.876501],[72.850257,4.834675],[72.875061,4.813475],[72.903015,4.807971],[72.990043,4.838652],[73.007789,4.853298],[73.014717,4.869676]]]]},"properties":{"shapeName":"South Maalhosmadulu","shapeISO":"","shapeID":"70690204B34947259557359","shapeGroup":"MDV","shapeType":"ADM2"}},
{"type":"Feature","geometry":{"type":"MultiPolygon","coordinates":[[[[73.200141,6.804941],[73.219436,6.826844],[73.242378,6.834939],[73.247711,6.843005],[73.233505,6.880054],[73.233436,6.922676],[73.219566,6.944373],[73.220054,6.96213],[73.206489,6.972053],[73.11457,6.92777],[73.077003,6.873569],[73.061782,6.86034],[72.999206,6.852373],[72.980728,6.864295],[72.958869,6.868213],[72.933242,6.828629],[72.931427,6.803772],[73.200141,6.804941]]],[[[73.006141,7.000741],[72.981971,7.055547],[72.946601,7.072707],[72.922363,7.102904],[72.906921,7.112915],[72.894592,7.114926],[72.876251,7.104709],[72.84729,7.101218],[72.826652,7.083481],[72.80738,7.07971],[72.796173,7.067253],[72.794792,7.046295],[72.815933,7.018008],[72.838043,7.01196],[72.8451,7.00169],[72.880889,6.980528],[72.912994,6.936782],[72.916427,6.923745],[72.938034,6.911273],[72.961135,6.909595],[72.974945,6.919089],[72.989578,6.970375],[73.006141,7.000741]]]]},"properties":{"shapeName":"North Thiladhunmathe","shapeISO":"","shapeID":"70690204B83662482201246","shapeGroup":"MDV","shapeType":"ADM2"}},
{"type":"Feature","geometry":{"type":"Polygon","coordinates":[[[72.88208,6.415011],[72.882057,6.391928],[72.895812,6.370555],[72.947105,6.343904],[72.97396,6.309013],[72.992378,6.226613],[72.985214,6.169573],[73.01641,6.130825],[73.022819,6.082073],[73.033462,6.052878],[73.048377,6.034788],[73.093276,6.001012],[73.101432,5.972665],[73.111648,5.959983],[73.211555,5.95924],[73.313659,6.008318],[73.294647,6.066376],[73.29515,6.114201],[73.308822,6.170757],[73.307434,6.19414],[73.289031,6.21136],[73.26345,6.254741],[73.241439,6.327942],[73.214195,6.355537],[73.156318,6.37278],[73.085289,6.406143],[73.061393,6.461991],[73.058074,6.499876],[72.958602,6.499576],[72.88208,6.415011]]]},"properties":{"shapeName":"North Miladhunmadulu","shapeISO":"","shapeID":"70690204B13524442343529","shapeGroup":"MDV","shapeType":"ADM2"}},
{"type":"Feature","geometry":{"type":"Polygon","coordinates":[[[73.351463,1.775643],[73.384727,1.7774],[73.443397,1.813102],[73.48912,1.810976],[73.534454,1.856292],[73.558311,1.933318],[73.549812,1.954113],[73.539604,2.045073],[73.558097,2.094421],[73.586112,2.118349],[73.586242,2.135871],[73.543182,2.122163],[73.52452,2.107203],[73.489906,2.100821],[73.427276,2.074264],[73.313987,2.001542],[73.283256,1.988276],[73.24945,1.956961],[73.236602,1.928768],[73.233413,1.890349],[73.245422,1.84941],[73.290031,1.797862],[73.351463,1.775643]]]},"properties":{"shapeName":"Hadhdhunmathee","shapeISO":"","shapeID":"70690204B84265710008928","shapeGroup":"MDV","shapeType":"ADM2"}},
{"type":"Feature","geometry":{"type":"Polygon","coordinates":[[[73.159194,-0.709681],[73.181137,-0.703526],[73.221565,-0.661105],[73.230232,-0.625986],[73.228225,-0.608388],[73.243309,-0.586453],[73.242881,-0.576415],[73.204711,-0.573845],[73.154655,-0.60605],[73.133743,-0.609732],[73.112342,-0.605768],[73.089797,-0.576034],[73.069503,-0.588554],[73.122848,-0.685657],[73.142494,-0.704392],[73.159194,-0.709681]]]},"properties":{"shapeName":"Addoo","shapeISO":"","shapeID":"70690204B51409682910063","shapeGroup":"MDV","shapeType":"ADM2"}},
{"type":"Feature","geometry":{"type":"Polygon","coordinates":[[[73.547401,0.340084],[73.579994,0.374469],[73.58805,0.393157],[73.589904,0.453516],[73.58255,0.485035],[73.531631,0.584228],[73.457466,0.653373],[73.45877,0.709667],[73.438728,0.828643],[73.392929,0.901072],[73.356651,0.92633],[73.33316,0.932609],[73.282417,0.934158],[73.21878,0.889871],[73.178131,0.873055],[73.169975,0.860666],[73.169921,0.843936],[73.234558,0.771776],[73.243415,0.748005],[73.237548,0.727361],[73.199829,0.705192],[73.173789,0.681668],[73.137687,0.674799],[73.108634,0.656552],[73.044082,0.596674],[73.035537,0.580148],[73.547401,0.340084]]]},"properties":{"shapeName":"North Huvadhoo","shapeISO":"","shapeID":"70690204B59345201549971","shapeGroup":"MDV","shapeType":"ADM2"}},
{"type":"Feature","geometry":{"type":"Polygon","coordinates":[[[73.436973,-0.397356],[73.44712,-0.392998],[73.445472,-0.382461],[73.419303,-0.355082],[73.410964,-0.356555],[73.406272,-0.366218],[73.409347,-0.374969],[73.436973,-0.397356]]]},"properties":{"shapeName":"Foammulah","shapeISO":"","shapeID":"70690204B71388549423545","shapeGroup":"MDV","shapeType":"ADM2"}},
{"type":"Feature","geometry":{"type":"MultiPolygon","coordinates":[[[[73.771667,3.448508],[73.772514,3.458064],[73.751838,3.479815],[73.745712,3.502062],[73.738685,3.507838],[73.656654,3.471911],[73.626182,3.466193],[73.603019,3.452112],[73.565872,3.459728],[73.53012,3.517175],[73.512062,3.562627],[73.506988,3.599464],[73.514266,3.635994],[73.508888,3.657587],[73.494628,3.672524],[73.452392,3.685199],[73.401016,3.685278],[73.378501,3.67296],[73.323059,3.598524],[73.290519,3.537997],[73.271667,3.481395],[73.280281,3.462465],[73.340728,3.440748],[73.372917,3.417031],[73.441352,3.319339],[73.48809,3.301968],[73.506782,3.310951],[73.521209,3.332258],[73.54055,3.345128],[73.74813,3.373656],[73.761268,3.396333],[73.771667,3.448508]]],[[[73.480667,3.256093],[73.467819,3.272203],[73.454238,3.278063],[73.408348,3.286484],[73.398437,3.279892],[73.394035,3.267443],[73.393669,3.24035],[73.412017,3.222043],[73.435516,3.222409],[73.472961,3.24035],[73.480667,3.256093]]]]},"properties":{"shapeName":"Felidhoo","shapeISO":"","shapeID":"70690204B77108705549894","shapeGroup":"MDV","shapeType":"ADM2"}},
{"type":"Feature","geometry":{"type":"Polygon","coordinates":[[[73.111648,5.959983],[73.121414,5.945177],[73.125144,5.901174],[73.137123,5.865528],[73.133911,5.842226],[73.16352,5.784511],[73.196113,5.75394],[73.244537,5.678619],[73.269927,5.651263],[73.302902,5.635638],[73.33271,5.634939],[73.375434,5.649755],[73.404319,5.669711],[73.41706,5.691617],[73.420936,5.734241],[73.431091,5.768867],[73.486442,5.819548],[73.492446,5.837176],[73.477287,5.880834],[73.460929,5.903717],[73.43457,5.925766],[73.429626,5.94443],[73.410667,5.967967],[73.337455,5.979794],[73.313659,6.008318],[73.211555,5.95924],[73.111648,5.959983]]]},"properties":{"shapeName":"South Miladhunmadulu","shapeISO":"","shapeID":"70690204B143324726132","shapeGroup":"MDV","shapeType":"ADM2"}},
{"type":"Feature","geometry":{"type":"Polygon","coordinates":[[[73.400146,2.740137],[73.419418,2.746201],[73.430191,2.759951],[73.451988,2.807579],[73.501907,2.841718],[73.55886,2.844706],[73.57843,2.857613],[73.594291,2.910825],[73.634414,2.989767],[73.640617,3.054644],[73.662712,3.085031],[73.66117,3.099416],[73.653968,3.105074],[73.59571,3.112031],[73.5578,3.126005],[73.489395,3.174119],[73.465194,3.182941],[73.387474,3.174824],[73.371986,3.16241],[73.365379,3.144491],[73.367469,2.976629],[73.363899,2.862577],[73.355712,2.801496],[73.368972,2.754189],[73.385742,2.741203],[73.400146,2.740137]]]},"properties":{"shapeName":"Mulaku","shapeISO":"","shapeID":"70690204B6879359618468","shapeGroup":"MDV","shapeType":"ADM2"}},
{"type":"Feature","geometry":{"type":"Polygon","coordinates":[[[73.523994,5.240599],[73.575828,5.26499],[73.624053,5.271701],[73.645355,5.285915],[73.661613,5.33525],[73.660949,5.375874],[73.653022,5.413003],[73.644042,5.427165],[73.581878,5.460761],[73.520957,5.504973],[73.510963,5.539249],[73.493225,5.556523],[73.47808,5.561557],[73.444381,5.54357],[73.406692,5.496626],[73.392745,5.492191],[73.371284,5.473875],[73.326583,5.365517],[73.340354,5.360917],[73.387222,5.368997],[73.44889,5.344005],[73.493156,5.288389],[73.50695,5.247819],[73.523994,5.240599]]]},"properties":{"shapeName":"Faadhippolhu","shapeISO":"","shapeID":"70690204B52357859866053","shapeGroup":"MDV","shapeType":"ADM2"}},
{"type":"Feature","geometry":{"type":"MultiPolygon","coordinates":[[[[73.725341,4.445283],[73.725593,4.454981],[73.707183,4.478382],[73.674842,4.506037],[73.593063,4.599098],[73.571235,4.641087],[73.536521,4.685328],[73.501861,4.707942],[73.455726,4.702527],[73.395545,4.639805],[73.373847,4.589784],[73.358413,4.517978],[73.351379,4.430801],[73.337524,4.370966],[73.333564,4.30932],[73.338722,4.273696],[73.380088,4.206234],[73.406677,4.182],[73.481643,4.168147],[73.527442,4.168561],[73.550216,4.193505],[73.558181,4.240554],[73.555664,4.2724],[73.628807,4.350739],[73.676231,4.379981],[73.725341,4.445283]],[[73.507713,4.17023],[73.502044,4.170801],[73.502151,4.178719],[73.517601,4.179271],[73.516578,4.17216],[73.507713,4.17023]]],[[[73.545379,4.045753],[73.53968,4.088974],[73.531318,4.119118],[73.524032,4.125451],[73.444473,4.133396],[73.410675,4.123064],[73.388992,4.106159],[73.366416,4.051573],[73.346115,3.935625],[73.348091,3.890059],[73.375732,3.810226],[73.394935,3.804969],[73.419616,3.806771],[73.445068,3.817059],[73.461929,3.83408],[73.471847,3.888004],[73.494705,3.921123],[73.534324,4.005866],[73.545379,4.045753]]],[[[73.508277,4.7415],[73.477539,4.776496],[73.444839,4.788735],[73.416702,4.791524],[73.386138,4.773211],[73.372665,4.742681],[73.379371,4.724452],[73.405265,4.712934],[73.485321,4.725811],[73.503684,4.733734],[73.508277,4.7415]]],[[[73.477348,4.960665],[73.461303,4.97624],[73.440666,4.967385],[73.443122,4.954798],[73.454246,4.949891],[73.471359,4.953625],[73.477348,4.960665]]]]},"properties":{"shapeName":"Male'","shapeISO":"","shapeID":"70690204B31972615950169","shapeGroup":"MDV","shapeType":"ADM2"}},
{"type":"Feature","geometry":{"type":"Polygon","coordinates":[[[73.507713,4.17023],[73.516578,4.17216],[73.517601,4.179271],[73.502151,4.178719],[73.502044,4.170801],[73.507713,4.17023]]]},"properties":{"shapeName":"Male'","shapeISO":"","shapeID":"70690204B12193603739109","shapeGroup":"MDV","shapeType":"ADM2"}},
{"type":"Feature","geometry":{"type":"MultiPolygon","coordinates":[[[[72.966201,3.900512],[72.971191,3.935132],[72.967987,3.998063],[72.974906,4.026416],[72.9449,4.125434],[72.945503,4.150424],[72.923385,4.169688],[72.916046,4.186302],[72.895416,4.20015],[72.876403,4.228531],[72.874626,4.244626],[72.857162,4.252615],[72.847969,4.266891],[72.828811,4.280506],[72.793373,4.289721],[72.765991,4.281291],[72.740394,4.248963],[72.730819,4.226788],[72.729171,4.209845],[72.735633,4.189548],[72.731437,4.153181],[72.705886,4.088599],[72.707412,4.041818],[72.701637,4.026575],[72.705848,3.906424],[72.966201,3.900512]]],[[[73.022636,4.296862],[73.012504,4.330557],[73.001602,4.336699],[72.978126,4.335083],[72.949653,4.323616],[72.935501,4.300016],[72.949806,4.271395],[72.970489,4.260295],[72.992874,4.257002],[73.013107,4.26961],[73.022636,4.296862]]],[[[72.931365,4.426909],[72.919357,4.431859],[72.908645,4.427823],[72.902641,4.408678],[72.924972,4.407896],[72.931365,4.426909]]]]},"properties":{"shapeName":"North Ari","shapeISO":"","shapeID":"70690204B20684534310008","shapeGroup":"MDV","shapeType":"ADM2"}},
{"type":"Feature","geometry":{"type":"Polygon","coordinates":[[[72.705848,3.906424],[72.698814,3.877774],[72.708358,3.842514],[72.697235,3.789412],[72.701972,3.764923],[72.700317,3.693356],[72.685409,3.662058],[72.69709,3.624459],[72.716346,3.596668],[72.709823,3.56164],[72.718215,3.519776],[72.729835,3.498763],[72.742462,3.490767],[72.773811,3.487623],[72.785606,3.476789],[72.813713,3.466984],[72.851074,3.463695],[72.909202,3.496459],[72.946563,3.538973],[72.945739,3.5522],[72.955307,3.561335],[72.955574,3.581269],[72.97895,3.65224],[72.987632,3.704545],[72.985458,3.749505],[72.969894,3.828155],[72.976692,3.85782],[72.968063,3.87156],[72.966201,3.900512],[72.705848,3.906424]]]},"properties":{"shapeName":"South Ari","shapeISO":"","shapeID":"70690204B29165248779959","shapeGroup":"MDV","shapeType":"ADM2"}}
]}