{"type":"FeatureCollection", "features": [
{"type":"Feature","geometry":{"type":"Polygon","coordinates":[[[21.805880000080887,41.91851700022963],[21.74406950030346,41.89941349996661],[21.753573500008468,41.87329100018972],[21.73092150021337,41.81839050011077],[21.70127600014356,41.83600250015757],[21.672561999968128,41.818504500041335],[21.674722000309828,41.834514000010515],[21.63562549995844,41.83523650003228],[21.640913500028976,41.798101499942135],[21.611381000316328,41.759243500143654],[21.57862900011401,41.7493195001973],[21.600419500279695,41.72128200033187],[21.67918300019754,41.71277300018684],[21.705083000240066,41.650953500201815],[21.73395450000007,41.65532899991672],[21.737232000028335,41.62832600007239],[21.78035900023377,41.61207549994223],[21.78355650021607,41.63208349992686],[21.840408500325836,41.66132850020502],[21.833292500374142,41.67804400026513],[21.880539500248737,41.71586900007717],[21.87101650010562,41.73053600011815],[21.829803499965735,41.75905799991345],[21.850949500109625,41.78161950031977],[21.82872999994477,41.81072700012542],[21.861883499961728,41.852602000240935],[21.805880000080887,41.91851700022963]]]},"properties":{"shapeName":"Veles","shapeISO":"","shapeID":"65306769B79358437937603","shapeGroup":"MKD","shapeType":"ADM2"}},
{"type":"Feature","geometry":{"type":"Polygon","coordinates":[[[21.78035900023377,41.61207549994223],[21.813842500215504,41.56600200014608],[21.784645000133203,41.53285949993303],[21.813792999973465,41.49221100021866],[21.862156999972722,41.51382699995806],[21.84930050030883,41.53652450035263],[21.915915500249923,41.53234150012998],[21.936409000187503,41.558463500345056],[21.968396500298944,41.54545650035847],[21.980242000034085,41.55506050012096],[21.960642000014115,41.61379249996199],[21.977452500016355,41.620623000075696],[21.97668550031758,41.65715650023606],[21.953986500338203,41.66853149991442],[21.93872500007928,41.655841000031025],[21.908768000021535,41.66279600031747],[21.898180000053376,41.71993899994248],[21.87101650010562,41.73053600011815],[21.880539500248737,41.71586900007717],[21.833292500374142,41.67804400026513],[21.840408500325836,41.66132850020502],[21.78355650021607,41.63208349992686],[21.78035900023377,41.61207549994223]]]},"properties":{"shapeName":"Gradsko","shapeISO":"","shapeID":"65306769B37555850097023","shapeGroup":"MKD","shapeType":"ADM2"}},
{"type":"Feature","geometry":{"type":"Polygon","coordinates":[[[22.344128500165013,41.43002949998075],[22.346785500275164,41.48472300023308],[22.314205499991864,41.49694500010587],[22.263881000203874,41.462633999929636],[22.212573500233297,41.48811100011124],[22.183012500313122,41.47224050019939],[22.13046450006822,41.40853500034485],[22.158173500003475,41.4025055002642],[22.147651500208198,41.359660000254365],[22.10237250029517,41.35478550027524],[22.18839300026821,41.291475000085576],[22.29251200026417,41.30988500009635],[22.295784000165593,41.3299464999655],[22.35606100010746,41.345238500028444],[22.349435500223976,41.353886500230786],[22.3670330003861,41.356809000167594],[22.356840500094417,41.3700545002574],[22.369446000266187,41.38525449999761],[22.3682880000955,41.385439000204805],[22.33730700025883,41.39335600018964],[22.344128500165013,41.43002949998075]]]},"properties":{"shapeName":"Demir Kapija","shapeISO":"","shapeID":"65306769B1402835444879","shapeGroup":"MKD","shapeType":"ADM2"}},
{"type":"Feature","geometry":{"type":"Polygon","coordinates":[[[22.10237250029517,41.35478550027524],[22.077404500158703,41.366697500194675],[22.06417250038016,41.4058459999465],[22.05180250024244,41.51072950003325],[21.99405300012281,41.508126500268794],[21.981440500239298,41.47327300017433],[21.951920500365237,41.452772000063824],[21.92171350038868,41.462565500148855],[21.908882999975184,41.44349300015086],[21.865586000346678,41.43687349995612],[21.810865000359588,41.4708639999369],[21.77606550016132,41.45685850030966],[21.788591500298534,41.42686600033273],[21.822516500118113,41.440499499926],[21.823050000278517,41.3837375000928],[21.843067000020977,41.35656350035254],[21.809595500315922,41.30961650020061],[21.834398500245207,41.278152500018884],[21.895557500289094,41.279183999970826],[21.865818500311647,41.22953149993939],[21.89298650036316,41.197426000254815],[21.87802350024209,41.162913499929125],[21.932148499976652,41.13861800001039],[21.917840500119386,41.123025000201785],[21.92959800007373,41.10024350011869],[22.066895500213512,41.15758350023907],[22.140207500337723,41.12517150023222],[22.172,41.15673800007932],[22.21567000013512,41.16860400028707],[22.21886049995599,41.199079500159364],[22.26947950023926,41.21755849996251],[22.24575000033094,41.24383000002724],[22.292727500286798,41.25102099990964],[22.29251200026417,41.30988500009635],[22.18839300026821,41.291475000085576],[22.10237250029517,41.35478550027524]]]},"properties":{"shapeName":"Kavadartsi","shapeISO":"","shapeID":"65306769B96152204239158","shapeGroup":"MKD","shapeType":"ADM2"}},
{"type":"Feature","geometry":{"type":"Polygon","coordinates":[[[21.87101650010562,41.73053600011815],[21.898180000053376,41.71993899994248],[21.908768000021535,41.66279600031747],[21.93872500007928,41.655841000031025],[21.953986500338203,41.66853149991442],[21.96723750010517,41.675901500326866],[21.947119500282238,41.71252799993369],[21.97860800012946,41.73404049998454],[22.008429000199044,41.72357050003929],[22.019845000373024,41.7467885002944],[21.861883499961728,41.852602000240935],[21.82872999994477,41.81072700012542],[21.850949500109625,41.78161950031977],[21.829803499965735,41.75905799991345],[21.87101650010562,41.73053600011815]]]},"properties":{"shapeName":"Lozovo","shapeISO":"","shapeID":"65306769B81455536397038","shapeGroup":"MKD","shapeType":"ADM2"}},
{"type":"Feature","geometry":{"type":"Polygon","coordinates":[[[21.980242000034085,41.55506050012096],[22.00009400001904,41.56289750005974],[21.99405300012281,41.508126500268794],[22.05180250024244,41.51072950003325],[22.06417250038016,41.4058459999465],[22.077404500158703,41.366697500194675],[22.10237250029517,41.35478550027524],[22.147651500208198,41.359660000254365],[22.158173500003475,41.4025055002642],[22.13046450006822,41.40853500034485],[22.183012500313122,41.47224050019939],[22.212573500233297,41.48811100011124],[22.263881000203874,41.462633999929636],[22.314205499991864,41.49694500010587],[22.266379500256768,41.556372000233736],[22.216055000019093,41.5627055001293],[22.172529000056603,41.60312200033988],[22.124397500022315,41.600476500045225],[22.110451999979926,41.657619000108326],[22.07350400015465,41.629659500242866],[22.03214200017643,41.66652050031034],[21.96723750010517,41.675901500326866],[21.953986500338203,41.66853149991442],[21.97668550031758,41.65715650023606],[21.977452500016355,41.620623000075696],[21.960642000014115,41.61379249996199],[21.980242000034085,41.55506050012096]]]},"properties":{"shapeName":"Negotino","shapeISO":"","shapeID":"65306769B63258214258120","shapeGroup":"MKD","shapeType":"ADM2"}},
{"type":"Feature","geometry":{"type":"Polygon","coordinates":[[[21.813792999973465,41.49221100021866],[21.810865000359588,41.4708639999369],[21.865586000346678,41.43687349995612],[21.908882999975184,41.44349300015086],[21.92171350038868,41.462565500148855],[21.951920500365237,41.452772000063824],[21.981440500239298,41.47327300017433],[21.99405300012281,41.508126500268794],[22.00009400001904,41.56289750005974],[21.980242000034085,41.55506050012096],[21.968396500298944,41.54545650035847],[21.936409000187503,41.558463500345056],[21.915915500249923,41.53234150012998],[21.84930050030883,41.53652450035263],[21.862156999972722,41.51382699995806],[21.813792999973465,41.49221100021866]]]},"properties":{"shapeName":"Rosoman","shapeISO":"","shapeID":"65306769B19811324233496","shapeGroup":"MKD","shapeType":"ADM2"}},
{"type":"Feature","geometry":{"type":"Polygon","coordinates":[[[21.861883499961728,41.852602000240935],[22.019845000373024,41.7467885002944],[22.052072500172766,41.732822500229084],[22.04545900011628,41.787043999940366],[22.112508500183477,41.83262099997965],[22.09676249999469,41.85836349998783],[22.111414000127912,41.88537249997041],[22.097994500073,41.8984764999453],[22.12592800023839,41.89869900012936],[22.026258000303052,41.98886649994459],[22.034183500034217,42.015945500192224],[22.00794100018833,42.019330500001296],[21.93693550018648,41.98464200011411],[21.91939349995505,42.02114650005545],[21.87360549999689,42.0107869999601],[21.821308500143484,41.960566500321754],[21.805880000080887,41.91851700022963],[21.861883499961728,41.852602000240935]]]},"properties":{"shapeName":"Sveti Nikole","shapeISO":"","shapeID":"65306769B91405117981087","shapeGroup":"MKD","shapeType":"ADM2"}},
{"type":"Feature","geometry":{"type":"Polygon","coordinates":[[[21.57862900011401,41.7493195001973],[21.526832500109812,41.75408300031504],[21.5199595003651,41.76841550028748],[21.493007000336213,41.76034100026839],[21.45260850009097,41.75645350011452],[21.404025499988418,41.70378200016955],[21.393491000354555,41.71796600031524],[21.37388050009249,41.60552100034679],[21.424591000237136,41.59632350006469],[21.463784000115734,41.555986500338264],[21.47827650018011,41.50472450006778],[21.531335000055048,41.49917300021685],[21.607867500242335,41.45295700028261],[21.629629500200494,41.45828599994949],[21.66437400002997,41.43812299998827],[21.679188500324383,41.46434250020307],[21.73381050027708,41.4865660000105],[21.77606550016132,41.45685850030966],[21.810865000359588,41.4708639999369],[21.813792999973465,41.49221100021866],[21.784645000133203,41.53285949993303],[21.813842500215504,41.56600200014608],[21.78035900023377,41.61207549994223],[21.737232000028335,41.62832600007239],[21.73395450000007,41.65532899991672],[21.705083000240066,41.650953500201815],[21.67918300019754,41.71277300018684],[21.600419500279695,41.72128200033187],[21.57862900011401,41.7493195001973]]]},"properties":{"shapeName":"Chashka","shapeISO":"","shapeID":"65306769B55292490733903","shapeGroup":"MKD","shapeType":"ADM2"}},
{"type":"Feature","geometry":{"type":"Polygon","coordinates":[[[22.787480500212364,41.80309850004783],[22.696708999960176,41.817452500066466],[22.696622000202467,41.76683899991004],[22.673060500120908,41.736756000094644],[22.64830400036449,41.742223500257126],[22.637195000074513,41.72784300007714],[22.6613645002356,41.68987750017318],[22.64161050026204,41.64089250024431],[22.643984500142185,41.62480500027516],[22.673668500200435,41.644596000202576],[22.707054000170864,41.62414400032261],[22.68791700003466,41.580276500130154],[22.715896000349918,41.587540500346776],[22.767483000020146,41.5718375002501],[22.81310400017463,41.52796850002315],[22.855435500024075,41.543341500154966],[22.875419500354617,41.523342499928255],[22.968327499957127,41.51983550000419],[22.949041499982588,41.633808500131046],[22.98354650013535,41.6467855003252],[23.013760500273246,41.69164900010064],[22.906129000226468,41.717995000084585],[22.896735500371353,41.73690499993298],[22.856664500033304,41.74956950011621],[22.8147215001485,41.73506350019015],[22.787480500212364,41.80309850004783]]]},"properties":{"shapeName":"Berovo","shapeISO":"","shapeID":"65306769B82535052466784","shapeGroup":"MKD","shapeType":"ADM2"}},
{"type":"Feature","geometry":{"type":"Polygon","coordinates":[[[22.696708999960176,41.817452500066466],[22.734933499990458,41.903920500015516],[22.64379300022324,41.93768300013517],[22.630522500006663,41.956091000099775],[22.64373900032713,41.96583599996576],[22.618213500376168,41.98883550012908],[22.59524850010904,41.99158650015836],[22.574109000115083,41.95814900033791],[22.549679500254268,41.95869250027923],[22.52125650004367,41.939175999936296],[22.498807499983016,41.96648400006823],[22.474205000180188,41.95655550001821],[22.45270750002551,41.88066000012939],[22.475606500119845,41.86619300020337],[22.46982100026936,41.79376350019258],[22.465575499954678,41.78729400030886],[22.50872500022921,41.76459400030631],[22.594230000007183,41.761918000207736],[22.637195000074513,41.72784300007714],[22.64830400036449,41.742223500257126],[22.673060500120908,41.736756000094644],[22.696622000202467,41.76683899991004],[22.696708999960176,41.817452500066466]]]},"properties":{"shapeName":"Vinitsa","shapeISO":"","shapeID":"65306769B11231402107621","shapeGroup":"MKD","shapeType":"ADM2"}},
{"type":"Feature","geometry":{"type":"Polygon","coordinates":[[[22.787480500212364,41.80309850004783],[22.789306000035843,41.81485600000218],[22.84232600037211,41.822666000217794],[22.85180300035395,41.85725300001301],[22.901624000223652,41.877551999962385],[22.86721400001302,42.022199500053496],[22.825504500116274,42.022056000342005],[22.800174000164926,42.04469300024085],[22.740444000245137,42.04488100007903],[22.717137000186057,42.06598050005006],[22.661195999947743,42.073033999909704],[22.6533545003548,42.022879499994474],[22.618213500376168,41.98883550012908],[22.64373900032713,41.96583599996576],[22.630522500006663,41.956091000099775],[22.64379300022324,41.93768300013517],[22.734933499990458,41.903920500015516],[22.696708999960176,41.817452500066466],[22.787480500212364,41.80309850004783]]]},"properties":{"shapeName":"Delchevo","shapeISO":"","shapeID":"65306769B90097726978799","shapeGroup":"MKD","shapeType":"ADM2"}},
{"type":"Feature","geometry":{"type":"Polygon","coordinates":[[[22.45270750002551,41.88066000012939],[22.377245500239702,41.86151000014319],[22.407788000307793,41.80683999998304],[22.46982100026936,41.79376350019258],[22.475606500119845,41.86619300020337],[22.45270750002551,41.88066000012939]]]},"properties":{"shapeName":"Zrnovtsi","shapeISO":"","shapeID":"65306769B51513115302581","shapeGroup":"MKD","shapeType":"ADM2"}},
{"type":"Feature","geometry":{"type":"Polygon","coordinates":[[[22.46982100026936,41.79376350019258],[22.407788000307793,41.80683999998304],[22.306053499984476,41.82439900015681],[22.24645549996059,41.86522450035505],[22.217135000189987,41.859414499939696],[22.156601000167882,41.8729889999712],[22.135300000047405,41.84750099998559],[22.16107000024002,41.821633500242854],[22.15111950013232,41.79222050013792],[22.216389500087626,41.78758150019294],[22.313843000177076,41.722841500317365],[22.415623000200576,41.729040000247856],[22.465575499954678,41.78729400030886],[22.46982100026936,41.79376350019258]]]},"properties":{"shapeName":"Karbintsi","shapeISO":"","shapeID":"65306769B40750666784819","shapeGroup":"MKD","shapeType":"ADM2"}},
{"type":"Feature","geometry":{"type":"Polygon","coordinates":[[[22.549679500254268,41.95869250027923],[22.50771849995435,42.025093000220785],[22.513431000369984,42.04838499993392],[22.479459000366038,42.07033150009928],[22.486966000340132,42.104419000068376],[22.451838000211673,42.12580300030399],[22.36331950019724,42.114769999967805],[22.387847000069446,42.08714800023995],[22.361001000247878,42.04198250024599],[22.29321000017058,41.97311300003247],[22.266500500348762,41.97058300015265],[22.255202500197512,41.939513500074],[22.349689500234955,41.93585999991959],[22.345520500335255,41.88690600025574],[22.377245500239702,41.86151000014319],[22.45270750002551,41.88066000012939],[22.474205000180188,41.95655550001821],[22.498807499983016,41.96648400006823],[22.52125650004367,41.939175999936296],[22.549679500254268,41.95869250027923]]]},"properties":{"shapeName":"Kochani","shapeISO":"","shapeID":"65306769B7034673009325","shapeGroup":"MKD","shapeType":"ADM2"}},
{"type":"Feature","geometry":{"type":"Polygon","coordinates":[[[22.618213500376168,41.98883550012908],[22.6533545003548,42.022879499994474],[22.661195999947743,42.073033999909704],[22.51041200000686,42.15515849998236],[22.451838000211673,42.12580300030399],[22.486966000340132,42.104419000068376],[22.479459000366038,42.07033150009928],[22.513431000369984,42.04838499993392],[22.50771849995435,42.025093000220785],[22.549679500254268,41.95869250027923],[22.574109000115083,41.95814900033791],[22.59524850010904,41.99158650015836],[22.618213500376168,41.98883550012908]]]},"properties":{"shapeName":"Makedonska Kamenitsa","shapeISO":"","shapeID":"65306769B84975747896428","shapeGroup":"MKD","shapeType":"ADM2"}},
{"type":"Feature","geometry":{"type":"Polygon","coordinates":[[[23.013760500273246,41.69164900010064],[23.03249800019121,41.72488000010589],[23.009340499982052,41.7663965000492],[22.96477400030979,41.77321150025514],[22.922208500011106,41.86910050024392],[22.901624000223652,41.877551999962385],[22.85180300035395,41.85725300001301],[22.84232600037211,41.822666000217794],[22.789306000035843,41.81485600000218],[22.787480500212364,41.80309850004783],[22.8147215001485,41.73506350019015],[22.856664500033304,41.74956950011621],[22.896735500371353,41.73690499993298],[22.906129000226468,41.717995000084585],[23.013760500273246,41.69164900010064]]]},"properties":{"shapeName":"Pehchevo","shapeISO":"","shapeID":"65306769B44883072269450","shapeGroup":"MKD","shapeType":"ADM2"}},
{"type":"Feature","geometry":{"type":"Polygon","coordinates":[[[22.111414000127912,41.88537249997041],[22.156601000167882,41.8729889999712],[22.217135000189987,41.859414499939696],[22.22651450017193,41.87816850023801],[22.205994000061498,41.91775850027727],[22.255202500197512,41.939513500074],[22.266500500348762,41.97058300015265],[22.29321000017058,41.97311300003247],[22.361001000247878,42.04198250024599],[22.321119500232196,42.0700899999268],[22.26851100039094,42.070750000306035],[22.26259600025245,42.020194500137976],[22.18902650003641,42.05316900007467],[22.110969000209487,42.03928950020507],[22.079138000109218,42.00843950024122],[22.040391500183627,42.02539750004729],[22.034183500034217,42.015945500192224],[22.026258000303052,41.98886649994459],[22.12592800023839,41.89869900012936],[22.097994500073,41.8984764999453],[22.111414000127912,41.88537249997041]]]},"properties":{"shapeName":"Probishtip","shapeISO":"","shapeID":"65306769B77105819408507","shapeGroup":"MKD","shapeType":"ADM2"}},
{"type":"Feature","geometry":{"type":"Polygon","coordinates":[[[22.377245500239702,41.86151000014319],[22.345520500335255,41.88690600025574],[22.349689500234955,41.93585999991959],[22.255202500197512,41.939513500074],[22.205994000061498,41.91775850027727],[22.22651450017193,41.87816850023801],[22.217135000189987,41.859414499939696],[22.24645549996059,41.86522450035505],[22.306053499984476,41.82439900015681],[22.407788000307793,41.80683999998304],[22.377245500239702,41.86151000014319]]]},"properties":{"shapeName":"Cheshinovo - Obleshevo","shapeISO":"","shapeID":"65306769B60953626693828","shapeGroup":"MKD","shapeType":"ADM2"}},
{"type":"Feature","geometry":{"type":"Polygon","coordinates":[[[21.96723750010517,41.675901500326866],[22.03214200017643,41.66652050031034],[22.07350400015465,41.629659500242866],[22.110451999979926,41.657619000108326],[22.124397500022315,41.600476500045225],[22.172529000056603,41.60312200033988],[22.216055000019093,41.5627055001293],[22.266379500256768,41.556372000233736],[22.341295000031998,41.61088499992144],[22.31674650012537,41.62428650001101],[22.30922000015135,41.675604500223685],[22.33299900030162,41.694753000175304],[22.38729950003587,41.68287550015205],[22.415623000200576,41.729040000247856],[22.313843000177076,41.722841500317365],[22.216389500087626,41.78758150019294],[22.15111950013232,41.79222050013792],[22.16107000024002,41.821633500242854],[22.135300000047405,41.84750099998559],[22.156601000167882,41.8729889999712],[22.111414000127912,41.88537249997041],[22.09676249999469,41.85836349998783],[22.112508500183477,41.83262099997965],[22.04545900011628,41.787043999940366],[22.052072500172766,41.732822500229084],[22.019845000373024,41.7467885002944],[22.008429000199044,41.72357050003929],[21.97860800012946,41.73404049998454],[21.947119500282238,41.71252799993369],[21.96723750010517,41.675901500326866]]]},"properties":{"shapeName":"Shtip","shapeISO":"","shapeID":"65306769B54195317631303","shapeGroup":"MKD","shapeType":"ADM2"}},
{"type":"Feature","geometry":{"type":"Polygon","coordinates":[[[20.51723650018201,41.23771750028115],[20.57322150008601,41.22424699994952],[20.647301000370273,41.257175500174526],[20.520083500176607,41.246614999941215],[20.51723650018201,41.23771750028115]]]},"properties":{"shapeName":"Vevchani","shapeISO":"","shapeID":"65306769B55321164164480","shapeGroup":"MKD","shapeType":"ADM2"}},
{"type":"Feature","geometry":{"type":"Polygon","coordinates":[[[21.078831500336566,41.47429549991876],[21.07443050003371,41.495025499913474],[21.135947500238313,41.536463500295],[21.10267300010334,41.584554500235875],[21.05548049999984,41.561517499999916],[21.031048999999776,41.52178199999987],[21.00111749999983,41.51663599999988],[20.97945999999978,41.4794894999999],[20.959920999999778,41.454852],[20.99243099999982,41.447155499999944],[21.007090999999807,41.421842],[21.0710250001613,41.4377355000373],[21.030498000141147,41.4614795002893],[21.078831500336566,41.47429549991876]]]},"properties":{"shapeName":"Vraneshtitsa","shapeISO":"","shapeID":"65306769B74199760072032","shapeGroup":"MKD","shapeType":"ADM2"}},
{"type":"Feature","geometry":{"type":"Polygon","coordinates":[[[20.729024500190103,41.49346300030858],[20.66022600026472,41.52799100009225],[20.676695500048588,41.54375450023497],[20.611915500149987,41.55051049997986],[20.556305500349133,41.58200200034593],[20.456006500299758,41.553800500296305],[20.473376000151074,41.532988500209534],[20.453139000282146,41.51990949991181],[20.495331000062762,41.49007800004981],[20.507586500258242,41.44417000002275],[20.538823500152066,41.436385499945494],[20.560363000375855,41.40845849992995],[20.5741180000727,41.411951999992425],[20.549869000326925,41.44692150006363],[20.52291500026336,41.45204350035349],[20.504034500195896,41.49786350015016],[20.560749500294502,41.516812499998494],[20.562917500370943,41.5308760000637],[20.601675000100535,41.532206000153316],[20.621945500292156,41.49173500003513],[20.65063000023707,41.49179400004649],[20.65260000024472,41.45742600035475],[20.682322500291416,41.43111050017464],[20.688945000105814,41.43748250005864],[20.700494000198876,41.48260599998349],[20.729024500190103,41.49346300030858]]]},"properties":{"shapeName":"Debar","shapeISO":"","shapeID":"65306769B94389460478239","shapeGroup":"MKD","shapeType":"ADM2"}},
{"type":"Feature","geometry":{"type":"Polygon","coordinates":[[[20.682322500291416,41.43111050017464],[20.68157700018905,41.4304480001875],[20.724640500279275,41.35862050011791],[20.725183500209095,41.31290800010205],[20.766739000152253,41.28209099999979],[20.756980499974993,41.24213250000749],[20.718178500118707,41.21404350030361],[20.740425500018407,41.19454850000669],[20.735170500259066,41.16931500004356],[20.770091500111228,41.160499000014454],[20.771700000327183,41.18310100000561],[20.794761500121435,41.19055800017576],[20.791546500185383,41.2206910002447],[20.823934500088466,41.25018700001499],[20.879987000199847,41.263691500231204],[20.974232000053313,41.2353770002741],[21.017892999980965,41.24211650008815],[20.954759500275173,41.32389600030003],[20.914568000306318,41.362357499949354],[20.88958700031976,41.43114350003624],[20.688945000105814,41.43748250005864],[20.682322500291416,41.43111050017464]]]},"properties":{"shapeName":"Debartsa","shapeISO":"","shapeID":"65306769B78023528365293","shapeGroup":"MKD","shapeType":"ADM2"}},
{"type":"Feature","geometry":{"type":"Polygon","coordinates":[[[20.97945999999978,41.4794894999999],[20.888344499999796,41.530048],[20.84005699997214,41.58722949993664],[20.81037200033365,41.5838615000541],[20.78288900021353,41.4900675002574],[20.7453040000897,41.5095235001047],[20.729024500190103,41.49346300030858],[20.700494000198876,41.48260599998349],[20.688945000105814,41.43748250005864],[20.88958700031976,41.43114350003624],[20.914568000306318,41.362357499949354],[20.954759500275173,41.32389600030003],[21.02016300016106,41.36206449993835],[21.093844000250083,41.3602894999303],[21.134503500218045,41.39378300014264],[21.127432499954953,41.418163000211095],[21.0710250001613,41.4377355000373],[21.007090999999807,41.421842],[20.99243099999982,41.447155499999944],[20.959920999999778,41.454852],[20.97945999999978,41.4794894999999]]]},"properties":{"shapeName":"Drugovo","shapeISO":"","shapeID":"65306769B99207835594431","shapeGroup":"MKD","shapeType":"ADM2"}},
{"type":"Feature","geometry":{"type":"Polygon","coordinates":[[[20.888344499999796,41.530048],[20.90006149999982,41.54744199999988],[20.9665519999998,41.561911499999916],[20.98675449999981,41.59597549999984],[20.97639249996553,41.64155200012977],[20.90199449997306,41.675327500131935],[20.83514600004382,41.66995649994635],[20.781653000042873,41.634493000175866],[20.8114045003085,41.62683600034044],[20.84005699997214,41.58722949993664],[20.888344499999796,41.530048]]]},"properties":{"shapeName":"Zajas","shapeISO":"","shapeID":"65306769B7192425425597","shapeGroup":"MKD","shapeType":"ADM2"}},
{"type":"Feature","geometry":{"type":"Polygon","coordinates":[[[21.00111749999983,41.51663599999988],[20.9665519999998,41.561911499999916],[20.90006149999982,41.54744199999988],[20.888344499999796,41.530048],[20.97945999999978,41.4794894999999],[21.00111749999983,41.51663599999988]]]},"properties":{"shapeName":"Kichevo","shapeISO":"","shapeID":"65306769B34923793156893","shapeGroup":"MKD","shapeType":"ADM2"}},
{"type":"Feature","geometry":{"type":"Polygon","coordinates":[[[21.393491000354555,41.71796600031524],[21.367397500347003,41.740657500121785],[21.342815000106004,41.73128999996675],[21.29638300013755,41.75858150016801],[21.237886000319158,41.830002000295956],[21.190648500213978,41.847656499973766],[21.14262050031775,41.842412000006924],[21.088031500226652,41.792196500034244],[21.023050000178596,41.79010599994601],[21.010856500063653,41.777349000328],[21.053660000004466,41.69562099995464],[21.052090500238048,41.660564000114235],[21.101526500223773,41.63043400011447],[21.10267300010334,41.584554500235875],[21.135947500238313,41.536463500295],[21.07443050003371,41.495025499913474],[21.078831500336566,41.47429549991876],[21.14458550021024,41.49095049993282],[21.141393000343196,41.4751420001016],[21.18738400003571,41.43816550006889],[21.22814450008424,41.44204900013059],[21.26442900034889,41.472098000061386],[21.26086299996369,41.49265650014868],[21.296616500125605,41.512171500007334],[21.336660000279213,41.501677499958404],[21.37388050009249,41.60552100034679],[21.393491000354555,41.71796600031524]]]},"properties":{"shapeName":"Makedonski Brod","shapeISO":"","shapeID":"65306769B48467279151544","shapeGroup":"MKD","shapeType":"ADM2"}},
{"type":"Feature","geometry":{"type":"Polygon","coordinates":[[[21.10267300010334,41.584554500235875],[21.101526500223773,41.63043400011447],[21.052090500238048,41.660564000114235],[20.97639249996553,41.64155200012977],[20.98675449999981,41.59597549999984],[20.9665519999998,41.561911499999916],[21.00111749999983,41.51663599999988],[21.031048999999776,41.52178199999987],[21.05548049999984,41.561517499999916],[21.10267300010334,41.584554500235875]]]},"properties":{"shapeName":"Oslomej","shapeISO":"","shapeID":"65306769B21440943325425","shapeGroup":"MKD","shapeType":"ADM2"}},
{"type":"Feature","geometry":{"type":"Polygon","coordinates":[[[20.735170500259066,41.16931500004356],[20.73277550034432,41.166247000349266],[20.807475000085514,41.10622550000346],[20.810028000046017,41.01642550011836],[20.776847000294214,40.92705800031319],[20.732456000172046,40.911558999973956],[20.81390599998097,40.898494500010585],[20.837714000350267,40.927729500058156],[20.829071500274583,40.95389050027308],[20.895186000366646,41.05859800034856],[20.9030260003746,41.124861000267366],[20.953438499943385,41.157725499915976],[20.94393400022679,41.16886950011364],[20.98060950006416,41.17343700020867],[21.039126500343748,41.2150060000135],[21.017892999980965,41.24211650008815],[20.974232000053313,41.2353770002741],[20.879987000199847,41.263691500231204],[20.823934500088466,41.25018700001499],[20.791546500185383,41.2206910002447],[20.794761500121435,41.19055800017576],[20.771700000327183,41.18310100000561],[20.770091500111228,41.160499000014454],[20.735170500259066,41.16931500004356]]]},"properties":{"shapeName":"Ohrid","shapeISO":"","shapeID":"65306769B86752814527149","shapeGroup":"MKD","shapeType":"ADM2"}},
{"type":"Feature","geometry":{"type":"Polygon","coordinates":[[[21.0710250001613,41.4377355000373],[21.127432499954953,41.418163000211095],[21.18738400003571,41.43816550006889],[21.141393000343196,41.4751420001016],[21.14458550021024,41.49095049993282],[21.078831500336566,41.47429549991876],[21.030498000141147,41.4614795002893],[21.0710250001613,41.4377355000373]]]},"properties":{"shapeName":"Plasnitsa","shapeISO":"","shapeID":"65306769B97994960223658","shapeGroup":"MKD","shapeType":"ADM2"}},
{"type":"Feature","geometry":{"type":"Polygon","coordinates":[[[20.51723650018201,41.23771750028115],[20.593580000058427,41.13743550017403],[20.595609500089125,41.09241200030666],[20.632866000282675,41.08651300008743],[20.65350850005859,41.16711850020919],[20.73277550034432,41.166247000349266],[20.735170500259066,41.16931500004356],[20.740425500018407,41.19454850000669],[20.718178500118707,41.21404350030361],[20.756980499974993,41.24213250000749],[20.766739000152253,41.28209099999979],[20.725183500209095,41.31290800010205],[20.724640500279275,41.35862050011791],[20.68157700018905,41.4304480001875],[20.649426000354605,41.411936500084764],[20.576393500379638,41.412137000211125],[20.5741180000727,41.411951999992425],[20.560363000375855,41.40845849992995],[20.525749999981276,41.34324549994001],[20.49678500031363,41.34379650005425],[20.520083500176607,41.246614999941215],[20.647301000370273,41.257175500174526],[20.57322150008601,41.22424699994952],[20.51723650018201,41.23771750028115]]]},"properties":{"shapeName":"Struga","shapeISO":"","shapeID":"65306769B59831193355348","shapeGroup":"MKD","shapeType":"ADM2"}},
{"type":"Feature","geometry":{"type":"Polygon","coordinates":[[[20.560749500294502,41.516812499998494],[20.520158500107318,41.48400899995774],[20.546547500183372,41.46166400004682],[20.538221000199382,41.4545520001873],[20.556002000096026,41.451059500147814],[20.576393500379638,41.412137000211125],[20.649426000354605,41.411936500084764],[20.68157700018905,41.4304480001875],[20.682322500291416,41.43111050017464],[20.65260000024472,41.45742600035475],[20.65063000023707,41.49179400004649],[20.621945500292156,41.49173500003513],[20.601675000100535,41.532206000153316],[20.562917500370943,41.5308760000637],[20.560749500294502,41.516812499998494]]]},"properties":{"shapeName":"Centar Zhupa","shapeISO":"","shapeID":"65306769B61721229469178","shapeGroup":"MKD","shapeType":"ADM2"}},
{"type":"Feature","geometry":{"type":"Polygon","coordinates":[[[22.574342500103135,41.24984100013104],[22.538407000241286,41.25875650020613],[22.513228500197442,41.21689449994069],[22.522087000307252,41.15904750027085],[22.605695999985105,41.12656900007962],[22.664605500321684,41.18436549993402],[22.663836000115552,41.220874499979125],[22.598930500021208,41.22464850021402],[22.574342500103135,41.24984100013104]]]},"properties":{"shapeName":"Bogdantsi","shapeISO":"","shapeID":"65306769B60147523647729","shapeGroup":"MKD","shapeType":"ADM2"}},
{"type":"Feature","geometry":{"type":"Polygon","coordinates":[[[22.767483000020146,41.5718375002501],[22.740127000130357,41.54513800020919],[22.745318500224172,41.52111650031304],[22.691315500155003,41.48250549991452],[22.718541000183386,41.46276050014847],[22.698518000302588,41.42741250034322],[22.737969500295925,41.42389600020006],[22.743431000320065,41.40045500019899],[22.770540000360214,41.39072300018309],[22.790685000356,41.4041080003419],[22.817376500212482,41.41353600009311],[22.81322100017445,41.447256000132164],[22.845382500250995,41.46362450028515],[22.875419500354617,41.523342499928255],[22.855435500024075,41.543341500154966],[22.81310400017463,41.52796850002315],[22.767483000020146,41.5718375002501]]]},"properties":{"shapeName":"Bosilovo","shapeISO":"","shapeID":"65306769B43786994605209","shapeGroup":"MKD","shapeType":"ADM2"}},
{"type":"Feature","geometry":{"type":"Polygon","coordinates":[[[22.3682880000955,41.385439000204805],[22.369177500370448,41.38813100022264],[22.3732965000167,41.38866950004871],[22.375934000126925,41.386560999995126],[22.375741000173395,41.380620500167964],[22.380027000072918,41.37726350010524],[22.399586500058362,41.37553800033914],[22.41120700000146,41.369427000177865],[22.450333500145366,41.32865699991041],[22.47993800016915,41.3199500001462],[22.49048250003361,41.25074250023307],[22.513228500197442,41.21689449994069],[22.538407000241286,41.25875650020613],[22.574342500103135,41.24984100013104],[22.603722000334876,41.274369500026154],[22.658592000160212,41.2806155001526],[22.665725000054245,41.31092300019813],[22.757237000293536,41.30299100031713],[22.78001550030738,41.32677850021373],[22.702252500076366,41.353636000300476],[22.67640849997613,41.31810400029963],[22.605421000389303,41.31625950003794],[22.60077150020213,41.33496400009421],[22.542703500382906,41.344406500179865],[22.522504500041236,41.377657500196634],[22.541315000293338,41.412808999967766],[22.457006000213216,41.45792600019228],[22.349954500049936,41.44757650032752],[22.344128500165013,41.43002949998075],[22.33730700025883,41.39335600018964],[22.3682880000955,41.385439000204805]]]},"properties":{"shapeName":"Valandovo","shapeISO":"","shapeID":"65306769B91068225618475","shapeGroup":"MKD","shapeType":"ADM2"}},
{"type":"Feature","geometry":{"type":"Polygon","coordinates":[[[22.64161050026204,41.64089250024431],[22.6141840000957,41.64020250007265],[22.59031900021072,41.616836500002286],[22.59551000029304,41.59004200001916],[22.618893500317235,41.58402950033046],[22.617400500066427,41.536446999914645],[22.555414000277814,41.56559100011225],[22.51677600015603,41.514588999991176],[22.522379000295174,41.471854500292416],[22.545929500123048,41.49990800007711],[22.603347000231818,41.484694500025554],[22.61597299997692,41.461457000220115],[22.65687800020971,41.474385500195325],[22.672112000284105,41.464531000052844],[22.691315500155003,41.48250549991452],[22.745318500224172,41.52111650031304],[22.740127000130357,41.54513800020919],[22.767483000020146,41.5718375002501],[22.715896000349918,41.587540500346776],[22.68791700003466,41.580276500130154],[22.707054000170864,41.62414400032261],[22.673668500200435,41.644596000202576],[22.643984500142185,41.62480500027516],[22.64161050026204,41.64089250024431]]]},"properties":{"shapeName":"Vasilevo","shapeISO":"","shapeID":"65306769B98629679609772","shapeGroup":"MKD","shapeType":"ADM2"}},
{"type":"Feature","geometry":{"type":"Polygon","coordinates":[[[22.29251200026417,41.30988500009635],[22.292727500286798,41.25102099990964],[22.24575000033094,41.24383000002724],[22.26947950023926,41.21755849996251],[22.21886049995599,41.199079500159364],[22.21567000013512,41.16860400028707],[22.323392000020366,41.15089650028655],[22.33242800017595,41.120219500264895],[22.373908500188485,41.13767550031192],[22.402409999960778,41.13755350019694],[22.42101150034009,41.11907599997878],[22.605695999985105,41.12656900007962],[22.522087000307252,41.15904750027085],[22.513228500197442,41.21689449994069],[22.49048250003361,41.25074250023307],[22.47440549999978,41.32087449999985],[22.44730499999977,41.32438349999984],[22.411874499999758,41.36747149999981],[22.380658499999758,41.376240499999895],[22.37462499999979,41.38083899999989],[22.374230999999785,41.38737649999981],[22.370620499999745,41.38811549999985],[22.369446000266187,41.38525449999761],[22.356840500094417,41.3700545002574],[22.3670330003861,41.356809000167594],[22.349435500223976,41.353886500230786],[22.35606100010746,41.345238500028444],[22.295784000165593,41.3299464999655],[22.29251200026417,41.30988500009635]]]},"properties":{"shapeName":"Gevgelija","shapeISO":"","shapeID":"65306769B17532316382540","shapeGroup":"MKD","shapeType":"ADM2"}},
{"type":"Feature","geometry":{"type":"Polygon","coordinates":[[[22.664605500321684,41.18436549993402],[22.711090000151575,41.139529000331436],[22.747392000370066,41.16303349999803],[22.706072500022863,41.2281874999766],[22.72077150035204,41.24530350027812],[22.758306500222332,41.24604400026514],[22.757237000293536,41.30299100031713],[22.665725000054245,41.31092300019813],[22.658592000160212,41.2806155001526],[22.603722000334876,41.274369500026154],[22.574342500103135,41.24984100013104],[22.598930500021208,41.22464850021402],[22.663836000115552,41.220874499979125],[22.664605500321684,41.18436549993402]]]},"properties":{"shapeName":"Dojran","shapeISO":"","shapeID":"65306769B30499724495111","shapeGroup":"MKD","shapeType":"ADM2"}},
{"type":"Feature","geometry":{"type":"Polygon","coordinates":[[[22.344128500165013,41.43002949998075],[22.349954500049936,41.44757650032752],[22.457006000213216,41.45792600019228],[22.487257500316556,41.47619950020331],[22.52179200025016,41.46190450019621],[22.522379000295174,41.471854500292416],[22.51677600015603,41.514588999991176],[22.466310500264537,41.527035000082606],[22.479432500204773,41.55010750013045],[22.44219550001115,41.59049250006443],[22.398487000337227,41.59828150024544],[22.382378500333562,41.58602149994611],[22.341295000031998,41.61088499992144],[22.266379500256768,41.556372000233736],[22.314205499991864,41.49694500010587],[22.346785500275164,41.48472300023308],[22.344128500165013,41.43002949998075]]]},"properties":{"shapeName":"Konche","shapeISO":"","shapeID":"65306769B3097110342626","shapeGroup":"MKD","shapeType":"ADM2"}},
{"type":"Feature","geometry":{"type":"Polygon","coordinates":[[[22.875419500354617,41.523342499928255],[22.845382500250995,41.46362450028515],[22.81322100017445,41.447256000132164],[22.817376500212482,41.41353600009311],[22.790685000356,41.4041080003419],[22.80210650020732,41.338288000295435],[22.927591500023777,41.33853950024874],[22.9626785001063,41.35221100026864],[22.95197950027675,41.4174874999241],[22.97947750029304,41.446875999913765],[22.958248500034102,41.495065999948004],[22.968327499957127,41.51983550000419],[22.875419500354617,41.523342499928255]]]},"properties":{"shapeName":"Novo Selo","shapeISO":"","shapeID":"65306769B50594974244279","shapeGroup":"MKD","shapeType":"ADM2"}},
{"type":"Feature","geometry":{"type":"Polygon","coordinates":[[[22.637195000074513,41.72784300007714],[22.594230000007183,41.761918000207736],[22.50872500022921,41.76459400030631],[22.465575499954678,41.78729400030886],[22.415623000200576,41.729040000247856],[22.38729950003587,41.68287550015205],[22.33299900030162,41.694753000175304],[22.30922000015135,41.675604500223685],[22.31674650012537,41.62428650001101],[22.341295000031998,41.61088499992144],[22.382378500333562,41.58602149994611],[22.398487000337227,41.59828150024544],[22.44219550001115,41.59049250006443],[22.479432500204773,41.55010750013045],[22.466310500264537,41.527035000082606],[22.51677600015603,41.514588999991176],[22.555414000277814,41.56559100011225],[22.617400500066427,41.536446999914645],[22.618893500317235,41.58402950033046],[22.59551000029304,41.59004200001916],[22.59031900021072,41.616836500002286],[22.6141840000957,41.64020250007265],[22.64161050026204,41.64089250024431],[22.6613645002356,41.68987750017318],[22.637195000074513,41.72784300007714]]]},"properties":{"shapeName":"Radovish","shapeISO":"","shapeID":"65306769B69057078753294","shapeGroup":"MKD","shapeType":"ADM2"}},
{"type":"Feature","geometry":{"type":"Polygon","coordinates":[[[22.691315500155003,41.48250549991452],[22.672112000284105,41.464531000052844],[22.65687800020971,41.474385500195325],[22.61597299997692,41.461457000220115],[22.603347000231818,41.484694500025554],[22.545929500123048,41.49990800007711],[22.522379000295174,41.471854500292416],[22.52179200025016,41.46190450019621],[22.487257500316556,41.47619950020331],[22.457006000213216,41.45792600019228],[22.541315000293338,41.412808999967766],[22.522504500041236,41.377657500196634],[22.542703500382906,41.344406500179865],[22.60077150020213,41.33496400009421],[22.605421000389303,41.31625950003794],[22.67640849997613,41.31810400029963],[22.702252500076366,41.353636000300476],[22.78001550030738,41.32677850021373],[22.80210650020732,41.338288000295435],[22.790685000356,41.4041080003419],[22.770540000360214,41.39072300018309],[22.743431000320065,41.40045500019899],[22.737969500295925,41.42389600020006],[22.698518000302588,41.42741250034322],[22.718541000183386,41.46276050014847],[22.691315500155003,41.48250549991452]]]},"properties":{"shapeName":"Strumitsa","shapeISO":"","shapeID":"65306769B9612885815739","shapeGroup":"MKD","shapeType":"ADM2"}},
{"type":"Feature","geometry":{"type":"Polygon","coordinates":[[[21.42898200030939,41.098012499938534],[21.388519000375624,41.08332350028955],[21.35873600028298,41.09772350001978],[21.364435999960747,41.13623649995731],[21.322578000237076,41.16054250011815],[21.306944499944354,41.18386150000414],[21.32766350013516,41.197907500115505],[21.29066450003326,41.22815000001125],[21.28901600024396,41.22672449996791],[21.218292499999432,41.171025999924986],[21.1262065000149,41.14804950029204],[21.09527750002825,41.1245534999221],[21.101429500235465,41.087351500085745],[21.06832399997628,41.065530500116225],[21.07445550016048,41.0528215002559],[21.108228500072553,41.04412000016894],[21.09915200033213,41.024035500219014],[21.126574999968113,40.98476050024836],[21.17820600020331,40.98584700011941],[21.202757000167612,40.94980350001584],[21.240145000245658,40.94456100009499],[21.25547550029695,40.91186000016939],[21.24282650002148,40.874186000241764],[21.259722500196528,40.85941149997038],[21.344231000380017,40.87387400024242],[21.41615850005732,40.91693850035564],[21.502939000017392,40.91060750006807],[21.51373100019259,40.950322500291485],[21.43978050018492,41.04155000026609],[21.42898200030939,41.098012499938534]]]},"properties":{"shapeName":"Bitola","shapeISO":"","shapeID":"65306769B29228652763838","shapeGroup":"MKD","shapeType":"ADM2"}},
{"type":"Feature","geometry":{"type":"Polygon","coordinates":[[[21.017892999980965,41.24211650008815],[21.039126500343748,41.2150060000135],[21.06573200001583,41.198642499975776],[21.09527750002825,41.1245534999221],[21.1262065000149,41.14804950029204],[21.218292499999432,41.171025999924986],[21.28901600024396,41.22672449996791],[21.297316500078097,41.26110150031685],[21.25332400015117,41.322365000072374],[21.213997500341993,41.317908000276915],[21.21447150002985,41.36284549995998],[21.177893500192376,41.3650150000711],[21.162774500071453,41.3911565002861],[21.134503500218045,41.39378300014264],[21.093844000250083,41.3602894999303],[21.02016300016106,41.36206449993835],[20.954759500275173,41.32389600030003],[21.017892999980965,41.24211650008815]]]},"properties":{"shapeName":"Demir Hisar","shapeISO":"","shapeID":"65306769B51033238442002","shapeGroup":"MKD","shapeType":"ADM2"}},
{"type":"Feature","geometry":{"type":"Polygon","coordinates":[[[21.37388050009249,41.60552100034679],[21.336660000279213,41.501677499958404],[21.296616500125605,41.512171500007334],[21.26086299996369,41.49265650014868],[21.26442900034889,41.472098000061386],[21.304993000363133,41.43461199997195],[21.261148500251455,41.42055950016034],[21.304775500294422,41.38861500014101],[21.34632100000707,41.39496549997891],[21.365608000004517,41.35959750016215],[21.437193000328143,41.369465000154804],[21.459629500100615,41.39807300013442],[21.576798000163684,41.41507800012477],[21.585951000319,41.449201500024635],[21.607867500242335,41.45295700028261],[21.531335000055048,41.49917300021685],[21.47827650018011,41.50472450006778],[21.463784000115734,41.555986500338264],[21.424591000237136,41.59632350006469],[21.37388050009249,41.60552100034679]]]},"properties":{"shapeName":"Dolneni","shapeISO":"","shapeID":"65306769B25269203277023","shapeGroup":"MKD","shapeType":"ADM2"}},
{"type":"Feature","geometry":{"type":"Polygon","coordinates":[[[21.304775500294422,41.38861500014101],[21.337218000105203,41.27259099993736],[21.365633000131375,41.25073750011773],[21.41761550037736,41.27500000017487],[21.412135000364792,41.31236300012614],[21.432074500118954,41.31673850029064],[21.365608000004517,41.35959750016215],[21.34632100000707,41.39496549997891],[21.304775500294422,41.38861500014101]]]},"properties":{"shapeName":"Krivogashtani","shapeISO":"","shapeID":"65306769B57810703972123","shapeGroup":"MKD","shapeType":"ADM2"}},
{"type":"Feature","geometry":{"type":"Polygon","coordinates":[[[21.134503500218045,41.39378300014264],[21.162774500071453,41.3911565002861],[21.177893500192376,41.3650150000711],[21.21447150002985,41.36284549995998],[21.213997500341993,41.317908000276915],[21.25332400015117,41.322365000072374],[21.297316500078097,41.26110150031685],[21.28901600024396,41.22672449996791],[21.29066450003326,41.22815000001125],[21.337218000105203,41.27259099993736],[21.304775500294422,41.38861500014101],[21.261148500251455,41.42055950016034],[21.304993000363133,41.43461199997195],[21.26442900034889,41.472098000061386],[21.22814450008424,41.44204900013059],[21.18738400003571,41.43816550006889],[21.127432499954953,41.418163000211095],[21.134503500218045,41.39378300014264]]]},"properties":{"shapeName":"Krushevo","shapeISO":"","shapeID":"65306769B95473368394754","shapeGroup":"MKD","shapeType":"ADM2"}},
{"type":"Feature","geometry":{"type":"Polygon","coordinates":[[[21.42898200030939,41.098012499938534],[21.47227500029541,41.11351400033535],[21.551182999947745,41.10291100002134],[21.59770650022726,41.14042100021446],[21.59727500017042,41.16189949993111],[21.55350650001245,41.18218000035324],[21.50626450025311,41.17626000009942],[21.468144500383975,41.19783450023088],[21.434315000068523,41.19481200023677],[21.408006500049932,41.23590600033075],[21.365633000131375,41.25073750011773],[21.337218000105203,41.27259099993736],[21.29066450003326,41.22815000001125],[21.32766350013516,41.197907500115505],[21.306944499944354,41.18386150000414],[21.322578000237076,41.16054250011815],[21.364435999960747,41.13623649995731],[21.35873600028298,41.09772350001978],[21.388519000375624,41.08332350028955],[21.42898200030939,41.098012499938534]]]},"properties":{"shapeName":"Mogila","shapeISO":"","shapeID":"65306769B16932285740052","shapeGroup":"MKD","shapeType":"ADM2"}},
{"type":"Feature","geometry":{"type":"Polygon","coordinates":[[[21.502939000017392,40.91060750006807],[21.531949500284416,40.906409499949255],[21.56651950013729,40.86641950012985],[21.59323550010904,40.866002499957766],[21.635630500073695,40.8971170001747],[21.670638000121752,40.89837900004535],[21.686552000137212,40.93956600003538],[21.78412750034174,40.92881599992929],[21.804147500153455,40.944732500002424],[21.801512000089314,40.97606450028816],[21.912030000142135,41.04939250033172],[21.909940000065482,41.08198149992316],[21.816243000257003,41.09299750031709],[21.698753499986985,41.14136000028176],[21.654569500141026,41.135514499947135],[21.620693500102394,41.17115200013232],[21.59727500017042,41.16189949993111],[21.59770650022726,41.14042100021446],[21.551182999947745,41.10291100002134],[21.47227500029541,41.11351400033535],[21.42898200030939,41.098012499938534],[21.43978050018492,41.04155000026609],[21.51373100019259,40.950322500291485],[21.502939000017392,40.91060750006807]]]},"properties":{"shapeName":"Novatsi","shapeISO":"","shapeID":"65306769B28760853140319","shapeGroup":"MKD","shapeType":"ADM2"}},
{"type":"Feature","geometry":{"type":"Polygon","coordinates":[[[21.77606550016132,41.45685850030966],[21.73381050027708,41.4865660000105],[21.679188500324383,41.46434250020307],[21.66437400002997,41.43812299998827],[21.629629500200494,41.45828599994949],[21.607867500242335,41.45295700028261],[21.585951000319,41.449201500024635],[21.576798000163684,41.41507800012477],[21.459629500100615,41.39807300013442],[21.437193000328143,41.369465000154804],[21.365608000004517,41.35959750016215],[21.432074500118954,41.31673850029064],[21.412135000364792,41.31236300012614],[21.41761550037736,41.27500000017487],[21.365633000131375,41.25073750011773],[21.408006500049932,41.23590600033075],[21.434315000068523,41.19481200023677],[21.468144500383975,41.19783450023088],[21.50626450025311,41.17626000009942],[21.55350650001245,41.18218000035324],[21.59727500017042,41.16189949993111],[21.620693500102394,41.17115200013232],[21.654569500141026,41.135514499947135],[21.698753499986985,41.14136000028176],[21.816243000257003,41.09299750031709],[21.909940000065482,41.08198149992316],[21.92959800007373,41.10024350011869],[21.917840500119386,41.123025000201785],[21.932148499976652,41.13861800001039],[21.87802350024209,41.162913499929125],[21.89298650036316,41.197426000254815],[21.865818500311647,41.22953149993939],[21.895557500289094,41.279183999970826],[21.834398500245207,41.278152500018884],[21.809595500315922,41.30961650020061],[21.843067000020977,41.35656350035254],[21.823050000278517,41.3837375000928],[21.822516500118113,41.440499499926],[21.788591500298534,41.42686600033273],[21.77606550016132,41.45685850030966]]]},"properties":{"shapeName":"Prilep","shapeISO":"","shapeID":"65306769B638558710054","shapeGroup":"MKD","shapeType":"ADM2"}},
{"type":"Feature","geometry":{"type":"Polygon","coordinates":[[[20.837714000350267,40.927729500058156],[20.848028000295844,40.93775850017724],[20.89929350019731,40.91867150029466],[20.94429000034151,40.92242650009145],[20.977663500035256,40.88966100002764],[20.991432000043282,40.91338650029329],[20.89714300007462,40.95458600012182],[20.936566000310204,41.00199050003086],[20.964103000326435,41.01045199997992],[21.048573000071887,40.98857450005661],[21.11961199994693,40.8546830002101],[21.2065565000911,40.88393250014234],[21.24282650002148,40.874186000241764],[21.25547550029695,40.91186000016939],[21.240145000245658,40.94456100009499],[21.202757000167612,40.94980350001584],[21.17820600020331,40.98584700011941],[21.126574999968113,40.98476050024836],[21.09915200033213,41.024035500219014],[21.108228500072553,41.04412000016894],[21.07445550016048,41.0528215002559],[21.06832399997628,41.065530500116225],[21.101429500235465,41.087351500085745],[21.09527750002825,41.1245534999221],[21.06573200001583,41.198642499975776],[21.039126500343748,41.2150060000135],[20.98060950006416,41.17343700020867],[20.94393400022679,41.16886950011364],[20.953438499943385,41.157725499915976],[20.9030260003746,41.124861000267366],[20.895186000366646,41.05859800034856],[20.829071500274583,40.95389050027308],[20.837714000350267,40.927729500058156]]]},"properties":{"shapeName":"Resen","shapeISO":"","shapeID":"65306769B70601166108403","shapeGroup":"MKD","shapeType":"ADM2"}},
{"type":"Feature","geometry":{"type":"Polygon","coordinates":[[[20.963402000350857,41.96264000001805],[20.928257500291554,41.99155749993935],[20.84536950015102,42.00947300023933],[20.766485500152772,41.96255749991441],[20.754743500106184,41.946781499933195],[20.770038000226617,41.926087000307255],[20.798347500068466,41.93443250027976],[20.864092500184313,41.92034150003012],[20.945857000050168,41.88453950009893],[20.984853500344165,41.93795950021535],[20.96632100020682,41.951703000096686],[20.94928900004361,41.944323000353016],[20.963402000350857,41.96264000001805]]]},"properties":{"shapeName":"Bogovinje","shapeISO":"","shapeID":"65306769B92913941164091","shapeGroup":"MKD","shapeType":"ADM2"}},
{"type":"Feature","geometry":{"type":"Polygon","coordinates":[[[21.190648500213978,41.847656499973766],[21.180551000314026,41.87393200013084],[21.147389000101054,41.852428500287424],[21.067724000081174,41.86965399996606],[21.087783500353925,41.90490050012893],[21.078361000279873,41.91873500030993],[21.04686650029422,41.918512000114376],[21.053325999947432,41.94581550014255],[21.010911999994438,41.96888750017899],[20.966969000309373,41.98318300019758],[20.963402000350857,41.96264000001805],[20.94928900004361,41.944323000353016],[20.96632100020682,41.951703000096686],[20.984853500344165,41.93795950021535],[20.945857000050168,41.88453950009893],[20.9470315001517,41.86668899994874],[20.986073000134382,41.84839250030671],[21.02461900038311,41.85073499991016],[21.024179000130257,41.83169650024653],[21.088031500226652,41.792196500034244],[21.14262050031775,41.842412000006924],[21.190648500213978,41.847656499973766]]]},"properties":{"shapeName":"Brvenitsa","shapeISO":"","shapeID":"65306769B32864383387565","shapeGroup":"MKD","shapeType":"ADM2"}},
{"type":"Feature","geometry":{"type":"Polygon","coordinates":[[[20.770038000226617,41.926087000307255],[20.727972500215238,41.86427700009173],[20.847192500366603,41.81513300009393],[20.93201400012293,41.82354150016997],[20.9470315001517,41.86668899994874],[20.945857000050168,41.88453950009893],[20.864092500184313,41.92034150003012],[20.798347500068466,41.93443250027976],[20.770038000226617,41.926087000307255]]]},"properties":{"shapeName":"Vrapchishte","shapeISO":"","shapeID":"65306769B7593203088025","shapeGroup":"MKD","shapeType":"ADM2"}},
{"type":"Feature","geometry":{"type":"Polygon","coordinates":[[[20.97639249996553,41.64155200012977],[21.052090500238048,41.660564000114235],[21.053660000004466,41.69562099995464],[21.010856500063653,41.777349000328],[21.023050000178596,41.79010599994601],[21.088031500226652,41.792196500034244],[21.024179000130257,41.83169650024653],[21.02461900038311,41.85073499991016],[20.986073000134382,41.84839250030671],[20.9470315001517,41.86668899994874],[20.93201400012293,41.82354150016997],[20.847192500366603,41.81513300009393],[20.727972500215238,41.86427700009173],[20.683482500058588,41.85772800017346],[20.652392999968423,41.874729000071646],[20.622159500280198,41.85279900028672],[20.59428600014926,41.87732750018193],[20.570497500229575,41.87364949991234],[20.571022500194054,41.797863500300004],[20.66791800000783,41.758959000328744],[20.720359000033824,41.79062550023325],[20.818690000121627,41.76830950009166],[20.813218000305074,41.73338550017033],[20.864413000379674,41.73709000015168],[20.855547000096937,41.71698150009807],[20.90199449997306,41.675327500131935],[20.97639249996553,41.64155200012977]]]},"properties":{"shapeName":"Gostivar","shapeISO":"","shapeID":"65306769B11113266730381","shapeGroup":"MKD","shapeType":"ADM2"}},
{"type":"Feature","geometry":{"type":"Polygon","coordinates":[[[21.237886000319158,41.830002000295956],[21.242412000356577,41.881172000243694],[21.21675400004844,41.8941674999651],[21.176655499975634,41.91431700006473],[21.19462000005648,41.97996650022685],[21.149873500280687,42.01281549996771],[21.100651000271505,41.99472850021006],[21.06743250010475,42.00494350012124],[21.06829000009168,42.01925199998992],[21.029702000223434,42.02312200018995],[21.016577000214117,42.005710500269615],[21.05281400028281,41.98374700016191],[21.010911999994438,41.96888750017899],[21.053325999947432,41.94581550014255],[21.04686650029422,41.918512000114376],[21.078361000279873,41.91873500030993],[21.087783500353925,41.90490050012893],[21.067724000081174,41.86965399996606],[21.147389000101054,41.852428500287424],[21.180551000314026,41.87393200013084],[21.190648500213978,41.847656499973766],[21.237886000319158,41.830002000295956]]]},"properties":{"shapeName":"Zhelino","shapeISO":"","shapeID":"65306769B31253280068655","shapeGroup":"MKD","shapeType":"ADM2"}},
{"type":"Feature","geometry":{"type":"Polygon","coordinates":[[[21.149873500280687,42.01281549996771],[21.197395000189452,42.06747150025468],[21.18282700018287,42.093240999986115],[21.158257000230048,42.07682600010986],[21.154182000249396,42.09792800013855],[21.21374150028484,42.110915000113536],[21.160606499994923,42.19751950006251],[21.106305500249174,42.20566150028898],[21.04773250002739,42.16749950035065],[21.136833499982995,42.09773650021961],[21.134642500275465,42.09287700013665],[21.089103000201533,42.045025000251705],[21.036972000128713,42.04171400035034],[21.027941500099974,42.02763799999686],[21.029702000223434,42.02312200018995],[21.06829000009168,42.01925199998992],[21.06743250010475,42.00494350012124],[21.100651000271505,41.99472850021006],[21.149873500280687,42.01281549996771]]]},"properties":{"shapeName":"Jegunovtse","shapeISO":"","shapeID":"65306769B4612015917677","shapeGroup":"MKD","shapeType":"ADM2"}},
{"type":"Feature","geometry":{"type":"Polygon","coordinates":[[[20.729024500190103,41.49346300030858],[20.7453040000897,41.5095235001047],[20.78288900021353,41.4900675002574],[20.81037200033365,41.5838615000541],[20.84005699997214,41.58722949993664],[20.8114045003085,41.62683600034044],[20.781653000042873,41.634493000175866],[20.83514600004382,41.66995649994635],[20.90199449997306,41.675327500131935],[20.855547000096937,41.71698150009807],[20.864413000379674,41.73709000015168],[20.813218000305074,41.73338550017033],[20.818690000121627,41.76830950009166],[20.720359000033824,41.79062550023325],[20.66791800000783,41.758959000328744],[20.571022500194054,41.797863500300004],[20.532062000280334,41.776874000167375],[20.514134000141933,41.728134500053564],[20.516597000275556,41.66227900008791],[20.556305500349133,41.58200200034593],[20.611915500149987,41.55051049997986],[20.676695500048588,41.54375450023497],[20.66022600026472,41.52799100009225],[20.729024500190103,41.49346300030858]]]},"properties":{"shapeName":"Mavrovo and Rostusha","shapeISO":"","shapeID":"65306769B57665907630306","shapeGroup":"MKD","shapeType":"ADM2"}},
{"type":"Feature","geometry":{"type":"Polygon","coordinates":[[[21.134642500275465,42.09287700013665],[21.136833499982995,42.09773650021961],[21.04773250002739,42.16749950035065],[20.92778800025786,42.128272500137854],[20.97337250002039,42.08277950023679],[20.999060000109367,42.0790804999326],[21.027941500099974,42.02763799999686],[21.036972000128713,42.04171400035034],[21.089103000201533,42.045025000251705],[21.134642500275465,42.09287700013665]]]},"properties":{"shapeName":"Teartse","shapeISO":"","shapeID":"65306769B20870628535314","shapeGroup":"MKD","shapeType":"ADM2"}},
{"type":"Feature","geometry":{"type":"Polygon","coordinates":[[[20.963402000350857,41.96264000001805],[20.966969000309373,41.98318300019758],[21.010911999994438,41.96888750017899],[21.05281400028281,41.98374700016191],[21.016577000214117,42.005710500269615],[21.029702000223434,42.02312200018995],[21.027941500099974,42.02763799999686],[20.999060000109367,42.0790804999326],[20.97337250002039,42.08277950023679],[20.92778800025786,42.128272500137854],[20.88927000020507,42.096787499921625],[20.790843000152044,42.083137499947824],[20.760128500165028,42.05384900001573],[20.7481085000036,41.98640000017989],[20.766485500152772,41.96255749991441],[20.84536950015102,42.00947300023933],[20.928257500291554,41.99155749993935],[20.963402000350857,41.96264000001805]]]},"properties":{"shapeName":"Tetovo","shapeISO":"","shapeID":"65306769B82420997238505","shapeGroup":"MKD","shapeType":"ADM2"}},
{"type":"Feature","geometry":{"type":"Polygon","coordinates":[[[22.034183500034217,42.015945500192224],[22.040391500183627,42.02539750004729],[22.079138000109218,42.00843950024122],[22.110969000209487,42.03928950020507],[22.18902650003641,42.05316900007467],[22.26259600025245,42.020194500137976],[22.26851100039094,42.070750000306035],[22.321119500232196,42.0700899999268],[22.361001000247878,42.04198250024599],[22.387847000069446,42.08714800023995],[22.36331950019724,42.114769999967805],[22.30572600007737,42.13298549999046],[22.3041300001496,42.14705950029777],[22.263600000019952,42.13160350005073],[22.224676500060177,42.13655600002965],[22.156413500341195,42.11051550034498],[22.11702650003647,42.14881250024821],[22.075142500163032,42.14806850018053],[22.037895000176906,42.18075400019838],[21.998070000115096,42.18617650022257],[21.995269000281866,42.134959500090375],[21.956440500264314,42.12571850015427],[21.959531500039294,42.09420050007652],[21.928785500225263,42.07406899994223],[21.965220000351156,42.06610950032647],[21.978041500107455,42.03037750021065],[22.00794100018833,42.019330500001296],[22.034183500034217,42.015945500192224]]]},"properties":{"shapeName":"Kratovo","shapeISO":"","shapeID":"65306769B16547433729319","shapeGroup":"MKD","shapeType":"ADM2"}},
{"type":"Feature","geometry":{"type":"Polygon","coordinates":[[[22.451838000211673,42.12580300030399],[22.51041200000686,42.15515849998236],[22.500862500152074,42.19621300006491],[22.46972899994671,42.202583999925906],[22.37847550027193,42.309146000043974],[22.293219999951493,42.34873450004856],[22.29432350021457,42.37378899993124],[22.259930000384387,42.36601250003841],[22.230450500095163,42.336245500314625],[22.197399500193267,42.34067000026006],[22.166941500274902,42.31303450022094],[22.144241000260852,42.319746500300226],[22.132806000098356,42.30724650031278],[22.161380000193372,42.26651800010285],[22.223137000086187,42.249512500100906],[22.209932000030815,42.210177000084215],[22.236691000094762,42.152405000345084],[22.224676500060177,42.13655600002965],[22.263600000019952,42.13160350005073],[22.3041300001496,42.14705950029777],[22.30572600007737,42.13298549999046],[22.36331950019724,42.114769999967805],[22.451838000211673,42.12580300030399]]]},"properties":{"shapeName":"Kriva Palanka","shapeISO":"","shapeID":"65306769B37694813292745","shapeGroup":"MKD","shapeType":"ADM2"}},
{"type":"Feature","geometry":{"type":"Polygon","coordinates":[[[22.00794100018833,42.019330500001296],[21.978041500107455,42.03037750021065],[21.965220000351156,42.06610950032647],[21.928785500225263,42.07406899994223],[21.959531500039294,42.09420050007652],[21.956440500264314,42.12571850015427],[21.93372749996208,42.143516499993254],[21.887325000224152,42.12571850015427],[21.862329000341425,42.1450050001403],[21.821230000132104,42.123597000250605],[21.788031499976864,42.125752500038864],[21.76919400000151,42.154287500134025],[21.76807500028036,42.23412600010742],[21.7966805002023,42.242571500137316],[21.77595949996541,42.2665235002296],[21.727262999943704,42.26319350033982],[21.701839000084806,42.23495150025566],[21.6759345003883,42.24068500025621],[21.70119500007451,42.19022500004187],[21.672222000222437,42.1768005003213],[21.669580000008455,42.1520764999653],[21.64495200006736,42.15379700006573],[21.611245000328083,42.08142249997423],[21.643371000035756,42.073283000255124],[21.638219999976467,42.05833500003013],[21.70076300000617,42.031247000024486],[21.69435050008773,42.00102450014026],[21.741218500216693,41.97359450034285],[21.795702500135057,41.98595800033064],[21.821308500143484,41.960566500321754],[21.87360549999689,42.0107869999601],[21.91939349995505,42.02114650005545],[21.93693550018648,41.98464200011411],[22.00794100018833,42.019330500001296]]]},"properties":{"shapeName":"Kumanovo","shapeISO":"","shapeID":"65306769B55307449205038","shapeGroup":"MKD","shapeType":"ADM2"}},
{"type":"Feature","geometry":{"type":"Polygon","coordinates":[[[21.6759345003883,42.24068500025621],[21.586946500340172,42.26281750021367],[21.520562500329373,42.24731550025495],[21.513824500100228,42.2660229999308],[21.468456999945225,42.28005550018058],[21.440979000390044,42.273346000158874],[21.44309200009778,42.23562249998921],[21.470647000079442,42.238385000283685],[21.520719000340634,42.20407500013054],[21.518333500195304,42.17853350026032],[21.489154000078432,42.15671699994478],[21.512243000045668,42.12616300004893],[21.55910099995558,42.067178000232175],[21.604753999948574,42.05114500017081],[21.611245000328083,42.08142249997423],[21.64495200006736,42.15379700006573],[21.669580000008455,42.1520764999653],[21.672222000222437,42.1768005003213],[21.70119500007451,42.19022500004187],[21.6759345003883,42.24068500025621]]]},"properties":{"shapeName":"Lipkovo","shapeISO":"","shapeID":"65306769B52717367250393","shapeGroup":"MKD","shapeType":"ADM2"}},
{"type":"Feature","geometry":{"type":"Polygon","coordinates":[[[22.224676500060177,42.13655600002965],[22.236691000094762,42.152405000345084],[22.209932000030815,42.210177000084215],[22.223137000086187,42.249512500100906],[22.161380000193372,42.26651800010285],[22.132806000098356,42.30724650031278],[22.06574850029633,42.29994050002705],[22.062045000338067,42.2755915002237],[22.03364900030041,42.263330000339565],[22.060958000005837,42.1928075002329],[22.037895000176906,42.18075400019838],[22.075142500163032,42.14806850018053],[22.11702650003647,42.14881250024821],[22.156413500341195,42.11051550034498],[22.224676500060177,42.13655600002965]]]},"properties":{"shapeName":"Rankovtse","shapeISO":"","shapeID":"65306769B9482621128818","shapeGroup":"MKD","shapeType":"ADM2"}},
{"type":"Feature","geometry":{"type":"Polygon","coordinates":[[[22.037895000176906,42.18075400019838],[22.060958000005837,42.1928075002329],[22.03364900030041,42.263330000339565],[22.062045000338067,42.2755915002237],[22.06574850029633,42.29994050002705],[22.02629100016465,42.29964599998154],[21.94513250033215,42.343516000231574],[21.92517200009379,42.30735550012809],[21.894251000291572,42.30065849994488],[21.838115500065054,42.32360550024676],[21.77595949996541,42.2665235002296],[21.7966805002023,42.242571500137316],[21.76807500028036,42.23412600010742],[21.76919400000151,42.154287500134025],[21.788031499976864,42.125752500038864],[21.821230000132104,42.123597000250605],[21.862329000341425,42.1450050001403],[21.887325000224152,42.12571850015427],[21.93372749996208,42.143516499993254],[21.956440500264314,42.12571850015427],[21.995269000281866,42.134959500090375],[21.998070000115096,42.18617650022257],[22.037895000176906,42.18075400019838]]]},"properties":{"shapeName":"Staro Nagorichane","shapeISO":"","shapeID":"65306769B92481103020830","shapeGroup":"MKD","shapeType":"ADM2"}},
{"type":"Feature","geometry":{"type":"Polygon","coordinates":[[[21.5619694999969,41.94694500008466],[21.53878949999984,41.96906149999985],[21.44982699999983,41.99473349999988],[21.44182799999977,41.98732449999988],[21.552342000113097,41.94133450019465],[21.5619694999969,41.94694500008466]]]},"properties":{"shapeName":"Aerodrom","shapeISO":"","shapeID":"65306769B95040273905804","shapeGroup":"MKD","shapeType":"ADM2"}},
{"type":"Feature","geometry":{"type":"Polygon","coordinates":[[[21.611245000328083,42.08142249997423],[21.604753999948574,42.05114500017081],[21.55910099995558,42.067178000232175],[21.550495500283436,42.007662500312016],[21.60068650014085,42.01915950010545],[21.638219999976467,42.05833500003013],[21.643371000035756,42.073283000255124],[21.611245000328083,42.08142249997423]]]},"properties":{"shapeName":"Arachinovo","shapeISO":"","shapeID":"65306769B96419265045604","shapeGroup":"MKD","shapeType":"ADM2"}},
{"type":"Feature","geometry":{"type":"Polygon","coordinates":[[[21.489154000078432,42.15671699994478],[21.44472050032525,42.13014200007663],[21.450910500059724,42.05393800026912],[21.427971000304343,42.04665250000516],[21.43317049999985,42.0274684999999],[21.393848500043163,42.04886750021383],[21.388845500207683,42.044469500026864],[21.43037749999977,42.022545],[21.45043899999984,42.016892],[21.512243000045668,42.12616300004893],[21.489154000078432,42.15671699994478]]]},"properties":{"shapeName":"Butel","shapeISO":"","shapeID":"65306769B57074060571114","shapeGroup":"MKD","shapeType":"ADM2"}},
{"type":"Feature","geometry":{"type":"Polygon","coordinates":[[[21.512243000045668,42.12616300004893],[21.45043899999984,42.016892],[21.451060499999837,41.999047],[21.44982699999983,41.99473349999988],[21.53878949999984,41.96906149999985],[21.5619694999969,41.94694500008466],[21.570454000026025,41.93311349999406],[21.589840000057865,41.93692050009047],[21.573816000204012,41.97555650016617],[21.529365000047303,41.99084950025202],[21.550495500283436,42.007662500312016],[21.55910099995558,42.067178000232175],[21.512243000045668,42.12616300004893]]]},"properties":{"shapeName":"Gazi Baba","shapeISO":"","shapeID":"65306769B82299046319271","shapeGroup":"MKD","shapeType":"ADM2"}},
{"type":"Feature","geometry":{"type":"Polygon","coordinates":[[[21.36916650017336,42.04514650028415],[21.31832250014157,42.10885050017516],[21.248944000221577,42.09075250010911],[21.24967549999975,42.07165549999993],[21.323189499999813,42.033392499999856],[21.321167999999798,42.00730849999993],[21.36843699999976,41.9980279999999],[21.36916650017336,42.04514650028415]]]},"properties":{"shapeName":"Gjorche Petrov","shapeISO":"","shapeID":"65306769B13037945767817","shapeGroup":"MKD","shapeType":"ADM2"}},
{"type":"Feature","geometry":{"type":"Polygon","coordinates":[[[21.63562549995844,41.83523650003228],[21.649351000324042,41.895732000065856],[21.594323000003175,41.909837500200176],[21.551840000257723,41.89283700031358],[21.514235500134056,41.83564700005452],[21.496594000306242,41.84678700015993],[21.468508500233437,41.82444699991458],[21.493007000336213,41.76034100026839],[21.5199595003651,41.76841550028748],[21.526832500109812,41.75408300031504],[21.57862900011401,41.7493195001973],[21.611381000316328,41.759243500143654],[21.640913500028976,41.798101499942135],[21.63562549995844,41.83523650003228]]]},"properties":{"shapeName":"Zelenikovo","shapeISO":"","shapeID":"65306769B35230400843522","shapeGroup":"MKD","shapeType":"ADM2"}},
{"type":"Feature","geometry":{"type":"Polygon","coordinates":[[[21.638219999976467,42.05833500003013],[21.60068650014085,42.01915950010545],[21.550495500283436,42.007662500312016],[21.529365000047303,41.99084950025202],[21.573816000204012,41.97555650016617],[21.589840000057865,41.93692050009047],[21.63352800015846,41.96572100001212],[21.68260150032931,41.950185000168794],[21.673627000242853,41.981380500005095],[21.69435050008773,42.00102450014026],[21.70076300000617,42.031247000024486],[21.638219999976467,42.05833500003013]]]},"properties":{"shapeName":"Ilinden","shapeISO":"","shapeID":"65306769B96120860372222","shapeGroup":"MKD","shapeType":"ADM2"}},
{"type":"Feature","geometry":{"type":"Polygon","coordinates":[[[21.388845500207683,42.044469500026864],[21.36916650017336,42.04514650028415],[21.36843699999976,41.9980279999999],[21.363892000006153,41.96362550020662],[21.435074500035174,41.965872999935605],[21.426419999999798,41.97798249999991],[21.405617999999834,41.990342999999875],[21.4267194999998,42.01177449999988],[21.43037749999977,42.022545],[21.388845500207683,42.044469500026864]]]},"properties":{"shapeName":"Karposh","shapeISO":"","shapeID":"65306769B48294308075018","shapeGroup":"MKD","shapeType":"ADM2"}},
{"type":"Feature","geometry":{"type":"Polygon","coordinates":[[[21.44182799999977,41.98732449999988],[21.426419999999798,41.97798249999991],[21.435074500035174,41.965872999935605],[21.46268150032534,41.93595550032291],[21.496918500144176,41.927581500143056],[21.494011000103715,41.911139500093945],[21.552342000113097,41.94133450019465],[21.44182799999977,41.98732449999988]]]},"properties":{"shapeName":"Kisela Voda","shapeISO":"","shapeID":"65306769B41644037603367","shapeGroup":"MKD","shapeType":"ADM2"}},
{"type":"Feature","geometry":{"type":"Polygon","coordinates":[[[21.805880000080887,41.91851700022963],[21.821308500143484,41.960566500321754],[21.795702500135057,41.98595800033064],[21.741218500216693,41.97359450034285],[21.69435050008773,42.00102450014026],[21.673627000242853,41.981380500005095],[21.68260150032931,41.950185000168794],[21.63352800015846,41.96572100001212],[21.589840000057865,41.93692050009047],[21.570454000026025,41.93311349999406],[21.594323000003175,41.909837500200176],[21.649351000324042,41.895732000065856],[21.63562549995844,41.83523650003228],[21.674722000309828,41.834514000010515],[21.672561999968128,41.818504500041335],[21.70127600014356,41.83600250015757],[21.73092150021337,41.81839050011077],[21.753573500008468,41.87329100018972],[21.74406950030346,41.89941349996661],[21.805880000080887,41.91851700022963]]]},"properties":{"shapeName":"Petrovets","shapeISO":"","shapeID":"65306769B87468718843329","shapeGroup":"MKD","shapeType":"ADM2"}},
{"type":"Feature","geometry":{"type":"Polygon","coordinates":[[[21.21675400004844,41.8941674999651],[21.28194449996937,41.91995500011156],[21.322803500040706,41.95989800019618],[21.363892000006153,41.96362550020662],[21.36843699999976,41.9980279999999],[21.321167999999798,42.00730849999993],[21.323189499999813,42.033392499999856],[21.24967549999975,42.07165549999993],[21.248944000221577,42.09075250010911],[21.21374150028484,42.110915000113536],[21.154182000249396,42.09792800013855],[21.158257000230048,42.07682600010986],[21.18282700018287,42.093240999986115],[21.197395000189452,42.06747150025468],[21.149873500280687,42.01281549996771],[21.19462000005648,41.97996650022685],[21.176655499975634,41.91431700006473],[21.21675400004844,41.8941674999651]]]},"properties":{"shapeName":"Saraj","shapeISO":"","shapeID":"65306769B68285102273894","shapeGroup":"MKD","shapeType":"ADM2"}},
{"type":"Feature","geometry":{"type":"Polygon","coordinates":[[[21.342815000106004,41.73128999996675],[21.343990000219033,41.81498700032477],[21.360382500026105,41.86055750021413],[21.3854345003008,41.86940750012801],[21.349201000312775,41.88348550007789],[21.34722700021286,41.902344500099254],[21.378920500290295,41.91385850028472],[21.439061000232325,41.901980500249884],[21.46268150032534,41.93595550032291],[21.435074500035174,41.965872999935605],[21.363892000006153,41.96362550020662],[21.322803500040706,41.95989800019618],[21.28194449996937,41.91995500011156],[21.21675400004844,41.8941674999651],[21.242412000356577,41.881172000243694],[21.237886000319158,41.830002000295956],[21.29638300013755,41.75858150016801],[21.342815000106004,41.73128999996675]]]},"properties":{"shapeName":"Sopishte","shapeISO":"","shapeID":"65306769B38681121769962","shapeGroup":"MKD","shapeType":"ADM2"}},
{"type":"Feature","geometry":{"type":"Polygon","coordinates":[[[21.493007000336213,41.76034100026839],[21.468508500233437,41.82444699991458],[21.496594000306242,41.84678700015993],[21.514235500134056,41.83564700005452],[21.551840000257723,41.89283700031358],[21.594323000003175,41.909837500200176],[21.570454000026025,41.93311349999406],[21.5619694999969,41.94694500008466],[21.552342000113097,41.94133450019465],[21.494011000103715,41.911139500093945],[21.496918500144176,41.927581500143056],[21.46268150032534,41.93595550032291],[21.439061000232325,41.901980500249884],[21.378920500290295,41.91385850028472],[21.34722700021286,41.902344500099254],[21.349201000312775,41.88348550007789],[21.3854345003008,41.86940750012801],[21.360382500026105,41.86055750021413],[21.343990000219033,41.81498700032477],[21.342815000106004,41.73128999996675],[21.367397500347003,41.740657500121785],[21.393491000354555,41.71796600031524],[21.404025499988418,41.70378200016955],[21.45260850009097,41.75645350011452],[21.493007000336213,41.76034100026839]]]},"properties":{"shapeName":"Studenichani","shapeISO":"","shapeID":"65306769B72053820604170","shapeGroup":"MKD","shapeType":"ADM2"}},
{"type":"Feature","geometry":{"type":"Polygon","coordinates":[[[21.44982699999983,41.99473349999988],[21.451060499999837,41.999047],[21.4267194999998,42.01177449999988],[21.405617999999834,41.990342999999875],[21.426419999999798,41.97798249999991],[21.44182799999977,41.98732449999988],[21.44982699999983,41.99473349999988]]]},"properties":{"shapeName":"Centar","shapeISO":"","shapeID":"65306769B31528709538806","shapeGroup":"MKD","shapeType":"ADM2"}},
{"type":"Feature","geometry":{"type":"Polygon","coordinates":[[[21.43037749999977,42.022545],[21.4267194999998,42.01177449999988],[21.451060499999837,41.999047],[21.45043899999984,42.016892],[21.43037749999977,42.022545]]]},"properties":{"shapeName":"Chair","shapeISO":"","shapeID":"65306769B39088451231406","shapeGroup":"MKD","shapeType":"ADM2"}},
{"type":"Feature","geometry":{"type":"Polygon","coordinates":[[[21.44309200009778,42.23562249998921],[21.399251000066684,42.24919050032056],[21.333742500008153,42.203759000038936],[21.302389500137593,42.14130800033188],[21.31832250014157,42.10885050017516],[21.36916650017336,42.04514650028415],[21.388845500207683,42.044469500026864],[21.393848500043163,42.04886750021383],[21.407337000350964,42.070747000236864],[21.427971000304343,42.04665250000516],[21.450910500059724,42.05393800026912],[21.44472050032525,42.13014200007663],[21.489154000078432,42.15671699994478],[21.518333500195304,42.17853350026032],[21.520719000340634,42.20407500013054],[21.470647000079442,42.238385000283685],[21.44309200009778,42.23562249998921]]]},"properties":{"shapeName":"Chucher - Sandevo","shapeISO":"","shapeID":"65306769B58175225548943","shapeGroup":"MKD","shapeType":"ADM2"}},
{"type":"Feature","geometry":{"type":"Polygon","coordinates":[[[21.427971000304343,42.04665250000516],[21.407337000350964,42.070747000236864],[21.393848500043163,42.04886750021383],[21.43317049999985,42.0274684999999],[21.427971000304343,42.04665250000516]]]},"properties":{"shapeName":"Shuto Orizari","shapeISO":"","shapeID":"65306769B24962411373352","shapeGroup":"MKD","shapeType":"ADM2"}}
]}