{"type":"FeatureCollection", "features": [
{"type":"Feature","geometry":{"type":"MultiPolygon","coordinates":[[[[14.323298214667489,36.01244937716348],[14.322117931952391,36.01500834784878],[14.318068059231678,36.01483342345739],[14.318023099131665,36.01234374933716],[14.323298214667489,36.01244937716348]]],[[[14.340717290312341,36.0184265232113],[14.33896541608516,36.019691660185686],[14.336775573301054,36.01832531137592],[14.334272895833465,36.019438634415735],[14.330268611885685,36.01680711824736],[14.328454170721614,36.01893258043833],[14.325576091634048,36.018375917309925],[14.324387319836944,36.01250541222879],[14.330456312695617,36.00815285897477],[14.328516737658333,36.00602710609138],[14.329142407025302,36.004154371540665],[14.345222109753706,36.00521728039297],[14.350978267929065,36.00744428104883],[14.348976125955062,36.01316333541564],[14.345034408943832,36.01584558080589],[14.34315740084321,36.015238287956606],[14.340717290312341,36.0184265232113]]],[[[14.2942714889723,36.03471745983302],[14.290888982364322,36.036203377525396],[14.280929526997568,36.036512933644076],[14.276114725197658,36.03889380230521],[14.272188975877043,36.024642704650205],[14.268648250244496,36.02168664634644],[14.271868633053487,36.020108645224866],[14.273002256488951,36.016630210545884],[14.286364141073705,36.01787390500783],[14.28836628304748,36.02036774105801],[14.290488553540001,36.01862659838514],[14.295639664410658,36.020554289776896],[14.301457088130292,36.025300769714875],[14.300459220570474,36.02778400786758],[14.305100724329805,36.02715225047501],[14.304263290757149,36.03018038126385],[14.29829690701547,36.029273654278086],[14.2942714889723,36.03471745983302]]]]},"properties":{"shapeName":"Ghajnsielem","shapeISO":"MT-13","shapeID":"83640313B32595760925513","shapeGroup":"MLT","shapeType":"ADM1"}},
{"type":"Feature","geometry":{"type":"Polygon","coordinates":[[[14.305100724329805,36.02715225047501],[14.313152800685543,36.02733063167727],[14.32063330363593,36.02566283252497],[14.337150974921258,36.032139524753404],[14.336650439427842,36.035630645764684],[14.324262185963732,36.04504072289126],[14.321258973002728,36.049897096896984],[14.315089830428008,36.05084526980693],[14.306065217792309,36.04526938361204],[14.3035825618079,36.036397659379645],[14.2942714889723,36.03471745983302],[14.29829690701547,36.029273654278086],[14.304263290757149,36.03018038126385],[14.305100724329805,36.02715225047501]]]},"properties":{"shapeName":"Qala","shapeISO":"MT-42","shapeID":"83640313B18243789580420","shapeGroup":"MLT","shapeType":"ADM1"}},
{"type":"Feature","geometry":{"type":"MultiPolygon","coordinates":[[[[14.190182842356933,36.044864026168966],[14.190746645536706,36.04604512654771],[14.188875844076108,36.04650098511246],[14.190182842356933,36.044864026168966]]],[[[14.209549091250722,36.05499013660125],[14.206598805207307,36.059513856891726],[14.200392164347932,36.058704581010886],[14.191799993017582,36.061655126434346],[14.19190308274085,36.055499766178],[14.188379312866573,36.051420722497596],[14.191182311630143,36.04931637127612],[14.189820855087817,36.04708245996187],[14.194025353233144,36.046078798008864],[14.190101154964282,36.04313249062466],[14.189362765004262,36.03899970402534],[14.186492494270283,36.0361813585032],[14.193950072695088,36.0323474177531],[14.1966515956791,36.03324843615559],[14.199229320365419,36.03939343518164],[14.206686899393844,36.045858638041636],[14.209549091250722,36.05499013660125]]]]},"properties":{"shapeName":"Saint Lawerence","shapeISO":"MT-50","shapeID":"83640313B37542325651352","shapeGroup":"MLT","shapeType":"ADM1"}},
{"type":"Feature","geometry":{"type":"Polygon","coordinates":[[[14.209549091250722,36.05499013660125],[14.215857800879348,36.055133365191296],[14.21676968626258,36.060193642141655],[14.21424698697615,36.06310694181036],[14.214727501211485,36.06634381428319],[14.20956197452881,36.06993658729402],[14.213686387034898,36.07550344246232],[14.213515107361957,36.08012668182607],[14.20650750715589,36.07890162011978],[14.199886023219449,36.07448460818068],[14.184895585831896,36.07246114031466],[14.183534129289512,36.068868482731716],[14.184735414473948,36.064401706649335],[14.191799993017582,36.061655126434346],[14.200392164347932,36.058704581010886],[14.206598805207307,36.059513856891726],[14.209549091250722,36.05499013660125]]]},"properties":{"shapeName":"Gharb","shapeISO":"MT-14","shapeID":"83640313B59834490853323","shapeGroup":"MLT","shapeType":"ADM1"}},
{"type":"Feature","geometry":{"type":"Polygon","coordinates":[[[14.215857800879348,36.055133365191296],[14.224603982336475,36.051431209608495],[14.237351451835309,36.05316032452214],[14.236670977440099,36.05889880806848],[14.229315908761862,36.06152212012313],[14.227778263388359,36.07051271064927],[14.232426435925902,36.077380549707414],[14.228050535435557,36.081371145374135],[14.226394382955164,36.080102921600485],[14.223319092883173,36.081449185933195],[14.220730723739052,36.07993722593568],[14.213515107361957,36.08012668182607],[14.213686387034898,36.07550344246232],[14.20956197452881,36.06993658729402],[14.214727501211485,36.06634381428319],[14.21424698697615,36.06310694181036],[14.21676968626258,36.060193642141655],[14.215857800879348,36.055133365191296]]]},"properties":{"shapeName":"Ghasri","shapeISO":"MT-16","shapeID":"83640313B97822985297737","shapeGroup":"MLT","shapeType":"ADM1"}},
{"type":"Feature","geometry":{"type":"Polygon","coordinates":[[[14.237351451835309,36.05316032452214],[14.240899501094304,36.049816240363214],[14.247892993960534,36.049489336876036],[14.25156050656193,36.05039639596464],[14.250868566637905,36.056301306035095],[14.253533817780351,36.06058985724559],[14.264212249666116,36.06442159393191],[14.262931215529022,36.072876749607644],[14.257659832020977,36.07152771244779],[14.257147283675522,36.07598113825583],[14.251206528010357,36.078836894303436],[14.249404600233788,36.08139352353783],[14.245600530483216,36.08009903811228],[14.236107174099345,36.08302325038193],[14.228050535435557,36.081371145374135],[14.232426435925902,36.077380549707414],[14.227778263388359,36.07051271064927],[14.229315908761862,36.06152212012313],[14.236670977440099,36.05889880806848],[14.237351451835309,36.05316032452214]]]},"properties":{"shapeName":"Żebbuġ Gozo","shapeISO":"MT-65","shapeID":"83640313B66469281314411","shapeGroup":"MLT","shapeType":"ADM1"}},
{"type":"Feature","geometry":{"type":"Polygon","coordinates":[[[14.1966515956791,36.03324843615559],[14.203915934584757,36.03377480533902],[14.213685285380109,36.030033321120925],[14.224217654215863,36.03688336409766],[14.233145515416254,36.03575156951695],[14.23296588147673,36.04293028267227],[14.224603982336475,36.051431209608495],[14.215857800879348,36.055133365191296],[14.209549091250722,36.05499013660125],[14.206686899393844,36.045858638041636],[14.199229320365419,36.03939343518164],[14.1966515956791,36.03324843615559]]]},"properties":{"shapeName":"Kerċem","shapeISO":"MT-22","shapeID":"83640313B82150771484023","shapeGroup":"MLT","shapeType":"ADM1"}},
{"type":"Feature","geometry":{"type":"Polygon","coordinates":[[[14.213685285380109,36.030033321120925],[14.21540822951539,36.02914412078371],[14.215087886799665,36.025614255321386],[14.221775040992725,36.019817160666435],[14.231354218726949,36.021814654498655],[14.23903111854429,36.0312376704299],[14.239237069455555,36.03243753472492],[14.233145515416254,36.03575156951695],[14.224217654215863,36.03688336409766],[14.213685285380109,36.030033321120925]]]},"properties":{"shapeName":"Munxar","shapeISO":"MT-36","shapeID":"83640313B34539485231325","shapeGroup":"MLT","shapeType":"ADM1"}},
{"type":"Feature","geometry":{"type":"Polygon","coordinates":[[[14.233145515416254,36.03575156951695],[14.239237069455555,36.03243753472492],[14.241879162400153,36.03566283380553],[14.24127590418152,36.03785476309429],[14.23296588147673,36.04293028267227],[14.233145515416254,36.03575156951695]]]},"properties":{"shapeName":"Fontana","shapeISO":"MT-10","shapeID":"83640313B21560607994139","shapeGroup":"MLT","shapeType":"ADM1"}},
{"type":"Feature","geometry":{"type":"Polygon","coordinates":[[[14.224603982336475,36.051431209608495],[14.23296588147673,36.04293028267227],[14.24127590418152,36.03785476309429],[14.241879162400153,36.03566283380553],[14.250886185295712,36.03659194148099],[14.252848284640947,36.04211979741717],[14.252848284640947,36.04465422347073],[14.247892993960534,36.049489336876036],[14.240899501094304,36.049816240363214],[14.237351451835309,36.05316032452214],[14.224603982336475,36.051431209608495]]]},"properties":{"shapeName":"Rabat Gozo","shapeISO":"MT-45","shapeID":"83640313B22954982351017","shapeGroup":"MLT","shapeType":"ADM1"}},
{"type":"Feature","geometry":{"type":"Polygon","coordinates":[[[14.247892993960534,36.049489336876036],[14.252848284640947,36.04465422347073],[14.252848284640947,36.04211979741717],[14.25894230371307,36.040588783674195],[14.26930589136316,36.042614447444066],[14.275563583941675,36.03999270325875],[14.278595830551922,36.04251731351917],[14.27883608766956,36.04863649206504],[14.282663990554909,36.05202412331846],[14.28237959739505,36.061916991151975],[14.2739108179955,36.06598776487738],[14.266903321086545,36.07223458117096],[14.262931215529022,36.072876749607644],[14.264212249666116,36.06442159393191],[14.253533817780351,36.06058985724559],[14.250868566637905,36.056301306035095],[14.25156050656193,36.05039639596464],[14.247892993960534,36.049489336876036]]]},"properties":{"shapeName":"Xgħajra","shapeISO":"MT-63","shapeID":"83640313B35952736247105","shapeGroup":"MLT","shapeType":"ADM1"}},
{"type":"Feature","geometry":{"type":"Polygon","coordinates":[[[14.268648250244496,36.02168664634644],[14.259786907828072,36.026896683315954],[14.23903111854429,36.0312376704299],[14.231354218726949,36.021814654498655],[14.237471834068742,36.01881315122586],[14.244078902582885,36.01959044997534],[14.253088541466013,36.01810062063703],[14.253448927021225,36.01563910176242],[14.25653222566126,36.0133718453107],[14.260096038374797,36.01389008110664],[14.260856852324935,36.01113691441009],[14.264620879236077,36.01421397674886],[14.273002256488951,36.016630210545884],[14.271868633053487,36.020108645224866],[14.268648250244496,36.02168664634644]]]},"properties":{"shapeName":"Sannat","shapeISO":"MT-52","shapeID":"83640313B46213837211089","shapeGroup":"MLT","shapeType":"ADM1"}},
{"type":"Feature","geometry":{"type":"Polygon","coordinates":[[[14.276114725197658,36.03889380230521],[14.275563583941675,36.03999270325875],[14.26930589136316,36.042614447444066],[14.25894230371307,36.040588783674195],[14.252848284640947,36.04211979741717],[14.250886185295712,36.03659194148099],[14.241879162400153,36.03566283380553],[14.239237069455555,36.03243753472492],[14.23903111854429,36.0312376704299],[14.259786907828072,36.026896683315954],[14.268648250244496,36.02168664634644],[14.272188975877043,36.024642704650205],[14.276114725197658,36.03889380230521]]]},"properties":{"shapeName":"Xewkija","shapeISO":"MT-62","shapeID":"83640313B46186135646579","shapeGroup":"MLT","shapeType":"ADM1"}},
{"type":"Feature","geometry":{"type":"Polygon","coordinates":[[[14.2942714889723,36.03471745983302],[14.3035825618079,36.036397659379645],[14.306065217792309,36.04526938361204],[14.315089830428008,36.05084526980693],[14.309684089715688,36.05804096825523],[14.299360545162244,36.05758574302473],[14.291129238971621,36.06521092402636],[14.28237959739505,36.061916991151975],[14.282663990554909,36.05202412331846],[14.27883608766956,36.04863649206504],[14.278595830551922,36.04251731351917],[14.275563583941675,36.03999270325875],[14.276114725197658,36.03889380230521],[14.280929526997568,36.036512933644076],[14.290888982364322,36.036203377525396],[14.2942714889723,36.03471745983302]]]},"properties":{"shapeName":"Nadur","shapeISO":"MT-37","shapeID":"83640313B83418789682728","shapeGroup":"MLT","shapeType":"ADM1"}},
{"type":"Feature","geometry":{"type":"Polygon","coordinates":[[[14.567647569677149,35.84508176110597],[14.569712278587815,35.84861315074801],[14.564018687349346,35.852720935662376],[14.576406940813285,35.861138694109115],[14.57027538101795,35.86448526539215],[14.56433152203266,35.863116230582534],[14.573716562535822,35.86823731364359],[14.563562449769904,35.879390163738606],[14.553155623111138,35.87089549606179],[14.551845855172417,35.867446012708626],[14.543425774123477,35.863574135685894],[14.548532143464229,35.85705685464609],[14.549867398992035,35.84826565479409],[14.567647569677149,35.84508176110597]]]},"properties":{"shapeName":"Marsaskala","shapeISO":"MT-27","shapeID":"83640313B46811785336007","shapeGroup":"MLT","shapeType":"ADM1"}},
{"type":"Feature","geometry":{"type":"MultiPolygon","coordinates":[[[[14.4070739717327,35.96765952457184],[14.402605995907322,35.96738135868526],[14.39934093665039,35.96487782160591],[14.406644358672565,35.96592097170253],[14.4070739717327,35.96765952457184]]],[[[14.391810909671221,35.95761623741174],[14.397110385641952,35.95899697898113],[14.396230538094983,35.96082192308239],[14.398100214132626,35.964471684774594],[14.395295700076076,35.96763170802723],[14.38649722460434,35.96932293612082],[14.382867853472305,35.96807677156437],[14.37824865384971,35.9708806141561],[14.357352274604636,35.966118473235724],[14.352898046397172,35.96687509425669],[14.350093532340452,35.96923392501901],[14.349928560925434,35.97208223049813],[14.362906312246139,35.97964754288927],[14.36692061668009,35.9844533646783],[14.3725846352649,35.98414188509929],[14.377478787245991,35.98690066144479],[14.369945092623368,35.99673357948694],[14.362741340831121,35.99526539355264],[14.364666007340475,35.991439083611965],[14.36065170290658,35.98912541081603],[14.35443777960461,35.991038645099366],[14.351523284604582,35.987879558896964],[14.346794104038679,35.98601074413057],[14.342669818661307,35.987123139204925],[14.338600523755815,35.98578826323376],[14.327492448472753,35.988858444203856],[14.332991495642545,35.98427537649803],[14.332583588543514,35.98258941298775],[14.323636516597276,35.97798204969433],[14.318756295535707,35.971602179545755],[14.322572878673554,35.9684626890712],[14.33058144656951,35.97028563422407],[14.337839211225287,35.96755120071032],[14.336900707174834,35.96319616663777],[14.339129391513211,35.96141697496216],[14.339180646347756,35.95575389058848],[14.341743388074462,35.95376237980514],[14.335336533757697,35.94527715146012],[14.328852797189086,35.94154253236297],[14.330902990570564,35.93896969209305],[14.335746572433948,35.93822272277856],[14.343184930295706,35.93430101806257],[14.344287746570274,35.92892772319203],[14.35792019627695,35.932596655873965],[14.36328196891651,35.936509995914264],[14.37180168904024,35.93895047605207],[14.369670784522327,35.94613354389372],[14.371217391489097,35.94949845142361],[14.391810909671221,35.95761623741174]]]]},"properties":{"shapeName":"Mellieħa","shapeISO":"MT-30","shapeID":"83640313B7434934757616","shapeGroup":"MLT","shapeType":"ADM1"}},
{"type":"Feature","geometry":{"type":"MultiPolygon","coordinates":[[[[14.507201309980871,35.90507534839742],[14.500822415263883,35.90507534839742],[14.499832586773437,35.9032936597244],[14.505386624414825,35.901021948491916],[14.508961005075207,35.90289277424495],[14.507201309980871,35.90507534839742]]],[[[14.500086563889568,35.90743842539092],[14.4912182253276,35.909236875788906],[14.488163737993773,35.90857939278811],[14.485770757994544,35.90407005344116],[14.491960864793953,35.89912976053415],[14.4987519775637,35.90240579344453],[14.500086563889568,35.90743842539092]]]]},"properties":{"shapeName":"Gżira","shapeISO":"MT-12","shapeID":"83640313B93972734358441","shapeGroup":"MLT","shapeType":"ADM1"}},
{"type":"Feature","geometry":{"type":"Polygon","coordinates":[[[14.344287746570274,35.92892772319203],[14.339260732026787,35.92703808816242],[14.339420903384564,35.92518982540463],[14.343705487209036,35.92658413289081],[14.343184930295706,35.92058519347893],[14.340782359926948,35.92006634490667],[14.338019404002807,35.92311453152655],[14.333254306104834,35.920714905090165],[14.333014049067799,35.91507225336227],[14.338660089434597,35.91082378445083],[14.339576058525779,35.90701698709563],[14.342212469017795,35.905748364454894],[14.344100416927972,35.900426550856025],[14.352407388091933,35.89975365222165],[14.35799571404965,35.897184350733596],[14.36011021617611,35.89791844538286],[14.361394021006504,35.900977100293915],[14.366378202986198,35.90061006800346],[14.371135832546202,35.90385212707656],[14.376573122958405,35.90109944376985],[14.382539038677919,35.90550369168682],[14.396784738947474,35.90636983166041],[14.401857959334734,35.908153755987996],[14.401182661165365,35.91089948704416],[14.395914772697154,35.91149796836771],[14.391323282955682,35.914159770624906],[14.388127364635636,35.92458593279213],[14.377932445561555,35.92654282528423],[14.375515871446112,35.9315571421123],[14.379744875699032,35.93730486941496],[14.37180168904024,35.93895047605207],[14.36328196891651,35.936509995914264],[14.35792019627695,35.932596655873965],[14.344287746570274,35.92892772319203]]]},"properties":{"shapeName":"Mġarr","shapeISO":"MT-30","shapeID":"83640313B45218014578174","shapeGroup":"MLT","shapeType":"ADM1"}},
{"type":"Feature","geometry":{"type":"Polygon","coordinates":[[[14.37180168904024,35.93895047605207],[14.379744875699032,35.93730486941496],[14.375515871446112,35.9315571421123],[14.377932445561555,35.92654282528423],[14.388127364635636,35.92458593279213],[14.391323282955682,35.914159770624906],[14.395914772697154,35.91149796836771],[14.401182661165365,35.91089948704416],[14.40997815628657,35.917234302211],[14.399969890060447,35.92538376392588],[14.395295700515703,35.92609624536789],[14.396230537705947,35.92823365044944],[14.406843698901525,35.92858987913388],[14.418391698185815,35.92021808258261],[14.421251202821736,35.920841544372365],[14.423870286477268,35.92422913007249],[14.419821450503775,35.92823365044944],[14.421251202821736,35.93241923558202],[14.418072065929493,35.93844675638519],[14.419189059899907,35.94310761253564],[14.42492151508901,35.949317735427826],[14.424165697717285,35.95174129634103],[14.426750249887107,35.95966464634893],[14.430214649604068,35.95962013536666],[14.427465126019229,35.96162310473301],[14.403324308943922,35.950094208083954],[14.389356729132771,35.94519725641612],[14.384132634321475,35.945286294610014],[14.3831428058308,35.94786835858599],[14.391226405170414,35.953744465509885],[14.391810909671221,35.95761623741174],[14.371217391489097,35.94949845142361],[14.369670784522327,35.94613354389372],[14.37180168904024,35.93895047605207]]]},"properties":{"shapeName":"Saint Paul's Bay","shapeISO":"MT-51","shapeID":"83640313B70016887726547","shapeGroup":"MLT","shapeType":"ADM1"}},
{"type":"Feature","geometry":{"type":"Polygon","coordinates":[[[14.423870286477268,35.92422913007249],[14.431304148555,35.91973099952605],[14.434567223308875,35.90975124899643],[14.441786707284678,35.906439426474776],[14.44760094677315,35.9070116908033],[14.449777510096112,35.90908400152972],[14.448402748148283,35.91346823255344],[14.449709176667966,35.916685146359214],[14.446168760207684,35.92216638553958],[14.44805905811046,35.93030699001224],[14.449949355115052,35.93253333439276],[14.454027176076295,35.932701109927734],[14.46055209541521,35.93420297600528],[14.461720752834026,35.93816915517118],[14.458699713943531,35.941413040443365],[14.455125333283092,35.94185825172809],[14.455015352339785,35.946221189586936],[14.449406324226516,35.94617667102938],[14.443852286585013,35.952141934238455],[14.435658706302092,35.95548050436798],[14.433404096962533,35.9556140442383],[14.42807002120793,35.9493374262903],[14.42492151508901,35.949317735427826],[14.419189059899907,35.94310761253564],[14.418072065929493,35.93844675638519],[14.421251202821736,35.93241923558202],[14.419821450503775,35.92823365044944],[14.423870286477268,35.92422913007249]]]},"properties":{"shapeName":"Naxxar","shapeISO":"MT-38","shapeID":"83640313B55702430610648","shapeGroup":"MLT","shapeType":"ADM1"}},
{"type":"Feature","geometry":{"type":"Polygon","coordinates":[[[14.449709176667966,35.916685146359214],[14.45700188288356,35.916491123208914],[14.462191171198356,35.91319869123424],[14.463240509156947,35.91478977772647],[14.462998851565771,35.91963967093727],[14.459180665757003,35.92175324466166],[14.459136200947,35.928088932201774],[14.454743837161288,35.9305685888512],[14.454027176076295,35.932701109927734],[14.449949355115052,35.93253333439276],[14.44805905811046,35.93030699001224],[14.446168760207684,35.92216638553958],[14.449709176667966,35.916685146359214]]]},"properties":{"shapeName":"Għargħur","shapeISO":"MT-15","shapeID":"83640313B82456448658391","shapeGroup":"MLT","shapeType":"ADM1"}},
{"type":"Feature","geometry":{"type":"Polygon","coordinates":[[[14.46055209541521,35.93420297600528],[14.466962032648098,35.932985552888624],[14.473438449265302,35.924453840729655],[14.482851543819265,35.92519220913272],[14.485521316249446,35.92711520774975],[14.49038008589207,35.92693574231953],[14.491693996962113,35.92970308331553],[14.478716245641408,35.93789578312561],[14.473877084132027,35.93834101422351],[14.46865298932073,35.93682721825809],[14.461720752834026,35.93816915517118],[14.46055209541521,35.93420297600528]]]},"properties":{"shapeName":"Pembroke","shapeISO":"MT-40","shapeID":"83640313B96609834677200","shapeGroup":"MLT","shapeType":"ADM1"}},
{"type":"Feature","geometry":{"type":"Polygon","coordinates":[[[14.4912182253276,35.909236875788906],[14.495799155523855,35.91686298509438],[14.49609323469781,35.92680872011431],[14.49038008589207,35.92693574231953],[14.485521316249446,35.92711520774975],[14.482851543819265,35.92519220913272],[14.485231327499434,35.92112700672601],[14.484168035715015,35.91740861444782],[14.482302633470283,35.916978052340426],[14.481333352428521,35.91466028778433],[14.488163737993773,35.90857939278811],[14.4912182253276,35.909236875788906]]]},"properties":{"shapeName":"Saint Julian's","shapeISO":"MT-48","shapeID":"83640313B85420480605860","shapeGroup":"MLT","shapeType":"ADM1"}},
{"type":"Feature","geometry":{"type":"Polygon","coordinates":[[[14.500086563889568,35.90743842539092],[14.50588497556447,35.90880562914077],[14.511040332286257,35.906300236091624],[14.514133546319101,35.906509021875706],[14.506744201684796,35.915555876686426],[14.50158884496318,35.91799139161532],[14.495799155523855,35.91686298509438],[14.4912182253276,35.909236875788906],[14.500086563889568,35.90743842539092]]]},"properties":{"shapeName":"Sliema","shapeISO":"MT-56","shapeID":"83640313B14575143196718","shapeGroup":"MLT","shapeType":"ADM1"}},
{"type":"Feature","geometry":{"type":"Polygon","coordinates":[[[14.454027176076295,35.932701109927734],[14.454743837161288,35.9305685888512],[14.459136200947,35.928088932201774],[14.459180665757003,35.92175324466166],[14.462998851565771,35.91963967093727],[14.463240509156947,35.91478977772647],[14.474231084942744,35.91328451750053],[14.478706579723223,35.9164300608806],[14.482302633470283,35.916978052340426],[14.484168035715015,35.91740861444782],[14.485231327499434,35.92112700672601],[14.482851543819265,35.92519220913272],[14.473438449265302,35.924453840729655],[14.466962032648098,35.932985552888624],[14.46055209541521,35.93420297600528],[14.454027176076295,35.932701109927734]]]},"properties":{"shapeName":"Swieqi","shapeISO":"MT-57","shapeID":"83640313B16668515866528","shapeGroup":"MLT","shapeType":"ADM1"}},
{"type":"Feature","geometry":{"type":"Polygon","coordinates":[[[14.488163737993773,35.90857939278811],[14.481333352428521,35.91466028778433],[14.482302633470283,35.916978052340426],[14.478706579723223,35.9164300608806],[14.474231084942744,35.91328451750053],[14.463240509156947,35.91478977772647],[14.462191171198356,35.91319869123424],[14.462860308958511,35.904534176235074],[14.471978285307898,35.90267433535945],[14.485770757994544,35.90407005344116],[14.488163737993773,35.90857939278811]]]},"properties":{"shapeName":"Saint John","shapeISO":"MT-49","shapeID":"83640313B38008564196191","shapeGroup":"MLT","shapeType":"ADM1"}},
{"type":"Feature","geometry":{"type":"Polygon","coordinates":[[[14.44760094677315,35.9070116908033],[14.448954783801582,35.90361555575407],[14.453501085677658,35.90251739554526],[14.462860308958511,35.904534176235074],[14.462191171198356,35.91319869123424],[14.45700188288356,35.916491123208914],[14.449709176667966,35.916685146359214],[14.448402748148283,35.91346823255344],[14.449777510096112,35.90908400152972],[14.44760094677315,35.9070116908033]]]},"properties":{"shapeName":"Iklin","shapeISO":"MT-19","shapeID":"83640313B63748346307845","shapeGroup":"MLT","shapeType":"ADM1"}},
{"type":"Feature","geometry":{"type":"Polygon","coordinates":[[[14.512629394050919,35.89092582975144],[14.513589736379458,35.89434462072796],[14.520597233288413,35.89936232075945],[14.52184857202218,35.90138958409125],[14.520722367161795,35.90336611584587],[14.511650161342118,35.9019977529656],[14.504862160912637,35.89706718316535],[14.512629394050919,35.89092582975144]]]},"properties":{"shapeName":"Valletta","shapeISO":"MT-60","shapeID":"83640313B86571698528234","shapeGroup":"MLT","shapeType":"ADM1"}},
{"type":"Feature","geometry":{"type":"Polygon","coordinates":[[[14.491960864793953,35.89912976053415],[14.494076414429514,35.89701425264087],[14.49671108234196,35.89660661323791],[14.500128160558631,35.89913159005539],[14.4987519775637,35.90240579344453],[14.491960864793953,35.89912976053415]]]},"properties":{"shapeName":"Ta' Xbiex","shapeISO":"MT-58","shapeID":"83640313B6781586030718","shapeGroup":"MLT","shapeType":"ADM1"}},
{"type":"Feature","geometry":{"type":"Polygon","coordinates":[[[14.504862160912637,35.89706718316535],[14.498129405766349,35.89064889250642],[14.498347855931684,35.88787579761936],[14.502173991298093,35.88458470180478],[14.512629394050919,35.89092582975144],[14.504862160912637,35.89706718316535]]]},"properties":{"shapeName":"Floriana","shapeISO":"MT-09","shapeID":"83640313B52026072381253","shapeGroup":"MLT","shapeType":"ADM1"}},
{"type":"Feature","geometry":{"type":"Polygon","coordinates":[[[14.494076414429514,35.89701425264087],[14.489742935452455,35.89353998537746],[14.489991520947399,35.8901347816398],[14.493227131231947,35.889626773813404],[14.496641697209839,35.89168737136413],[14.49671108234196,35.89660661323791],[14.494076414429514,35.89701425264087]]]},"properties":{"shapeName":"Pietà","shapeISO":"MT-41","shapeID":"83640313B3347274833420","shapeGroup":"MLT","shapeType":"ADM1"}},
{"type":"Feature","geometry":{"type":"Polygon","coordinates":[[[14.485770757994544,35.90407005344116],[14.471978285307898,35.90267433535945],[14.475726964045464,35.89950565653737],[14.476554690396938,35.895209007644326],[14.483765954285388,35.893108899680385],[14.48566451064886,35.888431496124156],[14.489991520947399,35.8901347816398],[14.489742935452455,35.89353998537746],[14.494076414429514,35.89701425264087],[14.491960864793953,35.89912976053415],[14.485770757994544,35.90407005344116]]]},"properties":{"shapeName":"Msida","shapeISO":"MT-34","shapeID":"83640313B22513233777013","shapeGroup":"MLT","shapeType":"ADM1"}},
{"type":"Feature","geometry":{"type":"Polygon","coordinates":[[[14.498129405766349,35.89064889250642],[14.496641697209839,35.89168737136413],[14.493227131231947,35.889626773813404],[14.489991520947399,35.8901347816398],[14.48566451064886,35.888431496124156],[14.478975386532227,35.884692002731356],[14.485162537230849,35.87899225841005],[14.491589559062902,35.87877911107489],[14.492039337440815,35.88673985492227],[14.498347855931684,35.88787579761936],[14.498129405766349,35.89064889250642]]]},"properties":{"shapeName":"Ħamrun","shapeISO":"MT-18","shapeID":"83640313B26643895520377","shapeGroup":"MLT","shapeType":"ADM1"}},
{"type":"Feature","geometry":{"type":"Polygon","coordinates":[[[14.476554690396938,35.895209007644326],[14.472261772125762,35.89339629016331],[14.470443642051919,35.888060884680385],[14.471450904241294,35.886457572704785],[14.478975386532227,35.884692002731356],[14.48566451064886,35.888431496124156],[14.483765954285388,35.893108899680385],[14.476554690396938,35.895209007644326]]]},"properties":{"shapeName":"Santa Venera","shapeISO":"MT-54","shapeID":"83640313B42870636526721","shapeGroup":"MLT","shapeType":"ADM1"}},
{"type":"Feature","geometry":{"type":"Polygon","coordinates":[[[14.462860308958511,35.904534176235074],[14.453501085677658,35.90251739554526],[14.45910948334324,35.89273185656401],[14.463453090079042,35.888472018595905],[14.470443642051919,35.888060884680385],[14.472261772125762,35.89339629016331],[14.476554690396938,35.895209007644326],[14.475726964045464,35.89950565653737],[14.471978285307898,35.90267433535945],[14.462860308958511,35.904534176235074]]]},"properties":{"shapeName":"Birkirkara","shapeISO":"MT-04","shapeID":"83640313B10359673671978","shapeGroup":"MLT","shapeType":"ADM1"}},
{"type":"Feature","geometry":{"type":"Polygon","coordinates":[[[14.448954783801582,35.90361555575407],[14.445816179745805,35.897817246421994],[14.450216311959764,35.89351945750559],[14.45910948334324,35.89273185656401],[14.453501085677658,35.90251739554526],[14.448954783801582,35.90361555575407]]]},"properties":{"shapeName":"Balzan","shapeISO":"MT-02","shapeID":"83640313B20822579723452","shapeGroup":"MLT","shapeType":"ADM1"}},
{"type":"Feature","geometry":{"type":"Polygon","coordinates":[[[14.434567223308875,35.90975124899643],[14.432326547231128,35.906163584047306],[14.433554613688045,35.899249077822276],[14.43740080418263,35.89745300280077],[14.445816179745805,35.897817246421994],[14.448954783801582,35.90361555575407],[14.44760094677315,35.9070116908033],[14.441786707284678,35.906439426474776],[14.434567223308875,35.90975124899643]]]},"properties":{"shapeName":"Lija","shapeISO":"MT-24","shapeID":"83640313B61939962177338","shapeGroup":"MLT","shapeType":"ADM1"}},
{"type":"Feature","geometry":{"type":"Polygon","coordinates":[[[14.401857959334734,35.908153755987996],[14.413203099862017,35.90146620047415],[14.423147274196992,35.90271282066328],[14.428215196229075,35.899249077822276],[14.433554613688045,35.899249077822276],[14.432326547231128,35.906163584047306],[14.434567223308875,35.90975124899643],[14.431304148555,35.91973099952605],[14.423870286477268,35.92422913007249],[14.421251202821736,35.920841544372365],[14.418391698185815,35.92021808258261],[14.406843698901525,35.92858987913388],[14.396230537705947,35.92823365044944],[14.395295700515703,35.92609624536789],[14.399969890060447,35.92538376392588],[14.40997815628657,35.917234302211],[14.401182661165365,35.91089948704416],[14.401857959334734,35.908153755987996]]]},"properties":{"shapeName":"Mosta","shapeISO":"MT-32","shapeID":"83640313B63712418645070","shapeGroup":"MLT","shapeType":"ADM1"}},
{"type":"Feature","geometry":{"type":"Polygon","coordinates":[[[14.41277387155418,35.88108469495086],[14.412649088831927,35.88279618091269],[14.411322451894705,35.88654419272882],[14.401925715680136,35.88505412248276],[14.404030846473233,35.8831083346044],[14.41277387155418,35.88108469495086]]]},"properties":{"shapeName":"Mdina","shapeISO":"MT-29","shapeID":"83640313B18835650997044","shapeGroup":"MLT","shapeType":"ADM1"}},
{"type":"Feature","geometry":{"type":"Polygon","coordinates":[[[14.411322451894705,35.88654419272882],[14.409368861368534,35.89306150505047],[14.404509114920472,35.893182708827965],[14.396803668247173,35.88922199614461],[14.396325399799935,35.885734684041154],[14.401925715680136,35.88505412248276],[14.411322451894705,35.88654419272882]]]},"properties":{"shapeName":"Mtarfa","shapeISO":"MT-35","shapeID":"83640313B16233505494965","shapeGroup":"MLT","shapeType":"ADM1"}},
{"type":"Feature","geometry":{"type":"Polygon","coordinates":[[[14.339576058525779,35.90701698709563],[14.328141336038641,35.90605209269762],[14.331707651429895,35.9011361790142],[14.329142407025643,35.89677748470581],[14.334210328897314,35.892824042774464],[14.337901778161779,35.886893509708784],[14.336713006364903,35.88121600211883],[14.341718361299854,35.87437203684664],[14.34803762190512,35.870823081331764],[14.353606079270378,35.8698597659768],[14.355170252687515,35.86707115551036],[14.361739781039773,35.86326834672906],[14.369587654425914,35.8684535893716],[14.376268996522413,35.867450930887],[14.391795335959273,35.87015699576659],[14.39529828317211,35.868395990758074],[14.40066103696762,35.86180468145477],[14.4110317732152,35.86158713028192],[14.414674341979321,35.86331984398174],[14.415703763684178,35.866131336599835],[14.415703763684178,35.87166201199625],[14.411506891270676,35.87705186843402],[14.41277387155418,35.88108469495086],[14.404030846473233,35.8831083346044],[14.401925715680136,35.88505412248276],[14.396325399799935,35.885734684041154],[14.396803668247173,35.88922199614461],[14.404509114920472,35.893182708827965],[14.409368861368534,35.89306150505047],[14.412713689819952,35.897624915020174],[14.413203099862017,35.90146620047415],[14.401857959334734,35.908153755987996],[14.396784738947474,35.90636983166041],[14.382539038677919,35.90550369168682],[14.376573122958405,35.90109944376985],[14.371135832546202,35.90385212707656],[14.366378202986198,35.90061006800346],[14.361394021006504,35.900977100293915],[14.36011021617611,35.89791844538286],[14.35799571404965,35.897184350733596],[14.352407388091933,35.89975365222165],[14.344100416927972,35.900426550856025],[14.342212469017795,35.905748364454894],[14.339576058525779,35.90701698709563]]]},"properties":{"shapeName":"Rabat Malta","shapeISO":"MT-46","shapeID":"83640313B41251532632205","shapeGroup":"MLT","shapeType":"ADM1"}},
{"type":"Feature","geometry":{"type":"Polygon","coordinates":[[[14.361739781039773,35.86326834672906],[14.36455529319062,35.859059692310495],[14.373439798200195,35.85332947829181],[14.391167400100926,35.84544705871343],[14.391499531516104,35.84894979505901],[14.40066103696762,35.86180468145477],[14.39529828317211,35.868395990758074],[14.391795335959273,35.87015699576659],[14.376268996522413,35.867450930887],[14.369587654425914,35.8684535893716],[14.361739781039773,35.86326834672906]]]},"properties":{"shapeName":"Dingli","shapeISO":"MT-07","shapeID":"83640313B57354980514439","shapeGroup":"MLT","shapeType":"ADM1"}},
{"type":"Feature","geometry":{"type":"Polygon","coordinates":[[[14.445816179745805,35.897817246421994],[14.43740080418263,35.89745300280077],[14.433554613688045,35.899249077822276],[14.428215196229075,35.899249077822276],[14.423147274196992,35.90271282066328],[14.413203099862017,35.90146620047415],[14.412713689819952,35.897624915020174],[14.409368861368534,35.89306150505047],[14.411322451894705,35.88654419272882],[14.412649088831927,35.88279618091269],[14.429860699623987,35.881248848217865],[14.438496113720305,35.8852180318263],[14.45362107815464,35.88624640637397],[14.45910948334324,35.89273185656401],[14.450216311959764,35.89351945750559],[14.445816179745805,35.897817246421994]]]},"properties":{"shapeName":"Attard","shapeISO":"MT-01","shapeID":"83640313B93037213409403","shapeGroup":"MLT","shapeType":"ADM1"}},
{"type":"Feature","geometry":{"type":"Polygon","coordinates":[[[14.556338288737322,35.88360106049362],[14.544111689702959,35.891621060374575],[14.540508960898762,35.88659358664427],[14.5472691238528,35.88071063912031],[14.552168061101952,35.8805088089469],[14.556338288737322,35.88360106049362]]]},"properties":{"shapeName":"Xagħra","shapeISO":"MT-61","shapeID":"83640313B83261609786955","shapeGroup":"MLT","shapeType":"ADM1"}},
{"type":"Feature","geometry":{"type":"Polygon","coordinates":[[[14.544111689702959,35.891621060374575],[14.539635100783471,35.89431420945499],[14.525915422906849,35.89834866962201],[14.526666226147086,35.89449667691696],[14.523679472261222,35.890276630629614],[14.530989957750023,35.88675761963481],[14.540508960898762,35.88659358664427],[14.544111689702959,35.891621060374575]]]},"properties":{"shapeName":"Kalkara","shapeISO":"MT-21","shapeID":"83640313B96832712848193","shapeGroup":"MLT","shapeType":"ADM1"}},
{"type":"Feature","geometry":{"type":"Polygon","coordinates":[[[14.523679472261222,35.890276630629614],[14.521535737338695,35.88983348760314],[14.51784428807423,35.89241855038796],[14.520030586576468,35.888770571602095],[14.521423137387444,35.88631745048997],[14.526712788001703,35.88135463937232],[14.530989957750023,35.88675761963481],[14.523679472261222,35.890276630629614]]]},"properties":{"shapeName":"Birgu","shapeISO":"MT-03","shapeID":"83640313B14397888835877","shapeGroup":"MLT","shapeType":"ADM1"}},
{"type":"Feature","geometry":{"type":"Polygon","coordinates":[[[14.41277387155418,35.88108469495086],[14.411506891270676,35.87705186843402],[14.415703763684178,35.87166201199625],[14.415703763684178,35.866131336599835],[14.420398278510618,35.86588421502631],[14.425978083947882,35.86261120912479],[14.434958915542381,35.860156366179524],[14.440698144993178,35.86183600404496],[14.446490515182688,35.86678857487095],[14.454249102594872,35.867563731509904],[14.461051152214623,35.86403239935271],[14.462668422837112,35.86567686760941],[14.46253910098983,35.87268819028435],[14.455046218170764,35.874927344679406],[14.451668575160284,35.88064895962464],[14.45362107815464,35.88624640637397],[14.438496113720305,35.8852180318263],[14.429860699623987,35.881248848217865],[14.412649088831927,35.88279618091269],[14.41277387155418,35.88108469495086]]]},"properties":{"shapeName":"Żebbuġ Malta","shapeISO":"MT-66","shapeID":"83640313B87582987818287","shapeGroup":"MLT","shapeType":"ADM1"}},
{"type":"Feature","geometry":{"type":"Polygon","coordinates":[[[14.478975386532227,35.884692002731356],[14.471450904241294,35.886457572704785],[14.470443642051919,35.888060884680385],[14.463453090079042,35.888472018595905],[14.45910948334324,35.89273185656401],[14.45362107815464,35.88624640637397],[14.451668575160284,35.88064895962464],[14.455046218170764,35.874927344679406],[14.46253910098983,35.87268819028435],[14.462668422837112,35.86567686760941],[14.469045276908048,35.8631458013968],[14.480111924237235,35.87407557838765],[14.485162537230849,35.87899225841005],[14.478975386532227,35.884692002731356]]]},"properties":{"shapeName":"Qormi","shapeISO":"MT-43","shapeID":"83640313B1314618030603","shapeGroup":"MLT","shapeType":"ADM1"}},
{"type":"Feature","geometry":{"type":"Polygon","coordinates":[[[14.520030586576468,35.888770571602095],[14.515591878353405,35.889022470121176],[14.517573507258987,35.88456034082208],[14.521423137387444,35.88631745048997],[14.520030586576468,35.888770571602095]]]},"properties":{"shapeName":"Isla","shapeISO":"MT-20","shapeID":"83640313B28463401337071","shapeGroup":"MLT","shapeType":"ADM1"}},
{"type":"Feature","geometry":{"type":"Polygon","coordinates":[[[14.40066103696762,35.86180468145477],[14.391499531516104,35.84894979505901],[14.391167400100926,35.84544705871343],[14.39709010026786,35.843287927668314],[14.399968179355483,35.83826667555854],[14.41711152000778,35.8337523493264],[14.416360716767542,35.8308610166946],[14.419864465222133,35.828121762281796],[14.432332150337913,35.82634626910374],[14.435171479396558,35.83082157066775],[14.442239234507497,35.83164016233633],[14.443939746238584,35.83866247536321],[14.451103537854465,35.84175235031785],[14.457994003113129,35.84956754101103],[14.463821128054462,35.85164188556263],[14.469716458650396,35.85668930863591],[14.471044984310538,35.85985219749108],[14.469045276908048,35.8631458013968],[14.462668422837112,35.86567686760941],[14.461051152214623,35.86403239935271],[14.454249102594872,35.867563731509904],[14.446490515182688,35.86678857487095],[14.440698144993178,35.86183600404496],[14.434958915542381,35.860156366179524],[14.425978083947882,35.86261120912479],[14.420398278510618,35.86588421502631],[14.415703763684178,35.866131336599835],[14.414674341979321,35.86331984398174],[14.4110317732152,35.86158713028192],[14.40066103696762,35.86180468145477]]]},"properties":{"shapeName":"Siġġiewi","shapeISO":"MT-55","shapeID":"83640313B83137316861428","shapeGroup":"MLT","shapeType":"ADM1"}},
{"type":"Feature","geometry":{"type":"Polygon","coordinates":[[[14.469045276908048,35.8631458013968],[14.471044984310538,35.85985219749108],[14.469716458650396,35.85668930863591],[14.463821128054462,35.85164188556263],[14.457994003113129,35.84956754101103],[14.461413175968914,35.84733449717834],[14.467889736316636,35.850834267789764],[14.478755003108006,35.84882546643735],[14.483499909230943,35.850295852099464],[14.49219185226275,35.84226930812525],[14.50475847916789,35.83238314717511],[14.5078684318824,35.83126476843671],[14.508346653321041,35.83392355984398],[14.50411508570295,35.83939316169938],[14.500216078939673,35.83965330380897],[14.497824733110576,35.84322879900901],[14.497771592371805,35.849044019467954],[14.495627319302685,35.85224483938674],[14.494423708750105,35.8557632991583],[14.495592810396715,35.8592258113801],[14.495413079707362,35.86251396272257],[14.493548223678829,35.864441307748564],[14.483582942309113,35.86886910065425],[14.482088350492234,35.87344444999826],[14.480111924237235,35.87407557838765],[14.469045276908048,35.8631458013968]]]},"properties":{"shapeName":"Luqa","shapeISO":"MT-25","shapeID":"83640313B32902396036385","shapeGroup":"MLT","shapeType":"ADM1"}},
{"type":"Feature","geometry":{"type":"Polygon","coordinates":[[[14.498347855931684,35.88787579761936],[14.492039337440815,35.88673985492227],[14.491589559062902,35.87877911107489],[14.485162537230849,35.87899225841005],[14.480111924237235,35.87407557838765],[14.482088350492234,35.87344444999826],[14.483582942309113,35.86886910065425],[14.493548223678829,35.864441307748564],[14.500588065908858,35.87596077999365],[14.500770916269346,35.87999298880811],[14.499261907878008,35.88065836781635],[14.502173991298093,35.88458470180478],[14.498347855931684,35.88787579761936]]]},"properties":{"shapeName":"Marsa","shapeISO":"MT-26","shapeID":"83640313B71214708633944","shapeGroup":"MLT","shapeType":"ADM1"}},
{"type":"Feature","geometry":{"type":"Polygon","coordinates":[[[14.432332150337913,35.82634626910374],[14.439197648658364,35.82284589478428],[14.44489374257438,35.82255977040637],[14.449738926151383,35.81950771286864],[14.454544066888957,35.819540182183346],[14.45893650721223,35.82192890969446],[14.463156865224278,35.82983332451187],[14.467391539643245,35.83131434249691],[14.466924370293782,35.83607214080604],[14.465986889847613,35.83781466107547],[14.451103537854465,35.84175235031785],[14.443939746238584,35.83866247536321],[14.442239234507497,35.83164016233633],[14.435171479396558,35.83082157066775],[14.432332150337913,35.82634626910374]]]},"properties":{"shapeName":"Qrendi","shapeISO":"MT-44","shapeID":"83640313B82959541944820","shapeGroup":"MLT","shapeType":"ADM1"}},
{"type":"Feature","geometry":{"type":"Polygon","coordinates":[[[14.451103537854465,35.84175235031785],[14.465986889847613,35.83781466107547],[14.466924370293782,35.83607214080604],[14.470048590065403,35.83972869276363],[14.477550078462059,35.840403881677105],[14.480427694315381,35.84518071451964],[14.478755003108006,35.84882546643735],[14.467889736316636,35.850834267789764],[14.461413175968914,35.84733449717834],[14.457994003113129,35.84956754101103],[14.451103537854465,35.84175235031785]]]},"properties":{"shapeName":"Mqabba","shapeISO":"MT-33","shapeID":"83640313B29119193634160","shapeGroup":"MLT","shapeType":"ADM1"}},
{"type":"Feature","geometry":{"type":"Polygon","coordinates":[[[14.478755003108006,35.84882546643735],[14.480427694315381,35.84518071451964],[14.477550078462059,35.840403881677105],[14.484152152782713,35.83853214105028],[14.49219185226275,35.84226930812525],[14.483499909230943,35.850295852099464],[14.478755003108006,35.84882546643735]]]},"properties":{"shapeName":"Kirkop","shapeISO":"MT-23","shapeID":"83640313B10698043212678","shapeGroup":"MLT","shapeType":"ADM1"}},
{"type":"Feature","geometry":{"type":"Polygon","coordinates":[[[14.49219185226275,35.84226930812525],[14.484152152782713,35.83853214105028],[14.484012320845409,35.835637598029905],[14.480341340165467,35.831424744524895],[14.48635902848963,35.82601324757712],[14.489692032416883,35.825902945816836],[14.496051949220032,35.83017703054708],[14.501119475993335,35.82857772247354],[14.50475847916789,35.83238314717511],[14.49219185226275,35.84226930812525]]]},"properties":{"shapeName":"Safi","shapeISO":"MT-47","shapeID":"83640313B72392664646104","shapeGroup":"MLT","shapeType":"ADM1"}},
{"type":"Feature","geometry":{"type":"Polygon","coordinates":[[[14.50475847916789,35.83238314717511],[14.501119475993335,35.82857772247354],[14.496051949220032,35.83017703054708],[14.489692032416883,35.825902945816836],[14.48635902848963,35.82601324757712],[14.480341340165467,35.831424744524895],[14.484012320845409,35.835637598029905],[14.484152152782713,35.83853214105028],[14.477550078462059,35.840403881677105],[14.470048590065403,35.83972869276363],[14.466924370293782,35.83607214080604],[14.467391539643245,35.83131434249691],[14.463156865224278,35.82983332451187],[14.45893650721223,35.82192890969446],[14.475423905000241,35.813916704727376],[14.481805732542398,35.81503290840658],[14.500661899281738,35.81262849560562],[14.501172616732276,35.82155796440787],[14.508878063405518,35.81970511355502],[14.513926459656773,35.82147178669777],[14.509776081262942,35.83067830855265],[14.5078684318824,35.83126476843671],[14.50475847916789,35.83238314717511]]]},"properties":{"shapeName":"Żurrieq","shapeISO":"MT-68","shapeID":"83640313B26470162845875","shapeGroup":"MLT","shapeType":"ADM1"}},
{"type":"Feature","geometry":{"type":"Polygon","coordinates":[[[14.495413079707362,35.86251396272257],[14.503423746325211,35.86399478778071],[14.5073006585975,35.87043115107002],[14.510424309236441,35.87246233721834],[14.515568952603246,35.87749866270212],[14.515813060691983,35.883307986201885],[14.511212192785422,35.885829008038684],[14.500770916269346,35.87999298880811],[14.500588065908858,35.87596077999365],[14.493548223678829,35.864441307748564],[14.495413079707362,35.86251396272257]]]},"properties":{"shapeName":"Paola","shapeISO":"MT-39","shapeID":"83640313B27023824805393","shapeGroup":"MLT","shapeType":"ADM1"}},
{"type":"Feature","geometry":{"type":"Polygon","coordinates":[[[14.521423137387444,35.88631745048997],[14.517573507258987,35.88456034082208],[14.515813060691983,35.883307986201885],[14.515568952603246,35.87749866270212],[14.521131804329684,35.87556797917722],[14.526129272342985,35.87741679581035],[14.526712788001703,35.88135463937232],[14.521423137387444,35.88631745048997]]]},"properties":{"shapeName":"Bormla","shapeISO":"MT-06","shapeID":"83640313B42587750659802","shapeGroup":"MLT","shapeType":"ADM1"}},
{"type":"Feature","geometry":{"type":"Polygon","coordinates":[[[14.495592810396715,35.8592258113801],[14.510397363879235,35.85821262829478],[14.514042316557209,35.86044325669906],[14.51692551458774,35.86298391284322],[14.517311924962769,35.868554532215],[14.514216231014643,35.87149250674071],[14.510424309236441,35.87246233721834],[14.5073006585975,35.87043115107002],[14.503423746325211,35.86399478778071],[14.495413079707362,35.86251396272257],[14.495592810396715,35.8592258113801]]]},"properties":{"shapeName":"Tarxien","shapeISO":"MT-59","shapeID":"83640313B59486877017515","shapeGroup":"MLT","shapeType":"ADM1"}},
{"type":"Feature","geometry":{"type":"Polygon","coordinates":[[[14.510424309236441,35.87246233721834],[14.514216231014643,35.87149250674071],[14.517311924962769,35.868554532215],[14.51692551458774,35.86298391284322],[14.52018877180916,35.86682243675989],[14.5257632399734,35.86862314398746],[14.528728456937301,35.87391234410234],[14.528361721519275,35.876459461327386],[14.526129272342985,35.87741679581035],[14.521131804329684,35.87556797917722],[14.515568952603246,35.87749866270212],[14.510424309236441,35.87246233721834]]]},"properties":{"shapeName":"Fgura","shapeISO":"MT-08","shapeID":"83640313B47184915596760","shapeGroup":"MLT","shapeType":"ADM1"}},
{"type":"Feature","geometry":{"type":"Polygon","coordinates":[[[14.495627319302685,35.85224483938674],[14.509835599555629,35.85285459669291],[14.510397363879235,35.85821262829478],[14.495592810396715,35.8592258113801],[14.494423708750105,35.8557632991583],[14.495627319302685,35.85224483938674]]]},"properties":{"shapeName":"Saint Lucia's","shapeISO":"MT-53","shapeID":"83640313B77690414343492","shapeGroup":"MLT","shapeType":"ADM1"}},
{"type":"Feature","geometry":{"type":"Polygon","coordinates":[[[14.50411508570295,35.83939316169938],[14.510077365513837,35.849795577521434],[14.509835599555629,35.85285459669291],[14.495627319302685,35.85224483938674],[14.497771592371805,35.849044019467954],[14.497824733110576,35.84322879900901],[14.500216078939673,35.83965330380897],[14.50411508570295,35.83939316169938]]]},"properties":{"shapeName":"Gudja","shapeISO":"MT-11","shapeID":"83640313B29565670809924","shapeGroup":"MLT","shapeType":"ADM1"}},
{"type":"Feature","geometry":{"type":"Polygon","coordinates":[[[14.5078684318824,35.83126476843671],[14.509776081262942,35.83067830855265],[14.514522192708625,35.832087162934954],[14.51780813838991,35.83733350585487],[14.526266093895117,35.83977307305793],[14.52621341751967,35.843231829753904],[14.526162000311217,35.846607908919964],[14.514042316557209,35.86044325669906],[14.510397363879235,35.85821262829478],[14.509835599555629,35.85285459669291],[14.510077365513837,35.849795577521434],[14.50411508570295,35.83939316169938],[14.508346653321041,35.83392355984398],[14.5078684318824,35.83126476843671]]]},"properties":{"shapeName":"Għaxaq","shapeISO":"MT-17","shapeID":"83640313B8600633511290","shapeGroup":"MLT","shapeType":"ADM1"}},
{"type":"Feature","geometry":{"type":"Polygon","coordinates":[[[14.500661899281738,35.81262849560562],[14.50608170397686,35.80879211373389],[14.513402035569356,35.806356548619476],[14.537329978418654,35.807409432287216],[14.550128827404649,35.81635203797873],[14.548814921734333,35.81706232943975],[14.54355929905256,35.81498217221622],[14.546249677330081,35.81833069124309],[14.542558228065559,35.82101955124955],[14.539179613484407,35.82041076073341],[14.542433094192177,35.817671145634165],[14.541432023205175,35.81594615429083],[14.529824605110946,35.82139091117176],[14.529424176716134,35.82275457860544],[14.533868931898382,35.827105170476955],[14.531506404369168,35.8313581305066],[14.538794201154417,35.83272162669027],[14.544212244547396,35.8293981338353],[14.534807873894522,35.83991577538376],[14.52621341751967,35.843231829753904],[14.526266093895117,35.83977307305793],[14.51780813838991,35.83733350585487],[14.514522192708625,35.832087162934954],[14.509776081262942,35.83067830855265],[14.513926459656773,35.82147178669777],[14.508878063405518,35.81970511355502],[14.501172616732276,35.82155796440787],[14.500661899281738,35.81262849560562]]]},"properties":{"shapeName":"Birżebbuġa","shapeISO":"MT-05","shapeID":"83640313B26944319289369","shapeGroup":"MLT","shapeType":"ADM1"}},
{"type":"Feature","geometry":{"type":"Polygon","coordinates":[[[14.543425774123477,35.863574135685894],[14.536639453419014,35.86440238287531],[14.53213385250018,35.867246999486156],[14.5257632399734,35.86862314398746],[14.52018877180916,35.86682243675989],[14.51692551458774,35.86298391284322],[14.514042316557209,35.86044325669906],[14.526162000311217,35.846607908919964],[14.540306803108535,35.84813940328826],[14.546331733650561,35.84537903676397],[14.549867398992035,35.84826565479409],[14.548532143464229,35.85705685464609],[14.543425774123477,35.863574135685894]]]},"properties":{"shapeName":"Żejtun","shapeISO":"MT-67","shapeID":"83640313B88881158567089","shapeGroup":"MLT","shapeType":"ADM1"}},
{"type":"Feature","geometry":{"type":"Polygon","coordinates":[[[14.563562449769904,35.879390163738606],[14.556338288737322,35.88360106049362],[14.552168061101952,35.8805088089469],[14.5472691238528,35.88071063912031],[14.540508960898762,35.88659358664427],[14.530989957750023,35.88675761963481],[14.526712788001703,35.88135463937232],[14.526129272342985,35.87741679581035],[14.528361721519275,35.876459461327386],[14.528728456937301,35.87391234410234],[14.5257632399734,35.86862314398746],[14.53213385250018,35.867246999486156],[14.536639453419014,35.86440238287531],[14.543425774123477,35.863574135685894],[14.551845855172417,35.867446012708626],[14.553155623111138,35.87089549606179],[14.563562449769904,35.879390163738606]]]},"properties":{"shapeName":"Żabbar","shapeISO":"MT-64","shapeID":"83640313B20015641298084","shapeGroup":"MLT","shapeType":"ADM1"}},
{"type":"Feature","geometry":{"type":"Polygon","coordinates":[[[14.549867398992035,35.84826565479409],[14.546331733650561,35.84537903676397],[14.540306803108535,35.84813940328826],[14.526162000311217,35.846607908919964],[14.52621341751967,35.843231829753904],[14.534807873894522,35.83991577538376],[14.544212244547396,35.8293981338353],[14.545961869421376,35.83356568401513],[14.54476058423694,35.838337685379656],[14.547923968555892,35.83979844474169],[14.554010480156762,35.83262423488276],[14.558775578054906,35.820546724353676],[14.561538533979046,35.81947524354064],[14.560937891386857,35.822851982525776],[14.56358071879248,35.82876093010219],[14.561778791015854,35.830254330721004],[14.562856744254532,35.833348827067255],[14.55942267034095,35.83561345962181],[14.563215528096464,35.84249006687679],[14.571401585878334,35.839230374852775],[14.57190212137192,35.84105629930474],[14.567647569677149,35.84508176110597],[14.549867398992035,35.84826565479409]]]},"properties":{"shapeName":"Marsaxlokk","shapeISO":"MT-28","shapeID":"83640313B51941763183850","shapeGroup":"MLT","shapeType":"ADM1"}}
]}