{"type":"FeatureCollection", "features": [
{"type":"Feature","geometry":{"type":"Polygon","coordinates":[[[145.689587978004,15.1202845162976],[145.705058,15.112078],[145.707522,15.105858],[145.74065,15.105097],[145.746845,15.092905],[145.750483,15.093396],[145.756998,15.121502],[145.745665,15.127907],[145.741437,15.140886],[145.749535,15.159106],[145.761537,15.163634],[145.76748,15.161904],[145.774571,15.151505],[145.791859,15.149505],[145.788176,15.154255],[145.79632,15.166772],[145.778111,15.189359],[145.782285,15.201745],[145.77841,15.210123],[145.810227,15.240725],[145.807411,15.244321],[145.812228,15.25221],[145.810588,15.258421],[145.828157,15.261527],[145.829862,15.273199],[145.818572,15.286726],[145.809555,15.289789],[145.777226,15.252973],[145.739099,15.232349],[145.739965,15.227398],[145.731998,15.224755],[145.729442,15.218659],[145.716378,15.219216],[145.712924,15.178543],[145.700142,15.156617],[145.694018,15.124214],[145.689587978004,15.1202845162976]]]},"properties":{"shapeName":"Saipan","shapeISO":"","shapeID":"39175420B42755231479115","shapeGroup":"MNP","shapeType":"ADM2"}},
{"type":"Feature","geometry":{"type":"MultiPolygon","coordinates":[[[[145.58187,15.017561],[145.588645,15.00943],[145.584613,14.995763],[145.591459,14.989919],[145.608112,14.990945],[145.61352,14.96666],[145.617597,14.961695],[145.62629,14.961485],[145.631824,14.952783],[145.628465,14.940506],[145.632103,14.925069],[145.641247,14.923496],[145.653832,14.944045],[145.665889,14.948403],[145.662098,14.964641],[145.673791,15.00648],[145.665926,15.01818],[145.655799,15.020343],[145.648621,15.033912],[145.648031,15.046792],[145.659196,15.057998],[145.65511,15.067636],[145.656978,15.084056],[145.64518,15.101164],[145.596623,15.053826],[145.596805,15.040794],[145.588519,15.036422],[145.58187,15.017561]]],[[[145.537222,14.845625],[145.54322,14.840512],[145.562786,14.843855],[145.577436,14.854867],[145.578124,14.863716],[145.572913,14.866469],[145.545088,14.855261],[145.537222,14.845625]]]]},"properties":{"shapeName":"Tinian","shapeISO":"","shapeID":"39175420B24162802066299","shapeGroup":"MNP","shapeType":"ADM2"}},
{"type":"Feature","geometry":{"type":"Polygon","coordinates":[[[145.121162,14.120639],[145.122758,14.117438],[145.128188,14.120791],[145.14423,14.139576],[145.164582,14.130235],[145.169892,14.110571],[145.184148,14.116175],[145.198598,14.112737],[145.212465,14.11529],[145.230851,14.131317],[145.230122,14.140961],[145.241077,14.151374],[145.260544,14.154717],[145.269885,14.152161],[145.28335,14.160675],[145.290003,14.189997],[145.275588,14.196307],[145.241273,14.20024],[145.196439,14.174087],[145.173825,14.167007],[145.159675,14.168084],[145.121162,14.120639]]]},"properties":{"shapeName":"Rota","shapeISO":"","shapeID":"39175420B64217482742742","shapeGroup":"MNP","shapeType":"ADM2"}},
{"type":"Feature","geometry":{"type":"MultiPolygon","coordinates":[[[[146.051302,16.00657],[146.063834,16.02244],[146.063048,16.027651],[146.051302,16.00657]]],[[[145.831668,17.313305],[145.832581,17.30387],[145.844675,17.296594],[145.852996,17.309667],[145.848282,17.312822],[145.849524,17.317603],[145.836121,17.321273],[145.831668,17.313305]]],[[[145.814982,17.604046],[145.815768,17.591756],[145.826787,17.579716],[145.83909,17.579469],[145.850476,17.591756],[145.848116,17.608668],[145.837596,17.62027],[145.822356,17.618008],[145.814982,17.604046]]],[[[145.766704,16.705255],[145.776046,16.693979],[145.787215,16.691949],[145.789187,16.704741],[145.781164,16.717076],[145.766704,16.705255]]],[[[145.707909,18.047577],[145.711154,18.044627],[145.728998,18.049886],[145.738782,18.058392],[145.767394,18.10303],[145.784773,18.109468],[145.794919,18.102671],[145.794358,18.108025],[145.809476,18.13233],[145.806435,18.156624],[145.802003,18.162417],[145.777429,18.168735],[145.759171,18.159772],[145.755624,18.147092],[145.762437,18.135615],[145.756529,18.099574],[145.73812,18.085215],[145.729121,18.085275],[145.716955,18.075795],[145.707909,18.047577]]],[[[145.636034,18.778871],[145.639718,18.753554],[145.651365,18.734985],[145.662655,18.726994],[145.667408,18.725081],[145.67644,18.737686],[145.690582,18.740387],[145.692365,18.756704],[145.699851,18.761543],[145.69902,18.780221],[145.695692,18.791585],[145.67751,18.807672],[145.66111,18.812847],[145.65291,18.810822],[145.641145,18.795185],[145.636034,18.778871]]],[[[145.632698,16.366471],[145.633596,16.350146],[145.647191,16.332532],[145.656964,16.335778],[145.662817,16.332719],[145.702461,16.333476],[145.714283,16.337665],[145.723837,16.351229],[145.722706,16.359273],[145.703519,16.369656],[145.648364,16.370595],[145.632698,16.366471]]],[[[145.389569,19.692076],[145.390074,19.684593],[145.399742,19.676354],[145.411008,19.678708],[145.418065,19.69068],[145.415094,19.701309],[145.401569,19.706921],[145.389569,19.692076]]],[[[145.227716,20.01283],[145.23873,20.020173],[145.23345,20.028257],[145.227716,20.01283]]],[[[145.215341,20.033108],[145.229721,20.03188],[145.220659,20.035577],[145.215341,20.033108]]],[[[145.207736,20.01971],[145.210317,20.012398],[145.216695,20.010792],[145.210588,20.020268],[145.210707,20.030875],[145.207736,20.01971]]],[[[144.886921,20.544166],[144.887511,20.538169],[144.894295,20.536497],[144.902911,20.545739],[144.893509,20.553802],[144.887413,20.550066],[144.886921,20.544166]]]]},"properties":{"shapeName":"Northern Islands","shapeISO":"","shapeID":"39175420B77088391070908","shapeGroup":"MNP","shapeType":"ADM2"}}
]}