{"type":"FeatureCollection", "features": [
{"type":"Feature","geometry":{"type":"Polygon","coordinates":[[[-15.23970000099996,19.0162],[-14.509500000999935,19.000800001000073],[-14.2151,18.994000001000074],[-14.206800000999976,19.4321],[-14.139799998999933,19.5858],[-14.1162,20.709899999000072],[-14.148600000999977,20.8992],[-15.107899998999926,20.3114],[-15.5285,20.62099999900005],[-15.5887,19.9866],[-14.499199998999927,20],[-14.4016,19.811899999000048],[-14.425899998999967,19.7568],[-14.373,19.6918],[-14.643100000999937,19.483200001000057],[-14.740499998999951,19.456599999000048],[-14.9966,19.1558],[-15.23970000099996,19.0162]]]},"properties":{"shapeName":"Akjoujt","shapeISO":"","shapeID":"47542326B26316239883363","shapeGroup":"MRT","shapeType":"ADM2"}},
{"type":"Feature","geometry":{"type":"Polygon","coordinates":[[[-12.824899998999967,16.9166],[-13.7556,17.7861],[-13.951199998999982,17.6304],[-14.331,17.052200001000074],[-14.556,16.91699999900004],[-14.5448,16.862600001000033],[-14.657,16.804099999000073],[-13.987600000999976,16.66510000100004],[-13.7698,16.66609999900004],[-13.750399998999967,16.4712],[-13.7129,16.36329999900005],[-13.6261,16.29539999900004],[-13.2228,16.404100001000074],[-13.1196,16.583699999000032],[-12.929199998999934,16.63529999900004],[-12.8343,16.8321],[-12.824899998999967,16.9166]]]},"properties":{"shapeName":"Aleg","shapeISO":"","shapeID":"47542326B53604404291210","shapeGroup":"MRT","shapeType":"ADM2"}},
{"type":"Feature","geometry":{"type":"Polygon","coordinates":[[[-6.805600000999959,16.0426],[-7.1439,16.1021],[-7.181700000999967,16.1526],[-7.826300000999936,15.789899999000056],[-7.659,15.6413],[-7.659600000999944,15.5066],[-6.2577,15.500499999000056],[-6.2557,16.00070000100004],[-6.805600000999959,16.0426]]]},"properties":{"shapeName":"Amourj","shapeISO":"","shapeID":"47542326B9245180339851","shapeGroup":"MRT","shapeType":"ADM2"}},
{"type":"Feature","geometry":{"type":"Polygon","coordinates":[[[-14.2151,18.994000001000074],[-13.201199998999982,18.9945],[-12.664899998999942,18.5733],[-12.339500000999976,18.8795],[-11.8715,19.1973],[-12.0469,19.4345],[-12.246400000999927,19.4681],[-12.784299998999927,19.9452],[-12.772399998999958,20.118799999000032],[-12.8829,20.478399999000032],[-13.0658,20.408199999000033],[-13.453199998999935,19.902899999000056],[-13.896500000999936,19.7193],[-14.206800000999976,19.4321],[-14.2151,18.994000001000074]]]},"properties":{"shapeName":"Aoujeft","shapeISO":"","shapeID":"47542326B38912627875653","shapeGroup":"MRT","shapeType":"ADM2"}},
{"type":"Feature","geometry":{"type":"Polygon","coordinates":[[[-15.94879999899996,18.029899999000065],[-15.935799998999983,18.071],[-15.9652,18.0791],[-15.97000000099996,18.068299999000033],[-15.973099998999942,18.0319],[-15.94879999899996,18.029899999000065]]]},"properties":{"shapeName":"Arafat","shapeISO":"","shapeID":"47542326B30050302787661","shapeGroup":"MRT","shapeType":"ADM2"}},
{"type":"Feature","geometry":{"type":"Polygon","coordinates":[[[-14.206800000999976,19.4321],[-13.896500000999936,19.7193],[-13.453199998999935,19.902899999000056],[-13.0658,20.408199999000033],[-12.8829,20.478399999000032],[-12.7302,20.5989],[-12.5277,20.58709999900003],[-12.4618,21.0502],[-12.419199998999943,21.2883],[-13.017200000999935,21.46749999900004],[-13,21.3333],[-13.6677,21.3334],[-13.6757,21.199899999000024],[-14.148600000999977,20.8992],[-14.1162,20.709899999000072],[-14.139799998999933,19.5858],[-14.206800000999976,19.4321]]]},"properties":{"shapeName":"Atar","shapeISO":"","shapeID":"47542326B12791497255333","shapeGroup":"MRT","shapeType":"ADM2"}},
{"type":"Feature","geometry":{"type":"Polygon","coordinates":[[[-13.987600000999976,16.66510000100004],[-13.948999998999966,16.6062],[-14.171800000999951,16.4957],[-13.9684,16.3335],[-13.9882,16.27999999900004],[-13.953199998999935,16.26569999900005],[-13.886,16.288699999000073],[-13.750399998999967,16.4712],[-13.7698,16.66609999900004],[-13.987600000999976,16.66510000100004]]]},"properties":{"shapeName":"Bababe","shapeISO":"","shapeID":"47542326B74593484893275","shapeGroup":"MRT","shapeType":"ADM2"}},
{"type":"Feature","geometry":{"type":"Polygon","coordinates":[[[-12.8343,16.8321],[-12.839299998999934,16.674799999000072],[-12.7842,16.654100001000074],[-12.734099998999966,16.5427],[-12.7675,16.460200001000032],[-12.6708,16.4892],[-12.4329,16.4429],[-12.4352,16.2031],[-12.301200000999927,16.2598],[-12.2422,16.2256],[-12.2206,16.1282],[-12.009,16.049900001000026],[-12.032600000999935,16.2455],[-11.9451,16.441],[-12.0319,16.4648],[-12.039899998999942,16.5408],[-12.0736,16.5778],[-12.1052,16.5273],[-12.088500000999943,16.7356],[-12.148800000999927,16.7412],[-12.2015,16.907],[-12.28669999899995,16.969599999000025],[-12.255999998999926,17.07279999900004],[-12.286499998999943,17.2271],[-12.350400000999969,17.249500001000058],[-12.72770000099996,17.0634],[-12.824899998999967,16.9166],[-12.8343,16.8321]]]},"properties":{"shapeName":"Barkeol","shapeISO":"","shapeID":"47542326B92526973547543","shapeGroup":"MRT","shapeType":"ADM2"}},
{"type":"Feature","geometry":{"type":"Polygon","coordinates":[[[-6.2577,15.500499999000056],[-5.5,15.5],[-5.3333,16.3333],[-5.6096,16.4893],[-5.9562,16.29780000100004],[-6.7841,16.655099999000072],[-6.805600000999959,16.0426],[-6.2557,16.00070000100004],[-6.2577,15.500499999000056]]]},"properties":{"shapeName":"Basseknou","shapeISO":"","shapeID":"47542326B79518958456259","shapeGroup":"MRT","shapeType":"ADM2"}},
{"type":"Feature","geometry":{"type":"Polygon","coordinates":[[[-15.5887,19.9866],[-15.61470000099996,19.7104],[-15.8257,18.9999],[-16.21849999899996,18.995100001000026],[-16.0591,18.4487],[-15.8737,18.456800001000033],[-15.23970000099996,19.0162],[-14.9966,19.1558],[-14.740499998999951,19.456599999000048],[-14.643100000999937,19.483200001000057],[-14.373,19.6918],[-14.425899998999967,19.7568],[-14.4016,19.811899999000048],[-14.499199998999927,20],[-15.5887,19.9866]]]},"properties":{"shapeName":"Benichab","shapeISO":"","shapeID":"47542326B98603827415339","shapeGroup":"MRT","shapeType":"ADM2"}},
{"type":"Feature","geometry":{"type":"Polygon","coordinates":[[[-6.5756,25],[-4.8333,25],[-6.021,25.6832],[-8.194,27.0277],[-8.6691,27.3632],[-8.6621,25.992699999000024],[-12.035,25.9891],[-12.032099998999968,25.0132],[-6.5756,25]]]},"properties":{"shapeName":"Bir Moghrein","shapeISO":"","shapeID":"47542326B49457561972338","shapeGroup":"MRT","shapeType":"ADM2"}},
{"type":"Feature","geometry":{"type":"Polygon","coordinates":[[[-14.657,16.804099999000073],[-14.729,16.767100001000074],[-14.9449,16.638],[-14.3356,16.641000001000066],[-14.3279,16.566500001000065],[-14.2772,16.583000001000073],[-14.26,16.5231],[-14.222899998999935,16.5437],[-14.171800000999951,16.4957],[-13.948999998999966,16.6062],[-13.987600000999976,16.66510000100004],[-14.657,16.804099999000073]]]},"properties":{"shapeName":"Boghe","shapeISO":"","shapeID":"47542326B52802302132146","shapeGroup":"MRT","shapeType":"ADM2"}},
{"type":"Feature","geometry":{"type":"Polygon","coordinates":[[[-10.986,18.286499999000057],[-11.04099999899995,18.3095],[-11.2425,18.1589],[-11.2425,18.12340000100005],[-11.1833,18.13189999900004],[-11.19679999899995,18.0963],[-11.340600000999927,18.054099999000073],[-11.508099998999967,18.0811],[-11.629899998999974,17.97289999900005],[-11.296599998999966,17.5471],[-11.3518,17.4944],[-11.5064,17.5809],[-11.5284,17.5319],[-11.47430000099996,17.518300001000057],[-11.508099998999967,17.4592],[-11.467499998999926,17.40499999900004],[-11.5758,17.28999999900003],[-11.511499998999966,17.1852],[-11.2961,17.3936],[-11.1204,17.3972],[-11.0373,17.4846],[-11.081700000999945,17.711100001000034],[-10.986,18.286499999000057]]]},"properties":{"shapeName":"Boumdeid","shapeISO":"","shapeID":"47542326B4408163770822","shapeGroup":"MRT","shapeType":"ADM2"}},
{"type":"Feature","geometry":{"type":"Polygon","coordinates":[[[-14.509500000999935,19.000800001000073],[-14.887700000999928,18.1536],[-14.842399998999952,17.9507],[-15.2587,17.7915],[-15.272399998999958,17.4871],[-15.3168,17.32090000100004],[-15.171800000999951,17.3671],[-14.990700000999936,17.248500001000025],[-14.6591,17.1581],[-14.729,16.767100001000074],[-14.657,16.804099999000073],[-14.5448,16.862600001000033],[-14.556,16.91699999900004],[-14.331,17.052200001000074],[-13.951199998999982,17.6304],[-13.7556,17.7861],[-12.664899998999942,18.5733],[-13.201199998999982,18.9945],[-14.2151,18.994000001000074],[-14.509500000999935,19.000800001000073]]]},"properties":{"shapeName":"Boutilimitt","shapeISO":"","shapeID":"47542326B79459539986617","shapeGroup":"MRT","shapeType":"ADM2"}},
{"type":"Feature","geometry":{"type":"Polygon","coordinates":[[[-14.148600000999977,20.8992],[-13.6757,21.199899999000024],[-13.6677,21.3334],[-14.636399998999934,21.2618],[-14.6371,21.1708],[-15.593,20.6778],[-16.0045,20.511299999000073],[-16.4308,20.6142],[-16.1876,20.1753],[-16.253,20.1165],[-16.2193,19.9792],[-16.3017,19.89839999900005],[-16.247199998999974,19.8792],[-16.233200000999943,19.7849],[-16.455600000999937,19.4111],[-16.342499998999926,19.5318],[-16.3804,19.450300001000073],[-16.27669999899996,19.5167],[-16.386600000999977,19.39069999900005],[-16.5288,19.369000001000074],[-16.460999998999966,19.249600001000033],[-16.325200000999928,19.17039999900004],[-16.21849999899996,18.995100001000026],[-15.8257,18.9999],[-15.61470000099996,19.7104],[-15.5887,19.9866],[-15.5285,20.62099999900005],[-15.107899998999926,20.3114],[-14.148600000999977,20.8992]]]},"properties":{"shapeName":"Chami","shapeISO":"","shapeID":"47542326B60250303477597","shapeGroup":"MRT","shapeType":"ADM2"}},
{"type":"Feature","geometry":{"type":"Polygon","coordinates":[[[-11.8715,19.1973],[-11.6856,19.335999999000023],[-11.443600000999936,19.22440000100005],[-11.398,19.4341],[-11.022399998999958,19.7469],[-7.878799998999966,19.7454],[-7.419,20.7203],[-7.91950000099996,20.664100001000065],[-9.8343,20.630100001000073],[-11.705499998999926,20.4967],[-11.948999998999966,20.737500001000058],[-11.76359999899995,20.9109],[-12.4618,21.0502],[-12.5277,20.58709999900003],[-12.7302,20.5989],[-12.8829,20.478399999000032],[-12.772399998999958,20.118799999000032],[-12.784299998999927,19.9452],[-12.246400000999927,19.4681],[-12.0469,19.4345],[-11.8715,19.1973]]]},"properties":{"shapeName":"Chinguitti","shapeISO":"","shapeID":"47542326B90495786476095","shapeGroup":"MRT","shapeType":"ADM2"}},
{"type":"Feature","geometry":{"type":"Polygon","coordinates":[[[-15.935799998999983,18.071],[-15.888800000999936,18.1416],[-15.9179,18.1414],[-15.9384,18.117000001000065],[-15.9652,18.0791],[-15.935799998999983,18.071]]]},"properties":{"shapeName":"Dar Naim","shapeISO":"","shapeID":"47542326B20684442825570","shapeGroup":"MRT","shapeType":"ADM2"}},
{"type":"Feature","geometry":{"type":"Polygon","coordinates":[[[-8.352399998999942,15.500800001000073],[-8.44109999899996,15.875499999000056],[-8.54020000099996,16.054],[-8.580700000999968,16.302999999000065],[-8.6708,16.5096],[-8.750399998999967,16.5359],[-8.8967,16.392100001000074],[-9.0725,16.0624],[-8.946699998999975,15.8073],[-8.9399,15.7278],[-9.012700000999928,15.5854],[-8.9636,15.531300001000034],[-8.988299998999935,15.5],[-8.352399998999942,15.500800001000073]]]},"properties":{"shapeName":"Djigueni","shapeISO":"","shapeID":"47542326B52298833192374","shapeGroup":"MRT","shapeType":"ADM2"}},
{"type":"Feature","geometry":{"type":"Polygon","coordinates":[[[-8.750399998999967,16.5359],[-8.2787,17.0284],[-8.609999998999967,17.332800001000066],[-9.1548,17.25500000100004],[-9.742000000999951,17.4781],[-10.002499998999951,16.887399999000024],[-9.949999998999942,16.56750000100004],[-10.0722,16.552100001000042],[-10.0702,16.441500001000065],[-9.9671,16.4882],[-9.9416,16.1723],[-9.8259,16.2444],[-9.327400000999944,16.2805],[-8.8967,16.392100001000074],[-8.750399998999967,16.5359]]]},"properties":{"shapeName":"Eayoune El Atrous","shapeISO":"","shapeID":"47542326B47795340566920","shapeGroup":"MRT","shapeType":"ADM2"}},
{"type":"Feature","geometry":{"type":"Polygon","coordinates":[[[-12.664899998999942,18.5733],[-12.4507,18.268200001000025],[-12.539899998999942,17.4758],[-12.335999998999966,17.3178],[-12.350400000999969,17.249500001000058],[-12.286499998999943,17.2271],[-11.8793,17.09479999900003],[-11.767000000999928,17.127699999000072],[-11.526699998999959,17.0973],[-11.511499998999966,17.1852],[-11.5758,17.28999999900003],[-11.799000000999968,17.7086],[-11.756200000999968,17.9816],[-11.941299998999966,18.0572],[-12.339500000999976,18.8795],[-12.664899998999942,18.5733]]]},"properties":{"shapeName":"El Mejrya","shapeISO":"","shapeID":"47542326B50345645287156","shapeGroup":"MRT","shapeType":"ADM2"}},
{"type":"Feature","geometry":{"type":"Polygon","coordinates":[[[-15.97000000099996,18.068299999000033],[-15.977,18.0777],[-15.982100000999935,18.078400001000034],[-16.0439,18.050899999000023],[-16.0436,17.976],[-15.9724,17.976500001000034],[-15.973099998999942,18.0319],[-15.97000000099996,18.068299999000033]]]},"properties":{"shapeName":"El Mina","shapeISO":"","shapeID":"47542326B34919448738513","shapeGroup":"MRT","shapeType":"ADM2"}},
{"type":"Feature","geometry":{"type":"Polygon","coordinates":[[[-13.001800000999935,22.280400001000032],[-12.73619999899995,22.13869999900004],[-12.5513,22.1589],[-12.58300000099996,22.48949999900003],[-12.49819999899995,22.5557],[-12.4824,22.775599999000065],[-12.87859999899996,23.20790000100004],[-12.8399,23.3389],[-12.995300000999976,23.1479],[-13.0286,22.954299999000057],[-13.001800000999935,22.280400001000032]]]},"properties":{"shapeName":"F'Derick","shapeISO":"","shapeID":"47542326B14226246765401","shapeGroup":"MRT","shapeType":"ADM2"}},
{"type":"Feature","geometry":{"type":"Polygon","coordinates":[[[-11.9518,15.3421],[-12.1414,15.200300001000073],[-12.157099998999968,15.109099999000023],[-12.230699998999967,15.13099999900004],[-12.213500000999943,15.217800001000057],[-12.390000000999976,15.23],[-12.4619,15.0987],[-12.5964,15.078199999000049],[-12.480799998999942,15.0087],[-12.3935,14.8474],[-12.0483,14.719699999000056],[-11.799000000999968,14.895099999000024],[-11.8235,15.192199999000024],[-11.9518,15.3421]]]},"properties":{"shapeName":"Ghabou","shapeISO":"","shapeID":"47542326B82257373833544","shapeGroup":"MRT","shapeType":"ADM2"}},
{"type":"Feature","geometry":{"type":"Polygon","coordinates":[[[-12.039899998999942,16.5408],[-11.8519,16.6185],[-11.661599998999975,16.8972],[-11.8793,17.09479999900003],[-12.286499998999943,17.2271],[-12.255999998999926,17.07279999900004],[-12.28669999899995,16.969599999000025],[-12.2015,16.907],[-12.148800000999927,16.7412],[-12.088500000999943,16.7356],[-12.1052,16.5273],[-12.0736,16.5778],[-12.039899998999942,16.5408]]]},"properties":{"shapeName":"Guerrou","shapeISO":"","shapeID":"47542326B49231245131640","shapeGroup":"MRT","shapeType":"ADM2"}},
{"type":"Feature","geometry":{"type":"Polygon","coordinates":[[[-13.6261,16.29539999900004],[-13.654899998999952,16.182700001000057],[-13.7017,16.168199999000024],[-13.6809,16.0945],[-13.4878,16.149499999000057],[-13.499,16.07939999900003],[-13.457900000999928,16.109999999000024],[-13.376,16.0537],[-13.263699998999982,15.7892],[-13.291200000999936,15.769200001000058],[-13.2071,15.695],[-13.250700000999927,15.655099999000072],[-13.1951,15.627],[-12.754899998999974,15.929300001000058],[-12.728800000999968,15.9979],[-12.998500000999968,16.225],[-13.153100000999927,16.2337],[-13.2228,16.404100001000074],[-13.6261,16.29539999900004]]]},"properties":{"shapeName":"Kaedi","shapeISO":"","shapeID":"47542326B29120201182559","shapeGroup":"MRT","shapeType":"ADM2"}},
{"type":"Feature","geometry":{"type":"Polygon","coordinates":[[[-10.829299998999943,16.28429999900004],[-11.6712,16.28779999900007],[-11.6658,16.0044],[-11.586300000999927,15.9704],[-11.633300000999952,15.90420000100005],[-11.5723,15.857000001000074],[-11.660399998999935,15.6954],[-11.6636,15.5272],[-11.419299998999975,15.6296],[-10.9112,15.1185],[-10.816299998999966,15.29350000100004],[-10.7454,15.332599999000024],[-10.7181,15.441099999000073],[-10.59149999899995,15.431399999000064],[-10.670299998999951,15.996200001000034],[-10.7764,16.0351],[-10.744200000999967,16.1807],[-10.829299998999943,16.28429999900004]]]},"properties":{"shapeName":"Kankossa","shapeISO":"","shapeID":"47542326B30732925248213","shapeGroup":"MRT","shapeType":"ADM2"}},
{"type":"Feature","geometry":{"type":"Polygon","coordinates":[[[-15.900900000999968,16.679199999000048],[-16.003799998999966,16.7906],[-15.999399998999934,16.9991],[-16.2752,17.0209],[-16.444700000999944,16.60370000100005],[-16.51700000099993,16.2886],[-16.5099,16.0459],[-16.443499998999982,16.105],[-16.44800000099997,16.195699999000055],[-16.3763,16.2271],[-16.28329999899995,16.510199999000065],[-16.1162,16.558599999000023],[-16.0549,16.479900001000033],[-16.00510000099996,16.5053],[-15.900900000999968,16.679199999000048]]]},"properties":{"shapeName":"Keur Macene","shapeISO":"","shapeID":"47542326B95460333313215","shapeGroup":"MRT","shapeType":"ADM2"}},
{"type":"Feature","geometry":{"type":"Polygon","coordinates":[[[-12.009,16.049900001000026],[-12,15.9365],[-11.8354,15.9077],[-11.817199998999968,16.037],[-11.7795,16.051899999000057],[-11.6658,16.0044],[-11.6712,16.28779999900007],[-10.829299998999943,16.28429999900004],[-10.860300000999928,16.329],[-10.8257,16.3302],[-10.8156,16.4256],[-10.8961,16.4241],[-10.852399998999942,16.431500001000074],[-10.9123,16.4838],[-10.9826,16.452500001000033],[-10.9352,16.4981],[-10.75929999899995,16.5327],[-10.7071,16.5811],[-10.8168,16.601299999000048],[-10.985300000999928,16.84249999900004],[-10.984999998999967,17.358200001000057],[-11.0373,17.4846],[-11.1204,17.3972],[-11.2961,17.3936],[-11.511499998999966,17.1852],[-11.526699998999959,17.0973],[-11.767000000999928,17.127699999000072],[-11.8793,17.09479999900003],[-11.661599998999975,16.8972],[-11.8519,16.6185],[-12.039899998999942,16.5408],[-12.0319,16.4648],[-11.9451,16.441],[-12.032600000999935,16.2455],[-12.009,16.049900001000026]]]},"properties":{"shapeName":"Kiffa","shapeISO":"","shapeID":"47542326B84598403271907","shapeGroup":"MRT","shapeType":"ADM2"}},
{"type":"Feature","geometry":{"type":"Polygon","coordinates":[[[-8.8967,16.392100001000074],[-9.327400000999944,16.2805],[-9.8259,16.2444],[-9.9416,16.1723],[-9.912,15.589],[-9.8495,15.4353],[-9.4,15.4377],[-9.445699998999942,15.6055],[-9.345699998999976,15.70549999900004],[-9.311000000999968,15.6873],[-9.330700000999968,15.500600001000066],[-8.988299998999935,15.5],[-8.9636,15.531300001000034],[-9.012700000999928,15.5854],[-8.9399,15.7278],[-8.946699998999975,15.8073],[-9.0725,16.0624],[-8.8967,16.392100001000074]]]},"properties":{"shapeName":"Koubenni","shapeISO":"","shapeID":"47542326B43555481021158","shapeGroup":"MRT","shapeType":"ADM2"}},
{"type":"Feature","geometry":{"type":"Polygon","coordinates":[[[-15.9652,18.0791],[-15.9384,18.117000001000065],[-15.947000000999935,18.176899999000057],[-15.9965,18.1767],[-15.977,18.0777],[-15.97000000099996,18.068299999000033],[-15.9652,18.0791]]]},"properties":{"shapeName":"Ksar","shapeISO":"","shapeID":"47542326B19939520283708","shapeGroup":"MRT","shapeType":"ADM2"}},
{"type":"Feature","geometry":{"type":"Polygon","coordinates":[[[-13.750399998999967,16.4712],[-13.886,16.288699999000073],[-13.953199998999935,16.26569999900005],[-13.973200000999952,16.22289999900005],[-13.870999998999935,16.1888],[-13.84919999899995,16.10710000100005],[-13.7017,16.168199999000024],[-13.654899998999952,16.182700001000057],[-13.6261,16.29539999900004],[-13.7129,16.36329999900005],[-13.750399998999967,16.4712]]]},"properties":{"shapeName":"M'Bagne","shapeISO":"","shapeID":"47542326B91967865285968","shapeGroup":"MRT","shapeType":"ADM2"}},
{"type":"Feature","geometry":{"type":"Polygon","coordinates":[[[-12.7675,16.460200001000032],[-12.9355,16.2344],[-12.998500000999968,16.225],[-12.728800000999968,15.9979],[-12.754899998999974,15.929300001000058],[-12.7886,15.759099999000057],[-12.682700000999944,15.686899999000048],[-12.6658,15.575099999000031],[-12.6084,15.555400001000066],[-12.497300000999928,15.5655],[-12.4592,15.6688],[-12.2644,15.8598],[-12,15.9365],[-12.009,16.049900001000026],[-12.2206,16.1282],[-12.2422,16.2256],[-12.301200000999927,16.2598],[-12.4352,16.2031],[-12.4329,16.4429],[-12.6708,16.4892],[-12.7675,16.460200001000032]]]},"properties":{"shapeName":"M'bout","shapeISO":"","shapeID":"47542326B11221851845412","shapeGroup":"MRT","shapeType":"ADM2"}},
{"type":"Feature","geometry":{"type":"Polygon","coordinates":[[[-13.1951,15.627],[-13.0868,15.5825],[-13.0964,15.49640000100004],[-12.95890000099996,15.503900001000034],[-12.941400000999977,15.3607],[-12.833699998999975,15.2908],[-12.8945,15.2519],[-12.7908,15.209100001000024],[-12.7566,15.139900001000058],[-12.6084,15.555400001000066],[-12.6658,15.575099999000031],[-12.682700000999944,15.686899999000048],[-12.7886,15.759099999000057],[-12.754899998999974,15.929300001000058],[-13.1951,15.627]]]},"properties":{"shapeName":"Maghama","shapeISO":"","shapeID":"47542326B54868139713795","shapeGroup":"MRT","shapeType":"ADM2"}},
{"type":"Feature","geometry":{"type":"Polygon","coordinates":[[[-12.824899998999967,16.9166],[-12.72770000099996,17.0634],[-12.350400000999969,17.249500001000058],[-12.335999998999966,17.3178],[-12.539899998999942,17.4758],[-12.4507,18.268200001000025],[-12.664899998999942,18.5733],[-13.7556,17.7861],[-12.824899998999967,16.9166]]]},"properties":{"shapeName":"Magta lahjar","shapeISO":"","shapeID":"47542326B18376526841546","shapeGroup":"MRT","shapeType":"ADM2"}},
{"type":"Feature","geometry":{"type":"Polygon","coordinates":[[[-15.272399998999958,17.4871],[-15.5019,17.3543],[-15.5032,17.603],[-15.741900000999976,17.5002],[-15.8353,17.528999999000064],[-15.897299998999927,17.4463],[-15.8357,17.2728],[-16.1592,17.293400001000066],[-16.2752,17.0209],[-15.999399998999934,16.9991],[-16.003799998999966,16.7906],[-15.900900000999968,16.679199999000048],[-15.493799998999975,16.845699999000033],[-15.3115,17.130899999000064],[-15.3168,17.32090000100004],[-15.272399998999958,17.4871]]]},"properties":{"shapeName":"Mederdra","shapeISO":"","shapeID":"47542326B59245352565920","shapeGroup":"MRT","shapeType":"ADM2"}},
{"type":"Feature","geometry":{"type":"Polygon","coordinates":[[[-13.2228,16.404100001000074],[-13.153100000999927,16.2337],[-12.998500000999968,16.225],[-12.9355,16.2344],[-12.7675,16.460200001000032],[-12.734099998999966,16.5427],[-12.7842,16.654100001000074],[-12.839299998999934,16.674799999000072],[-12.8343,16.8321],[-12.929199998999934,16.63529999900004],[-13.1196,16.583699999000032],[-13.2228,16.404100001000074]]]},"properties":{"shapeName":"Monguel","shapeISO":"","shapeID":"47542326B31251685847111","shapeGroup":"MRT","shapeType":"ADM2"}},
{"type":"Feature","geometry":{"type":"Polygon","coordinates":[[[-6.805600000999959,16.0426],[-6.7841,16.655099999000072],[-6.890000000999976,16.67],[-7.2511,17.0232],[-7.2881,16.84589999900004],[-7.352299998999968,16.7897],[-7.898800000999927,16.6143],[-7.8254,16.558],[-7.874700000999951,16.3554],[-7.826300000999936,15.789899999000056],[-7.181700000999967,16.1526],[-7.1439,16.1021],[-6.805600000999959,16.0426]]]},"properties":{"shapeName":"Moughataa d'Enneama","shapeISO":"","shapeID":"47542326B75019227159374","shapeGroup":"MRT","shapeType":"ADM2"}},
{"type":"Feature","geometry":{"type":"Polygon","coordinates":[[[-5.6096,16.4893],[-6.0549,20.102700001000073],[-6.648399998999935,17.54890000100005],[-6.890000000999976,16.67],[-6.7841,16.655099999000072],[-5.9562,16.29780000100004],[-5.6096,16.4893]]]},"properties":{"shapeName":"N'beiket Lehouach","shapeISO":"","shapeID":"47542326B78705057775708","shapeGroup":"MRT","shapeType":"ADM2"}},
{"type":"Feature","geometry":{"type":"Polygon","coordinates":[[[-13.6677,21.3334],[-16.94879999899996,21.3335],[-17.10160000099995,20.828500001000066],[-17.03869999899996,20.7589],[-17.059800000999928,20.8804],[-16.9921,20.9663],[-17.0277,21.0241],[-16.996400000999927,21.0164],[-16.926899998999943,21.158299999000064],[-16.6544,20.727299999000024],[-16.6656,20.670700001000057],[-16.52710000099995,20.546499999000048],[-16.5154,20.731899999000063],[-16.4308,20.6142],[-16.0045,20.511299999000073],[-15.593,20.6778],[-14.6371,21.1708],[-14.636399998999934,21.2618],[-13.6677,21.3334]]]},"properties":{"shapeName":"Nouadhibou","shapeISO":"","shapeID":"47542326B41685059019738","shapeGroup":"MRT","shapeType":"ADM2"}},
{"type":"Feature","geometry":{"type":"Polygon","coordinates":[[[-15.23970000099996,19.0162],[-15.8737,18.456800001000033],[-16.0591,18.4487],[-16.0448,18.1764],[-15.9965,18.1767],[-15.947000000999935,18.176899999000057],[-15.8934,18.177200001000074],[-15.9179,18.1414],[-15.888800000999936,18.1416],[-15.8882,18.030300001000057],[-15.887700000999928,17.9769],[-15.9724,17.976500001000034],[-16.0436,17.976],[-16.0646,17.5766],[-16.1592,17.293400001000066],[-15.8357,17.2728],[-15.897299998999927,17.4463],[-15.8353,17.528999999000064],[-15.741900000999976,17.5002],[-15.5032,17.603],[-15.5019,17.3543],[-15.272399998999958,17.4871],[-15.2587,17.7915],[-14.842399998999952,17.9507],[-14.887700000999928,18.1536],[-14.509500000999935,19.000800001000073],[-15.23970000099996,19.0162]]]},"properties":{"shapeName":"Ouad Naga","shapeISO":"","shapeID":"47542326B19423449459947","shapeGroup":"MRT","shapeType":"ADM2"}},
{"type":"Feature","geometry":{"type":"Polygon","coordinates":[[[-12.4618,21.0502],[-11.76359999899995,20.9109],[-11.948999998999966,20.737500001000058],[-11.705499998999926,20.4967],[-9.8343,20.630100001000073],[-7.91950000099996,20.664100001000065],[-7.419,20.7203],[-6.3422,22.8704],[-6.4932,24.2763],[-8.657199998999943,22.918299999000055],[-10.752900000999944,21.55199999900003],[-12.403100000999927,21.434800001000042],[-12.419199998999943,21.2883],[-12.4618,21.0502]]]},"properties":{"shapeName":"Ouadane","shapeISO":"","shapeID":"47542326B44927668035814","shapeGroup":"MRT","shapeType":"ADM2"}},
{"type":"Feature","geometry":{"type":"Polygon","coordinates":[[[-7.878799998999966,19.7454],[-9.1548,17.25500000100004],[-8.609999998999967,17.332800001000066],[-8.2787,17.0284],[-7.898800000999927,16.6143],[-7.352299998999968,16.7897],[-7.2881,16.84589999900004],[-7.2511,17.0232],[-6.890000000999976,16.67],[-6.648399998999935,17.54890000100005],[-6.0549,20.102700001000073],[-6.3422,22.8704],[-7.419,20.7203],[-7.878799998999966,19.7454]]]},"properties":{"shapeName":"Oualata","shapeISO":"","shapeID":"47542326B56395627841614","shapeGroup":"MRT","shapeType":"ADM2"}},
{"type":"Feature","geometry":{"type":"Polygon","coordinates":[[[-11.8235,15.192199999000024],[-11.7404,15.4539],[-11.6636,15.5272],[-11.660399998999935,15.6954],[-11.5723,15.857000001000074],[-11.633300000999952,15.90420000100005],[-11.586300000999927,15.9704],[-11.6658,16.0044],[-11.7795,16.051899999000057],[-11.817199998999968,16.037],[-11.8354,15.9077],[-12,15.9365],[-12.2644,15.8598],[-12.166099998999925,15.7337],[-12.068499998999926,15.4211],[-11.9518,15.3421],[-11.8235,15.192199999000024]]]},"properties":{"shapeName":"Ould Yenge","shapeISO":"","shapeID":"47542326B88135317282644","shapeGroup":"MRT","shapeType":"ADM2"}},
{"type":"Feature","geometry":{"type":"Polygon","coordinates":[[[-14.729,16.767100001000074],[-14.6591,17.1581],[-14.990700000999936,17.248500001000025],[-15.171800000999951,17.3671],[-15.3168,17.32090000100004],[-15.3115,17.130899999000064],[-15.493799998999975,16.845699999000033],[-15.441199998999934,16.5901],[-15.408,16.536499999000057],[-15.1031,16.5813],[-15.10689999899995,16.669],[-15.0232,16.6303],[-14.963300000999936,16.69549999900005],[-14.9449,16.638],[-14.729,16.767100001000074]]]},"properties":{"shapeName":"R'Kiz","shapeISO":"","shapeID":"47542326B92400580164100","shapeGroup":"MRT","shapeType":"ADM2"}},
{"type":"Feature","geometry":{"type":"Polygon","coordinates":[[[-15.973099998999942,18.0319],[-15.9724,17.976500001000034],[-15.887700000999928,17.9769],[-15.8882,18.030300001000057],[-15.94879999899996,18.029899999000065],[-15.973099998999942,18.0319]]]},"properties":{"shapeName":"Riyadh","shapeISO":"","shapeID":"47542326B18524078593640","shapeGroup":"MRT","shapeType":"ADM2"}},
{"type":"Feature","geometry":{"type":"Polygon","coordinates":[[[-16.00510000099996,16.5053],[-15.660700000999952,16.480900001000066],[-15.630000000999928,16.5283],[-15.5337,16.5155],[-15.441199998999934,16.5901],[-15.493799998999975,16.845699999000033],[-15.900900000999968,16.679199999000048],[-16.00510000099996,16.5053]]]},"properties":{"shapeName":"Rosso","shapeISO":"","shapeID":"47542326B77132653245300","shapeGroup":"MRT","shapeType":"ADM2"}},
{"type":"Feature","geometry":{"type":"Polygon","coordinates":[[[-15.982100000999935,18.078400001000034],[-16.044299998999975,18.0996],[-16.0439,18.050899999000023],[-15.982100000999935,18.078400001000034]]]},"properties":{"shapeName":"Sebkha","shapeISO":"","shapeID":"47542326B41815213489591","shapeGroup":"MRT","shapeType":"ADM2"}},
{"type":"Feature","geometry":{"type":"Polygon","coordinates":[[[-11.9518,15.3421],[-12.068499998999926,15.4211],[-12.166099998999925,15.7337],[-12.2644,15.8598],[-12.4592,15.6688],[-12.497300000999928,15.5655],[-12.6084,15.555400001000066],[-12.7566,15.139900001000058],[-12.5964,15.078199999000049],[-12.4619,15.0987],[-12.390000000999976,15.23],[-12.213500000999943,15.217800001000057],[-12.230699998999967,15.13099999900004],[-12.157099998999968,15.109099999000023],[-12.1414,15.200300001000073],[-11.9518,15.3421]]]},"properties":{"shapeName":"Selibabi","shapeISO":"","shapeID":"47542326B53880541156854","shapeGroup":"MRT","shapeType":"ADM2"}},
{"type":"Feature","geometry":{"type":"Polygon","coordinates":[[[-11.0373,17.4846],[-10.984999998999967,17.358200001000057],[-10.985300000999928,16.84249999900004],[-10.8168,16.601299999000048],[-10.7071,16.5811],[-10.75929999899995,16.5327],[-10.0722,16.552100001000042],[-9.949999998999942,16.56750000100004],[-10.002499998999951,16.887399999000024],[-9.742000000999951,17.4781],[-9.8368,17.515000001000033],[-10.341,17.518300001000057],[-11.081700000999945,17.711100001000034],[-11.0373,17.4846]]]},"properties":{"shapeName":"Tamchekett","shapeISO":"","shapeID":"47542326B49487198034252","shapeGroup":"MRT","shapeType":"ADM2"}},
{"type":"Feature","geometry":{"type":"Polygon","coordinates":[[[-15.977,18.0777],[-15.9965,18.1767],[-16.0448,18.1764],[-16.044299998999975,18.0996],[-15.982100000999935,18.078400001000034],[-15.977,18.0777]]]},"properties":{"shapeName":"Tevragh Zein","shapeISO":"","shapeID":"47542326B736390613482","shapeGroup":"MRT","shapeType":"ADM2"}},
{"type":"Feature","geometry":{"type":"Polygon","coordinates":[[[-15.9179,18.1414],[-15.8934,18.177200001000074],[-15.947000000999935,18.176899999000057],[-15.9384,18.117000001000065],[-15.9179,18.1414]]]},"properties":{"shapeName":"Teyarett","shapeISO":"","shapeID":"47542326B65700672861559","shapeGroup":"MRT","shapeType":"ADM2"}},
{"type":"Feature","geometry":{"type":"Polygon","coordinates":[[[-11.081700000999945,17.711100001000034],[-10.341,17.518300001000057],[-9.8368,17.515000001000033],[-9.742000000999951,17.4781],[-9.1548,17.25500000100004],[-7.878799998999966,19.7454],[-11.022399998999958,19.7469],[-10.986,18.286499999000057],[-11.081700000999945,17.711100001000034]]]},"properties":{"shapeName":"Tichitt","shapeISO":"","shapeID":"47542326B42701553126465","shapeGroup":"MRT","shapeType":"ADM2"}},
{"type":"Feature","geometry":{"type":"Polygon","coordinates":[[[-12.339500000999976,18.8795],[-11.941299998999966,18.0572],[-11.756200000999968,17.9816],[-11.799000000999968,17.7086],[-11.5758,17.28999999900003],[-11.467499998999926,17.40499999900004],[-11.508099998999967,17.4592],[-11.47430000099996,17.518300001000057],[-11.5284,17.5319],[-11.5064,17.5809],[-11.3518,17.4944],[-11.296599998999966,17.5471],[-11.629899998999974,17.97289999900005],[-11.508099998999967,18.0811],[-11.340600000999927,18.054099999000073],[-11.19679999899995,18.0963],[-11.1833,18.13189999900004],[-11.2425,18.12340000100005],[-11.2425,18.1589],[-11.04099999899995,18.3095],[-10.986,18.286499999000057],[-11.022399998999958,19.7469],[-11.398,19.4341],[-11.443600000999936,19.22440000100005],[-11.6856,19.335999999000023],[-11.8715,19.1973],[-12.339500000999976,18.8795]]]},"properties":{"shapeName":"Tijigja","shapeISO":"","shapeID":"47542326B404198781259","shapeGroup":"MRT","shapeType":"ADM2"}},
{"type":"Feature","geometry":{"type":"Polygon","coordinates":[[[-7.826300000999936,15.789899999000056],[-7.874700000999951,16.3554],[-7.8254,16.558],[-7.898800000999927,16.6143],[-8.2787,17.0284],[-8.750399998999967,16.5359],[-8.6708,16.5096],[-8.580700000999968,16.302999999000065],[-8.54020000099996,16.054],[-8.44109999899996,15.875499999000056],[-8.352399998999942,15.500800001000073],[-7.659600000999944,15.5066],[-7.659,15.6413],[-7.826300000999936,15.789899999000056]]]},"properties":{"shapeName":"Timbedgha","shapeISO":"","shapeID":"47542326B26087332325113","shapeGroup":"MRT","shapeType":"ADM2"}},
{"type":"Feature","geometry":{"type":"Polygon","coordinates":[[[-10.0722,16.552100001000042],[-10.75929999899995,16.5327],[-10.9352,16.4981],[-10.9826,16.452500001000033],[-10.9123,16.4838],[-10.852399998999942,16.431500001000074],[-10.8961,16.4241],[-10.8156,16.4256],[-10.8257,16.3302],[-10.860300000999928,16.329],[-10.829299998999943,16.28429999900004],[-10.744200000999967,16.1807],[-10.7764,16.0351],[-10.670299998999951,15.996200001000034],[-10.59149999899995,15.431399999000064],[-10.0362,15.472999999000024],[-9.8495,15.4353],[-9.912,15.589],[-9.9416,16.1723],[-9.9671,16.4882],[-10.0702,16.441500001000065],[-10.0722,16.552100001000042]]]},"properties":{"shapeName":"Tintane","shapeISO":"","shapeID":"47542326B49589683558539","shapeGroup":"MRT","shapeType":"ADM2"}},
{"type":"Feature","geometry":{"type":"Polygon","coordinates":[[[-15.94879999899996,18.029899999000065],[-15.8882,18.030300001000057],[-15.888800000999936,18.1416],[-15.935799998999983,18.071],[-15.94879999899996,18.029899999000065]]]},"properties":{"shapeName":"Toujounine","shapeISO":"","shapeID":"47542326B78041808774540","shapeGroup":"MRT","shapeType":"ADM2"}},
{"type":"Feature","geometry":{"type":"Polygon","coordinates":[[[-12.419199998999943,21.2883],[-12.403100000999927,21.434800001000042],[-10.752900000999944,21.55199999900003],[-8.657199998999943,22.918299999000055],[-6.4932,24.2763],[-6.5756,25],[-12.032099998999968,25.0132],[-12.0108,23.468800001000034],[-12.5429,23.455800001000057],[-12.8399,23.3389],[-12.87859999899996,23.20790000100004],[-12.4824,22.775599999000065],[-12.49819999899995,22.5557],[-12.58300000099996,22.48949999900003],[-12.5513,22.1589],[-12.73619999899995,22.13869999900004],[-13.001800000999935,22.280400001000032],[-13.017200000999935,21.46749999900004],[-12.419199998999943,21.2883]]]},"properties":{"shapeName":"Zoueratt","shapeISO":"","shapeID":"47542326B94085620874331","shapeGroup":"MRT","shapeType":"ADM2"}}
]}