{"type":"FeatureCollection", "features": [
{"type":"Feature","geometry":{"type":"Polygon","coordinates":[[[0.359130859000061,14.148315430000025],[0.767517090000069,14.478088379000042],[0.962707520000038,14.523498535000044],[0.767517090000069,14.757507324000073],[0.471923828000058,14.356689453000058],[0.307128907000049,14.442077637000068],[0.327880859000061,14.32312011700003],[0.359130859000061,14.148315430000025]]]},"properties":{"shapeName":"Bankilaré","shapeISO":"","shapeID":"23599985B18164013569517","shapeGroup":"NER","shapeType":"ADM2"}},
{"type":"Feature","geometry":{"type":"Polygon","coordinates":[[[0.882873535000044,14.661499024000022],[1.214477539000029,14.629089355000076],[1.233093262000068,14.778320312000062],[1.486511230000076,15.004516602000024],[1.491516113000046,15.268920898000033],[1.304321289000029,15.252929687000062],[0.953491211000028,14.965515136000022],[0.677917480000076,14.945495606000065],[0.836120605000076,14.89428711000005],[0.882873535000044,14.661499024000022]]]},"properties":{"shapeName":"Ayérou","shapeISO":"","shapeID":"23599985B66518443893936","shapeGroup":"NER","shapeType":"ADM2"}},
{"type":"Feature","geometry":{"type":"Polygon","coordinates":[[[0.359130859000061,14.148315430000025],[0.600280761000022,13.69952392600004],[0.891906738000046,13.625122070000032],[0.978881836000028,13.789489746000072],[1.325683594000054,13.763488770000038],[0.997497559000067,13.81689453100006],[1.171875,14.131530762000068],[1.112304687000062,14.171875],[1.327514649000022,14.239501953000058],[0.882873535000044,14.661499024000022],[0.836120605000076,14.89428711000005],[0.677917480000076,14.945495606000065],[0.221130371000072,14.984497070000032],[0.160095215000069,14.51611328100006],[0.327880859000061,14.32312011700003],[0.307128907000049,14.442077637000068],[0.471923828000058,14.356689453000058],[0.767517090000069,14.757507324000073],[0.962707520000038,14.523498535000044],[0.767517090000069,14.478088379000042],[0.359130859000061,14.148315430000025]]]},"properties":{"shapeName":"Téra","shapeISO":"","shapeID":"23599985B14211003047249","shapeGroup":"NER","shapeType":"ADM2"}},
{"type":"Feature","geometry":{"type":"Polygon","coordinates":[[[0.882873535000044,14.661499024000022],[1.327514649000022,14.239501953000058],[1.655090332000043,13.77587890600006],[1.858520508000026,13.880126953000058],[1.865295410000044,14.047912598000039],[1.755126953000058,14.107116700000063],[1.489685059000067,14.711303711000028],[1.486511230000076,15.004516602000024],[1.233093262000068,14.778320312000062],[1.214477539000029,14.629089355000076],[0.882873535000044,14.661499024000022]]]},"properties":{"shapeName":"Tillabéri","shapeISO":"","shapeID":"23599985B45975933186230","shapeGroup":"NER","shapeType":"ADM2"}},
{"type":"Feature","geometry":{"type":"Polygon","coordinates":[[[0.891906738000046,13.625122070000032],[1.279296875000057,13.349914550000051],[1.369873047000056,13.581909180000025],[1.491516113000046,13.603515625000057],[1.655090332000043,13.77587890600006],[1.327514649000022,14.239501953000058],[1.112304687000062,14.171875],[1.171875,14.131530762000068],[0.997497559000067,13.81689453100006],[1.325683594000054,13.763488770000038],[0.978881836000028,13.789489746000072],[0.891906738000046,13.625122070000032]]]},"properties":{"shapeName":"Gothèye","shapeISO":"","shapeID":"23599985B45142923275636","shapeGroup":"NER","shapeType":"ADM2"}},
{"type":"Feature","geometry":{"type":"Polygon","coordinates":[[[1.279296875000057,13.349914550000051],[0.986083984000061,13.36767578100006],[0.988708496000072,13.056701660000044],[1.572692871000072,12.626525879000042],[1.852905273000033,12.615295410000044],[1.747497559000067,12.684692383000026],[1.965881348000039,13.146118164000029],[1.745300293000071,13.490112305000025],[1.491516113000046,13.603515625000057],[1.369873047000056,13.581909180000025],[1.279296875000057,13.349914550000051]]]},"properties":{"shapeName":"Torodi","shapeISO":"","shapeID":"23599985B58853598919637","shapeGroup":"NER","shapeType":"ADM2"}},
{"type":"Feature","geometry":{"type":"Polygon","coordinates":[[[1.486511230000076,15.004516602000024],[1.489685059000067,14.711303711000028],[1.755126953000058,14.107116700000063],[1.865295410000044,14.047912598000039],[1.858520508000026,13.880126953000058],[2.562072754000042,13.875671387000068],[2.58914021592676,13.876086789847275],[2.569702149000022,14.063720703000058],[2.809875488000046,14.166870118000077],[2.800720215000069,14.880126953000058],[2.646301269000048,14.897094726000034],[2.699279785000044,14.707519532000049],[2.415710449000073,14.751098633000026],[2.240112305000025,14.988708496000072],[1.858520508000026,15.039489746000072],[1.804687500000057,15.29150390600006],[1.491516113000046,15.268920898000033],[1.486511230000076,15.004516602000024]]]},"properties":{"shapeName":"Ouallam","shapeISO":"","shapeID":"23599985B18642698649368","shapeGroup":"NER","shapeType":"ADM2"}},
{"type":"Feature","geometry":{"type":"Polygon","coordinates":[[[2.800720215000069,14.880126953000058],[3.061889648000033,15.056701660000044],[3.020324707000043,15.346496582000043],[1.804687500000057,15.29150390600006],[1.858520508000026,15.039489746000072],[2.240112305000025,14.988708496000072],[2.415710449000073,14.751098633000026],[2.699279785000044,14.707519532000049],[2.646301269000048,14.897094726000034],[2.800720215000069,14.880126953000058]]]},"properties":{"shapeName":"Banibangou","shapeISO":"","shapeID":"23599985B31350615327928","shapeGroup":"NER","shapeType":"ADM2"}},
{"type":"Feature","geometry":{"type":"Polygon","coordinates":[[[1.979919434000067,13.591918945000032],[1.99108886700003,13.41009521500007],[2.229125976000034,13.469726563000052],[2.255126953000058,13.63470459000007],[1.979919434000067,13.591918945000032]]]},"properties":{"shapeName":"Niamey","shapeISO":"","shapeID":"23599985B37846693808008","shapeGroup":"NER","shapeType":"ADM2"}},
{"type":"Feature","geometry":{"type":"Polygon","coordinates":[[[1.655090332000043,13.77587890600006],[1.491516113000046,13.603515625000057],[1.745300293000071,13.490112305000025],[1.965881348000039,13.146118164000029],[2.368286133000026,13.260681152000075],[2.404296875000057,12.84069824200003],[2.561889648000033,12.503479004000042],[2.637512207000043,12.565917969000054],[2.611349726188304,12.841665854975195],[2.705505371000072,12.949890137000068],[2.515075684000067,13.024719238000046],[2.482299805000025,13.17608642600004],[2.812927246000072,13.271484375000057],[2.898925781000059,13.521911621000072],[2.562072754000042,13.875671387000068],[1.858520508000026,13.880126953000058],[1.655090332000043,13.77587890600006]],[[1.979919434000067,13.591918945000032],[2.255126953000058,13.63470459000007],[2.229125976000034,13.469726563000052],[1.99108886700003,13.41009521500007],[1.979919434000067,13.591918945000032]]]},"properties":{"shapeName":"Kollo","shapeISO":"","shapeID":"23599985B29201413246391","shapeGroup":"NER","shapeType":"ADM2"}},
{"type":"Feature","geometry":{"type":"Polygon","coordinates":[[[1.852905273000033,12.615295410000044],[1.984130859000061,12.73132324200003],[2.250671387000068,12.590515137000068],[2.276672363000046,12.41491699200003],[2.069885254000042,12.343872071000021],[2.41351318300002,11.902526856000065],[2.39147949200003,12.247924804000036],[2.701110840000069,12.28350830100004],[2.835510254000042,12.412475586000028],[2.637512207000043,12.565917969000054],[2.561889648000033,12.503479004000042],[2.404296875000057,12.84069824200003],[2.368286133000026,13.260681152000075],[1.965881348000039,13.146118164000029],[1.747497559000067,12.684692383000026],[1.852905273000033,12.615295410000044]]]},"properties":{"shapeName":"Say","shapeISO":"","shapeID":"23599985B83200163093073","shapeGroup":"NER","shapeType":"ADM2"}},
{"type":"Feature","geometry":{"type":"Polygon","coordinates":[[[2.637512207000043,12.565917969000054],[2.835510254000042,12.412475586000028],[3.00170898500005,12.284118652000075],[2.976684570000032,12.74127197200005],[2.611349726188304,12.841665854975195],[2.637512207000043,12.565917969000054]]]},"properties":{"shapeName":"Falmèy","shapeISO":"","shapeID":"23599985B42967903288320","shapeGroup":"NER","shapeType":"ADM2"}},
{"type":"Feature","geometry":{"type":"Polygon","coordinates":[[[2.611349726188304,12.841665854975195],[2.976684570000032,12.74127197200005],[3.084318001917312,13.497799319489463],[3.119323731000065,13.596130371000072],[2.998474121000072,13.622924805000025],[2.898925781000059,13.521911621000072],[2.812927246000072,13.271484375000057],[2.482299805000025,13.17608642600004],[2.515075684000067,13.024719238000046],[2.705505371000072,12.949890137000068],[2.611349726188304,12.841665854975195]]]},"properties":{"shapeName":"Boboye","shapeISO":"","shapeID":"23599985B30838539224942","shapeGroup":"NER","shapeType":"ADM2"}},
{"type":"Feature","geometry":{"type":"Polygon","coordinates":[[[2.562072754000042,13.875671387000068],[2.898925781000059,13.521911621000072],[2.998474121000072,13.622924805000025],[3.119323731000065,13.596130371000072],[3.147521973000039,13.76092529300007],[2.58914021592676,13.876086789847275],[2.562072754000042,13.875671387000068]]]},"properties":{"shapeName":"Balléyara","shapeISO":"","shapeID":"23599985B53989443832132","shapeGroup":"NER","shapeType":"ADM2"}},
{"type":"Feature","geometry":{"type":"Polygon","coordinates":[[[3.00170898500005,12.284118652000075],[3.179504395000038,12.113281250000057],[3.297302246000072,12.149902343000065],[3.401916504000042,12.411682129000042],[3.405700684000067,12.640075684000067],[3.527099609000061,12.649902344000054],[3.52288818300002,12.848876953000058],[3.638958553663872,12.939236387005295],[3.730102539000029,13.09350585900006],[3.734497070000032,13.259277343000065],[3.893310547000056,13.36108398400006],[3.906127930000025,13.500122071000021],[3.728088379000042,13.551879883000026],[3.593872070000032,13.331726074000073],[3.447692871000072,13.305114746000072],[3.545104980000076,13.56030273500005],[3.297485351000034,13.540283203000058],[3.205322265000063,13.329528809000067],[3.084318001917312,13.497799319489463],[2.976684570000032,12.74127197200005],[3.00170898500005,12.284118652000075]]]},"properties":{"shapeName":"Dosso","shapeISO":"","shapeID":"23599985B13950466033624","shapeGroup":"NER","shapeType":"ADM2"}},
{"type":"Feature","geometry":{"type":"Polygon","coordinates":[[[3.179504395000038,12.113281250000057],[3.613281250000057,11.689514161000034],[3.684326172000056,11.777709961000028],[3.654113769000048,12.366699219000054],[3.401916504000042,12.411682129000042],[3.297302246000072,12.149902343000065],[3.179504395000038,12.113281250000057]]]},"properties":{"shapeName":"Gaya","shapeISO":"","shapeID":"23599985B94426243670688","shapeGroup":"NER","shapeType":"ADM2"}},
{"type":"Feature","geometry":{"type":"Polygon","coordinates":[[[3.401916504000042,12.411682129000042],[3.654113769000048,12.366699219000054],[3.650329590000069,12.528076172000056],[3.844482422000056,12.688476562000062],[3.638958553663872,12.939236387005295],[3.52288818300002,12.848876953000058],[3.527099609000061,12.649902344000054],[3.405700684000067,12.640075684000067],[3.401916504000042,12.411682129000042]]]},"properties":{"shapeName":"Dioundiou","shapeISO":"","shapeID":"23599985B87103937584190","shapeGroup":"NER","shapeType":"ADM2"}},
{"type":"Feature","geometry":{"type":"Polygon","coordinates":[[[3.734497070000032,13.259277343000065],[3.730102539000029,13.09350585900006],[3.638958553663872,12.939236387005295],[3.844482422000056,12.688476562000062],[4.110900879000042,12.999328613000046],[4.103088379000042,13.315673828000058],[3.906127930000025,13.500122071000021],[3.893310547000056,13.36108398400006],[3.734497070000032,13.259277343000065]]]},"properties":{"shapeName":"Tibiri","shapeISO":"","shapeID":"23599985B22885280076406","shapeGroup":"NER","shapeType":"ADM2"}},
{"type":"Feature","geometry":{"type":"Polygon","coordinates":[[[3.084318001917312,13.497799319489463],[3.205322265000063,13.329528809000067],[3.297485351000034,13.540283203000058],[3.545104980000076,13.56030273500005],[3.447692871000072,13.305114746000072],[3.593872070000032,13.331726074000073],[3.728088379000042,13.551879883000026],[3.795471191000047,13.72772216800007],[3.677926623225285,13.952672300133209],[3.447692871000072,13.783081055000025],[3.147521973000039,13.76092529300007],[3.119323731000065,13.596130371000072],[3.084318001917312,13.497799319489463]]]},"properties":{"shapeName":"Loga","shapeISO":"","shapeID":"23599985B16490635358595","shapeGroup":"NER","shapeType":"ADM2"}},
{"type":"Feature","geometry":{"type":"Polygon","coordinates":[[[3.906127930000025,13.500122071000021],[4.103088379000042,13.315673828000058],[4.143310547000056,13.473693848000039],[4.60772705100004,13.749084473000039],[4.469909668000071,14.099121094000054],[4.438293457000043,14.437072754000042],[4.280090332000043,14.634277343000065],[4.178527832000043,14.444091797000056],[3.926696778000064,14.397094726000034],[3.677926623225285,13.952672300133209],[3.795471191000047,13.72772216800007],[3.728088379000042,13.551879883000026],[3.906127930000025,13.500122071000021]]]},"properties":{"shapeName":"Dogondoutchi","shapeISO":"","shapeID":"23599985B71800364259973","shapeGroup":"NER","shapeType":"ADM2"}},
{"type":"Feature","geometry":{"type":"Polygon","coordinates":[[[2.58914021592676,13.876086789847275],[3.147521973000039,13.76092529300007],[3.447692871000072,13.783081055000025],[3.677926623225285,13.952672300133209],[3.926696778000064,14.397094726000034],[3.870300293000071,14.540893555000025],[3.828491211000028,14.328125],[3.668701172000056,14.522705078000058],[3.414123535000044,14.445922852000024],[3.348083496000072,14.730529785000044],[2.800720215000069,14.880126953000058],[2.809875488000046,14.166870118000077],[2.569702149000022,14.063720703000058],[2.58914021592676,13.876086789847275]]]},"properties":{"shapeName":"Filingué","shapeISO":"","shapeID":"23599985B22646074094064","shapeGroup":"NER","shapeType":"ADM2"}},
{"type":"Feature","geometry":{"type":"Polygon","coordinates":[[[4.469909668000071,14.099121094000054],[4.933898925000051,14.049499512000068],[4.904724121000072,14.506103516000053],[4.503295898000033,14.705322265000063],[4.215881348000039,14.700500488000046],[4.280090332000043,14.634277343000065],[4.438293457000043,14.437072754000042],[4.469909668000071,14.099121094000054]]]},"properties":{"shapeName":"Bagaroua","shapeISO":"","shapeID":"23599985B53990886897515","shapeGroup":"NER","shapeType":"ADM2"}},
{"type":"Feature","geometry":{"type":"Polygon","coordinates":[[[2.800720215000069,14.880126953000058],[3.348083496000072,14.730529785000044],[3.414123535000044,14.445922852000024],[3.668701172000056,14.522705078000058],[3.828491211000028,14.328125],[3.870300293000071,14.540893555000025],[3.926696778000064,14.397094726000034],[4.178527832000043,14.444091797000056],[4.280090332000043,14.634277343000065],[4.215881348000039,14.700500488000046],[4.123107910000044,15.1875],[3.886474609000061,15.705871582000043],[3.565917969000054,15.513916015000063],[3.538085937000062,15.343078613000046],[3.020324707000043,15.346496582000043],[3.061889648000033,15.056701660000044],[2.800720215000069,14.880126953000058]]]},"properties":{"shapeName":"Abala","shapeISO":"","shapeID":"23599985B96366222257755","shapeGroup":"NER","shapeType":"ADM2"}},
{"type":"Feature","geometry":{"type":"Polygon","coordinates":[[[4.123107910000044,15.1875],[4.497070312000062,15.198303223000039],[5.171508789000029,15.480529785000044],[5.031494141000053,15.75311279300007],[5.165100098000039,15.73931884700005],[5.376098633000026,16.02392578100006],[5.332702637000068,16.35449218800005],[5.059326172000056,16.30090332000003],[4.651123047000056,16.565124511000022],[4.086120605000076,16.604919434000067],[4.093688965000069,16.315673828000058],[3.886474609000061,15.705871582000043],[4.123107910000044,15.1875]]]},"properties":{"shapeName":"Tillia","shapeISO":"","shapeID":"23599985B40327375212482","shapeGroup":"NER","shapeType":"ADM2"}},
{"type":"Feature","geometry":{"type":"Polygon","coordinates":[[[5.258911133000026,15.014892578000058],[5.112487793000071,14.980529785000044],[5.214111328000058,14.75189209000007],[5.380676269000048,14.778686524000022],[5.377929687000062,14.966674805000025],[5.258911133000026,15.014892578000058]]]},"properties":{"shapeName":"Tahoua Ville","shapeISO":"","shapeID":"23599985B25077979802367","shapeGroup":"NER","shapeType":"ADM2"}},
{"type":"Feature","geometry":{"type":"Polygon","coordinates":[[[4.933898925000051,14.049499512000068],[5.092529297000056,14.121520996000072],[5.26788330100004,14.01593017600004],[5.689270020000038,14.268127441000047],[5.687316895000038,14.49890136700003],[5.493286133000026,14.470886231000065],[5.398498535000044,14.578125],[4.904724121000072,14.506103516000053],[4.933898925000051,14.049499512000068]]]},"properties":{"shapeName":"Illéla","shapeISO":"","shapeID":"23599985B93785804329420","shapeGroup":"NER","shapeType":"ADM2"}},
{"type":"Feature","geometry":{"type":"Polygon","coordinates":[[[4.60772705100004,13.749084473000039],[5.287719726000034,13.758911133000026],[5.555480957000043,13.894897461000028],[5.543518067000036,13.976684570000032],[5.26788330100004,14.01593017600004],[5.092529297000056,14.121520996000072],[4.933898925000051,14.049499512000068],[4.469909668000071,14.099121094000054],[4.60772705100004,13.749084473000039]]]},"properties":{"shapeName":"Birni-N'Konni","shapeISO":"","shapeID":"23599985B12101722290167","shapeGroup":"NER","shapeType":"ADM2"}},
{"type":"Feature","geometry":{"type":"Polygon","coordinates":[[[5.26788330100004,14.01593017600004],[5.543518067000036,13.976684570000032],[5.555480957000043,13.894897461000028],[5.75811767600004,13.81170654300007],[5.739501953000058,14.19189453100006],[5.689270020000038,14.268127441000047],[5.26788330100004,14.01593017600004]]]},"properties":{"shapeName":"Malbaza","shapeISO":"","shapeID":"23599985B4654450212041","shapeGroup":"NER","shapeType":"ADM2"}},
{"type":"Feature","geometry":{"type":"Polygon","coordinates":[[[5.332702637000068,16.35449218800005],[6.120117187000062,16.51928710900006],[6.236877441000047,16.678710937000062],[5.966491699000073,17.01947021500007],[5.234497070000032,17.485107422000056],[4.890686035000044,17.94189453100006],[4.759277344000054,17.954528809000067],[4.73327636700003,18.274108887000068],[4.874084473000039,18.673889160000044],[4.240295410000044,18.678283691000047],[4.254089355000076,16.989685058000077],[4.083679199000073,16.91491699200003],[4.086120605000076,16.604919434000067],[4.651123047000056,16.565124511000022],[5.059326172000056,16.30090332000003],[5.332702637000068,16.35449218800005]]]},"properties":{"shapeName":"Tassara","shapeISO":"","shapeID":"23599985B43997741220428","shapeGroup":"NER","shapeType":"ADM2"}},
{"type":"Feature","geometry":{"type":"Polygon","coordinates":[[[4.904724121000072,14.506103516000053],[5.398498535000044,14.578125],[5.577270507000037,14.687683105000076],[5.665100098000039,15.063110352000024],[5.542114258000026,15.186889649000022],[5.171508789000029,15.480529785000044],[4.497070312000062,15.198303223000039],[4.123107910000044,15.1875],[4.215881348000039,14.700500488000046],[4.503295898000033,14.705322265000063],[4.904724121000072,14.506103516000053]],[[5.258911133000026,15.014892578000058],[5.377929687000062,14.966674805000025],[5.380676269000048,14.778686524000022],[5.214111328000058,14.75189209000007],[5.112487793000071,14.980529785000044],[5.258911133000026,15.014892578000058]]]},"properties":{"shapeName":"Tahoua","shapeISO":"","shapeID":"23599985B71026362524800","shapeGroup":"NER","shapeType":"ADM2"}},
{"type":"Feature","geometry":{"type":"Polygon","coordinates":[[[5.171508789000029,15.480529785000044],[5.542114258000026,15.186889649000022],[5.75689697200005,15.396118164000029],[6.070678711000028,16.10510253900003],[6.296875,16.197692871000072],[6.308288575000063,16.33288574200003],[6.556518555000025,16.363891601000034],[6.236877441000047,16.678710937000062],[6.120117187000062,16.51928710900006],[5.332702637000068,16.35449218800005],[5.376098633000026,16.02392578100006],[5.165100098000039,15.73931884700005],[5.031494141000053,15.75311279300007],[5.171508789000029,15.480529785000044]]]},"properties":{"shapeName":"Tchintabaraden","shapeISO":"","shapeID":"23599985B37880443282078","shapeGroup":"NER","shapeType":"ADM2"}},
{"type":"Feature","geometry":{"type":"Polygon","coordinates":[[[5.665100098000039,15.063110352000024],[6.102905273000033,15.009887695000032],[6.190673828000058,14.81549072200005],[6.379882812000062,14.862670898000033],[6.439086914000029,14.793518066000047],[6.221496582000043,14.722106934000067],[6.486328125000057,14.646118164000029],[6.566528320000032,14.829711914000029],[6.744873046000066,15.443908691000047],[6.762084961000028,16.038330078000058],[6.556518555000025,16.363891601000034],[6.308288575000063,16.33288574200003],[6.296875,16.197692871000072],[6.070678711000028,16.10510253900003],[5.75689697200005,15.396118164000029],[5.542114258000026,15.186889649000022],[5.665100098000039,15.063110352000024]]]},"properties":{"shapeName":"Abalak","shapeISO":"","shapeID":"23599985B73397103622086","shapeGroup":"NER","shapeType":"ADM2"}},
{"type":"Feature","geometry":{"type":"Polygon","coordinates":[[[5.687316895000038,14.49890136700003],[5.970886231000065,14.53631591800007],[6.001892090000069,14.643920898000033],[6.221496582000043,14.722106934000067],[6.439086914000029,14.793518066000047],[6.379882812000062,14.862670898000033],[6.190673828000058,14.81549072200005],[6.102905273000033,15.009887695000032],[5.665100098000039,15.063110352000024],[5.577270507000037,14.687683105000076],[5.398498535000044,14.578125],[5.493286133000026,14.470886231000065],[5.687316895000038,14.49890136700003]]]},"properties":{"shapeName":"Keita","shapeISO":"","shapeID":"23599985B44584919101761","shapeGroup":"NER","shapeType":"ADM2"}},
{"type":"Feature","geometry":{"type":"Polygon","coordinates":[[[5.689270020000038,14.268127441000047],[5.739501953000058,14.19189453100006],[6.379882812000062,14.272888183000077],[6.499694824000073,14.370483398000033],[6.547302246000072,14.698486328000058],[6.566528320000032,14.829711914000029],[6.486328125000057,14.646118164000029],[6.221496582000043,14.722106934000067],[6.001892090000069,14.643920898000033],[5.970886231000065,14.53631591800007],[5.687316895000038,14.49890136700003],[5.689270020000038,14.268127441000047]]]},"properties":{"shapeName":"Bouza","shapeISO":"","shapeID":"23599985B24942158565256","shapeGroup":"NER","shapeType":"ADM2"}},
{"type":"Feature","geometry":{"type":"Polygon","coordinates":[[[5.75811767600004,13.81170654300007],[6.300476074000073,13.67608642600004],[6.28851318300002,13.760498047000056],[6.350715716000025,13.875069646000043],[6.547302246000072,14.053710937000062],[6.499694824000073,14.370483398000033],[6.379882812000062,14.272888183000077],[5.739501953000058,14.19189453100006],[5.75811767600004,13.81170654300007]]]},"properties":{"shapeName":"Madaoua","shapeISO":"","shapeID":"23599985B88186704259068","shapeGroup":"NER","shapeType":"ADM2"}},
{"type":"Feature","geometry":{"type":"Polygon","coordinates":[[[6.28851318300002,13.760498047000056],[6.300476074000073,13.67608642600004],[6.75563552400007,13.247526717000028],[6.920813288000033,13.483366358000069],[7.093192262000059,13.527923847000068],[7.154852627000025,13.536925360000055],[7.430467703000033,13.544464128000072],[7.444532567000067,13.733636550000028],[7.372801761000062,13.778644115000077],[7.083768803000055,13.777237628000023],[6.934681244000046,13.91507329600006],[6.638615855000069,13.827871139000024],[6.350715716000025,13.875069646000043],[6.28851318300002,13.760498047000056]]]},"properties":{"shapeName":"Guidan-Roumdji","shapeISO":"","shapeID":"23599985B37435064601183","shapeGroup":"NER","shapeType":"ADM2"}},
{"type":"Feature","geometry":{"type":"Polygon","coordinates":[[[6.499694824000073,14.370483398000033],[6.547302246000072,14.053710937000062],[6.350715716000025,13.875069646000043],[6.638615855000069,13.827871139000024],[6.934681244000046,13.91507329600006],[7.083768803000055,13.777237628000023],[7.372801761000062,13.778644115000077],[7.170605274000025,14.423574393000024],[7.358286821000036,14.526191641000025],[7.644084859000031,14.366864861000067],[7.767855663000034,14.42942537700003],[7.713396510000052,14.65221282400006],[7.549045037000042,14.730392988000062],[7.482921770000075,15.051393921000056],[7.144176832000028,14.843134915000064],[6.856381898000052,14.882839509000064],[6.700006174000066,14.763345504000029],[6.780083633000061,14.645821750000039],[6.668896944000039,14.570353064000074],[6.547302246000072,14.698486328000058],[6.499694824000073,14.370483398000033]]]},"properties":{"shapeName":"Dakoro","shapeISO":"","shapeID":"23599985B7432037800977","shapeGroup":"NER","shapeType":"ADM2"}},
{"type":"Feature","geometry":{"type":"Polygon","coordinates":[[[6.566528320000032,14.829711914000029],[6.547302246000072,14.698486328000058],[6.668896944000039,14.570353064000074],[6.780083633000061,14.645821750000039],[6.700006174000066,14.763345504000029],[6.856381898000052,14.882839509000064],[7.144176832000028,14.843134915000064],[7.482921770000075,15.051393921000056],[7.43750013600004,15.299871686000074],[7.341183946000058,15.343979099000023],[7.018107692820235,15.453529252350714],[6.744873046000066,15.443908691000047],[6.566528320000032,14.829711914000029]]]},"properties":{"shapeName":"Bérmo","shapeISO":"","shapeID":"23599985B15241034776795","shapeGroup":"NER","shapeType":"ADM2"}},
{"type":"Feature","geometry":{"type":"Polygon","coordinates":[[[6.236877441000047,16.678710937000062],[6.556518555000025,16.363891601000034],[6.762084961000028,16.038330078000058],[6.744873046000066,15.443908691000047],[7.018107692820235,15.453529252350714],[6.959969869000076,15.723392873000023],[7.107594683000059,15.78280286000006],[7.029731595000044,15.91062434500003],[7.290775473000053,16.058249158000024],[7.27592297700005,16.391755216000035],[7.561270940000043,16.808075193000036],[7.559254600000031,17.07320575700004],[7.37588297800005,17.197919200000058],[7.566317548000029,17.367153406000057],[7.463046430000077,17.682716207000055],[8.045768376000069,17.949449041000037],[6.058440211000061,17.906681728000024],[6.094924468000045,18.849618346000057],[5.75175078500007,19.415903531000026],[4.240648791000069,19.125838775000034],[4.240295410000044,18.678283691000047],[4.874084473000039,18.673889160000044],[4.73327636700003,18.274108887000068],[4.759277344000054,17.954528809000067],[4.890686035000044,17.94189453100006],[5.234497070000032,17.485107422000056],[5.966491699000073,17.01947021500007],[6.236877441000047,16.678710937000062]]]},"properties":{"shapeName":"Ingall","shapeISO":"","shapeID":"23599985B91742674817727","shapeGroup":"NER","shapeType":"ADM2"}},
{"type":"Feature","geometry":{"type":"Polygon","coordinates":[[[7.154852627000025,13.536925360000055],[7.189300665000076,13.461105565000025],[7.093192262000059,13.527923847000068],[6.920813288000033,13.483366358000069],[6.75563552400007,13.247526717000028],[6.940616617000046,13.000885260000075],[7.625181682000061,13.229073615000061],[7.547318594000046,13.374448050000069],[7.419947185000069,13.38119918500007],[7.430467703000033,13.544464128000072],[7.154852627000025,13.536925360000055]]]},"properties":{"shapeName":"Madarounfa","shapeISO":"","shapeID":"23599985B10786712449018","shapeGroup":"NER","shapeType":"ADM2"}},
{"type":"Feature","geometry":{"type":"Polygon","coordinates":[[[7.430467703000033,13.544464128000072],[7.419947185000069,13.38119918500007],[7.547318594000046,13.374448050000069],[7.625181682000061,13.229073615000061],[7.710191971000029,13.286809319000042],[7.870697950000022,13.583845747000055],[7.774353631000054,13.750514386000077],[7.444532567000067,13.733636550000028],[7.430467703000033,13.544464128000072]]]},"properties":{"shapeName":"Aguié","shapeISO":"","shapeID":"23599985B59469969297601","shapeGroup":"NER","shapeType":"ADM2"}},
{"type":"Feature","geometry":{"type":"Polygon","coordinates":[[[7.710191971000029,13.286809319000042],[8.09128002600005,13.30438027200006],[8.163004082000043,13.499677099000053],[7.870697950000022,13.583845747000055],[7.710191971000029,13.286809319000042]]]},"properties":{"shapeName":"Gazaoua","shapeISO":"","shapeID":"23599985B75774451533542","shapeGroup":"NER","shapeType":"ADM2"}},
{"type":"Feature","geometry":{"type":"Polygon","coordinates":[[[7.444532567000067,13.733636550000028],[7.774353631000054,13.750514386000077],[8.071692734000067,13.93549435400007],[8.010626470000034,14.188112815000068],[8.085519058000045,14.453693456000053],[8.020996213000046,14.524553366000077],[7.767855663000034,14.42942537700003],[7.644084859000031,14.366864861000067],[7.358286821000036,14.526191641000025],[7.170605274000025,14.423574393000024],[7.372801761000062,13.778644115000077],[7.444532567000067,13.733636550000028]]]},"properties":{"shapeName":"Mayahi","shapeISO":"","shapeID":"23599985B12759501052009","shapeGroup":"NER","shapeType":"ADM2"}},
{"type":"Feature","geometry":{"type":"Polygon","coordinates":[[[8.045768376000069,17.949449041000037],[8.452421188000073,17.960718155000052],[8.007295609000039,18.336984634000032],[8.220254898000064,18.98646736200004],[8.044443130000047,19.319410324000046],[7.939786911000056,21.128801346000046],[7.369089127000052,20.774591446000045],[5.75175078500007,19.415903531000026],[6.094924468000045,18.849618346000057],[6.058440211000061,17.906681728000024],[8.045768376000069,17.949449041000037]]]},"properties":{"shapeName":"Arlit","shapeISO":"","shapeID":"23599985B35740417673211","shapeGroup":"NER","shapeType":"ADM2"}},
{"type":"Feature","geometry":{"type":"Polygon","coordinates":[[[7.767855663000034,14.42942537700003],[8.020996213000046,14.524553366000077],[8.145919211000034,15.01227334500004],[8.418665055000076,15.090136432000065],[8.413714223000056,15.291770324000026],[8.320548563000045,15.316524485000059],[8.373207414000035,15.580268817000047],[7.503824760000043,15.583429895000052],[7.341183946000058,15.343979099000023],[7.43750013600004,15.299871686000074],[7.482921770000075,15.051393921000056],[7.549045037000042,14.730392988000062],[7.713396510000052,14.65221282400006],[7.767855663000034,14.42942537700003]]]},"properties":{"shapeName":"Belbédji","shapeISO":"","shapeID":"23599985B37162587774633","shapeGroup":"NER","shapeType":"ADM2"}},
{"type":"Feature","geometry":{"type":"Polygon","coordinates":[[[7.870697950000022,13.583845747000055],[8.163004082000043,13.499677099000053],[8.09128002600005,13.30438027200006],[8.262380600000029,13.215375900000026],[8.359165054000073,13.376680426000064],[8.304105758000048,13.640821457000072],[8.233863992000067,13.727811445000043],[8.530265814000074,13.880477106000058],[8.526683211000034,14.162080440000068],[8.085519058000045,14.453693456000053],[8.010626470000034,14.188112815000068],[8.071692734000067,13.93549435400007],[7.774353631000054,13.750514386000077],[7.870697950000022,13.583845747000055]]]},"properties":{"shapeName":"Tessaoua","shapeISO":"","shapeID":"23599985B9962986153255","shapeGroup":"NER","shapeType":"ADM2"}},
{"type":"Feature","geometry":{"type":"Polygon","coordinates":[[[8.262380600000029,13.215375900000026],[8.328649521000045,13.152563095000062],[8.778276443000038,13.294336319000024],[8.67835807800003,13.694452286000057],[8.304105758000048,13.640821457000072],[8.359165054000073,13.376680426000064],[8.262380600000029,13.215375900000026]]]},"properties":{"shapeName":"Kantché","shapeISO":"","shapeID":"23599985B81952569357883","shapeGroup":"NER","shapeType":"ADM2"}},
{"type":"Feature","geometry":{"type":"Polygon","coordinates":[[[8.304105758000048,13.640821457000072],[8.67835807800003,13.694452286000057],[8.89259529100002,13.782667160000074],[8.925180435000073,13.90208244300004],[9.089944839000054,13.879613876000064],[9.201131821000047,13.956235886000059],[9.01101875300003,14.259836197000027],[8.667379379000067,14.102849960000071],[8.578371048000065,14.212308884000038],[8.526683211000034,14.162080440000068],[8.530265814000074,13.880477106000058],[8.233863992000067,13.727811445000043],[8.304105758000048,13.640821457000072]]]},"properties":{"shapeName":"Takeita","shapeISO":"","shapeID":"23599985B25575457251727","shapeGroup":"NER","shapeType":"ADM2"}},
{"type":"Feature","geometry":{"type":"MultiPolygon","coordinates":[[[[8.328649521000045,13.152563095000062],[8.685811959000034,12.930493428000034],[9.199124364000056,12.83981443600004],[9.07082467400005,13.133657577000065],[9.109981255000037,13.299735492000025],[8.778276443000038,13.294336319000024],[8.328649521000045,13.152563095000062]]],[[[9.180266138000036,13.306816050000066],[9.412913036000077,13.212486531000025],[9.540477826000028,13.606910998000046],[9.507731309000064,13.607888506000052],[9.26576211300005,13.590745362000064],[9.180266138000036,13.306816050000066]]]]},"properties":{"shapeName":"Magaria","shapeISO":"","shapeID":"23599985B72934105448405","shapeGroup":"NER","shapeType":"ADM2"}},
{"type":"Feature","geometry":{"type":"Polygon","coordinates":[[[8.452421188000073,17.960718155000052],[11.000192643000048,18.006872177000048],[10.974988938000024,22.94221305800005],[7.939786911000056,21.128801346000046],[8.044443130000047,19.319410324000046],[8.220254898000064,18.98646736200004],[8.007295609000039,18.336984634000032],[8.452421188000073,17.960718155000052]]]},"properties":{"shapeName":"Iférouane","shapeISO":"","shapeID":"23599985B42361363165505","shapeGroup":"NER","shapeType":"ADM2"}},
{"type":"Feature","geometry":{"type":"Polygon","coordinates":[[[7.561270940000043,16.808075193000036],[7.71058289900003,16.879998698000065],[8.132084337000038,16.75917871300004],[8.69160990100005,16.82134822000006],[9.067770610000025,16.957902174000026],[8.834294786000044,17.232667935000052],[10.02920053300005,17.548473392000062],[10.987971634000075,17.65926805600003],[11.000192643000048,18.006872177000048],[8.452421188000073,17.960718155000052],[8.045768376000069,17.949449041000037],[7.463046430000077,17.682716207000055],[7.566317548000029,17.367153406000057],[7.37588297800005,17.197919200000058],[7.559254600000031,17.07320575700004],[7.561270940000043,16.808075193000036]]]},"properties":{"shapeName":"Tchirozérine","shapeISO":"","shapeID":"23599985B66307714151869","shapeGroup":"NER","shapeType":"ADM2"}},
{"type":"Feature","geometry":{"type":"Polygon","coordinates":[[[7.341183946000058,15.343979099000023],[7.503824760000043,15.583429895000052],[8.373207414000035,15.580268817000047],[9.628310354000064,16.184009584000023],[11.001737595000066,17.117128372000025],[10.987971634000075,17.65926805600003],[10.02920053300005,17.548473392000062],[8.834294786000044,17.232667935000052],[9.067770610000025,16.957902174000026],[8.69160990100005,16.82134822000006],[8.132084337000038,16.75917871300004],[7.71058289900003,16.879998698000065],[7.561270940000043,16.808075193000036],[7.27592297700005,16.391755216000035],[7.290775473000053,16.058249158000024],[7.029731595000044,15.91062434500003],[7.107594683000059,15.78280286000006],[6.959969869000076,15.723392873000023],[7.018107692820235,15.453529252350714],[7.341183946000058,15.343979099000023]]]},"properties":{"shapeName":"Aderbissinat","shapeISO":"","shapeID":"23599985B52241460380538","shapeGroup":"NER","shapeType":"ADM2"}},
{"type":"Feature","geometry":{"type":"Polygon","coordinates":[[[8.085519058000045,14.453693456000053],[8.526683211000034,14.162080440000068],[8.578371048000065,14.212308884000038],[8.667379379000067,14.102849960000071],[9.01101875300003,14.259836197000027],[9.38025816000004,14.519811805000074],[9.380948525000065,14.729872159000024],[9.616094589000056,15.030187607000073],[9.628310354000064,16.184009584000023],[8.373207414000035,15.580268817000047],[8.320548563000045,15.316524485000059],[8.413714223000056,15.291770324000026],[8.418665055000076,15.090136432000065],[8.145919211000034,15.01227334500004],[8.020996213000046,14.524553366000077],[8.085519058000045,14.453693456000053]]]},"properties":{"shapeName":"Tanout","shapeISO":"","shapeID":"23599985B69081741011402","shapeGroup":"NER","shapeType":"ADM2"}},
{"type":"Feature","geometry":{"type":"Polygon","coordinates":[[[9.201131821000047,13.956235886000059],[9.391896614000075,13.944640003000075],[9.338720180000053,13.78333163700006],[9.470586006000076,13.73936332900007],[9.507731309000064,13.607888506000052],[9.540477826000028,13.606910998000046],[9.620144726000035,13.617663586000049],[9.701766642000052,13.958325115000036],[9.940278587000023,14.063407222000023],[9.949564913000074,14.226651054000058],[9.756624389000024,14.411439161000033],[9.483860564000054,14.372651645000076],[9.38025816000004,14.519811805000074],[9.01101875300003,14.259836197000027],[9.201131821000047,13.956235886000059]]]},"properties":{"shapeName":"Damagaram Takaya","shapeISO":"","shapeID":"23599985B91194911882215","shapeGroup":"NER","shapeType":"ADM2"}},
{"type":"Feature","geometry":{"type":"Polygon","coordinates":[[[8.89259529100002,13.782667160000074],[8.98060453200003,13.749484356000039],[8.961793106000073,13.592737133000071],[9.09766671400007,13.601534704000073],[9.089944839000054,13.879613876000064],[8.925180435000073,13.90208244300004],[8.89259529100002,13.782667160000074]]]},"properties":{"shapeName":"Zinder","shapeISO":"","shapeID":"23599985B17840081467963","shapeGroup":"NER","shapeType":"ADM2"}},
{"type":"Feature","geometry":{"type":"Polygon","coordinates":[[[8.778276443000038,13.294336319000024],[9.109981255000037,13.299735492000025],[9.180266138000036,13.306816050000066],[9.26576211300005,13.590745362000064],[9.507731309000064,13.607888506000052],[9.470586006000076,13.73936332900007],[9.338720180000053,13.78333163700006],[9.391896614000075,13.944640003000075],[9.201131821000047,13.956235886000059],[9.089944839000054,13.879613876000064],[9.09766671400007,13.601534704000073],[8.961793106000073,13.592737133000071],[8.98060453200003,13.749484356000039],[8.89259529100002,13.782667160000074],[8.67835807800003,13.694452286000057],[8.778276443000038,13.294336319000024]]]},"properties":{"shapeName":"Mirriah","shapeISO":"","shapeID":"23599985B93207740600063","shapeGroup":"NER","shapeType":"ADM2"}},
{"type":"Feature","geometry":{"type":"Polygon","coordinates":[[[9.199124364000056,12.83981443600004],[9.65680127500002,12.811219508000022],[9.908509579000054,13.081989216000068],[9.780456034000053,13.172897458000023],[9.620144726000035,13.617663586000049],[9.540477826000028,13.606910998000046],[9.412913036000077,13.212486531000025],[9.180266138000036,13.306816050000066],[9.109981255000037,13.299735492000025],[9.07082467400005,13.133657577000065],[9.199124364000056,12.83981443600004]]]},"properties":{"shapeName":"Dungass","shapeISO":"","shapeID":"23599985B10149369238340","shapeGroup":"NER","shapeType":"ADM2"}},
{"type":"Feature","geometry":{"type":"Polygon","coordinates":[[[9.38025816000004,14.519811805000074],[9.483860564000054,14.372651645000076],[9.756624389000024,14.411439161000033],[9.949564913000074,14.226651054000058],[9.940278587000023,14.063407222000023],[9.701766642000052,13.958325115000036],[9.620144726000035,13.617663586000049],[9.780456034000053,13.172897458000023],[9.908509579000054,13.081989216000068],[10.202055223000059,13.279719530000023],[10.648424464000072,13.365427428000032],[10.614270336000061,13.536041670000031],[11.221791542000062,14.175331885000048],[10.435386377000043,14.610322933000077],[10.180256795000048,14.643558204000044],[9.616094589000056,15.030187607000073],[9.380948525000065,14.729872159000024],[9.38025816000004,14.519811805000074]]]},"properties":{"shapeName":"Gouré","shapeISO":"","shapeID":"23599985B20082731758941","shapeGroup":"NER","shapeType":"ADM2"}},
{"type":"Feature","geometry":{"type":"Polygon","coordinates":[[[11.001737595000066,17.117128372000025],[9.628310354000064,16.184009584000023],[9.616094589000056,15.030187607000073],[10.180256795000048,14.643558204000044],[10.435386377000043,14.610322933000077],[11.221791542000062,14.175331885000048],[11.570917130000055,14.210378647000027],[11.718046096714115,14.321808519038072],[11.982858657000065,14.435518265000042],[11.907270432000075,14.486974716000077],[12.008840561000056,14.625631333000058],[12.009603500000026,17.503503799000043],[11.001737595000066,17.117128372000025]]]},"properties":{"shapeName":"Tesker","shapeISO":"","shapeID":"23599985B16015640173227","shapeGroup":"NER","shapeType":"ADM2"}},
{"type":"Feature","geometry":{"type":"Polygon","coordinates":[[[10.648424464000072,13.365427428000032],[11.357235047000074,13.37919074000007],[11.744171803000029,13.54497609300006],[11.598718616000042,13.889997307000044],[11.696625815000061,13.97726921900005],[11.718046096714115,14.321808519038072],[11.570917130000055,14.210378647000027],[11.221791542000062,14.175331885000048],[10.614270336000061,13.536041670000031],[10.648424464000072,13.365427428000032]]]},"properties":{"shapeName":"Goudoumaria","shapeISO":"","shapeID":"23599985B75635581877036","shapeGroup":"NER","shapeType":"ADM2"}},
{"type":"Feature","geometry":{"type":"Polygon","coordinates":[[[11.718046096714115,14.321808519038072],[11.696625815000061,13.97726921900005],[11.598718616000042,13.889997307000044],[11.744171803000029,13.54497609300006],[11.357235047000074,13.37919074000007],[12.269323349000047,13.087381363000077],[12.124521256000037,13.721769333000054],[12.425104142000066,13.76233482400005],[12.326375961000053,14.01013374300004],[12.027257919000022,14.042390823000062],[12.028642654000066,14.434919358000059],[11.982858657000065,14.435518265000042],[11.718046096714115,14.321808519038072]]]},"properties":{"shapeName":"Maïné-Soroa","shapeISO":"","shapeID":"23599985B74336618625682","shapeGroup":"NER","shapeType":"ADM2"}},
{"type":"Feature","geometry":{"type":"Polygon","coordinates":[[[12.425104142000066,13.76233482400005],[13.134683609000035,13.89019584700003],[13.56292533900006,13.925672531000032],[13.474336624000046,14.486974716000077],[13.292581558000052,14.593889236000052],[13.191778183000054,14.373949051000068],[12.784734726000067,14.516759873000069],[12.434213638000074,14.370149612000034],[12.028642654000066,14.434919358000059],[12.027257919000022,14.042390823000062],[12.326375961000053,14.01013374300004],[12.425104142000066,13.76233482400005]]]},"properties":{"shapeName":"N'Guigmi","shapeISO":"","shapeID":"23599985B27242520162456","shapeGroup":"NER","shapeType":"ADM2"}},
{"type":"Feature","geometry":{"type":"Polygon","coordinates":[[[11.982858657000065,14.435518265000042],[12.028642654000066,14.434919358000059],[12.434213638000074,14.370149612000034],[12.784734726000067,14.516759873000069],[13.191778183000054,14.373949051000068],[13.292581558000052,14.593889236000052],[13.474336624000046,14.486974716000077],[13.672895431000029,14.551122666000026],[13.85006523100003,15.04751396100005],[14.376241684000036,15.745515823000062],[15.488157272000024,16.887216568000042],[15.53846550000003,17.997747421000042],[12.997922897000024,18.000810623000064],[12.192945480000049,17.673345565000034],[12.009603500000026,17.503503799000043],[12.008840561000056,14.625631333000058],[11.907270432000075,14.486974716000077],[11.982858657000065,14.435518265000042]]]},"properties":{"shapeName":"N'Gourti","shapeISO":"","shapeID":"23599985B32057380818540","shapeGroup":"NER","shapeType":"ADM2"}},
{"type":"Feature","geometry":{"type":"Polygon","coordinates":[[[11.000192643000048,18.006872177000048],[10.987971634000075,17.65926805600003],[11.001737595000066,17.117128372000025],[12.009603500000026,17.503503799000043],[12.192945480000049,17.673345565000034],[12.997922897000024,18.000810623000064],[15.53846550000003,17.997747421000042],[15.743703842000059,19.94154548700004],[15.996671676000062,20.33531761200004],[15.579034806000038,20.756532669000023],[15.620798111000056,20.95580482500003],[15.198389053000028,21.47248268100003],[14.997922897000024,22.98671150200005],[14.18531990100007,22.629930496000043],[13.52187538100003,23.15495872500003],[11.983758927000054,23.514444351000066],[10.974988938000024,22.94221305800005],[11.000192643000048,18.006872177000048]]]},"properties":{"shapeName":"Bilma","shapeISO":"","shapeID":"23599985B30294266740058","shapeGroup":"NER","shapeType":"ADM2"}},
{"type":"Feature","geometry":{"type":"Polygon","coordinates":[[[12.269323349000047,13.087381363000077],[12.467138290000037,13.074171066000076],[12.561838150000028,13.277845383000056],[12.925588608000055,13.513525009000034],[12.936342239000055,13.633745193000038],[13.137708664000058,13.755983352000044],[13.134683609000035,13.89019584700003],[12.425104142000066,13.76233482400005],[12.124521256000037,13.721769333000054],[12.269323349000047,13.087381363000077]]]},"properties":{"shapeName":"Diffa","shapeISO":"","shapeID":"23599985B49279802347692","shapeGroup":"NER","shapeType":"ADM2"}},
{"type":"Feature","geometry":{"type":"Polygon","coordinates":[[[13.134683609000035,13.89019584700003],[13.137708664000058,13.755983352000044],[12.936342239000055,13.633745193000038],[12.925588608000055,13.513525009000034],[13.174211502000048,13.525503158000049],[13.328474045000064,13.715658188000077],[13.612562179000065,13.72024345400007],[13.56292533900006,13.925672531000032],[13.134683609000035,13.89019584700003]]]},"properties":{"shapeName":"Bosso","shapeISO":"","shapeID":"23599985B85188331861732","shapeGroup":"NER","shapeType":"ADM2"}},
{"type":"Feature","geometry":{"type":"Polygon","coordinates":[[[7.093192262000059,13.527923847000068],[7.189300665000076,13.461105565000025],[7.154852627000025,13.536925360000055],[7.093192262000059,13.527923847000068]]]},"properties":{"shapeName":"Maradi","shapeISO":"","shapeID":"23599985B96333695472040","shapeGroup":"NER","shapeType":"ADM2"}}
]}