{"type":"FeatureCollection", "features": [
{"type":"Feature","geometry":{"type":"Polygon","coordinates":[[[-169.91087675296984,-18.996857992804223],[-169.8987492481033,-19.00357006784151],[-169.8840596638352,-19.02268668158456],[-169.86511961153425,-19.030555196430782],[-169.85823384119817,-19.02737219545662],[-169.85632235384293,-19.01830795206513],[-169.86759325598084,-18.998127286893293],[-169.88457984591165,-18.991002248899918],[-169.89165862181602,-18.988894495929458],[-169.89511102677068,-18.983662106267218],[-169.90018067309305,-18.98171318637901],[-169.90083679957485,-18.982311766962596],[-169.90071070635673,-18.983731188684487],[-169.90156454276695,-18.984483728917496],[-169.9010790475895,-18.98556957454673],[-169.9034786606428,-18.988143535807524],[-169.90320890232894,-18.98863089887942],[-169.9039910374925,-18.988801987040006],[-169.90453901495363,-18.990597649650397],[-169.9052670441305,-18.991623712764465],[-169.90612994661873,-18.99148700753159],[-169.90658832000463,-18.9931031499263],[-169.90742422750586,-18.993334033192582],[-169.9070555957917,-18.99396675298732],[-169.9080533545041,-18.993992571659476],[-169.91087675296984,-18.996857992804223]]]},"properties":{"shapeName":"Tuapa","shapeISO":"","shapeID":"93272968B79995440519868","shapeGroup":"NIU","shapeType":"ADM1"}},
{"type":"Feature","geometry":{"type":"Polygon","coordinates":[[[-169.88457984591165,-18.991002248899918],[-169.8842281268711,-18.98949240471859],[-169.88983452979804,-18.975313255661206],[-169.89367514023812,-18.97208417066406],[-169.89654919668504,-18.97498297918571],[-169.89656935501642,-18.97545483252827],[-169.89597218726968,-18.975214084584877],[-169.89617450263262,-18.976157813753105],[-169.8973485682786,-18.976340816148536],[-169.8985629065205,-18.977891397875908],[-169.90018067309305,-18.98171318637901],[-169.89511102677068,-18.983662106267218],[-169.89165862181602,-18.988894495929458],[-169.88457984591165,-18.991002248899918]]]},"properties":{"shapeName":"Namukulu","shapeISO":"","shapeID":"93272968B92904151584159","shapeGroup":"NIU","shapeType":"ADM1"}},
{"type":"Feature","geometry":{"type":"Polygon","coordinates":[[[-169.86759325598084,-18.998127286893293],[-169.8540519222839,-18.991720445775343],[-169.8543338502404,-18.987985860154367],[-169.85907083598127,-18.980706393964226],[-169.8612970792908,-18.978495488613305],[-169.86136654661846,-18.972468778856353],[-169.86458503938596,-18.96631846790615],[-169.86720456755882,-18.9576830929023],[-169.8727759724209,-18.959248968521422],[-169.8776644077998,-18.95967522797224],[-169.87933632802313,-18.960355607404324],[-169.8806633775527,-18.961910398864006],[-169.87992341075855,-18.960756490650056],[-169.88052325938799,-18.960987444063562],[-169.88421201369587,-18.96373412665605],[-169.88569969855152,-18.966209669574084],[-169.88988850718147,-18.968416092697794],[-169.89367514023812,-18.97208417066406],[-169.88983452979804,-18.975313255661206],[-169.8842281268711,-18.98949240471859],[-169.88457984591165,-18.991002248899918],[-169.86759325598084,-18.998127286893293]]]},"properties":{"shapeName":"Hikutavake","shapeISO":"","shapeID":"93272968B4423412382248","shapeGroup":"NIU","shapeType":"ADM1"}},
{"type":"Feature","geometry":{"type":"Polygon","coordinates":[[[-169.8543338502404,-18.987985860154367],[-169.84122717297578,-18.97236707888294],[-169.8402086767678,-18.963626151204778],[-169.84254165716044,-18.95309609629851],[-169.84730059268466,-18.952480474438005],[-169.85032093755333,-18.95273902988174],[-169.85524887570745,-18.95421818825332],[-169.85958187823522,-18.95641748963601],[-169.8612428824725,-18.956256230179577],[-169.86720456755882,-18.9576830929023],[-169.86458503938596,-18.96631846790615],[-169.86136654661846,-18.972468778856353],[-169.8612970792908,-18.978495488613305],[-169.85907083598127,-18.980706393964226],[-169.8543338502404,-18.987985860154367]]]},"properties":{"shapeName":"Toi","shapeISO":"","shapeID":"93272968B22364225711306","shapeGroup":"NIU","shapeType":"ADM1"}},
{"type":"Feature","geometry":{"type":"Polygon","coordinates":[[[-169.85823384119817,-19.02737219545662],[-169.84812523256448,-19.030038050469784],[-169.84773667994028,-19.02361532730265],[-169.84758628251046,-19.010252916670765],[-169.83544060321972,-18.998821246106957],[-169.82025241613732,-18.989775027851977],[-169.81292726792174,-18.991214634884955],[-169.80249677889472,-18.986732961628093],[-169.80275100499614,-18.983364048048315],[-169.80184036193148,-18.982335929980593],[-169.80231835225612,-18.97463043996231],[-169.80512525533422,-18.96638039171006],[-169.80603758463005,-18.964711370005716],[-169.80775927969907,-18.963877588504715],[-169.8077598210917,-18.963074819267774],[-169.8110687426139,-18.960604539189603],[-169.81948010608065,-18.95763729306549],[-169.83244353103893,-18.955987528570574],[-169.83289968939158,-18.955399715584633],[-169.84254165716044,-18.95309609629851],[-169.8402086767678,-18.963626151204778],[-169.84122717297578,-18.97236707888294],[-169.8543338502404,-18.987985860154367],[-169.8540519222839,-18.991720445775343],[-169.86759325598084,-18.998127286893293],[-169.85632235384293,-19.01830795206513],[-169.85823384119817,-19.02737219545662]]]},"properties":{"shapeName":"Mutalau","shapeISO":"","shapeID":"93272968B97328284886537","shapeGroup":"NIU","shapeType":"ADM1"}},
{"type":"Feature","geometry":{"type":"Polygon","coordinates":[[[-169.84773667994028,-19.02361532730265],[-169.84037960125156,-19.028602852818835],[-169.83378422330273,-19.027188836029893],[-169.81465240649962,-19.02722327651429],[-169.80040811855756,-19.025746328679304],[-169.7938814210285,-19.023928558004684],[-169.7949854770549,-19.022390908546072],[-169.79498137344277,-19.018253047479448],[-169.79298916912495,-19.013790401205256],[-169.79300181630825,-19.01066535442203],[-169.79977757062855,-18.99624334850813],[-169.80103967103065,-18.989975073322967],[-169.80249677889472,-18.986732961628093],[-169.81292726792174,-18.991214634884955],[-169.82025241613732,-18.989775027851977],[-169.83544060321972,-18.998821246106957],[-169.84758628251046,-19.010252916670765],[-169.84773667994028,-19.02361532730265]]]},"properties":{"shapeName":"Lakepa","shapeISO":"","shapeID":"93272968B46019940392073","shapeGroup":"NIU","shapeType":"ADM1"}},
{"type":"Feature","geometry":{"type":"Polygon","coordinates":[[[-169.83378422330273,-19.027188836029893],[-169.833431388202,-19.0292716471684],[-169.85146881490533,-19.04811073334372],[-169.8577177402508,-19.06209347289422],[-169.85616106920546,-19.06635978430529],[-169.8576495535595,-19.068280296369664],[-169.84368188666727,-19.06979323332382],[-169.84145051271838,-19.080120576265585],[-169.8028550863776,-19.101520166228113],[-169.79662467899786,-19.097374722067514],[-169.79338591008764,-19.093754588824083],[-169.79176752568,-19.089312365282296],[-169.79068713804372,-19.08889423661327],[-169.7888313853496,-19.086645355538053],[-169.7791163304769,-19.073345554893763],[-169.77759937084974,-19.070294240029227],[-169.7774657520944,-19.06856024401634],[-169.77459925086237,-19.064191327912624],[-169.77368188985278,-19.06067990037093],[-169.77504480349555,-19.056742705308295],[-169.78004685668003,-19.051127805574993],[-169.78468325311172,-19.041492452328896],[-169.7869978522358,-19.039491756600626],[-169.78880683472332,-19.0342422177427],[-169.79363259176606,-19.026000703169075],[-169.7938814210285,-19.023928558004684],[-169.80040811855756,-19.025746328679304],[-169.81465240649962,-19.02722327651429],[-169.83378422330273,-19.027188836029893]]]},"properties":{"shapeName":"Liku","shapeISO":"","shapeID":"93272968B39016058610074","shapeGroup":"NIU","shapeType":"ADM1"}},
{"type":"Feature","geometry":{"type":"Polygon","coordinates":[[[-169.8576495535595,-19.068280296369664],[-169.8618719932829,-19.071833592806115],[-169.86359760220688,-19.074189299098123],[-169.86862209800384,-19.081021483256393],[-169.87369991467824,-19.083559777355788],[-169.87522931014774,-19.088323510769726],[-169.87689162739704,-19.090620082059274],[-169.8754806817971,-19.094131518594168],[-169.87486939197686,-19.10127208969925],[-169.88050369011336,-19.11823350037679],[-169.87907522569586,-19.118209692591563],[-169.87932894367964,-19.122182882169227],[-169.87759154822476,-19.122182481970356],[-169.87756070413414,-19.1238338805357],[-169.87931018829258,-19.123829767030998],[-169.87923943763064,-19.1254988624799],[-169.8775185456573,-19.12549846497899],[-169.876475053658,-19.14607878671967],[-169.87761527147362,-19.155172062065333],[-169.8747947985065,-19.154726997764726],[-169.86659821412408,-19.1507813643517],[-169.85696846186337,-19.148056257424116],[-169.8500458030849,-19.146806677400775],[-169.84477757089326,-19.147323119191697],[-169.84275741830578,-19.14667950769268],[-169.83937228902792,-19.142106602585386],[-169.8388134585334,-19.13980369646265],[-169.8354372775222,-19.133469554840246],[-169.83050893287398,-19.127188796148573],[-169.82632217290248,-19.123292432161577],[-169.82210967879524,-19.120648965801593],[-169.81385329481046,-19.11317535549989],[-169.80751791212194,-19.105419349593546],[-169.8028550863776,-19.101520166228113],[-169.84145051271838,-19.080120576265585],[-169.84368188666727,-19.06979323332382],[-169.8576495535595,-19.068280296369664]]]},"properties":{"shapeName":"Hakupu","shapeISO":"","shapeID":"93272968B74056989697157","shapeGroup":"NIU","shapeType":"ADM1"}},
{"type":"Feature","geometry":{"type":"Polygon","coordinates":[[[-169.88050369011336,-19.11823350037679],[-169.881069191788,-19.122181460339107],[-169.8828084884123,-19.122181828162354],[-169.882774843829,-19.12383503346814],[-169.88451415754045,-19.123837192743338],[-169.88444310290723,-19.12712824471197],[-169.88784101066958,-19.127128886828757],[-169.89188224484548,-19.129006279939063],[-169.89906485122012,-19.139403076718622],[-169.88995488263566,-19.146316340266765],[-169.88179631264836,-19.154741448091215],[-169.88031526569787,-19.155430686756972],[-169.87761527147362,-19.155172062065333],[-169.876475053658,-19.14607878671967],[-169.8775185456573,-19.12549846497899],[-169.87923943763064,-19.1254988624799],[-169.87931018829258,-19.123829767030998],[-169.87756070413414,-19.1238338805357],[-169.87759154822476,-19.122182481970356],[-169.87932894367964,-19.122182882169227],[-169.87907522569586,-19.118209692591563],[-169.88050369011336,-19.11823350037679]]]},"properties":{"shapeName":"Vaiea","shapeISO":"","shapeID":"93272968B84240109118138","shapeGroup":"NIU","shapeType":"ADM1"}},
{"type":"Feature","geometry":{"type":"Polygon","coordinates":[[[-169.8754806817971,-19.094131518594168],[-169.87919100367594,-19.09348041303423],[-169.88812117775112,-19.100252097017346],[-169.9074630090238,-19.107598144606698],[-169.91386917385057,-19.111390053993034],[-169.91193138039,-19.118106447580715],[-169.91199922713707,-19.121899807575517],[-169.9128348630427,-19.12357130781487],[-169.91242648303808,-19.12495050190705],[-169.91327851720442,-19.125933884936785],[-169.91267143441848,-19.12645909243173],[-169.91295721507595,-19.126945583160023],[-169.91405434001783,-19.126787713253066],[-169.91530660452122,-19.12872083922582],[-169.92287376243078,-19.133935485239647],[-169.92274470144582,-19.13549185321307],[-169.91908235756478,-19.137585378889185],[-169.91559314870412,-19.138417156697926],[-169.90539434154252,-19.137586813309838],[-169.89906485122012,-19.139403076718622],[-169.89188224484548,-19.129006279939063],[-169.88784101066958,-19.127128886828757],[-169.88444310290723,-19.12712824471197],[-169.88451415754045,-19.123837192743338],[-169.882774843829,-19.12383503346814],[-169.8828084884123,-19.122181828162354],[-169.881069191788,-19.122181460339107],[-169.88050369011336,-19.11823350037679],[-169.87486939197686,-19.10127208969925],[-169.8754806817971,-19.094131518594168]]]},"properties":{"shapeName":"Avatele","shapeISO":"","shapeID":"93272968B73075059072765","shapeGroup":"NIU","shapeType":"ADM1"}},
{"type":"Feature","geometry":{"type":"Polygon","coordinates":[[[-169.87919100367594,-19.09348041303423],[-169.88552614984243,-19.087796201556216],[-169.89310277852547,-19.084418246180235],[-169.90471941290883,-19.081407698539408],[-169.90669927311527,-19.08120531932451],[-169.90811882613838,-19.081826962154366],[-169.910313924084,-19.07986401462159],[-169.91174962625527,-19.08061933286416],[-169.91303624490806,-19.07955428408576],[-169.91365100521682,-19.079873209302832],[-169.91330320182988,-19.080594107745412],[-169.91410291606562,-19.08224013195479],[-169.9238259785128,-19.080521516168687],[-169.92765001982073,-19.082140577766722],[-169.93428821545035,-19.08275615106379],[-169.93812000712632,-19.08249764148553],[-169.9429471329391,-19.079399009625774],[-169.94635821848553,-19.080603072199892],[-169.9443056336025,-19.08421811437421],[-169.94053454355017,-19.08860744601577],[-169.92475408733495,-19.098992832181523],[-169.9173610617953,-19.10573398863579],[-169.91422257822293,-19.110008142145944],[-169.91386917385057,-19.111390053993034],[-169.9074630090238,-19.107598144606698],[-169.88812117775112,-19.100252097017346],[-169.87919100367594,-19.09348041303423]]]},"properties":{"shapeName":"Tamakautoga","shapeISO":"","shapeID":"93272968B40499677561204","shapeGroup":"NIU","shapeType":"ADM1"}},
{"type":"Feature","geometry":{"type":"Polygon","coordinates":[[[-169.86359760220688,-19.074189299098123],[-169.90757659355435,-19.056195017429218],[-169.9122069654194,-19.056684936377906],[-169.91639338005075,-19.054387554798097],[-169.91837878998118,-19.054523554062143],[-169.9204575955338,-19.053700752399095],[-169.9215993619841,-19.05435544625891],[-169.9218059095624,-19.055659415555795],[-169.9238772273494,-19.055964833836413],[-169.92311415424217,-19.056963374060786],[-169.92406081520429,-19.057879951759787],[-169.92571326238055,-19.05763979107445],[-169.92675759614644,-19.058201676570206],[-169.9264477010345,-19.05871996736977],[-169.92716491674824,-19.058856448671122],[-169.9277158269026,-19.060264018211512],[-169.92989616425518,-19.06013835217192],[-169.92987331874585,-19.061104088680224],[-169.93101502314283,-19.06084764484757],[-169.9311299395712,-19.061682380530556],[-169.93201351210575,-19.0615077022714],[-169.93335048566775,-19.062887922491427],[-169.93376926814477,-19.062615157739856],[-169.93590391717663,-19.064442666286993],[-169.93764256808683,-19.064960797007018],[-169.9396453268627,-19.066864702167663],[-169.94154468234686,-19.06739371110217],[-169.9420727047237,-19.068446654089826],[-169.94601494049334,-19.070082849595053],[-169.9489246092429,-19.072706716103426],[-169.94976854230515,-19.075488966931687],[-169.94635821848553,-19.080603072199892],[-169.9429471329391,-19.079399009625774],[-169.93812000712632,-19.08249764148553],[-169.93428821545035,-19.08275615106379],[-169.92765001982073,-19.082140577766722],[-169.9238259785128,-19.080521516168687],[-169.91410291606562,-19.08224013195479],[-169.91330320182988,-19.080594107745412],[-169.91365100521682,-19.079873209302832],[-169.91303624490806,-19.07955428408576],[-169.91174962625527,-19.08061933286416],[-169.910313924084,-19.07986401462159],[-169.90811882613838,-19.081826962154366],[-169.90669927311527,-19.08120531932451],[-169.90471941290883,-19.081407698539408],[-169.89310277852547,-19.084418246180235],[-169.88552614984243,-19.087796201556216],[-169.87919100367594,-19.09348041303423],[-169.8754806817971,-19.094131518594168],[-169.87689162739704,-19.090620082059274],[-169.87522931014774,-19.088323510769726],[-169.87369991467824,-19.083559777355788],[-169.86862209800384,-19.081021483256393],[-169.86359760220688,-19.074189299098123]]]},"properties":{"shapeName":"Alofi South","shapeISO":"","shapeID":"93272968B84066650409930","shapeGroup":"NIU","shapeType":"ADM1"}},
{"type":"Feature","geometry":{"type":"Polygon","coordinates":[[[-169.86511961153425,-19.030555196430782],[-169.878741073137,-19.039991239852384],[-169.88574889603169,-19.04037710350002],[-169.89991556877717,-19.03073108517907],[-169.9159497411775,-19.024233659723564],[-169.9216765491028,-19.02382050611095],[-169.91812669527593,-19.03424423672351],[-169.91761351622986,-19.040355933429908],[-169.91711724446154,-19.04072396979211],[-169.9176303119915,-19.041324019869933],[-169.91738627072624,-19.04556386599546],[-169.91846298013027,-19.04683587424222],[-169.91777326662182,-19.047339781265237],[-169.9190098748062,-19.048979744935025],[-169.91875744555267,-19.049707703065337],[-169.9204575955338,-19.053700752399095],[-169.91837878998118,-19.054523554062143],[-169.91639338005075,-19.054387554798097],[-169.9122069654194,-19.056684936377906],[-169.90757659355435,-19.056195017429218],[-169.86359760220688,-19.074189299098123],[-169.8618719932829,-19.071833592806115],[-169.8576495535595,-19.068280296369664],[-169.85616106920546,-19.06635978430529],[-169.8577177402508,-19.06209347289422],[-169.85146881490533,-19.04811073334372],[-169.833431388202,-19.0292716471684],[-169.83378422330273,-19.027188836029893],[-169.84037960125156,-19.028602852818835],[-169.84773667994028,-19.02361532730265],[-169.84812523256448,-19.030038050469784],[-169.85823384119817,-19.02737219545662],[-169.86511961153425,-19.030555196430782]]]},"properties":{"shapeName":"Alofi North","shapeISO":"","shapeID":"93272968B57426624534658","shapeGroup":"NIU","shapeType":"ADM1"}},
{"type":"Feature","geometry":{"type":"Polygon","coordinates":[[[-169.91087675296984,-18.996857992804223],[-169.92196568603475,-19.008401811679335],[-169.92397241262495,-19.01441576273686],[-169.9215957071343,-19.021965274124966],[-169.9216765491028,-19.02382050611095],[-169.9159497411775,-19.024233659723564],[-169.89991556877717,-19.03073108517907],[-169.88574889603169,-19.04037710350002],[-169.878741073137,-19.039991239852384],[-169.86511961153425,-19.030555196430782],[-169.8840596638352,-19.02268668158456],[-169.8987492481033,-19.00357006784151],[-169.91087675296984,-18.996857992804223]]]},"properties":{"shapeName":"Makefu","shapeISO":"","shapeID":"93272968B40090915564601","shapeGroup":"NIU","shapeType":"ADM1"}}
]}