{"type":"FeatureCollection", "features": [
{"type":"Feature","geometry":{"type":"Polygon","coordinates":[[[86.26645256340191,26.910181169160637],[86.13801338623625,26.920139982739386],[86.15197416658754,26.6384660489623],[86.4665943071455,26.566565034204586],[86.55914933166616,26.863923382633516],[86.26645256340191,26.910181169160637]]]},"properties":{"shapeName":"Saptari","shapeISO":"","shapeID":"79688334B4946100078623","shapeGroup":"NPL","shapeType":"ADM2"}},
{"type":"Feature","geometry":{"type":"Polygon","coordinates":[[[86.01515852133844,27.909079051868048],[85.90905659236961,27.94065721727452],[85.76252424410904,28.189799754647538],[85.45516370862538,28.1488413461214],[85.39879294797882,28.069676097311802],[85.41412568098525,27.809238653910427],[85.54232728853925,27.75727303253675],[85.84204484770612,27.600214868315902],[86.00895206375253,27.744944515354575],[86.01515852133844,27.909079051868048]]]},"properties":{"shapeName":"Sindhupalchok","shapeISO":"","shapeID":"79688334B45086844065391","shapeGroup":"NPL","shapeType":"ADM2"}},
{"type":"Feature","geometry":{"type":"Polygon","coordinates":[[[85.21380974169165,27.25821527827327],[85.12654411315718,27.305461168448275],[84.97261884803459,27.38875414682482],[84.90679653091367,27.389688221378265],[84.95972354370213,27.2706250421964],[84.88154317498828,26.98236264946354],[85.02003411385272,26.91316890532204],[84.99602157203344,26.870337128834137],[85.11482903385348,26.896611961396104],[85.21380974169165,27.25821527827327]]]},"properties":{"shapeName":"Bara","shapeISO":"","shapeID":"79688334B75970147852459","shapeGroup":"NPL","shapeType":"ADM2"}},
{"type":"Feature","geometry":{"type":"Polygon","coordinates":[[[85.39879294797882,28.069676097311802],[85.22280937861814,27.972871695952733],[85.09316338224187,28.092308678933705],[84.95919477536347,28.02708293798861],[84.98922222137651,27.83525382368049],[85.21928236783197,27.77002566924682],[85.41412568098525,27.809238653910427],[85.39879294797882,28.069676097311802]]]},"properties":{"shapeName":"Nuwakot","shapeISO":"","shapeID":"79688334B17077666187877","shapeGroup":"NPL","shapeType":"ADM2"}},
{"type":"Feature","geometry":{"type":"Polygon","coordinates":[[[85.09821607754952,28.363105078692683],[85.183245721334,28.645122154094054],[85.13704965000818,28.699839483073106],[84.85545441841776,28.601308508816373],[84.69125756171348,28.66944449480991],[84.63813207968877,28.784898481147593],[84.5041634727674,28.774776042505664],[84.56190856173782,28.525455318650017],[84.69125756160639,28.405652481670586],[84.62427325829088,28.21857077845499],[84.44179877655375,28.118795325018993],[84.4256301515897,27.994455232119435],[84.58859453181208,27.90991581815541],[84.62461491831826,27.845994741303198],[84.73399096584774,27.835647698554737],[84.72769847445045,27.98253822112366],[85.09821607754952,28.363105078692683]]]},"properties":{"shapeName":"Gorkha","shapeISO":"","shapeID":"79688334B93802880856426","shapeGroup":"NPL","shapeType":"ADM2"}},
{"type":"Feature","geometry":{"type":"Polygon","coordinates":[[[83.90592434927294,27.481319791946817],[83.89206552734521,27.57554117553684],[84.09763804512193,27.581683242292684],[84.40567005388971,27.755193543713915],[84.3101399729643,27.76782891310239],[84.24546547302992,27.88222218688992],[83.98772111940832,27.886179542251],[83.95190841067608,27.759187612256824],[83.63798713548408,27.71058711258644],[83.55945381422998,27.524343919812736],[83.82739102791993,27.389068645329644],[83.81122240295588,27.48541805248948],[83.90592434927294,27.481319791946817]]]},"properties":{"shapeName":"Nawalparasi","shapeISO":"","shapeID":"79688334B71878033214617","shapeGroup":"NPL","shapeType":"ADM2"}},
{"type":"Feature","geometry":{"type":"Polygon","coordinates":[[[84.44179877655375,28.118795325018993],[84.18544148271542,28.125787881439976],[84.05326617398953,28.129392996942613],[83.94288120623469,28.1086089273212],[84.00346927804179,28.023060952585922],[83.93826159910213,27.912842759853334],[83.98772111940832,27.886179542251],[84.24546547302992,27.88222218688992],[84.3101399729643,27.76782891310239],[84.40567005388971,27.755193543713915],[84.41408113382965,27.83116865675379],[84.58859453181208,27.90991581815541],[84.4256301515897,27.994455232119435],[84.44179877655375,28.118795325018993]]]},"properties":{"shapeName":"Tanahu","shapeISO":"","shapeID":"79688334B55235398820876","shapeGroup":"NPL","shapeType":"ADM2"}},
{"type":"Feature","geometry":{"type":"Polygon","coordinates":[[[84.56190856173782,28.525455318650017],[84.28076904181205,28.509939648390116],[84.18544148271542,28.125787881439976],[84.44179877655375,28.118795325018993],[84.62427325829088,28.21857077845499],[84.69125756160639,28.405652481670586],[84.56190856173782,28.525455318650017]]]},"properties":{"shapeName":"Lamjung","shapeISO":"","shapeID":"79688334B1042132615369","shapeGroup":"NPL","shapeType":"ADM2"}},
{"type":"Feature","geometry":{"type":"Polygon","coordinates":[[[84.5041634727674,28.774776042505664],[84.42793995515626,28.90224691761057],[84.26856350908213,28.977037904449503],[84.15538313409235,28.948744961258342],[83.95212042026975,28.8901135644374],[83.82508122435377,28.736301819219932],[83.87589690281226,28.681603548753912],[84.28076904181205,28.509939648390116],[84.56190856173782,28.525455318650017],[84.5041634727674,28.774776042505664]]]},"properties":{"shapeName":"Manang","shapeISO":"","shapeID":"79688334B24106117496420","shapeGroup":"NPL","shapeType":"ADM2"}},
{"type":"Feature","geometry":{"type":"Polygon","coordinates":[[[84.18544148271542,28.125787881439976],[84.28076904181205,28.509939648390116],[83.87589690281226,28.681603548753912],[83.69573222448645,28.42596760364262],[83.80198318840763,28.28367999169666],[84.04220275920716,28.194144577752922],[84.05326617398953,28.129392996942613],[84.18544148271542,28.125787881439976]]]},"properties":{"shapeName":"Kaski","shapeISO":"","shapeID":"79688334B51705960872508","shapeGroup":"NPL","shapeType":"ADM2"}},
{"type":"Feature","geometry":{"type":"Polygon","coordinates":[[[83.63798713548408,27.71058711258644],[83.260438125522,27.798788323009205],[83.18901906728576,27.81546486468551],[83.24445580701445,27.467921009034455],[83.19623720340991,27.438150729448807],[83.322554585962,27.351633718501546],[83.36225433475778,27.50859596761694],[83.55945381422998,27.524343919812736],[83.63798713548408,27.71058711258644]]]},"properties":{"shapeName":"Nawalapur","shapeISO":"","shapeID":"79688334B17767934844471","shapeGroup":"NPL","shapeType":"ADM2"}},
{"type":"Feature","geometry":{"type":"Polygon","coordinates":[[[83.98772111940832,27.886179542251],[83.93826159910213,27.912842759853334],[83.41787209492867,27.968770280143644],[83.29188616911063,27.959124604777855],[83.260438125522,27.798788323009205],[83.63798713548408,27.71058711258644],[83.95190841067608,27.759187612256824],[83.98772111940832,27.886179542251]]]},"properties":{"shapeName":"Palpa","shapeISO":"","shapeID":"79688334B23419571027876","shapeGroup":"NPL","shapeType":"ADM2"}},
{"type":"Feature","geometry":{"type":"Polygon","coordinates":[[[84.05326617398953,28.129392996942613],[84.04220275920716,28.194144577752922],[83.80198318840763,28.28367999169666],[83.69111261747662,28.071929886802934],[83.58505345247727,28.047333263508904],[83.41787209492867,27.968770280143644],[83.93826159910213,27.912842759853334],[84.00346927804179,28.023060952585922],[83.94288120623469,28.1086089273212],[84.05326617398953,28.129392996942613]]]},"properties":{"shapeName":"Synagja","shapeISO":"","shapeID":"79688334B96987688238633","shapeGroup":"NPL","shapeType":"ADM2"}},
{"type":"Feature","geometry":{"type":"Polygon","coordinates":[[[83.18901906728576,27.81546486468551],[83.04826541246484,27.860144485935905],[82.85093808227236,27.81319548041546],[82.66570343441593,27.761185980905978],[82.75593089860581,27.521399352184744],[83.19623720340991,27.438150729448807],[83.24445580701445,27.467921009034455],[83.18901906728576,27.81546486468551]]]},"properties":{"shapeName":"Kapilbastu","shapeISO":"","shapeID":"79688334B7787687755663","shapeGroup":"NPL","shapeType":"ADM2"}},
{"type":"Feature","geometry":{"type":"Polygon","coordinates":[[[83.260438125522,27.798788323009205],[83.29188616911063,27.959124604777855],[83.17458279499652,28.10555281935342],[82.9910755642644,28.125386584091757],[83.00495659524097,27.971762957239264],[82.74149462631635,27.904805698191467],[82.85093808227236,27.81319548041546],[83.04826541246484,27.860144485935905],[83.18901906728576,27.81546486468551],[83.260438125522,27.798788323009205]]]},"properties":{"shapeName":"Arghakhanchi","shapeISO":"","shapeID":"79688334B25519916259767","shapeGroup":"NPL","shapeType":"ADM2"}},
{"type":"Feature","geometry":{"type":"Polygon","coordinates":[[[83.69573222448645,28.42596760364262],[83.56536691112956,28.404758526881665],[83.58901929987866,28.36053898811838],[83.6621348167539,28.253978104906423],[83.55353494259151,28.118286028114085],[83.58505345247727,28.047333263508904],[83.69111261747662,28.071929886802934],[83.80198318840763,28.28367999169666],[83.69573222448645,28.42596760364262]]]},"properties":{"shapeName":"Parbat","shapeISO":"","shapeID":"79688334B54926812711642","shapeGroup":"NPL","shapeType":"ADM2"}},
{"type":"Feature","geometry":{"type":"Polygon","coordinates":[[[83.41787209492867,27.968770280143644],[83.58505345247727,28.047333263508904],[83.55353494259151,28.118286028114085],[83.29040789468155,28.226467388204014],[83.30371236337021,28.29547677941082],[83.06631075282655,28.28367999195177],[82.9910755642644,28.125386584091757],[83.17458279499652,28.10555281935342],[83.29188616911063,27.959124604777855],[83.41787209492867,27.968770280143644]]]},"properties":{"shapeName":"Gulmi","shapeISO":"","shapeID":"79688334B41423953387869","shapeGroup":"NPL","shapeType":"ADM2"}},
{"type":"Feature","geometry":{"type":"Polygon","coordinates":[[[83.58901929987866,28.36053898811838],[83.27303817185754,28.434092560735905],[83.30768522550426,28.505159315015646],[83.14830877899863,28.533572626024352],[83.0882538867063,28.671471101802013],[82.96352449411364,28.655257148209273],[82.8642029407759,28.505159315015646],[82.96469693749316,28.395091077947313],[83.06631075282655,28.28367999195177],[83.30371236337021,28.29547677941082],[83.29040789468155,28.226467388204014],[83.55353494259151,28.118286028114085],[83.6621348167539,28.253978104906423],[83.58901929987866,28.36053898811838]]]},"properties":{"shapeName":"Baglung","shapeISO":"","shapeID":"79688334B67954640065490","shapeGroup":"NPL","shapeType":"ADM2"}},
{"type":"Feature","geometry":{"type":"Polygon","coordinates":[[[83.82508122435377,28.736301819219932],[83.65877536750946,28.610655848967156],[83.58024204632676,28.632958868090952],[83.56826927977755,28.801840975453217],[83.47142741746586,28.82654460869236],[83.27472814635036,28.753004918124873],[83.18469454543435,28.78750878698861],[83.0882538867063,28.671471101802013],[83.14830877899863,28.533572626024352],[83.30768522550426,28.505159315015646],[83.27303817185754,28.434092560735905],[83.58901929987866,28.36053898811838],[83.56536691112956,28.404758526881665],[83.69573222448645,28.42596760364262],[83.87589690281226,28.681603548753912],[83.82508122435377,28.736301819219932]]]},"properties":{"shapeName":"Myagdi","shapeISO":"","shapeID":"79688334B74772932609037","shapeGroup":"NPL","shapeType":"ADM2"}},
{"type":"Feature","geometry":{"type":"Polygon","coordinates":[[[84.15538313409235,28.948744961258342],[84.13690470580349,29.124439968815977],[84.2246772413227,29.28371954989126],[83.94519100980108,29.386413969624925],[83.6888028135225,29.235356996494204],[83.47142741746586,28.82654460869236],[83.56826927977755,28.801840975453217],[83.58024204632676,28.632958868090952],[83.65877536750946,28.610655848967156],[83.82508122435377,28.736301819219932],[83.95212042026975,28.8901135644374],[84.15538313409235,28.948744961258342]]]},"properties":{"shapeName":"Mustang","shapeISO":"","shapeID":"79688334B73312243480989","shapeGroup":"NPL","shapeType":"ADM2"}},
{"type":"Feature","geometry":{"type":"Polygon","coordinates":[[[82.85093808227236,27.81319548041546],[82.74149462631635,27.904805698191467],[82.65126792450815,28.08326606725751],[82.57253422466624,28.099192149506223],[82.50329613354245,28.178748114574375],[82.33498410642949,28.201612811765074],[82.0665988965522,28.28050175448834],[82.00163567148815,28.178748114574375],[82.18930721117567,28.000446215236877],[82.0557716925731,27.943072070397307],[82.41306943173424,27.716466004055007],[82.66570343441593,27.761185980905978],[82.85093808227236,27.81319548041546]]]},"properties":{"shapeName":"Dang","shapeISO":"","shapeID":"79688334B21232771958326","shapeGroup":"NPL","shapeType":"ADM2"}},
{"type":"Feature","geometry":{"type":"Polygon","coordinates":[[[82.9910755642644,28.125386584091757],[83.06631075282655,28.28367999195177],[82.96469693749316,28.395091077947313],[82.81367598776325,28.232816815646174],[82.59085713456705,28.17844435996716],[82.57253422466624,28.099192149506223],[82.65126792450815,28.08326606725751],[82.74149462631635,27.904805698191467],[83.00495659524097,27.971762957239264],[82.9910755642644,28.125386584091757]]]},"properties":{"shapeName":"Pyuthan","shapeISO":"","shapeID":"79688334B74725038936658","shapeGroup":"NPL","shapeType":"ADM2"}},
{"type":"Feature","geometry":{"type":"Polygon","coordinates":[[[82.8642029407759,28.505159315015646],[82.40946036338073,28.547142353339154],[82.34449713835988,28.43612370289486],[82.43416711850875,28.258567706410076],[82.33498410642949,28.201612811765074],[82.50329613354245,28.178748114574375],[82.57253422466624,28.099192149506223],[82.59085713456705,28.17844435996716],[82.81367598776325,28.232816815646174],[82.96469693749316,28.395091077947313],[82.8642029407759,28.505159315015646]]]},"properties":{"shapeName":"Rolpa","shapeISO":"","shapeID":"79688334B20911860961651","shapeGroup":"NPL","shapeType":"ADM2"}},
{"type":"Feature","geometry":{"type":"Polygon","coordinates":[[[83.47142741746586,28.82654460869236],[83.6888028135225,29.235356996494204],[83.52827146608513,29.27377183090988],[83.2503732245155,29.6414417810779],[82.8533757365588,29.735501063569018],[82.73066742195772,29.468771467059696],[82.55382308625599,29.44991686726661],[82.57186842661542,29.226538442416825],[82.41709980797714,29.14825831219639],[82.43111477209578,29.034231686846],[82.51655475013312,29.036721739694375],[82.66570419679755,28.980573978610607],[82.69096767330387,28.90161500715294],[83.18469454543435,28.78750878698861],[83.27472814635036,28.753004918124873],[83.47142741746586,28.82654460869236]]]},"properties":{"shapeName":"Dolpa","shapeISO":"","shapeID":"79688334B78921072212136","shapeGroup":"NPL","shapeType":"ADM2"}},
{"type":"Feature","geometry":{"type":"Polygon","coordinates":[[[83.0882538867063,28.671471101802013],[83.18469454543435,28.78750878698861],[82.69096767330387,28.90161500715294],[82.66570419679755,28.980573978610607],[82.51655475013312,29.036721739694375],[82.48525079318091,28.898455397152304],[82.34697737876934,28.86466254471719],[82.26509764050547,28.781482268046204],[82.30479738911646,28.737187898280013],[82.18208907510478,28.66754451515652],[82.40946036338073,28.547142353339154],[82.8642029407759,28.505159315015646],[82.96352449411364,28.655257148209273],[83.0882538867063,28.671471101802013]]]},"properties":{"shapeName":"Rukum_E","shapeISO":"","shapeID":"79688334B6316349348825","shapeGroup":"NPL","shapeType":"ADM2"}},
{"type":"Feature","geometry":{"type":"Polygon","coordinates":[[[82.00163567148815,28.178748114574375],[81.74691843376172,28.330336944163207],[81.63538744330219,28.360945501716458],[81.48294040813232,28.09638397310175],[81.88614549317356,27.888857379750107],[82.0557716925731,27.943072070397307],[82.18930721117567,28.000446215236877],[82.00163567148815,28.178748114574375]]]},"properties":{"shapeName":"Banke","shapeISO":"","shapeID":"79688334B65166067985613","shapeGroup":"NPL","shapeType":"ADM2"}},
{"type":"Feature","geometry":{"type":"Polygon","coordinates":[[[82.33498410642949,28.201612811765074],[82.43416711850875,28.258567706410076],[82.34449713835988,28.43612370289486],[82.40946036338073,28.547142353339154],[82.18208907510478,28.66754451515652],[82.01968101184985,28.66754451515652],[81.91501803775219,28.347224809530474],[81.78148251869385,28.410731627515815],[81.74691843376172,28.330336944163207],[82.00163567148815,28.178748114574375],[82.0665988965522,28.28050175448834],[82.33498410642949,28.201612811765074]]]},"properties":{"shapeName":"Salyan","shapeISO":"","shapeID":"79688334B49601462528216","shapeGroup":"NPL","shapeType":"ADM2"}},
{"type":"Feature","geometry":{"type":"Polygon","coordinates":[[[81.74691843376172,28.330336944163207],[81.78148251869385,28.410731627515815],[81.27621298863062,28.68654276143451],[81.05605983642556,28.410731627515815],[81.18237721906843,28.39803330673641],[81.48294040813232,28.09638397310175],[81.63538744330219,28.360945501716458],[81.74691843376172,28.330336944163207]]]},"properties":{"shapeName":"Bardiya","shapeISO":"","shapeID":"79688334B42581855207757","shapeGroup":"NPL","shapeType":"ADM2"}},
{"type":"Feature","geometry":{"type":"Polygon","coordinates":[[[82.01968101184985,28.66754451515652],[81.88028180785938,28.67110692220956],[81.81093251416758,28.742377639179267],[81.71282613249093,28.659760202663563],[81.55849061525919,28.76328014484185],[81.43443453324016,28.92650936806092],[81.10875223039295,28.975017236379642],[80.99095224851203,28.968954995403976],[81.15878814303335,28.81555272422753],[81.21962280157493,28.861796893915596],[81.27621298863062,28.68654276143451],[81.78148251869385,28.410731627515815],[81.91501803775219,28.347224809530474],[82.01968101184985,28.66754451515652]]]},"properties":{"shapeName":"Surkhet","shapeISO":"","shapeID":"79688334B26373509514373","shapeGroup":"NPL","shapeType":"ADM2"}},
{"type":"Feature","geometry":{"type":"Polygon","coordinates":[[[82.41709980797714,29.14825831219639],[82.28222483421268,29.157525954059224],[82.02204856050531,29.021886569682465],[81.92300418358252,29.002959380280046],[81.87984446674277,28.86078049833974],[81.89536434137219,28.83422518005416],[81.81093251416758,28.742377639179267],[81.88028180785938,28.67110692220956],[82.01968101184985,28.66754451515652],[82.18208907510478,28.66754451515652],[82.30479738911646,28.737187898280013],[82.26509764050547,28.781482268046204],[82.34697737876934,28.86466254471719],[82.48525079318091,28.898455397152304],[82.51655475013312,29.036721739694375],[82.43111477209578,29.034231686846],[82.41709980797714,29.14825831219639]]]},"properties":{"shapeName":"Rukum_W","shapeISO":"","shapeID":"79688334B34133508701345","shapeGroup":"NPL","shapeType":"ADM2"}},
{"type":"Feature","geometry":{"type":"Polygon","coordinates":[[[81.81093251416758,28.742377639179267],[81.89536434137219,28.83422518005416],[81.87984446674277,28.86078049833974],[81.92300418358252,29.002959380280046],[81.58105134674906,29.063471966913994],[81.52792586478847,29.128058369034704],[81.42860431146676,29.04933829303849],[81.55849061525919,28.76328014484185],[81.71282613249093,28.659760202663563],[81.81093251416758,28.742377639179267]]]},"properties":{"shapeName":"Jajarkot","shapeISO":"","shapeID":"79688334B23259783147235","shapeGroup":"NPL","shapeType":"ADM2"}},
{"type":"Feature","geometry":{"type":"Polygon","coordinates":[[[82.55382308625599,29.44991686726661],[82.35373635262499,29.541266137323646],[82.22469007694275,29.44308606831646],[82.08117953180243,29.513128790002213],[81.9425913178249,29.46889715224478],[81.86405799612817,29.283719549833506],[82.02112463895429,29.12847541507523],[82.02204856050531,29.021886569682465],[82.28222483421268,29.157525954059224],[82.41709980797714,29.14825831219639],[82.57186842661542,29.226538442416825],[82.55382308625599,29.44991686726661]]]},"properties":{"shapeName":"Jumla","shapeISO":"","shapeID":"79688334B51056142894180","shapeGroup":"NPL","shapeType":"ADM2"}},
{"type":"Feature","geometry":{"type":"Polygon","coordinates":[[[82.8533757365588,29.735501063569018],[82.53057491366042,29.99959793991343],[82.42782673340912,29.74438679177274],[82.2266971564789,29.683842061140695],[82.04422267474177,29.774102560950666],[81.78552467516437,29.631654563524535],[81.82479133594381,29.47694070448665],[81.9425913178249,29.46889715224478],[82.08117953180243,29.513128790002213],[82.22469007694275,29.44308606831646],[82.35373635262499,29.541266137323646],[82.55382308625599,29.44991686726661],[82.73066742195772,29.468771467059696],[82.8533757365588,29.735501063569018]]]},"properties":{"shapeName":"Mugu","shapeISO":"","shapeID":"79688334B47020654466521","shapeGroup":"NPL","shapeType":"ADM2"}},
{"type":"Feature","geometry":{"type":"Polygon","coordinates":[[[82.02204856050531,29.021886569682465],[82.02112463895429,29.12847541507523],[81.86405799612817,29.283719549833506],[81.9425913178249,29.46889715224478],[81.82479133594381,29.47694070448665],[81.71704162257402,29.331448484338807],[81.60102911509978,29.399620810040858],[81.5038568684472,29.30622774061652],[81.52792586478847,29.128058369034704],[81.58105134674906,29.063471966913994],[81.92300418358252,29.002959380280046],[82.02204856050531,29.021886569682465]]]},"properties":{"shapeName":"Kalikot","shapeISO":"","shapeID":"79688334B55093491548564","shapeGroup":"NPL","shapeType":"ADM2"}},
{"type":"Feature","geometry":{"type":"Polygon","coordinates":[[[81.55849061525919,28.76328014484185],[81.42860431146676,29.04933829303849],[81.52792586478847,29.128058369034704],[81.5038568684472,29.30622774061652],[81.20476776470912,29.380591711041745],[81.1535046744898,29.393332052324524],[81.13980318926872,29.20994224675269],[81.05966890431773,29.188736038140632],[81.1528723301156,29.01205537324705],[81.10875223039295,28.975017236379642],[81.43443453324016,28.92650936806092],[81.55849061525919,28.76328014484185]]]},"properties":{"shapeName":"Achham","shapeISO":"","shapeID":"79688334B22569764928102","shapeGroup":"NPL","shapeType":"ADM2"}},
{"type":"Feature","geometry":{"type":"Polygon","coordinates":[[[81.27621298863062,28.68654276143451],[81.21962280157493,28.861796893915596],[81.15878814303335,28.81555272422753],[80.99095224851203,28.968954995403976],[80.80247227750243,28.96499413950471],[80.56890494087884,29.092958052168115],[80.52916371684137,29.011498117565054],[80.5543993742545,28.69376119114628],[81.05605983642556,28.410731627515815],[81.27621298863062,28.68654276143451]]]},"properties":{"shapeName":"Kailali","shapeISO":"","shapeID":"79688334B92674154876378","shapeGroup":"NPL","shapeType":"ADM2"}},
{"type":"Feature","geometry":{"type":"Polygon","coordinates":[[[82.53057491366042,29.99959793991343],[82.19678058068826,30.111273311276193],[82.14096094378385,30.350779629622252],[81.6461529759697,30.447886693079568],[81.58069164037465,30.375443780322144],[81.4314029160596,30.44123685408971],[81.39531223533618,30.204472305322213],[81.29786739738313,30.16703617190177],[81.2870401931662,30.06088992513361],[81.44223012027652,30.035897770642237],[81.48192986907225,29.917098992933575],[81.54328402612936,29.942121066462107],[81.81035506362826,29.935866137475614],[81.70930115725622,29.73236717262813],[81.78552467516437,29.631654563524535],[82.04422267474177,29.774102560950666],[82.2266971564789,29.683842061140695],[82.42782673340912,29.74438679177274],[82.53057491366042,29.99959793991343]]]},"properties":{"shapeName":"Humla","shapeISO":"","shapeID":"79688334B54517632819416","shapeGroup":"NPL","shapeType":"ADM2"}},
{"type":"Feature","geometry":{"type":"Polygon","coordinates":[[[81.78552467516437,29.631654563524535],[81.70930115725622,29.73236717262813],[81.81035506362826,29.935866137475614],[81.54328402612936,29.942121066462107],[81.51989726519321,29.6918685039318],[81.20476776470912,29.380591711041745],[81.5038568684472,29.30622774061652],[81.60102911509978,29.399620810040858],[81.71704162257402,29.331448484338807],[81.82479133594381,29.47694070448665],[81.78552467516437,29.631654563524535]]]},"properties":{"shapeName":"Baijura","shapeISO":"","shapeID":"79688334B97946202169470","shapeGroup":"NPL","shapeType":"ADM2"}},
{"type":"Feature","geometry":{"type":"Polygon","coordinates":[[[80.52916371684137,29.011498117565054],[80.25917691322479,29.064793761073474],[80.17905629459932,29.147767704753562],[80.07078425278996,28.84156597655732],[80.51109055761475,28.601023535201705],[80.5543993742545,28.69376119114628],[80.52916371684137,29.011498117565054]]]},"properties":{"shapeName":"Kanchanpur","shapeISO":"","shapeID":"79688334B95323632068313","shapeGroup":"NPL","shapeType":"ADM2"}},
{"type":"Feature","geometry":{"type":"Polygon","coordinates":[[[81.10875223039295,28.975017236379642],[81.1528723301156,29.01205537324705],[81.05966890431773,29.188736038140632],[81.13980318926872,29.20994224675269],[81.1535046744898,29.393332052324524],[80.88525563704843,29.446291354669768],[80.78768953467824,29.379329365424212],[80.56890494087884,29.092958052168115],[80.80247227750243,28.96499413950471],[80.99095224851203,28.968954995403976],[81.10875223039295,28.975017236379642]]]},"properties":{"shapeName":"Doti","shapeISO":"","shapeID":"79688334B42542710106007","shapeGroup":"NPL","shapeType":"ADM2"}},
{"type":"Feature","geometry":{"type":"Polygon","coordinates":[[[80.56890494087884,29.092958052168115],[80.78768953467824,29.379329365424212],[80.46246919254423,29.42955499426415],[80.3412507013852,29.33552268445294],[80.27325008439351,29.16398051385096],[80.17905629459932,29.147767704753562],[80.25917691322479,29.064793761073474],[80.52916371684137,29.011498117565054],[80.56890494087884,29.092958052168115]]]},"properties":{"shapeName":"Dadeidhura","shapeISO":"","shapeID":"79688334B96988603655579","shapeGroup":"NPL","shapeType":"ADM2"}},
{"type":"Feature","geometry":{"type":"Polygon","coordinates":[[[81.2870401931662,30.06088992513361],[81.1179914446584,30.084376798937285],[81.0025012663437,29.98039265815487],[81.06486596263369,29.758062185660265],[80.79230914181102,29.695881484926076],[80.77383071306065,29.543275648027475],[80.88525563704843,29.446291354669768],[81.1535046744898,29.393332052324524],[81.20476776470912,29.380591711041745],[81.51989726519321,29.6918685039318],[81.54328402612936,29.942121066462107],[81.48192986907225,29.917098992933575],[81.44223012027652,30.035897770642237],[81.2870401931662,30.06088992513361]]]},"properties":{"shapeName":"Bajhang","shapeISO":"","shapeID":"79688334B93309047431112","shapeGroup":"NPL","shapeType":"ADM2"}},
{"type":"Feature","geometry":{"type":"Polygon","coordinates":[[[80.88525563704843,29.446291354669768],[80.77383071306065,29.543275648027475],[80.79230914181102,29.695881484926076],[80.59366603510983,29.715943985352908],[80.40195233910737,29.615591428536504],[80.24257589303323,29.462864069294255],[80.3412507013852,29.33552268445294],[80.46246919254423,29.42955499426415],[80.78768953467824,29.379329365424212],[80.88525563704843,29.446291354669768]]]},"properties":{"shapeName":"Baitadi","shapeISO":"","shapeID":"79688334B91870171519943","shapeGroup":"NPL","shapeType":"ADM2"}},
{"type":"Feature","geometry":{"type":"Polygon","coordinates":[[[81.1179914446584,30.084376798937285],[81.05605983653709,30.213829115137173],[80.91186457440222,30.232325533310416],[80.86569266785881,30.121908512194352],[80.3748276321266,29.762011564367356],[80.40195233910737,29.615591428536504],[80.59366603510983,29.715943985352908],[80.79230914181102,29.695881484926076],[81.06486596263369,29.758062185660265],[81.0025012663437,29.98039265815487],[81.1179914446584,30.084376798937285]]]},"properties":{"shapeName":"Darchula","shapeISO":"","shapeID":"79688334B29370928347153","shapeGroup":"NPL","shapeType":"ADM2"}},
{"type":"Feature","geometry":{"type":"Polygon","coordinates":[[[84.58859453181208,27.90991581815541],[84.41408113382965,27.83116865675379],[84.40567005388971,27.755193543713915],[84.09763804512193,27.581683242292684],[83.89206552734521,27.57554117553684],[83.90592434927294,27.481319791946817],[84.12274846551912,27.553912554776844],[84.24723072156303,27.420770774255573],[84.44875145010741,27.396924134260367],[84.53486908303961,27.47711802974925],[84.63700231618513,27.45302982406482],[84.63768716164066,27.45335393665764],[84.6919833062093,27.60609269028282],[84.74745227092536,27.68635177640097],[84.7466928475211,27.737167402685145],[84.58962620469498,27.76782891310239],[84.62461491831826,27.845994741303198],[84.58859453181208,27.90991581815541]]]},"properties":{"shapeName":"Chitawan","shapeISO":"","shapeID":"79688334B4548911343314","shapeGroup":"NPL","shapeType":"ADM2"}},
{"type":"Feature","geometry":{"type":"Polygon","coordinates":[[[84.44875145010741,27.396924134260367],[84.65106890725741,27.274920961520877],[84.62381552001625,27.066740412149898],[84.87983222360293,26.982841264195883],[84.95801259199999,27.271102424965818],[84.9040776679295,27.390388738115067],[84.85990883895505,27.414017834581102],[84.8467178555155,27.427896080348383],[84.8128861355381,27.432381421138913],[84.74826762216767,27.449157043835484],[84.6939427295452,27.44008056555623],[84.69103247399367,27.440767233620818],[84.66529295298817,27.446840414054414],[84.63700231618513,27.45302982406482],[84.53486908303961,27.47711802974925],[84.44875145010741,27.396924134260367]]]},"properties":{"shapeName":"Bara","shapeISO":"","shapeID":"79688334B59716070388160","shapeGroup":"NPL","shapeType":"ADM2"}},
{"type":"Feature","geometry":{"type":"Polygon","coordinates":[[[85.09316338224187,28.092308678933705],[85.1815190655368,28.2367936707721],[85.10565082407317,28.334394613726204],[85.09821607754952,28.363105078692683],[84.72769847445045,27.98253822112366],[84.73399096584774,27.835647698554737],[84.62461491831826,27.845994741303198],[84.58962620469498,27.76782891310239],[84.7466928475211,27.737167402685145],[84.74745227092536,27.68635177640097],[85.02496738743248,27.74552113894411],[85.02914990963066,27.745282381161697],[85.07404584227172,27.729645533549785],[85.15879024391869,27.70012022009399],[85.16031203291152,27.70043221612508],[85.21928236783197,27.77002566924682],[84.98922222137651,27.83525382368049],[84.95919477536347,28.02708293798861],[85.09316338224187,28.092308678933705]]]},"properties":{"shapeName":"Dhading","shapeISO":"","shapeID":"79688334B79703604543181","shapeGroup":"NPL","shapeType":"ADM2"}},
{"type":"Feature","geometry":{"type":"Polygon","coordinates":[[[85.76252424410904,28.189799754647538],[85.47813459477715,28.344112926710068],[85.10565082407317,28.334394613726204],[85.1815190655368,28.2367936707721],[85.09316338224187,28.092308678933705],[85.22280937861814,27.972871695952733],[85.39879294797882,28.069676097311802],[85.45516370862538,28.1488413461214],[85.76252424410904,28.189799754647538]]]},"properties":{"shapeName":"Rasuwa","shapeISO":"","shapeID":"79688334B50883418539268","shapeGroup":"NPL","shapeType":"ADM2"}},
{"type":"Feature","geometry":{"type":"Polygon","coordinates":[[[85.41412568098525,27.809238653910427],[85.21928236783197,27.77002566924682],[85.16031203291152,27.70043221612508],[85.16184864698177,27.69767081569222],[85.17406749014219,27.67571293335044],[85.18574553051218,27.646929405928624],[85.23846073928826,27.58187815278859],[85.27538708768151,27.674674293294345],[85.32710413434586,27.656037408182044],[85.46787592859857,27.706005814197226],[85.54232728853925,27.75727303253675],[85.41412568098525,27.809238653910427]]]},"properties":{"shapeName":"Kathmandu","shapeISO":"","shapeID":"79688334B75108943206003","shapeGroup":"NPL","shapeType":"ADM2"}},
{"type":"Feature","geometry":{"type":"Polygon","coordinates":[[[84.6919833062093,27.60609269028282],[84.63768716164066,27.45335393665764],[84.66529295298817,27.446840414054414],[84.69103247399367,27.440767233620818],[84.6939427295452,27.44008056555623],[84.74826762216767,27.449157043835484],[84.8128861355381,27.432381421138913],[84.8467178555155,27.427896080348383],[84.85990883895505,27.414017834581102],[84.9040776679295,27.390388738115067],[84.90679653091367,27.389688221378265],[84.97261884803459,27.38875414682482],[85.12654411315718,27.305461168448275],[85.21380974169165,27.25821527827327],[85.4675110313251,27.156701892409444],[85.39835644464188,27.356250077535947],[85.45194879504947,27.377954034910942],[85.41843393473118,27.433312349812127],[85.22562836890933,27.482126519830217],[85.23846073928826,27.58187815278859],[85.18574553051218,27.646929405928624],[85.17406749014219,27.67571293335044],[85.16184864698177,27.69767081569222],[85.15879024391869,27.70012022009399],[85.07404584227172,27.729645533549785],[85.02914990963066,27.745282381161697],[85.02496738743248,27.74552113894411],[84.74745227092536,27.68635177640097],[84.6919833062093,27.60609269028282]]]},"properties":{"shapeName":"Makawanpur","shapeISO":"","shapeID":"79688334B4770070965791","shapeGroup":"NPL","shapeType":"ADM2"}},
{"type":"Feature","geometry":{"type":"Polygon","coordinates":[[[85.23846073928826,27.58187815278859],[85.22562836890933,27.482126519830217],[85.41843393473118,27.433312349812127],[85.36141932454137,27.60923559087894],[85.32710413434586,27.656037408182044],[85.27538708768151,27.674674293294345],[85.23846073928826,27.58187815278859]]]},"properties":{"shapeName":"Lalitpur","shapeISO":"","shapeID":"79688334B56442296246471","shapeGroup":"NPL","shapeType":"ADM2"}},
{"type":"Feature","geometry":{"type":"Polygon","coordinates":[[[85.32710413434586,27.656037408182044],[85.36141932454137,27.60923559087894],[85.46787592859857,27.706005814197226],[85.32710413434586,27.656037408182044]]]},"properties":{"shapeName":"Bhaktapur","shapeISO":"","shapeID":"79688334B89468852374463","shapeGroup":"NPL","shapeType":"ADM2"}},
{"type":"Feature","geometry":{"type":"Polygon","coordinates":[[[85.11482903385348,26.896611961396104],[85.18055802687462,26.78492356877365],[85.33311551200518,26.796810496158628],[85.4675110313251,27.156701892409444],[85.21380974169165,27.25821527827327],[85.11482903385348,26.896611961396104]]]},"properties":{"shapeName":"Rautahat","shapeISO":"","shapeID":"79688334B59578652050640","shapeGroup":"NPL","shapeType":"ADM2"}},
{"type":"Feature","geometry":{"type":"Polygon","coordinates":[[[85.54232728853925,27.75727303253675],[85.46787592859857,27.706005814197226],[85.36141932454137,27.60923559087894],[85.41843393473118,27.433312349812127],[85.45194879504947,27.377954034910942],[85.65576485170351,27.345073401108436],[85.80614675859772,27.4412860423987],[85.84204484770612,27.600214868315902],[85.54232728853925,27.75727303253675]]]},"properties":{"shapeName":"Kabherepalanchok","shapeISO":"","shapeID":"79688334B6633706619717","shapeGroup":"NPL","shapeType":"ADM2"}},
{"type":"Feature","geometry":{"type":"Polygon","coordinates":[[[85.33311551200518,26.796810496158628],[85.59384289043811,26.894321205264646],[85.67787983787935,26.84697589533448],[85.80393525998022,27.16617107801642],[85.4675110313251,27.156701892409444],[85.33311551200518,26.796810496158628]]]},"properties":{"shapeName":"Sarlahi","shapeISO":"","shapeID":"79688334B19196424171029","shapeGroup":"NPL","shapeType":"ADM2"}},
{"type":"Feature","geometry":{"type":"Polygon","coordinates":[[[85.4675110313251,27.156701892409444],[85.80393525998022,27.16617107801642],[85.94904927927958,27.067241494250784],[86.26645256340191,26.910181169160637],[86.35680991702986,26.97318596504266],[86.38113640186577,27.17994300549202],[86.22226234051442,27.25270923202038],[86.04958852765571,27.26780718162769],[85.80614675859772,27.4412860423987],[85.65576485170351,27.345073401108436],[85.45194879504947,27.377954034910942],[85.39835644464188,27.356250077535947],[85.4675110313251,27.156701892409444]]]},"properties":{"shapeName":"Sindhuli","shapeISO":"","shapeID":"79688334B98864242576983","shapeGroup":"NPL","shapeType":"ADM2"}},
{"type":"Feature","geometry":{"type":"Polygon","coordinates":[[[85.67787983787935,26.84697589533448],[85.70848697930353,26.65217889964555],[85.8287925044778,26.612958044320635],[85.94904927927958,27.067241494250784],[85.80393525998022,27.16617107801642],[85.67787983787935,26.84697589533448]]]},"properties":{"shapeName":"Mahottari","shapeISO":"","shapeID":"79688334B2864822891274","shapeGroup":"NPL","shapeType":"ADM2"}},
{"type":"Feature","geometry":{"type":"Polygon","coordinates":[[[86.26645256340191,26.910181169160637],[85.94904927927958,27.067241494250784],[85.8287925044778,26.612958044320635],[85.99438952190582,26.681269540007236],[86.15197416658754,26.6384660489623],[86.13801338623625,26.920139982739386],[86.26645256340191,26.910181169160637]]]},"properties":{"shapeName":"Dhanusha","shapeISO":"","shapeID":"79688334B31965115417772","shapeGroup":"NPL","shapeType":"ADM2"}},
{"type":"Feature","geometry":{"type":"Polygon","coordinates":[[[85.80614675859772,27.4412860423987],[86.04958852765571,27.26780718162769],[86.22226234051442,27.25270923202038],[86.22367769921544,27.40987887682587],[86.31045852452502,27.512353460380098],[86.54496422006753,27.723547536890123],[86.51524167843166,27.793686197504712],[86.38614656492018,27.794869234919588],[86.40059758952094,27.708511947656575],[86.08921858306599,27.480218515006243],[85.84204484770612,27.600214868315902],[85.80614675859772,27.4412860423987]]]},"properties":{"shapeName":"Ramechhap","shapeISO":"","shapeID":"79688334B71451270703127","shapeGroup":"NPL","shapeType":"ADM2"}},
{"type":"Feature","geometry":{"type":"Polygon","coordinates":[[[85.84204484770612,27.600214868315902],[86.08921858306599,27.480218515006243],[86.40059758952094,27.708511947656575],[86.38614656492018,27.794869234919588],[86.51524167843166,27.793686197504712],[86.48268841867286,27.9350782067541],[86.36085008623775,27.90650484784851],[86.3737057665465,27.963834499514974],[86.16564797564291,27.986334081041207],[86.12035648374535,28.16491377120076],[86.02269670434174,28.090021385338616],[86.0764803509698,27.94633158122747],[86.01515852133844,27.909079051868048],[86.00895206375253,27.744944515354575],[85.84204484770612,27.600214868315902]]]},"properties":{"shapeName":"Dolakha","shapeISO":"","shapeID":"79688334B63648782731009","shapeGroup":"NPL","shapeType":"ADM2"}},
{"type":"Feature","geometry":{"type":"Polygon","coordinates":[[[86.31045852452502,27.512353460380098],[86.43092736613971,27.48450389284568],[86.56667856840653,27.330908195716802],[86.72904765374102,27.385281844876147],[86.8940785272124,27.42545389468654],[86.91803462209123,27.458525789395935],[86.92868177478886,27.95340971609039],[86.65451758198628,28.120218170444275],[86.5107810146564,28.077953182604233],[86.48268841867286,27.9350782067541],[86.51524167843166,27.793686197504712],[86.54496422006753,27.723547536890123],[86.31045852452502,27.512353460380098]]]},"properties":{"shapeName":"Solukhumbu","shapeISO":"","shapeID":"79688334B91934658935516","shapeGroup":"NPL","shapeType":"ADM2"}},
{"type":"Feature","geometry":{"type":"Polygon","coordinates":[[[86.91803462209123,27.458525789395935],[87.13097768480247,27.427816501706445],[87.26140531071303,27.19130604123103],[87.38917114833959,27.158154399425257],[87.48807456805662,27.297820500194348],[87.45305406715295,27.56476110109253],[87.63664966517473,27.865734726547657],[87.08838907226033,27.838137791840097],[86.92868177478886,27.95340971609039],[86.91803462209123,27.458525789395935]]]},"properties":{"shapeName":"Sankhuwasabha","shapeISO":"","shapeID":"79688334B42588683939124","shapeGroup":"NPL","shapeType":"ADM2"}},
{"type":"Feature","geometry":{"type":"Polygon","coordinates":[[[86.38113640186577,27.17994300549202],[86.41399839265443,27.142996084262677],[86.67123361240942,27.276318599205013],[86.72904765374102,27.385281844876147],[86.56667856840653,27.330908195716802],[86.43092736613971,27.48450389284568],[86.31045852452502,27.512353460380098],[86.22367769921544,27.40987887682587],[86.22226234051442,27.25270923202038],[86.38113640186577,27.17994300549202]]]},"properties":{"shapeName":"Okhaldhunga","shapeISO":"","shapeID":"79688334B37255875594651","shapeGroup":"NPL","shapeType":"ADM2"}},
{"type":"Feature","geometry":{"type":"Polygon","coordinates":[[[86.4665943071455,26.566565034204586],[86.71211868044986,26.43435135878076],[86.90444308164132,26.538385226894604],[87.02216377975725,26.699469896821256],[86.93185708575606,26.756972990574354],[86.67975133491791,26.70099179165379],[86.55914933166616,26.863923382633516],[86.4665943071455,26.566565034204586]]]},"properties":{"shapeName":"Saptari","shapeISO":"","shapeID":"79688334B89786345808010","shapeGroup":"NPL","shapeType":"ADM2"}},
{"type":"Feature","geometry":{"type":"Polygon","coordinates":[[[86.55914933166616,26.863923382633516],[86.67975133491791,26.70099179165379],[86.93185708575606,26.756972990574354],[87.02216377975725,26.699469896821256],[87.16823508400688,26.87832607805632],[87.17888987391268,26.90208292557736],[87.01385900031164,26.885465576250226],[86.77962163103717,26.8735945446644],[86.67581188825767,27.115516397508884],[86.41399839265443,27.142996084262677],[86.38113640186577,27.17994300549202],[86.35680991702986,26.97318596504266],[86.26645256340191,26.910181169160637],[86.55914933166616,26.863923382633516]]]},"properties":{"shapeName":"Udayapur","shapeISO":"","shapeID":"79688334B21616169419050","shapeGroup":"NPL","shapeType":"ADM2"}},
{"type":"Feature","geometry":{"type":"Polygon","coordinates":[[[86.72904765374102,27.385281844876147],[86.67123361240942,27.276318599205013],[86.41399839265443,27.142996084262677],[86.67581188825767,27.115516397508884],[86.77962163103717,26.8735945446644],[87.01385900031164,26.885465576250226],[86.89940210410441,27.110777838079912],[86.8966420763619,27.274033984080916],[86.9659468112016,27.28833629108027],[86.8940785272124,27.42545389468654],[86.72904765374102,27.385281844876147]]]},"properties":{"shapeName":"Khotang","shapeISO":"","shapeID":"79688334B49682124537548","shapeGroup":"NPL","shapeType":"ADM2"}},
{"type":"Feature","geometry":{"type":"Polygon","coordinates":[[[86.8940785272124,27.42545389468654],[86.9659468112016,27.28833629108027],[86.8966420763619,27.274033984080916],[86.89940210410441,27.110777838079912],[87.01385900031164,26.885465576250226],[87.17888987391268,26.90208292557736],[87.26140531071303,27.19130604123103],[87.13097768480247,27.427816501706445],[86.91803462209123,27.458525789395935],[86.8940785272124,27.42545389468654]]]},"properties":{"shapeName":"Bhojpur","shapeISO":"","shapeID":"79688334B25911812019859","shapeGroup":"NPL","shapeType":"ADM2"}},
{"type":"Feature","geometry":{"type":"Polygon","coordinates":[[[87.48807456805662,27.297820500194348],[87.71658154755079,27.27572715143748],[87.91311755414051,27.279346801560735],[88.00340541255832,27.383769200229835],[88.02449943884028,27.644769982950265],[88.16375153895143,27.845198783324236],[87.9854117239309,27.955760925268123],[87.8097336971943,27.83343020886599],[87.63664966517473,27.865734726547657],[87.45305406715295,27.56476110109253],[87.48807456805662,27.297820500194348]]]},"properties":{"shapeName":"Taplejung","shapeISO":"","shapeID":"79688334B77093948026586","shapeGroup":"NPL","shapeType":"ADM2"}},
{"type":"Feature","geometry":{"type":"Polygon","coordinates":[[[86.90444308164132,26.538385226894604],[87.0448549925199,26.595628735525224],[87.09282680568742,26.42391694228604],[87.21929794949267,26.421964198036164],[87.36757446291966,26.835203647052708],[87.16823508400688,26.87832607805632],[87.02216377975725,26.699469896821256],[86.90444308164132,26.538385226894604]]]},"properties":{"shapeName":"Sunsari","shapeISO":"","shapeID":"79688334B3483584571464","shapeGroup":"NPL","shapeType":"ADM2"}},
{"type":"Feature","geometry":{"type":"Polygon","coordinates":[[[87.26140531071303,27.19130604123103],[87.17888987391268,26.90208292557736],[87.16823508400688,26.87832607805632],[87.36757446291966,26.835203647052708],[87.60136891033142,26.85003872865832],[87.50062638971474,26.974025847682185],[87.44634636065194,26.950306863374692],[87.38917114833959,27.158154399425257],[87.26140531071303,27.19130604123103]]]},"properties":{"shapeName":"Dhankuta","shapeISO":"","shapeID":"79688334B56950980955815","shapeGroup":"NPL","shapeType":"ADM2"}},
{"type":"Feature","geometry":{"type":"Polygon","coordinates":[[[87.21929794949267,26.421964198036164],[87.3039939232554,26.366735910949842],[87.45305406715312,26.450176612792745],[87.72189468360426,26.423958895318037],[87.64127583208028,26.64632238497711],[87.69527680098707,26.742931011917733],[87.60136891033142,26.85003872865832],[87.36757446291966,26.835203647052708],[87.21929794949267,26.421964198036164]]]},"properties":{"shapeName":"Morang","shapeISO":"","shapeID":"79688334B51407925774152","shapeGroup":"NPL","shapeType":"ADM2"}},
{"type":"Feature","geometry":{"type":"Polygon","coordinates":[[[87.38917114833959,27.158154399425257],[87.44634636065194,26.950306863374692],[87.50062638971474,26.974025847682185],[87.71720993616003,27.180888015247433],[87.71658154755079,27.27572715143748],[87.48807456805662,27.297820500194348],[87.38917114833959,27.158154399425257]]]},"properties":{"shapeName":"Terhathum","shapeISO":"","shapeID":"79688334B38810939127870","shapeGroup":"NPL","shapeType":"ADM2"}},
{"type":"Feature","geometry":{"type":"Polygon","coordinates":[[[87.71658154755079,27.27572715143748],[87.71720993616003,27.180888015247433],[87.50062638971474,26.974025847682185],[87.60136891033142,26.85003872865832],[87.70010634964939,26.8731386722323],[87.69999942085542,26.988567447161927],[87.98793722825616,27.107274965665226],[88.00340541255832,27.383769200229835],[87.91311755414051,27.279346801560735],[87.71658154755079,27.27572715143748]]]},"properties":{"shapeName":"Panchthar","shapeISO":"","shapeID":"79688334B4331434147150","shapeGroup":"NPL","shapeType":"ADM2"}},
{"type":"Feature","geometry":{"type":"Polygon","coordinates":[[[87.69527680098707,26.742931011917733],[87.91088165198198,26.66208197417825],[88.06260358399305,26.797590441893135],[88.08389788998659,26.74293101188323],[88.15044259753194,26.785710195047272],[88.07857431386708,27.042046191042857],[87.98793722825616,27.107274965665226],[87.69999942085542,26.988567447161927],[87.70010634964939,26.8731386722323],[87.60136891033142,26.85003872865832],[87.69527680098707,26.742931011917733]]]},"properties":{"shapeName":"Ilam","shapeISO":"","shapeID":"79688334B6151505937554","shapeGroup":"NPL","shapeType":"ADM2"}},
{"type":"Feature","geometry":{"type":"Polygon","coordinates":[[[87.72189468360426,26.423958895318037],[87.91088165198198,26.49544770406527],[88.03066212475704,26.39773521513672],[88.15044259753194,26.785710195047272],[88.08389788998659,26.74293101188323],[88.06260358399305,26.797590441893135],[87.91088165198198,26.66208197417825],[87.69527680098707,26.742931011917733],[87.64127583208028,26.64632238497711],[87.72189468360426,26.423958895318037]]]},"properties":{"shapeName":"Jhapa","shapeISO":"","shapeID":"79688334B86384437878658","shapeGroup":"NPL","shapeType":"ADM2"}}
]}