{"type":"FeatureCollection", "features": [
{"type":"Feature","geometry":{"type":"Polygon","coordinates":[[[166.95105044152467,-0.541458430462171],[166.94893219456515,-0.541799858076956],[166.9462127759989,-0.541494138943335],[166.94561740052268,-0.540641341524633],[166.94561740052268,-0.53883920266702],[166.94342899295373,-0.537905952797416],[166.94293016509516,-0.537101426489585],[166.94133713300232,-0.537181878940487],[166.9400820166718,-0.538549573304124],[166.93792579044293,-0.537326694071623],[166.9368416199447,-0.537234349838999],[166.93622012006256,-0.536988792698594],[166.933146695064,-0.537954224807606],[166.92888251821375,-0.54078615665577],[166.92957444130752,-0.54097924289772],[166.92899515560202,-0.541976854548125],[166.92951007592933,-0.542459569253651],[166.92923652554532,-0.543151461770492],[166.929751444074,-0.543392819123255],[166.9297997178827,-0.545114502832007],[166.9303468195501,-0.545806395348791],[166.9303468195501,-0.547351083485694],[166.92944571055114,-0.549458938778969],[166.9294349708473,-0.554271882841078],[166.9341050881793,-0.554508132943909],[166.93951174307256,-0.552386764437585],[166.94477422045395,-0.548473557009004],[166.94972774563905,-0.545775501837909],[166.95106653669143,-0.543901279620286],[166.95105044152467,-0.541458430462171]]]},"properties":{"shapeName":"Meneng","shapeISO":"NR-11","shapeID":"42797286B38537109036861","shapeGroup":"NRU","shapeType":"ADM1"}},
{"type":"Feature","geometry":{"type":"Polygon","coordinates":[[[166.9368416199447,-0.537234349838999],[166.93664227711952,-0.535301312005913],[166.93586166738214,-0.534141511221719],[166.93638412222947,-0.531790563783431],[166.935999964227,-0.530438383624471],[166.93283449901298,-0.531222033070321],[166.93223521148593,-0.52913230091491],[166.9314361620493,-0.528256456570148],[166.93052954830011,-0.52853303946813],[166.9298226964603,-0.527426709674842],[166.92897754777573,-0.528148896754146],[166.92676479555894,-0.528625233467722],[166.92529930172145,-0.528372408859525],[166.92234927180152,-0.528957181328792],[166.92177651337545,-0.530197056848635],[166.92061840781332,-0.530020831096408],[166.9197561234464,-0.530744615371646],[166.9180728009974,-0.53008431356177],[166.9179906166737,-0.532312996147823],[166.91745279511042,-0.533726638673329],[166.91676130998655,-0.534049317222184],[166.9171762014206,-0.535831734846624],[166.91640788451627,-0.536154413395423],[166.91623885423985,-0.53752195757221],[166.91742206257823,-0.537690979754871],[166.9186040865095,-0.539835681171724],[166.91851883527613,-0.541847389045699],[166.91947923118164,-0.541655319037716],[166.92101586409092,-0.542159504157723],[166.92252642655342,-0.543429738091902],[166.92545769661547,-0.542567654273739],[166.92888251821375,-0.54078615665577],[166.933146695064,-0.537954224807606],[166.93622012006256,-0.536988792698594],[166.9368416199447,-0.537234349838999]]]},"properties":{"shapeName":"Buada","shapeISO":"NR-07","shapeID":"42797286B56995611670757","shapeGroup":"NRU","shapeType":"ADM1"}},
{"type":"Feature","geometry":{"type":"Polygon","coordinates":[[[166.95105044152467,-0.541458430462171],[166.95073441346244,-0.535814184576907],[166.9526009959393,-0.528766527753021],[166.95464458298113,-0.524840433039515],[166.95657603535585,-0.522993221959553],[166.95447214517344,-0.522536732384253],[166.95319366625472,-0.522959596308283],[166.95215121440708,-0.522802250923121],[166.95162015394703,-0.523461132924922],[166.94955491752546,-0.522526897398336],[166.9478633907829,-0.522802250923121],[166.94763719869786,-0.523166111226999],[166.94683077302182,-0.522713745043234],[166.94633905070668,-0.523097272620987],[166.94576865210172,-0.522841588168717],[166.94574898302926,-0.521494322804699],[166.94456884857357,-0.521622165930182],[166.94407712625843,-0.52107145888067],[166.94336904504542,-0.522615404177486],[166.9416283460714,-0.522418723345368],[166.94128414045076,-0.521632000016723],[166.94012367416826,-0.521346811506078],[166.94022201953067,-0.522113867560904],[166.94145132621782,-0.522949762221685],[166.94027180599915,-0.52398479556183],[166.93945546889483,-0.523216511033127],[166.9386391326899,-0.524777089291206],[166.93866314189052,-0.525761453927885],[166.9376787367844,-0.527081941977997],[166.93825497378805,-0.528090315815348],[166.93815125137917,-0.528732793283723],[166.93735175138227,-0.529149017513078],[166.935999964227,-0.530438383624471],[166.93638412222947,-0.531790563783431],[166.93586166738214,-0.534141511221719],[166.93664227711952,-0.535301312005913],[166.9368416199447,-0.537234349838999],[166.93792579044293,-0.537326694071623],[166.9400820166718,-0.538549573304124],[166.94133713300232,-0.537181878940487],[166.94293016509516,-0.537101426489585],[166.94342899295373,-0.537905952797416],[166.94561740052268,-0.53883920266702],[166.94561740052268,-0.540641341524633],[166.9462127759989,-0.541494138943335],[166.94893219456515,-0.541799858076956],[166.95105044152467,-0.541458430462171]]]},"properties":{"shapeName":"Anibare","shapeISO":"NR-04","shapeID":"42797286B13012859405048","shapeGroup":"NRU","shapeType":"ADM1"}},
{"type":"Feature","geometry":{"type":"Polygon","coordinates":[[[166.95657603535585,-0.522993221959553],[166.95881221221384,-0.519482274986956],[166.9589087598315,-0.517197413329939],[166.95785085043644,-0.51357776620091],[166.95467552235755,-0.513990546026832],[166.95334855918873,-0.515395366203165],[166.95218071756608,-0.515180246571049],[166.95113580607267,-0.516301943979499],[166.95095141087893,-0.517193155040047],[166.95004479712975,-0.51782314901908],[166.94887695460784,-0.516885839609756],[166.94678713252017,-0.517592663570497],[166.94700226114549,-0.518791188262696],[166.94537342974002,-0.518791188262696],[166.94391269331618,-0.519680137528269],[166.94407712625843,-0.52107145888067],[166.94456884857357,-0.521622165930182],[166.94574898302926,-0.521494322804699],[166.94576865210172,-0.522841588168717],[166.94633905070668,-0.523097272620987],[166.94683077302182,-0.522713745043234],[166.94763719869786,-0.523166111226999],[166.9478633907829,-0.522802250923121],[166.94955491752546,-0.522526897398336],[166.95162015394703,-0.523461132924922],[166.95215121440708,-0.522802250923121],[166.95319366625472,-0.522959596308283],[166.95447214517344,-0.522536732384253],[166.95657603535585,-0.522993221959553]]]},"properties":{"shapeName":"Ijuw","shapeISO":"NR-10","shapeID":"42797286B57716352557989","shapeGroup":"NRU","shapeType":"ADM1"}},
{"type":"Feature","geometry":{"type":"Polygon","coordinates":[[[166.94407712625843,-0.52107145888067],[166.94391269331618,-0.519680137528269],[166.94537342974002,-0.518791188262696],[166.94700226114549,-0.518791188262696],[166.94678713252017,-0.517592663570497],[166.94887695460784,-0.516885839609756],[166.95004479712975,-0.51782314901908],[166.95095141087893,-0.517193155040047],[166.95113580607267,-0.516301943979499],[166.95218071756608,-0.515180246571049],[166.95334855918873,-0.515395366203165],[166.95467552235755,-0.513990546026832],[166.95785085043644,-0.51357776620091],[166.95691344659838,-0.51140480179015],[166.95355037874708,-0.50778441811633],[166.95132978893866,-0.505901816915298],[166.9482394764707,-0.504267934017889],[166.9472831580913,-0.507097259630768],[166.94764703368378,-0.5086707107846],[166.94734216530878,-0.508965733381842],[166.9470372969338,-0.50858220400545],[166.94500156367133,-0.508828055270499],[166.9452029749374,-0.509786287407167],[166.94439733526883,-0.511636665000026],[166.94536662007351,-0.512347864162564],[166.94469731133188,-0.512644902140494],[166.94434388496234,-0.514611714958619],[166.9446770280225,-0.515938082776245],[166.94371325066606,-0.516380615772732],[166.94359523713058,-0.516862485115553],[166.9439689468095,-0.518111409613823],[166.94242493676154,-0.518308090445942],[166.94214957244492,-0.518927636101466],[166.94124480230585,-0.51872112118275],[166.94122513413265,-0.520088053820587],[166.94032036309432,-0.520678097216376],[166.9398409399017,-0.520525666448703],[166.94012367416826,-0.521346811506078],[166.94128414045076,-0.521632000016723],[166.9416283460714,-0.522418723345368],[166.94336904504542,-0.522615404177486],[166.94407712625843,-0.52107145888067]]]},"properties":{"shapeName":"Anabar","shapeISO":"NR-02","shapeID":"42797286B10235022797721","shapeGroup":"NRU","shapeType":"ADM1"}},
{"type":"Feature","geometry":{"type":"Polygon","coordinates":[[[166.9482394764707,-0.504267934017889],[166.94463985814298,-0.503397715831852],[166.9388584296729,-0.503548565413894],[166.93918940176957,-0.507638133493003],[166.94081208630882,-0.508375689086733],[166.94113662375628,-0.509339427772318],[166.94373291973852,-0.510106484726464],[166.94375258881098,-0.510637524502101],[166.94299533626577,-0.51113906111874],[166.94151033253593,-0.511345576936776],[166.93975979947527,-0.512466660108203],[166.93975979947527,-0.513774590924584],[166.9406252314693,-0.515446380246203],[166.93957294553502,-0.516901820562509],[166.94033019808023,-0.516882152389371],[166.9401630123133,-0.517708212963612],[166.94124480230585,-0.51872112118275],[166.94214957244492,-0.518927636101466],[166.94242493676154,-0.518308090445942],[166.9439689468095,-0.518111409613823],[166.94359523713058,-0.516862485115553],[166.94371325066606,-0.516380615772732],[166.9446770280225,-0.515938082776245],[166.94434388496234,-0.514611714958619],[166.94469731133188,-0.512644902140494],[166.94536662007351,-0.512347864162564],[166.94439733526883,-0.511636665000026],[166.9452029749374,-0.509786287407167],[166.94500156367133,-0.508828055270499],[166.9470372969338,-0.50858220400545],[166.94734216530878,-0.508965733381842],[166.94764703368378,-0.5086707107846],[166.9472831580913,-0.507097259630768],[166.9482394764707,-0.504267934017889]]]},"properties":{"shapeName":"Anetan","shapeISO":"NR-03","shapeID":"42797286B47186779397710","shapeGroup":"NRU","shapeType":"ADM1"}},
{"type":"Feature","geometry":{"type":"Polygon","coordinates":[[[166.94124480230585,-0.51872112118275],[166.9401630123133,-0.517708212963612],[166.94033019808023,-0.516882152389371],[166.93957294553502,-0.516901820562509],[166.9406252314693,-0.515446380246203],[166.93975979947527,-0.513774590924584],[166.93975979947527,-0.512466660108203],[166.94151033253593,-0.511345576936776],[166.94299533626577,-0.51113906111874],[166.94375258881098,-0.510637524502101],[166.94373291973852,-0.510106484726464],[166.94113662375628,-0.509339427772318],[166.94081208630882,-0.508375689086733],[166.93918940176957,-0.507638133493003],[166.9388584296729,-0.503548565413894],[166.9358399649425,-0.503523423966783],[166.93380341779357,-0.504026255607187],[166.93179201389034,-0.50520790991709],[166.93036910385115,-0.507324419386407],[166.93166665649107,-0.508281036340691],[166.9316205581423,-0.509341271382539],[166.9333569547597,-0.510109557709882],[166.93449406295076,-0.511369547466586],[166.9347860233563,-0.51249124487498],[166.93586166738214,-0.513198068835777],[166.93529311238728,-0.514473423509628],[166.93558507279295,-0.516501697795093],[166.93687584544398,-0.516901206325542],[166.93735220194264,-0.517700223386555],[166.93835101328875,-0.517423640488573],[166.93971861772013,-0.5191292344266],[166.9398409399017,-0.520525666448703],[166.94032036309432,-0.520678097216376],[166.94122513413265,-0.520088053820587],[166.94124480230585,-0.51872112118275]]]},"properties":{"shapeName":"Ewa","shapeISO":"NR-09","shapeID":"42797286B43186886097675","shapeGroup":"NRU","shapeType":"ADM1"}},
{"type":"Feature","geometry":{"type":"Polygon","coordinates":[[[166.94012367416826,-0.521346811506078],[166.9398409399017,-0.520525666448703],[166.93971861772013,-0.5191292344266],[166.93835101328875,-0.517423640488573],[166.93735220194264,-0.517700223386555],[166.93687584544398,-0.516901206325542],[166.93558507279295,-0.516501697795093],[166.93529311238728,-0.514473423509628],[166.93586166738214,-0.513198068835777],[166.9347860233563,-0.51249124487498],[166.93449406295076,-0.511369547466586],[166.9333569547597,-0.510109557709882],[166.9316205581423,-0.509341271382539],[166.93166665649107,-0.508281036340691],[166.93036910385115,-0.507324419386407],[166.92571710066375,-0.512537925085155],[166.9283616650589,-0.515672563338057],[166.93066292765207,-0.516852650129636],[166.9305842522615,-0.517963898315202],[166.93265932187023,-0.519409504544967],[166.93310187285317,-0.521395982838271],[166.93477146423174,-0.521148353613569],[166.93597589387252,-0.522707451587564],[166.93661159404985,-0.524507474340396],[166.93744240844046,-0.524683700991943],[166.93823545849966,-0.524312367321841],[166.9386391326899,-0.524777089291206],[166.93945546889483,-0.523216511033127],[166.94027180599915,-0.52398479556183],[166.94145132621782,-0.522949762221685],[166.94022201953067,-0.522113867560904],[166.94012367416826,-0.521346811506078]]]},"properties":{"shapeName":"Baiti","shapeISO":"NR-05","shapeID":"42797286B47390171381253","shapeGroup":"NRU","shapeType":"ADM1"}},
{"type":"Feature","geometry":{"type":"Polygon","coordinates":[[[166.9386391326899,-0.524777089291206],[166.93823545849966,-0.524312367321841],[166.93744240844046,-0.524683700991943],[166.93661159404985,-0.524507474340396],[166.93597589387252,-0.522707451587564],[166.93477146423174,-0.521148353613569],[166.93310187285317,-0.521395982838271],[166.93265932187023,-0.519409504544967],[166.9305842522615,-0.517963898315202],[166.93066292765207,-0.516852650129636],[166.9283616650589,-0.515672563338057],[166.92571710066375,-0.512537925085155],[166.92311156144945,-0.515500531124587],[166.92489010209658,-0.516686085794163],[166.92578134913003,-0.518284119916132],[166.9266879637786,-0.518637530997182],[166.927179686993,-0.520051176220761],[166.92890071599527,-0.520804095832318],[166.92893144942695,-0.522140911973452],[166.93154372636195,-0.523262607583206],[166.932327409982,-0.522878464869223],[166.9328037655814,-0.523293339216195],[166.9331110927028,-0.524261377560492],[166.9325886369561,-0.524722348457544],[166.9323427757986,-0.525874775700288],[166.9360306967593,-0.52693500804412],[166.93627655791693,-0.528041336938088],[166.93702950900467,-0.52831791983607],[166.93735175138227,-0.529149017513078],[166.93815125137917,-0.528732793283723],[166.93825497378805,-0.528090315815348],[166.9376787367844,-0.527081941977997],[166.93866314189052,-0.525761453927885],[166.9386391326899,-0.524777089291206]]]},"properties":{"shapeName":"Uaboe","shapeISO":"NR-13","shapeID":"42797286B16537422686347","shapeGroup":"NRU","shapeType":"ADM1"}},
{"type":"Feature","geometry":{"type":"Polygon","coordinates":[[[166.935999964227,-0.530438383624471],[166.93735175138227,-0.529149017513078],[166.93702950900467,-0.52831791983607],[166.93627655791693,-0.528041336938088],[166.9360306967593,-0.52693500804412],[166.9323427757986,-0.525874775700288],[166.9325886369561,-0.524722348457544],[166.9331110927028,-0.524261377560492],[166.9328037655814,-0.523293339216195],[166.932327409982,-0.522878464869223],[166.93154372636195,-0.523262607583206],[166.92893144942695,-0.522140911973452],[166.92890071599527,-0.520804095832318],[166.927179686993,-0.520051176220761],[166.9266879637786,-0.518637530997182],[166.92578134913003,-0.518284119916132],[166.92489010209658,-0.516686085794163],[166.92311156144945,-0.515500531124587],[166.91703379017736,-0.521309020195076],[166.91825184544643,-0.522601881971241],[166.92057216197577,-0.523723579379634],[166.92178610194708,-0.525874775700288],[166.9235224976652,-0.526289649147941],[166.9234303000684,-0.52731914985884],[166.92495156806046,-0.527764754939426],[166.92529930172145,-0.528372408859525],[166.92676479555894,-0.528625233467722],[166.92897754777573,-0.528148896754146],[166.9298226964603,-0.527426709674842],[166.93052954830011,-0.52853303946813],[166.9314361620493,-0.528256456570148],[166.93223521148593,-0.52913230091491],[166.93283449901298,-0.531222033070321],[166.935999964227,-0.530438383624471]]]},"properties":{"shapeName":"Nibok","shapeISO":"NR-12","shapeID":"42797286B97017492085150","shapeGroup":"NRU","shapeType":"ADM1"}},
{"type":"Feature","geometry":{"type":"Polygon","coordinates":[[[166.92529930172145,-0.528372408859525],[166.92495156806046,-0.527764754939426],[166.9234303000684,-0.52731914985884],[166.9235224976652,-0.526289649147941],[166.92178610194708,-0.525874775700288],[166.92057216197577,-0.523723579379634],[166.91825184544643,-0.522601881971241],[166.91703379017736,-0.521309020195076],[166.91394394445751,-0.524254196473919],[166.91119618555558,-0.528485512995985],[166.9180728009974,-0.53008431356177],[166.9197561234464,-0.530744615371646],[166.92061840781332,-0.530020831096408],[166.92177651337545,-0.530197056848635],[166.92234927180152,-0.528957181328792],[166.92529930172145,-0.528372408859525]]]},"properties":{"shapeName":"Denigomodu","shapeISO":"NR-08","shapeID":"42797286B1837224955513","shapeGroup":"NRU","shapeType":"ADM1"}},
{"type":"Feature","geometry":{"type":"Polygon","coordinates":[[[166.9180728009974,-0.53008431356177],[166.91119618555558,-0.528485512995985],[166.91007186572403,-0.531099656923573],[166.90920293896454,-0.531244472054709],[166.91002359191532,-0.531904184130724],[166.90986267891958,-0.537793319006425],[166.91118006880515,-0.542644973486688],[166.91189253781044,-0.542239634651366],[166.91359584477243,-0.541839706137466],[166.91479441892739,-0.540840939757516],[166.9186040865095,-0.539835681171724],[166.91742206257823,-0.537690979754871],[166.91623885423985,-0.53752195757221],[166.91640788451627,-0.536154413395423],[166.9171762014206,-0.535831734846624],[166.91676130998655,-0.534049317222184],[166.91745279511042,-0.533726638673329],[166.9179906166737,-0.532312996147823],[166.9180728009974,-0.53008431356177]]]},"properties":{"shapeName":"Aiwo","shapeISO":"NR-01","shapeID":"42797286B70192209207598","shapeGroup":"NRU","shapeType":"ADM1"}},
{"type":"Feature","geometry":{"type":"Polygon","coordinates":[[[166.92888251821375,-0.54078615665577],[166.92545769661547,-0.542567654273739],[166.92252642655342,-0.543429738091902],[166.9167459432707,-0.546003796537946],[166.91189253781044,-0.542239634651366],[166.91118006880515,-0.542644973486688],[166.9121798172448,-0.545130594401371],[166.91343493357545,-0.546900549220936],[166.9172157293225,-0.549997647973044],[166.9234153605305,-0.553241490902053],[166.9294349708473,-0.554271882841078],[166.92944571055114,-0.549458938778969],[166.9303468195501,-0.547351083485694],[166.9303468195501,-0.545806395348791],[166.9297997178827,-0.545114502832007],[166.929751444074,-0.543392819123255],[166.92923652554532,-0.543151461770492],[166.92951007592933,-0.542459569253651],[166.92899515560202,-0.541976854548125],[166.92957444130752,-0.54097924289772],[166.92888251821375,-0.54078615665577]]]},"properties":{"shapeName":"Yaren","shapeISO":"NR-14","shapeID":"42797286B93959359959633","shapeGroup":"NRU","shapeType":"ADM1"}},
{"type":"Feature","geometry":{"type":"Polygon","coordinates":[[[166.9186040865095,-0.539835681171724],[166.91479441892739,-0.540840939757516],[166.91359584477243,-0.541839706137466],[166.91189253781044,-0.542239634651366],[166.9167459432707,-0.546003796537946],[166.92252642655342,-0.543429738091902],[166.92101586409092,-0.542159504157723],[166.91947923118164,-0.541655319037716],[166.91851883527613,-0.541847389045699],[166.9186040865095,-0.539835681171724]]]},"properties":{"shapeName":"Boe","shapeISO":"NR-06","shapeID":"42797286B3474402438736","shapeGroup":"NRU","shapeType":"ADM1"}}
]}