{"type":"FeatureCollection", "features": [
{"type":"Feature","geometry":{"type":"Polygon","coordinates":[[[51.3477452408254,25.895127742992234],[51.27105857417705,25.895127742992234],[51.27105857417705,25.94883049155485],[51.235978841086286,25.94883049155485],[51.235978841086286,25.94211898617411],[51.23075419998766,25.94211898617411],[51.23075419998766,25.94815935823041],[51.216145244045435,25.94815935823041],[51.16581937490477,25.94815935823041],[51.16581937490477,25.966278615031367],[51.13521790561283,25.966278615031367],[51.13521790561283,25.95084386857485],[51.118051227717345,25.95084386857485],[51.118051227717345,25.84475921249553],[51.10237730442147,25.84475921249553],[51.10312368172128,25.84811778241069],[50.96093852922655,25.84811778241069],[50.95738089999998,25.8392285],[50.95837860000002,25.833720900000017],[50.9555348,25.83372009999996],[50.95837860000002,25.833463699999978],[50.95795260000002,25.830375199999967],[50.9654909,25.824200500000018],[50.97970859999998,25.8256182],[50.9871027,25.81828480000002],[50.98767249999998,25.80799040000004],[50.985114,25.80515940000002],[50.9898048,25.8036156],[50.99094239999998,25.7984684],[50.986537,25.792548899999936],[50.97971480000005,25.788945],[50.98271924541953,25.776055554332633],[51.07144929506086,25.776055554332633],[51.07144929506086,25.77353510309534],[51.11828447062353,25.77353510309534],[51.11828447062353,25.713700688803677],[51.27103904522887,25.713700688803677],[51.316133297338766,25.768007111392823],[51.31630794896025,25.77398377393102],[51.3477452408254,25.81078079675018],[51.3477452408254,25.895127742992234]]]},"properties":{"shapeName":"76","shapeISO":"","shapeID":"91078587B47360643234421","shapeGroup":"QAT","shapeType":"ADM2"}},
{"type":"Feature","geometry":{"type":"Polygon","coordinates":[[[51.3477452408254,25.895127742992234],[51.4604333943222,25.949370175013026],[51.45538129999997,25.9490256],[51.4603599,25.952131899999987],[51.45656539999997,25.9566513],[51.45972959999997,25.95201609999998],[51.45414869999995,25.9484427],[51.45085620000002,25.9484469],[51.45377060000004,25.95055389999998],[51.4514893,25.95016179999996],[51.450239,25.947848200000017],[51.44060009999998,25.94828559999998],[51.440045400000045,25.950406499999954],[51.4374834,25.948889300000012],[51.433788399999955,25.950390100000018],[51.4349663,25.95204760000001],[51.432781799999965,25.95039929999997],[51.4200714,25.955592599999964],[51.40383739999997,25.965592699999963],[51.40062160000003,25.970445699999942],[51.39890779999997,26.0108541],[51.38042749999998,26.02068310000003],[51.37389529999995,26.026619],[51.37318919999996,26.028679699999973],[51.37475230000002,26.027389],[51.375612600000046,26.029188100000045],[51.38248509999998,26.023928],[51.36770534191803,26.040895159778657],[51.216145244045435,26.040895159778657],[51.216145244045435,25.94815935823041],[51.23075419998766,25.94815935823041],[51.23075419998766,25.94211898617411],[51.235978841086286,25.94211898617411],[51.235978841086286,25.94883049155485],[51.27105857417705,25.94883049155485],[51.27105857417705,25.895127742992234],[51.3477452408254,25.895127742992234]]]},"properties":{"shapeName":"77","shapeISO":"","shapeID":"91078587B75856753740390","shapeGroup":"QAT","shapeType":"ADM2"}},
{"type":"Feature","geometry":{"type":"Polygon","coordinates":[[[51.11767803906745,24.71853677301617],[51.11767803906745,24.824794158040945],[51.096406286023054,24.824794158040945],[51.096406286023054,24.848162561853922],[51.08744975842541,24.848162561853922],[51.08744975842541,24.883376164784284],[51.098645417922455,24.883376164784284],[51.098645417922455,24.918241284278825],[51.118523933340555,24.918241284278825],[51.118523933340555,24.990002906865218],[51.088465876609156,24.9902414590859],[51.08482905615037,24.98715110108762],[51.081226866457484,24.9906337545656],[51.06419833336386,24.990712904634343],[51.05544392083753,24.983510039693325],[51.04182109436263,24.99316653148647],[51.035249827104685,24.99316653148647],[51.035249827104685,24.99031715378097],[50.98145712769099,24.99031715378097],[50.98145712769099,24.986122116406452],[50.96827093026979,24.986122116406452],[50.96827093026979,24.989525648251934],[50.79585661394956,24.991425252959644],[50.79727603410431,24.983410439585445],[50.80379249999996,24.97356350000003],[50.81411530000005,24.963024],[50.82216859999995,24.95814340000001],[50.8260066,24.939616099999974],[50.834482,24.9347354],[50.85171989999998,24.91905289999997],[50.85037709063413,24.912041875889894],[50.85800980000001,24.90381509999994],[50.85866450371182,24.892712699959663],[50.86382219999998,24.8787313],[50.860097299999985,24.873245699999977],[50.859092099999955,24.86639889999995],[50.86265560000001,24.856002899999964],[50.85857489999998,24.84776269999997],[50.85886450000007,24.841328200000028],[50.8543595,24.83437430000001],[50.85762519999999,24.821612499999976],[50.86947929999998,24.8053029],[50.87036779999997,24.795445500000017],[50.86534239999999,24.786300499999985],[50.8623294,24.7687467],[50.858951200000035,24.764625199999962],[50.8372599,24.75340610000003],[50.81162480000003,24.744367799999953],[50.82838915477894,24.71853677301617],[51.11767803906745,24.71853677301617]]]},"properties":{"shapeName":"96","shapeISO":"","shapeID":"91078587B9070844542382","shapeGroup":"QAT","shapeType":"ADM2"}},
{"type":"Feature","geometry":{"type":"Polygon","coordinates":[[[51.49980430802907,25.37771743259739],[51.4975639509675,25.39147502263059],[51.469717442017135,25.378693104474824],[51.4827135361752,25.354176820462197],[51.499300417434405,25.35387386592181],[51.49529308005699,25.371684944536533],[51.49980430802907,25.37771743259739]]]},"properties":{"shapeName":"68","shapeISO":"","shapeID":"91078587B27040506800660","shapeGroup":"QAT","shapeType":"ADM2"}},
{"type":"Feature","geometry":{"type":"Polygon","coordinates":[[[51.44876070789074,25.357869670876237],[51.44850977720529,25.36895759661124],[51.410462285304405,25.435349613483915],[51.40792358438401,25.495211898824593],[51.4149449509868,25.56448803152796],[51.3375328024408,25.56448803152796],[51.31607445507145,25.560784785333365],[51.26830630788403,25.584685540444326],[51.26602052740338,25.587594776186094],[51.26602052740338,25.5833691849472],[51.26602052740338,25.574587211910572],[51.25445167925643,25.574587211910572],[51.25445167925643,25.569874367058496],[51.265647338753475,25.560111455543403],[51.265647338753475,25.47809398861601],[51.265647338753475,25.397728785377613],[51.2708719798521,25.39166045799712],[51.31577269635195,25.388119173896172],[51.36105019316598,25.384548068240257],[51.35922257891264,25.365633302160404],[51.393995820006005,25.36289018210721],[51.39291290338861,25.351680960777365],[51.412145474519114,25.35016361377783],[51.41343004411455,25.339392797551678],[51.41977425116288,25.34107920387358],[51.42238657171219,25.345126483138177],[51.41902787386307,25.354906848951916],[51.41865468521317,25.366035268468522],[51.4350938164288,25.366485395654447],[51.44067281555738,25.360639799072633],[51.44104600420728,25.354232366359096],[51.44876070789074,25.357869670876237]]]},"properties":{"shapeName":"71","shapeISO":"","shapeID":"91078587B67880775667160","shapeGroup":"QAT","shapeType":"ADM2"}},
{"type":"Feature","geometry":{"type":"Polygon","coordinates":[[[51.4975639509675,25.39147502263059],[51.48558559269973,25.42064179116443],[51.475076373728406,25.466003689479958],[51.508630693597574,25.466003689479958],[51.511435,25.469289899999982],[51.5059764,25.47234369999996],[51.5197303,25.479079599999963],[51.5220103,25.4798797],[51.52538170000001,25.480233499999976],[51.53693679999997,25.4773883],[51.52797859999998,25.48001620000002],[51.52523140000004,25.4803497],[51.52317460000001,25.480215],[51.52182540000006,25.479974699999975],[51.5196232,25.479164099999956],[51.5068321,25.47279339999997],[51.49867469999998,25.47668119999995],[51.4973814,25.4743255],[51.493179800000014,25.47481019999997],[51.49554759999996,25.472713],[51.493827699999976,25.4733154],[51.48983230000004,25.476996600000014],[51.48840789999996,25.47985139999997],[51.4918377,25.475455399999973],[51.4894937,25.4803797],[51.49108929999995,25.492934399999953],[51.4764885,25.505690599999976],[51.4741493,25.513766199999978],[51.480289300000045,25.52571979999996],[51.48397239999997,25.526835],[51.48849230000004,25.538159199999974],[51.49743420000002,25.5388958],[51.4978523,25.545927499999934],[51.490974,25.549895800000023],[51.499428500000015,25.5674724],[51.48992379999996,25.566641],[51.48832959999997,25.577976],[51.49645930000001,25.5781285],[51.488269399999936,25.578485100000012],[51.48939280000002,25.582089],[51.49113070000002,25.584652699999985],[51.4968056,25.584118400000015],[51.49084950000001,25.5849105],[51.48987879999996,25.590575599999948],[51.49546940000001,25.604196799999954],[51.49887060000005,25.603026699999962],[51.5039927,25.60622669999997],[51.51255349999998,25.6072158],[51.517349399999965,25.6049186],[51.51416129999998,25.60821729999999],[51.51879070000003,25.61518239999994],[51.53951910000006,25.616779699999967],[51.54771549999998,25.623876499999977],[51.5487924,25.63436680000002],[51.55182684254622,25.638961874145995],[51.49697765311131,25.63836067317147],[51.45886576224009,25.65333156464609],[51.45042236903607,25.651144922349427],[51.412543721071046,25.62338790403666],[51.40452016509817,25.62305141574923],[51.4032140048235,25.61413413080989],[51.4149449509868,25.56448803152796],[51.40792358438401,25.495211898824593],[51.410462285304405,25.435349613483915],[51.44850977720529,25.36895759661124],[51.469717442017135,25.378693104474824],[51.4975639509675,25.39147502263059]]]},"properties":{"shapeName":"70","shapeISO":"","shapeID":"91078587B85079353631459","shapeGroup":"QAT","shapeType":"ADM2"}},
{"type":"Feature","geometry":{"type":"Polygon","coordinates":[[[51.216145244045435,25.94815935823041],[51.216145244045435,26.040895159778657],[51.216145244045435,26.079491406653702],[51.19518704946867,26.116506744390513],[51.19518704946867,26.129051657309997],[51.18595511883438,26.142214952606924],[51.1839506,26.1378446],[51.18641750000001,26.135395200000023],[51.18381809999995,26.1300353],[51.181503400000025,26.128906400000037],[51.180620800000014,26.1306248],[51.1810448,26.1272337],[51.16086449999996,26.115952099999937],[51.15795730000005,26.1119412],[51.15474349999997,26.105057],[51.15662920000005,26.099578],[51.152769,26.0937442],[51.15375630000001,26.089488299999953],[51.14760570000003,26.083325799999976],[51.12326810000001,26.07050490000001],[51.118773,26.071937],[51.115884,26.079511699999955],[51.11103789999996,26.080845899999936],[51.09620880000003,26.06811749999999],[51.09250550000002,26.06927839999996],[51.090513799999975,26.07301070000002],[51.084244100000014,26.07211430000003],[51.086243,26.07803210000002],[51.08339360000002,26.078291],[51.081252500000026,26.073402699999946],[51.08324380000003,26.068512],[51.0796809,26.066455299999937],[51.077397199999986,26.060022700000026],[51.0429161,26.045110799999957],[51.03392529999994,26.0436727],[51.04047850000002,26.041139800000025],[51.04309150000005,26.034147599999944],[51.03789,26.020143],[51.04021689999995,26.014026699999942],[51.03652119999999,26.011433499999978],[51.035039,26.0129698],[51.03625839999998,26.00760520000001],[51.03205310000003,25.989950399999948],[51.035560900000014,25.987099399999966],[51.02774139999997,25.984684499999986],[51.02460750000004,25.989865599999963],[51.0239209,25.987389399999977],[51.020963,25.987576600000022],[51.02430519999998,25.98307939999998],[51.0239371,25.977863],[51.0187957,25.972186299999986],[51.017537800000014,25.973097099999954],[51.01527460000001,25.967865800000013],[51.02103779999997,25.971486],[51.0237953,25.969069300000022],[51.0047377,25.9599339],[50.99790520000001,25.967654600000024],[50.999898199999976,25.971514899999956],[50.995912,25.979492799999964],[50.999625299999934,25.981901],[50.996194699999975,25.9801987],[50.99288149999999,25.98462890000001],[50.990502,25.9805219],[50.9887935,25.981808599999987],[50.98893580000005,25.977433600000023],[50.98651620000005,25.9753745],[50.99007550000003,25.968169],[50.98979159999998,25.958389600000036],[50.9927812,25.957875],[50.99377719999997,25.954272099999976],[50.992924400000035,25.935228],[50.99634040000006,25.919014899999983],[50.99363750000002,25.9156692],[50.9919311,25.9015146],[50.98709439999998,25.89636719999998],[50.97941239999999,25.8943075],[50.97856009999998,25.8871013],[50.971448900000034,25.881181],[50.97287250000003,25.87629139999999],[50.97742439999996,25.875262899999978],[50.97728340000004,25.86625529999994],[50.970884,25.864581],[50.9705979,25.8708866],[50.966046599999956,25.870370800000035],[50.96604840000003,25.86393709999997],[50.958655299999975,25.85647170000003],[50.96093852922655,25.84811778241069],[51.10312368172128,25.84811778241069],[51.10237730442147,25.84475921249553],[51.118051227717345,25.84475921249553],[51.118051227717345,25.95084386857485],[51.13521790561283,25.95084386857485],[51.13521790561283,25.966278615031367],[51.16581937490477,25.966278615031367],[51.16581937490477,25.94815935823041],[51.216145244045435,25.94815935823041]]]},"properties":{"shapeName":"78","shapeISO":"","shapeID":"91078587B72332727540612","shapeGroup":"QAT","shapeType":"ADM2"}},
{"type":"Feature","geometry":{"type":"Polygon","coordinates":[[[51.27103904522887,25.713700688803677],[51.270964181667445,25.71341646875121],[51.29954139329883,25.71325947251276],[51.29956480831712,25.716719229264083],[51.30810431613678,25.71667231661265],[51.30808123877265,25.71326245034403],[51.40293058189282,25.71274136968925],[51.40295432157859,25.716249113231953],[51.41818039500488,25.716165466911434],[51.41815861144065,25.71294675886175],[51.45798728483668,25.71272794891295],[51.45801324687132,25.716564058827288],[51.4664239006635,25.716517853988385],[51.466403985560596,25.713575239219743],[51.49192027772504,25.71343505912411],[51.4919403941218,25.716407419787547],[51.49663664421341,25.716381620396515],[51.49665385808293,25.71892505072558],[51.503446914621335,25.718887733074705],[51.50342694107828,25.71593654199404],[51.51396954332476,25.7158786247567],[51.51466852804826,25.71908154019848],[51.52078133479983,25.71908154019848],[51.52392506398633,25.72395926941826],[51.53265764505999,25.72395926941826],[51.53527741938209,25.71876684112171],[51.54278743910543,25.71876684112171],[51.54278743910543,25.71609186535497],[51.54942420072141,25.71609186535497],[51.54942420072141,25.712944758034656],[51.57618956171214,25.712944758034656],[51.57863468441276,25.72175644873503],[51.57549095522626,25.72175644873503],[51.57549095522626,25.7345951980106],[51.57261589999996,25.73511829999997],[51.56988370000005,25.731972800000037],[51.57038859999999,25.725923],[51.5673338,25.7288229],[51.55072910000005,25.734071300000025],[51.5490093,25.73987520000001],[51.540284,25.739804799999956],[51.53757129999998,25.74965489999995],[51.53911579999997,25.7486249],[51.53942469999995,25.75046269999999],[51.540676,25.74704329999997],[51.54755839999995,25.744769899999966],[51.547484299999965,25.742268299999942],[51.5505945,25.7414273],[51.561843500000016,25.74322790000004],[51.56276589999994,25.761711700000028],[51.5719131,25.7727421],[51.56808580000001,25.774686699999958],[51.565616900000045,25.773111600000014],[51.566095699999934,25.77456630000002],[51.561516599999976,25.767892899999946],[51.55896829999998,25.769961499999983],[51.562972299999984,25.775221199999944],[51.5771841,25.7752947],[51.57918860000003,25.778375099999973],[51.5806061,25.7775973],[51.57976470000002,25.779916699999976],[51.58446039999996,25.7811847],[51.58777959999998,25.7913363],[51.595168600000015,25.790920699999976],[51.59394579999997,25.773683099999968],[51.59651920000004,25.776760799999987],[51.5970699,25.801721699999955],[51.58856410000001,25.821562199999946],[51.588929900000046,25.834906599999975],[51.58529650000006,25.85091310000001],[51.585944900000015,25.852886099999985],[51.5895286,25.8523956],[51.5853157,25.8530009],[51.58342359999996,25.86105830000001],[51.6620405,25.898694399999982],[51.65657790000005,25.90555339999995],[51.658939300000036,25.908046899999942],[51.6562392,25.906146199999984],[51.65278630000001,25.9095645],[51.66152670000005,25.89884820000001],[51.6509987,25.896362399999937],[51.64708330000003,25.90258549999996],[51.6489314,25.899353],[51.64677789999997,25.898286700000014],[51.64400750000002,25.897076599999984],[51.642017799999934,25.9001621],[51.6456926,25.89382020000002],[51.643606400000046,25.892838299999948],[51.64179520000003,25.895997],[51.642775600000036,25.893732],[51.63786,25.890111400000013],[51.6353984,25.893953400000026],[51.631746,25.89177659999995],[51.63406640000002,25.88598779999997],[51.61868920000002,25.878625099999987],[51.6177216,25.880243499999974],[51.61561629999995,25.87921529999997],[51.61660450000004,25.87767609999998],[51.583583,25.86187569999995],[51.57585070000001,25.877696100000033],[51.574867400000024,25.890229299999984],[51.56336370000002,25.889619499999988],[51.57477530000001,25.891342800000032],[51.563416,25.891361199999935],[51.6007335,25.89229969999997],[51.633135,25.90697330000002],[51.63616459999997,25.9037676],[51.631054300000024,25.912742499999972],[51.63214070000004,25.908685599999963],[51.622966199999965,25.9042379],[51.61912989999997,25.9107699],[51.62232749999995,25.90404710000002],[51.60054519999998,25.893354699999943],[51.58642069999997,25.893524100000015],[51.5930732,25.904134100000014],[51.5903756,25.9089792],[51.613076499999984,25.919818200000016],[51.6165635,25.914542899999983],[51.61368820000002,25.9200712],[51.6176005,25.921990900000015],[51.6191331,25.919035],[51.61830019999998,25.9222878],[51.6226974,25.924401199999966],[51.632564900000034,25.923215],[51.636837,25.916688199999925],[51.63286,25.92368780000001],[51.62174829999998,25.9251154],[51.618426699999965,25.923500399999938],[51.61885030000002,25.92565169999997],[51.61741689999999,25.923075499999968],[51.6158056,25.92569010000003],[51.6163856,25.922798699999984],[51.61439350000002,25.921842],[51.613231,25.924377200000023],[51.614009,25.921674],[51.6118994,25.9206973],[51.6096488,25.922841200000043],[51.611155,25.920362699999952],[51.59802310000004,25.91416149999996],[51.593594399999944,25.919770299999957],[51.58733680000003,25.91591720000001],[51.5846431,25.918783799999957],[51.593429800000024,25.9252645],[51.5962773,25.92149949999995],[51.600014,25.9259988],[51.60389759999999,25.921973],[51.60629559999997,25.9246604],[51.60273460000005,25.929119],[51.589253,25.9265465],[51.596818700000014,25.93375820000002],[51.59996029999998,25.93228669999997],[51.59711529999995,25.934110399999966],[51.60091840000005,25.937082400000012],[51.62109439999998,25.930174700000013],[51.60205659999996,25.938216699999984],[51.60972280000004,25.939400399999965],[51.613329,25.9355428],[51.61062369999998,25.939709300000015],[51.6260734,25.941799499999956],[51.642011499999974,25.93334309999996],[51.6395895,25.92934009999997],[51.6424742,25.93299329999998],[51.6517257,25.9276433],[51.65804930000003,25.926483499999954],[51.6513014,25.92834289999997],[51.6268716,25.942596199999965],[51.62238730000003,25.9428648],[51.5967893,25.939305099999977],[51.57337770000002,25.918883799999982],[51.5710587,25.918966299999955],[51.55097590000005,25.92741669999997],[51.55251410000002,25.9318674],[51.54708279999995,25.933083599999986],[51.54986109999997,25.940177699999953],[51.547508,25.935216299999958],[51.5456599,25.928695099999988],[51.53795730000002,25.93220509999997],[51.55000819999997,25.942835200000026],[51.53783949999996,25.932351],[51.51597720000004,25.949492800000016],[51.49636439999997,25.95494219999997],[51.487995,25.953954],[51.4876513,25.958943599999966],[51.48721659999997,25.954298099999974],[51.48031160000002,25.9546795],[51.47497630000003,25.952199099999945],[51.473127200000015,25.95464110000003],[51.4727846,25.951712899999944],[51.4604333943222,25.949370175013026],[51.3477452408254,25.895127742992234],[51.3477452408254,25.81078079675018],[51.31630794896025,25.77398377393102],[51.316133297338766,25.768007111392823],[51.27103904522887,25.713700688803677]]]},"properties":{"shapeName":"75","shapeISO":"","shapeID":"91078587B7321304158437","shapeGroup":"QAT","shapeType":"ADM2"}},
{"type":"Feature","geometry":{"type":"Polygon","coordinates":[[[50.98271924541953,25.776055554332633],[50.968633,25.77015579999998],[50.96749770000002,25.765112],[50.95584469999997,25.7653664],[50.95513119999998,25.77205740000002],[50.96067140000001,25.78029449999996],[50.959247900000015,25.78698549999999],[50.94872530000005,25.798048399999967],[50.947301900000056,25.802423],[50.94303690000001,25.803064499999955],[50.938769700000016,25.808081699999942],[50.9308088,25.8080781],[50.9194496,25.78825559999999],[50.9120619,25.783618899999954],[50.90893489999997,25.783874399999956],[50.9077996,25.7815574],[50.90525509999998,25.764312700000037],[50.911233,25.7517058],[50.914075300000036,25.750935499999965],[50.913225200000035,25.747589200000025],[50.91834090000001,25.74682019999998],[50.916068899999935,25.744760099999972],[50.918201,25.742702399999978],[50.914938100000015,25.7365238],[50.9027253,25.72956749999997],[50.9023035,25.723647799999988],[50.89393019999994,25.7151491],[50.892231099999975,25.70897119999997],[50.89322919999995,25.704082200000023],[50.897494399999985,25.699452599999955],[50.89708159999996,25.684525399999963],[50.89992529999996,25.680409599999948],[50.895673399999936,25.670884099999974],[50.89950950000005,25.66754109999996],[50.89951439999999,25.661621800000024],[50.90321139999998,25.6549329],[50.902364099999964,25.649270299999976],[50.91501159999997,25.63293519999997],[50.9223955,25.629207900000026],[50.925233900000016,25.6299815],[50.927792800000034,25.623677],[50.936310600000034,25.62097909999995],[50.936593399999964,25.623038],[50.94610080000007,25.62767439999997],[50.947661,25.631663800000016],[50.9581637,25.635785],[50.9646946,25.632570099999956],[50.96980389999997,25.6361743],[50.97533739999998,25.64724190000004],[50.97349109999996,25.652903599999966],[50.97604670000006,25.65264680000003],[50.97462730000003,25.650587600000012],[50.978176599999934,25.64852919999995],[50.97973959999998,25.643639599999954],[50.98286259999998,25.644412],[50.985134600000016,25.640551900000013],[50.985134,25.644669700000023],[50.98811509999998,25.6408095],[50.98683839999998,25.6374636],[50.979740899999946,25.634889299999987],[50.98073510000001,25.62897],[50.972504699999945,25.6181594],[50.96328049999997,25.615069],[50.96498480000003,25.6112089],[50.9681072,25.610952199999968],[50.96910120000001,25.60683470000001],[50.9696701,25.60194489999998],[50.9669753,25.598341],[50.954205,25.593962499999947],[50.95221629999994,25.59910910000001],[50.942846399999986,25.606826699999946],[50.9428432,25.613775499999974],[50.94199230000002,25.612231],[50.93943670000002,25.614288800000015],[50.940998799999946,25.611458599999953],[50.939156400000044,25.606953399999952],[50.93404659999999,25.608367099999956],[50.934328,25.612742399999938],[50.929786300000046,25.61274039999995],[50.93234459999998,25.6063076],[50.9194356,25.597293199999957],[50.92312670000007,25.594721499999984],[50.92284459999997,25.5921477],[50.92582549999998,25.5913771],[50.92526020000002,25.58777380000003],[51.08803827969494,25.5877798991658],[51.08803827969494,25.5833691849472],[51.26602052740338,25.5833691849472],[51.26602052740338,25.587594776186094],[51.24516861159013,25.61413413080989],[51.24292947969073,25.622210190884083],[51.25524470513747,25.651817739632296],[51.263873524960324,25.699126801725264],[51.270964181667445,25.71341646875121],[51.27103904522887,25.713700688803677],[51.11828447062353,25.713700688803677],[51.11828447062353,25.77353510309534],[51.07144929506086,25.77353510309534],[51.07144929506086,25.776055554332633],[50.98271924541953,25.776055554332633]]]},"properties":{"shapeName":"73","shapeISO":"","shapeID":"91078587B33419778787215","shapeGroup":"QAT","shapeType":"ADM2"}},
{"type":"Feature","geometry":{"type":"Polygon","coordinates":[[[50.919805105311056,25.46750862817685],[50.90180696266776,25.467352385320392],[50.87033503352879,25.450420296386678],[50.839945651392476,25.45168191368031],[50.839527529991614,25.46187511309222],[50.829675,25.46082309999995],[50.82497589999998,25.464414500000025],[50.83047389999994,25.46210680000003],[50.8240393,25.466393299999957],[50.8221999,25.49000279999995],[50.8195284,25.497240399999974],[50.815198699999975,25.497286],[50.81228630000002,25.49983269999999],[50.809088799999984,25.51641329999998],[50.80473640000003,25.5194589],[50.798955,25.530040200000027],[50.79263839999999,25.529383599999964],[50.79037570000001,25.53149389999996],[50.789166200000054,25.5286766],[50.7834314,25.5279823],[50.77795830000005,25.521333699999968],[50.774576400000015,25.52160649999995],[50.77263380000003,25.518333499999954],[50.771081,25.519930899999974],[50.7700917,25.519238199999936],[50.77207089999996,25.518695099999956],[50.7711672,25.51644659999998],[50.75680329999999,25.50411840000002],[50.7573601,25.499799599999985],[50.76140680000004,25.501607500000016],[50.76484019999999,25.498964199999982],[50.76975710000003,25.48862640000003],[50.76460750000001,25.478396],[50.75547920000005,25.44293280000004],[50.756932,25.433583399999975],[50.750012,25.4236522],[50.750995300000035,25.419945],[50.7555335,25.41980139999998],[50.7588374,25.41502940000002],[50.7538902,25.402403899999985],[50.7567883,25.402099099999965],[50.76296830000002,25.3933174],[50.7592068,25.386192],[50.76288270000003,25.368304399999943],[50.76167830000006,25.3636754],[50.76353029999995,25.362069500000015],[50.759636,25.351283299999988],[50.76330269999996,25.3515883],[50.76538749999998,25.349450699999984],[50.765755799999965,25.324598099999974],[50.7696088,25.301260899999946],[50.76679950000002,25.29355669999994],[50.76390560000003,25.29171029999995],[50.7609536,25.2939075],[50.76424449999997,25.290932099999953],[50.7616403,25.290121799999966],[50.763745,25.2890896],[50.7640565,25.273157899999955],[50.762914299999956,25.271411699999984],[50.76014750000003,25.2733398],[50.763754300000016,25.27045289999995],[50.762179509760365,25.26579008291259],[50.786613059886534,25.265924487807432],[50.78663923337219,25.262033136663934],[50.91980404295326,25.262923628689805],[50.91893184720369,25.392529395461807],[50.91578811801717,25.412723384361342],[50.889590374796214,25.424081017467177],[50.88978212795902,25.43400549787395],[50.898322955869865,25.44348116495838],[50.902339943163746,25.454362806529144],[50.907230188564995,25.45940903108872],[50.919805105311056,25.457359027878653],[50.919805105311056,25.46750862817685]]]},"properties":{"shapeName":"86","shapeISO":"","shapeID":"91078587B46444112589307","shapeGroup":"QAT","shapeType":"ADM2"}},
{"type":"Feature","geometry":{"type":"Polygon","coordinates":[[[50.91980404295326,25.262923628689805],[50.957704507170696,25.262923628689805],[50.957704507170696,25.259764632610615],[51.01900722630772,25.259764632610615],[51.124933434731155,25.259764632610615],[51.124933434731155,25.30256203871616],[51.124933434731155,25.431135345158143],[51.10166110616985,25.431178994768448],[51.079916979296456,25.426762524692293],[51.03311034474169,25.425500646370857],[50.96230623188423,25.456363209778033],[50.93137577523362,25.46350893274475],[50.93133211232824,25.467608694701752],[50.919805105311056,25.46750862817685],[50.919805105311056,25.457359027878653],[50.907230188564995,25.45940903108872],[50.902339943163746,25.454362806529144],[50.898322955869865,25.44348116495838],[50.88978212795902,25.43400549787395],[50.889590374796214,25.424081017467177],[50.91578811801717,25.412723384361342],[50.91893184720369,25.392529395461807],[50.91980404295326,25.262923628689805]]]},"properties":{"shapeName":"85","shapeISO":"","shapeID":"91078587B12839905472934","shapeGroup":"QAT","shapeType":"ADM2"}},
{"type":"Feature","geometry":{"type":"Polygon","coordinates":[[[51.01900722630772,25.259764632610615],[51.01900722630772,25.171790109867842],[51.09808563494761,25.15627832376931],[51.14995885728394,25.133981992805865],[51.17057753019102,25.10728860724198],[51.18666144204791,25.117473919574646],[51.206567987445,25.13007878088468],[51.326117741743865,25.170433807156183],[51.3262904943625,25.19072827550443],[51.3082833836936,25.229089722026142],[51.3050187413181,25.24508533557764],[51.27404408337626,25.29233258903319],[51.273074263503915,25.30256203871616],[51.124933434731155,25.30256203871616],[51.124933434731155,25.259764632610615],[51.01900722630772,25.259764632610615]]]},"properties":{"shapeName":"82","shapeISO":"","shapeID":"91078587B69331061466095","shapeGroup":"QAT","shapeType":"ADM2"}},
{"type":"Feature","geometry":{"type":"Polygon","coordinates":[[[51.265647338753475,25.47809398861601],[51.208023943646936,25.47809398861601],[51.20060124973434,25.463351246802606],[51.20042659811287,25.44742390232774],[51.19396448811837,25.441904033865683],[51.1902094782567,25.44174631962049],[51.18154239154109,25.44963177886432],[51.159689107404276,25.425579514153014],[51.15095652633062,25.425816117189832],[51.14370848403949,25.43110013065077],[51.124933434731155,25.431135345158143],[51.124933434731155,25.30256203871616],[51.273074263503915,25.30256203871616],[51.27292451742656,25.304141527863784],[51.317707155414766,25.302454607037646],[51.31681656579874,25.34190054429718],[51.31577269635195,25.388119173896172],[51.2708719798521,25.39166045799712],[51.265647338753475,25.397728785377613],[51.265647338753475,25.47809398861601]]]},"properties":{"shapeName":"80","shapeISO":"","shapeID":"91078587B61034229486760","shapeGroup":"QAT","shapeType":"ADM2"}},
{"type":"Feature","geometry":{"type":"Polygon","coordinates":[[[50.762179509760365,25.26579008291259],[50.7642358,25.24183310000002],[50.7611369,25.239558199999973],[50.764983600000065,25.23968329999993],[50.76658579999998,25.236553399999963],[50.76368470000005,25.21667309999997],[50.76811860000002,25.20824129999998],[50.762744,25.2004406],[50.764886400000016,25.2013059],[50.76349279999994,25.20021929999997],[50.766325300000034,25.197760699999954],[50.76624949999999,25.184235299999944],[50.770249299999975,25.17886020000001],[50.77564189999996,25.1590967],[50.77106040000005,25.11353330000003],[50.773617,25.106845400000015],[50.79272,25.09374689999998],[50.79964797835033,25.081941391945275],[50.996858213661774,25.08092739411749],[51.01999590995567,25.090053072174026],[51.01900722630772,25.171790109867842],[51.01900722630772,25.259764632610615],[50.957704507170696,25.259764632610615],[50.957704507170696,25.262923628689805],[50.91980404295326,25.262923628689805],[50.78663923337219,25.262033136663934],[50.786613059886534,25.265924487807432],[50.762179509760365,25.26579008291259]]]},"properties":{"shapeName":"84","shapeISO":"","shapeID":"91078587B80601194471899","shapeGroup":"QAT","shapeType":"ADM2"}},
{"type":"Feature","geometry":{"type":"Polygon","coordinates":[[[51.118523933340555,24.990002906865218],[51.21624834320168,24.99011174120597],[51.21624834320168,25.10754305702678],[51.18666144204791,25.117473919574646],[51.17057753019102,25.10728860724198],[51.14995885728394,25.133981992805865],[51.09808563494761,25.15627832376931],[51.01900722630772,25.171790109867842],[51.01999590995567,25.090053072174026],[50.996858213661774,25.08092739411749],[50.79964797835033,25.081941391945275],[50.804051099999946,25.077804599999958],[50.80618849999997,25.06622510000001],[50.810436199999984,25.060310799999968],[50.813574,25.040753599999967],[50.809772899999984,25.032769900000023],[50.800182199999945,25.023748899999948],[50.79585661394956,24.991425252959644],[50.96827093026979,24.989525648251934],[50.96827093026979,24.986122116406452],[50.98145712769099,24.986122116406452],[50.98145712769099,24.99031715378097],[51.035249827104685,24.99031715378097],[51.035249827104685,24.99316653148647],[51.04182109436263,24.99316653148647],[51.05544392083753,24.983510039693325],[51.06419833336386,24.990712904634343],[51.081226866457484,24.9906337545656],[51.08482905615037,24.98715110108762],[51.088465876609156,24.9902414590859],[51.118523933340555,24.990002906865218]]]},"properties":{"shapeName":"83","shapeISO":"","shapeID":"91078587B29732052080276","shapeGroup":"QAT","shapeType":"ADM2"}},
{"type":"Feature","geometry":{"type":"Polygon","coordinates":[[[50.82838915477894,24.71853677301617],[50.873393,24.646014099999974],[50.928351,24.54682],[50.9342636,24.54151669999998],[50.9944841,24.503973799999972],[51.02455910000001,24.492388],[51.09853449999997,24.470753399999957],[51.11767803906745,24.47420099916456],[51.11767803906745,24.718345847067386],[51.11767803906745,24.71853677301617],[50.82838915477894,24.71853677301617]]]},"properties":{"shapeName":"97","shapeISO":"","shapeID":"91078587B85294401922232","shapeGroup":"QAT","shapeType":"ADM2"}},
{"type":"Feature","geometry":{"type":"Polygon","coordinates":[[[51.509324636176196,25.082153296241064],[51.46906505800754,25.049750827669815],[51.465029511467726,25.048962283670424],[51.3138649547085,24.90397804478798],[51.3138649547085,24.768922368347486],[51.45668524052864,24.768740124950224],[51.45668967114607,24.771602817065315],[51.481892702806206,24.771570657878975],[51.48229039999998,24.782962],[51.48086589999996,24.779105799999954],[51.476363899999974,24.781436499999973],[51.475690699999944,24.77818030000002],[51.473532,24.7780995],[51.47408030000005,24.7739795],[51.4664908,24.77992340000002],[51.4648147,24.784046799999942],[51.46790150000001,24.7801765],[51.47073909999999,24.785057800000033],[51.477214299999964,24.7825917],[51.4794809,24.7855448],[51.4828631,24.785276600000014],[51.48313810000004,24.783474],[51.48541760000001,24.78964389999994],[51.4825911,24.787851399999965],[51.477237300000034,24.788640599999972],[51.47694640000003,24.7863252],[51.47469980000007,24.78864879999995],[51.47215660000001,24.787112599999944],[51.4716013,24.789430699999986],[51.476681300000024,24.790701499999987],[51.475298,24.797655399999975],[51.481269799999986,24.810763099999964],[51.48304639999997,24.796343699999976],[51.4878005,24.79346019999996],[51.48626040000001,24.78886909999998],[51.489634899999956,24.79646120000002],[51.49209780000001,24.815218600000026],[51.49617019999996,24.82276649999996],[51.4950294,24.820704799999984],[51.49151449999997,24.823566800000012],[51.49319029999999,24.824680799999985],[51.48842949999996,24.831310199999972],[51.4920837,24.835569499999977],[51.49755819999996,24.833264500000016],[51.500546100000015,24.8357944],[51.50088760000001,24.84097830000002],[51.504204600000016,24.840570499999945],[51.503023199999966,24.84417610000002],[51.50724470000003,24.845233799999956],[51.5053753,24.84035829999998],[51.51477486940807,24.858700763267702],[51.515329840896975,24.96923125925037],[51.51569450505254,25.041805345268617],[51.53229907102721,25.055896124442047],[51.53166851788894,25.062179328077985],[51.509324636176196,25.082153296241064]]]},"properties":{"shapeName":"94","shapeISO":"","shapeID":"91078587B61395128667616","shapeGroup":"QAT","shapeType":"ADM2"}},
{"type":"Feature","geometry":{"type":"Polygon","coordinates":[[[51.11767803906745,24.71853677301617],[51.11767803906745,24.718345847067386],[51.15155006769657,24.718345847067386],[51.15155006769657,24.721591548364238],[51.256221888650835,24.721591548364238],[51.294265261326984,24.766068214156235],[51.308820529602265,24.76644991921785],[51.30874168137909,24.76892890580833],[51.3138649547085,24.768922368347486],[51.3138649547085,24.90397804478798],[51.465029511467726,25.048962283670424],[51.40985998468517,25.099625582952672],[51.35758598280823,25.103450922925866],[51.33548063307007,25.07323683562489],[51.31411372133141,25.08605973293976],[51.21624834320168,25.10754305702678],[51.21624834320168,24.99011174120597],[51.118523933340555,24.990002906865218],[51.118523933340555,24.918241284278825],[51.098645417922455,24.918241284278825],[51.098645417922455,24.883376164784284],[51.08744975842541,24.883376164784284],[51.08744975842541,24.848162561853922],[51.096406286023054,24.848162561853922],[51.096406286023054,24.824794158040945],[51.11767803906745,24.824794158040945],[51.11767803906745,24.71853677301617]]]},"properties":{"shapeName":"95","shapeISO":"","shapeID":"91078587B87782055915042","shapeGroup":"QAT","shapeType":"ADM2"}},
{"type":"Feature","geometry":{"type":"Polygon","coordinates":[[[51.558066257017906,25.086275046538656],[51.57215845559992,25.085910392082308],[51.56514038031257,25.074459204824496],[51.61222793413423,25.05650359393839],[51.60914869999997,25.06819050000002],[51.61484630000001,25.077432499999972],[51.6102892,25.070244799999987],[51.609878799999954,25.0730777],[51.61858290000002,25.08989910000004],[51.62010750000002,25.084102499999954],[51.6153937,25.07382709999999],[51.62123929999997,25.084355],[51.6179463,25.103929100000048],[51.61998710000001,25.1162744],[51.61785879999995,25.13762030000003],[51.6206461,25.1463485],[51.61041429999994,25.164329199999965],[51.61324729999997,25.166022399999985],[51.61835740000002,25.161133300000017],[51.6106155,25.1696766],[51.617187700000024,25.1785693],[51.616787200000026,25.18320379999996],[51.6204825,25.18974490000001],[51.61940530084869,25.197650865111243],[51.602263500964796,25.197650865111243],[51.59890480311568,25.195287098266263],[51.5927136528986,25.203875634079633],[51.58715719405747,25.19937728455896],[51.58295350646894,25.150681095395527],[51.558066257017906,25.086275046538656]]]},"properties":{"shapeName":"90","shapeISO":"","shapeID":"91078587B10284648984722","shapeGroup":"QAT","shapeType":"ADM2"}},
{"type":"Feature","geometry":{"type":"Polygon","coordinates":[[[51.51477486940807,24.858700763267702],[51.5316172,24.869774800000016],[51.55472870000005,24.899224700000016],[51.56138449999996,24.904970100000018],[51.563138599999974,24.90247730000001],[51.5616974,24.9055525],[51.56791260000002,24.9168991],[51.57338879999994,24.912525099999954],[51.56783179999997,24.917126099999944],[51.56777679999994,24.91793420000004],[51.570716299999965,24.921097899999964],[51.56821489999999,24.917265],[51.570752499999955,24.920461499999963],[51.574278799999945,24.917746599999965],[51.57128949999996,24.9218167],[51.5841177,24.940326],[51.5817021,24.940091300000038],[51.5825405,24.94136860000002],[51.588822800000045,24.94003709999998],[51.58527370000004,24.9421153],[51.5942433,24.9561219],[51.59253740000001,24.9575226],[51.59569409999996,24.962574],[51.59784820000002,24.9615397],[51.60199270000002,24.967986399999976],[51.59506939999995,24.9703226],[51.589596899999954,24.962895],[51.581533099999966,24.96411949999995],[51.585619433323394,24.971898782132946],[51.532719439786064,24.971898782132946],[51.532719439786064,24.96923125925037],[51.515329840896975,24.96923125925037],[51.51477486940807,24.858700763267702]]]},"properties":{"shapeName":"93","shapeISO":"","shapeID":"91078587B9146513397895","shapeGroup":"QAT","shapeType":"ADM2"}},
{"type":"Feature","geometry":{"type":"Polygon","coordinates":[[[51.515329840896975,24.96923125925037],[51.532719439786064,24.96923125925037],[51.532719439786064,24.971898782132946],[51.585619433323394,24.971898782132946],[51.59217830000005,24.978665800000044],[51.59747289999996,24.98115529999997],[51.6046363,24.981039799999984],[51.60924419999995,24.990015499999956],[51.62063589999997,24.99389670000001],[51.625194600000064,25.0095551],[51.65899469999997,25.02442509999995],[51.656998099999974,25.0267917],[51.61034259999995,25.0059901],[51.61025740000006,25.000821600000013],[51.6049487,25.000850800000016],[51.60667180000002,25.00300549999995],[51.60381579999998,25.003077499999986],[51.60344459999996,24.99646150000002],[51.59902860000001,24.9966521],[51.5994599,25.00687539999996],[51.5924196,25.0339803],[51.60080529999998,25.03599450000004],[51.60669750000003,25.0148267],[51.610072800000054,25.015326399999942],[51.6086738,25.012363899999965],[51.65417909999995,25.03319849999997],[51.64459749999996,25.039470400000013],[51.6294738,25.042302799999987],[51.620765,25.041751],[51.62700149999995,25.022560799999983],[51.61605989999999,25.03753439999997],[51.625869,25.022050899999982],[51.6233126,25.01923050000003],[51.62037470000003,25.02251889999997],[51.617807599999985,25.0208168],[51.61882550000004,25.0256837],[51.6149801,25.01951449999998],[51.6160098,25.027497],[51.6138317,25.020003499999973],[51.612370699999985,25.020731699999985],[51.6107507,25.049366],[51.61275050000001,25.053762899999974],[51.61551539999993,25.04165480000002],[51.61222793413423,25.05650359393839],[51.56514038031257,25.074459204824496],[51.57215845559992,25.085910392082308],[51.558066257017906,25.086275046538656],[51.544069224835944,25.086637237361835],[51.54396430408537,25.083311375425435],[51.53660785080545,25.083501737655176],[51.521763579008464,25.092162905901432],[51.509324636176196,25.082153296241064],[51.53166851788894,25.062179328077985],[51.53229907102721,25.055896124442047],[51.51569450505254,25.041805345268617],[51.515329840896975,24.96923125925037]]]},"properties":{"shapeName":"92","shapeISO":"","shapeID":"91078587B57954650204567","shapeGroup":"QAT","shapeType":"ADM2"}},
{"type":"Feature","geometry":{"type":"Polygon","coordinates":[[[51.509324636176196,25.082153296241064],[51.521763579008464,25.092162905901432],[51.53660785080545,25.083501737655176],[51.54396430408537,25.083311375425435],[51.544069224835944,25.086637237361835],[51.558066257017906,25.086275046538656],[51.58295350646894,25.150681095395527],[51.58715719405747,25.19937728455896],[51.5927136528986,25.203875634079633],[51.584350445769516,25.22128600948434],[51.582628526343505,25.220609000143206],[51.54236213062387,25.205052947798826],[51.52155918223743,25.195674401688798],[51.475965187163446,25.166744244410705],[51.473739592251,25.16961644655432],[51.4356442727014,25.153086076672714],[51.38216391971387,25.127455951668658],[51.40985998468517,25.099625582952672],[51.465029511467726,25.048962283670424],[51.46906505800754,25.049750827669815],[51.509324636176196,25.082153296241064]]]},"properties":{"shapeName":"91","shapeISO":"","shapeID":"91078587B94476380924667","shapeGroup":"QAT","shapeType":"ADM2"}},
{"type":"Feature","geometry":{"type":"Polygon","coordinates":[[[51.18666144204791,25.117473919574646],[51.21624834320168,25.10754305702678],[51.31411372133141,25.08605973293976],[51.33548063307007,25.07323683562489],[51.35758598280823,25.103450922925866],[51.40985998468517,25.099625582952672],[51.38216391971387,25.127455951668658],[51.4356442727014,25.153086076672714],[51.39675885481247,25.203276237423957],[51.366253411280475,25.188346258846217],[51.36541267376277,25.184732429740954],[51.326117741743865,25.170433807156183],[51.206567987445,25.13007878088468],[51.18666144204791,25.117473919574646]]]},"properties":{"shapeName":"81","shapeISO":"","shapeID":"91078587B52698515683272","shapeGroup":"QAT","shapeType":"ADM2"}},
{"type":"Feature","geometry":{"type":"Polygon","coordinates":[[[51.3082833836936,25.229089722026142],[51.31743808915872,25.23446071113701],[51.34181947717216,25.234840963847923],[51.34250241064475,25.228678804151663],[51.3573731212497,25.218108719588596],[51.36998418401528,25.224193438400125],[51.362837915114795,25.240924845456423],[51.3556499385589,25.242940189501084],[51.35401017117888,25.247388635981522],[51.38175454554782,25.25575495732264],[51.40655626603545,25.2557530309244],[51.40655678565072,25.26122496413805],[51.42216810702398,25.26374608707636],[51.42126917259529,25.268298543272923],[51.43206832535462,25.270042436329334],[51.43472097287856,25.28464378062221],[51.44525521379981,25.29381325466031],[51.445650560608726,25.297566362688787],[51.427995072736934,25.299086575914348],[51.40588154297392,25.307703772598074],[51.3556916462143,25.31694765297172],[51.31681656579874,25.34190054429718],[51.317707155414766,25.302454607037646],[51.27292451742656,25.304141527863784],[51.273074263503915,25.30256203871616],[51.27404408337626,25.29233258903319],[51.3050187413181,25.24508533557764],[51.3082833836936,25.229089722026142]]]},"properties":{"shapeName":"53","shapeISO":"","shapeID":"91078587B25441317691063","shapeGroup":"QAT","shapeType":"ADM2"}},
{"type":"Feature","geometry":{"type":"Polygon","coordinates":[[[51.54236213062387,25.205052947798826],[51.53819841761481,25.221194433468096],[51.53695548723201,25.226012487488536],[51.5297188860108,25.233493940774082],[51.521316673398104,25.24079407659416],[51.48967381197854,25.256488843321506],[51.489363355649395,25.256642818652967],[51.478152512624604,25.25073886621702],[51.49224230994289,25.237038818299848],[51.48437703251799,25.23042045263277],[51.46863588005385,25.24572690856419],[51.428835810254625,25.224763865183554],[51.428835810254625,25.224413503756125],[51.430473741161435,25.22545242530751],[51.473739592251,25.16961644655432],[51.475965187163446,25.166744244410705],[51.52155918223743,25.195674401688798],[51.54236213062387,25.205052947798826]]]},"properties":{"shapeName":"56","shapeISO":"","shapeID":"91078587B78066269672175","shapeGroup":"QAT","shapeType":"ADM2"}},
{"type":"Feature","geometry":{"type":"Polygon","coordinates":[[[51.44525521379981,25.29381325466031],[51.474636355516665,25.29381325466031],[51.47425788948604,25.294247763354722],[51.47376279695549,25.30968986829555],[51.47348853519736,25.31750799619954],[51.43088917030435,25.3180038034804],[51.40588154297392,25.307703772598074],[51.427995072736934,25.299086575914348],[51.445650560608726,25.297566362688787],[51.44525521379981,25.29381325466031]]]},"properties":{"shapeName":"52","shapeISO":"","shapeID":"91078587B99921066988790","shapeGroup":"QAT","shapeType":"ADM2"}},
{"type":"Feature","geometry":{"type":"Polygon","coordinates":[[[51.478152512624604,25.25073886621702],[51.46863588005385,25.24572690856419],[51.48437703251799,25.23042045263277],[51.49224230994289,25.237038818299848],[51.478152512624604,25.25073886621702]]]},"properties":{"shapeName":"58","shapeISO":"","shapeID":"91078587B98938999484026","shapeGroup":"QAT","shapeType":"ADM2"}},
{"type":"Feature","geometry":{"type":"Polygon","coordinates":[[[51.43206832535462,25.270042436329334],[51.43183093766142,25.249432262912126],[51.4888967542581,25.279607959898602],[51.486607148081205,25.281888891844662],[51.474636355516665,25.29381325466031],[51.44525521379981,25.29381325466031],[51.43472097287856,25.28464378062221],[51.43206832535462,25.270042436329334]]]},"properties":{"shapeName":"54","shapeISO":"","shapeID":"91078587B84726999218009","shapeGroup":"QAT","shapeType":"ADM2"}},
{"type":"Feature","geometry":{"type":"Polygon","coordinates":[[[51.326117741743865,25.170433807156183],[51.36541267376277,25.184732429740954],[51.366253411280475,25.188346258846217],[51.39675885481247,25.203276237423957],[51.428835810254625,25.224413503756125],[51.428835810254625,25.224763865183554],[51.46863588005385,25.24572690856419],[51.478152512624604,25.25073886621702],[51.489363355649395,25.256642818652967],[51.497397490342415,25.264830174632532],[51.49627792439272,25.272254753513472],[51.4888967542581,25.279607959898602],[51.43183093766142,25.249432262912126],[51.43206832535462,25.270042436329334],[51.42126917259529,25.268298543272923],[51.42216810702398,25.26374608707636],[51.40655678565072,25.26122496413805],[51.40655626603545,25.2557530309244],[51.38175454554782,25.25575495732264],[51.35401017117888,25.247388635981522],[51.3556499385589,25.242940189501084],[51.362837915114795,25.240924845456423],[51.36998418401528,25.224193438400125],[51.3573731212497,25.218108719588596],[51.34250241064475,25.228678804151663],[51.34181947717216,25.234840963847923],[51.31743808915872,25.23446071113701],[51.3082833836936,25.229089722026142],[51.3262904943625,25.19072827550443],[51.326117741743865,25.170433807156183]]]},"properties":{"shapeName":"55","shapeISO":"","shapeID":"91078587B56593237076105","shapeGroup":"QAT","shapeType":"ADM2"}},
{"type":"Feature","geometry":{"type":"Polygon","coordinates":[[[51.473739592251,25.16961644655432],[51.430473741161435,25.22545242530751],[51.428835810254625,25.224413503756125],[51.39675885481247,25.203276237423957],[51.4356442727014,25.153086076672714],[51.473739592251,25.16961644655432]]]},"properties":{"shapeName":"57","shapeISO":"","shapeID":"91078587B47648989692762","shapeGroup":"QAT","shapeType":"ADM2"}},
{"type":"Feature","geometry":{"type":"Polygon","coordinates":[[[51.31577269635195,25.388119173896172],[51.31681656579874,25.34190054429718],[51.3556916462143,25.31694765297172],[51.40588154297392,25.307703772598074],[51.43088917030435,25.3180038034804],[51.47348853519736,25.31750799619954],[51.463351793179115,25.334055200042553],[51.45781148623836,25.343098233532853],[51.44876070789074,25.357869670876237],[51.44104600420728,25.354232366359096],[51.44067281555738,25.360639799072633],[51.4350938164288,25.366485395654447],[51.41865468521317,25.366035268468522],[51.41902787386307,25.354906848951916],[51.42238657171219,25.345126483138177],[51.41977425116288,25.34107920387358],[51.41343004411455,25.339392797551678],[51.412145474519114,25.35016361377783],[51.39291290338861,25.351680960777365],[51.393995820006005,25.36289018210721],[51.35922257891264,25.365633302160404],[51.36105019316598,25.384548068240257],[51.31577269635195,25.388119173896172]]]},"properties":{"shapeName":"51","shapeISO":"","shapeID":"91078587B34371380976540","shapeGroup":"QAT","shapeType":"ADM2"}},
{"type":"Feature","geometry":{"type":"Polygon","coordinates":[[[51.44876070789074,25.357869670876237],[51.45781148623836,25.343098233532853],[51.477126193541025,25.35145916245979],[51.4827135361752,25.354176820462197],[51.469717442017135,25.378693104474824],[51.44850977720529,25.36895759661124],[51.44876070789074,25.357869670876237]]]},"properties":{"shapeName":"30","shapeISO":"","shapeID":"91078587B91130659475882","shapeGroup":"QAT","shapeType":"ADM2"}},
{"type":"Feature","geometry":{"type":"Polygon","coordinates":[[[51.50229987328161,25.32941255053148],[51.502456404601,25.329286787142358],[51.511455731456536,25.31891499142063],[51.518369679145515,25.325107786788916],[51.519610270216845,25.335680188421463],[51.51958590269522,25.335738026475923],[51.50345383683336,25.350160804308114],[51.50229987328161,25.32941255053148]]]},"properties":{"shapeName":"65","shapeISO":"","shapeID":"91078587B33803228876819","shapeGroup":"QAT","shapeType":"ADM2"}},
{"type":"Feature","geometry":{"type":"Polygon","coordinates":[[[51.514060677045045,25.28594176401667],[51.51214673850891,25.294247763354722],[51.50548406043922,25.294247763354722],[51.50532011737733,25.294247763354722],[51.50425065135719,25.2842412663308],[51.514060677045045,25.28594176401667]]]},"properties":{"shapeName":"22","shapeISO":"","shapeID":"91078587B26591597392685","shapeGroup":"QAT","shapeType":"ADM2"}},
{"type":"Feature","geometry":{"type":"Polygon","coordinates":[[[51.557953409835626,25.2272727508653],[51.57620530818363,25.232888318626024],[51.56620487934679,25.24999503398604],[51.54653109526613,25.24109768023793],[51.557953409835626,25.2272727508653]]]},"properties":{"shapeName":"47","shapeISO":"","shapeID":"91078587B84345070687923","shapeGroup":"QAT","shapeType":"ADM2"}},
{"type":"Feature","geometry":{"type":"Polygon","coordinates":[[[51.582628526343505,25.220609000143206],[51.57640539064072,25.232949876626396],[51.57620530818363,25.232888318626024],[51.557953409835626,25.2272727508653],[51.53819841761481,25.221194433468096],[51.54236213062387,25.205052947798826],[51.582628526343505,25.220609000143206]]]},"properties":{"shapeName":"50","shapeISO":"","shapeID":"91078587B62879560621739","shapeGroup":"QAT","shapeType":"ADM2"}},
{"type":"Feature","geometry":{"type":"Polygon","coordinates":[[[51.54653109526613,25.24109768023793],[51.54643525643136,25.2410543360911],[51.5297188860108,25.233493940774082],[51.53695548723201,25.226012487488536],[51.53819841761481,25.221194433468096],[51.557953409835626,25.2272727508653],[51.54653109526613,25.24109768023793]]]},"properties":{"shapeName":"46","shapeISO":"","shapeID":"91078587B47528801235686","shapeGroup":"QAT","shapeType":"ADM2"}},
{"type":"Feature","geometry":{"type":"Polygon","coordinates":[[[51.53678942147745,25.264278405273615],[51.54414259294277,25.264613573549372],[51.552368233660935,25.268239441042688],[51.55233714951474,25.268260360643115],[51.55366226109976,25.276847003492293],[51.5526150100475,25.275923692356123],[51.537876384131444,25.270692574291463],[51.53678942147745,25.264278405273615]]]},"properties":{"shapeName":"26","shapeISO":"","shapeID":"91078587B74187630814278","shapeGroup":"QAT","shapeType":"ADM2"}},
{"type":"Feature","geometry":{"type":"Polygon","coordinates":[[[51.57620530818363,25.232888318626024],[51.57640539064072,25.232949876626396],[51.6006476485352,25.243454042764355],[51.58783070766347,25.283974781625044],[51.5859101623739,25.282786512163543],[51.58427156796651,25.27834152595496],[51.58144184565258,25.277554212781236],[51.578916089868486,25.278489437771086],[51.57512938818304,25.286804819889262],[51.563943797719006,25.290630011944046],[51.56235040000002,25.287988600000048],[51.55903510000002,25.28941349999997],[51.56157620000001,25.288230199999933],[51.56064,25.286649199999975],[51.55693875564741,25.28629787223369],[51.55233714951474,25.268260360643115],[51.552368233660935,25.268239441042688],[51.55830731693555,25.264242443723624],[51.56620487934679,25.256294826345265],[51.56620487934679,25.24999503398604],[51.57620530818363,25.232888318626024]]]},"properties":{"shapeName":"48","shapeISO":"","shapeID":"91078587B17099224452406","shapeGroup":"QAT","shapeType":"ADM2"}},
{"type":"Feature","geometry":{"type":"Polygon","coordinates":[[[51.518807818680635,25.301496841807513],[51.51824849028268,25.304653937319866],[51.49397845347004,25.31438360182279],[51.49396364747498,25.31438907717383],[51.49374898669143,25.31199579457117],[51.50008150523838,25.301635974231463],[51.518807818680635,25.301496841807513]]]},"properties":{"shapeName":"20","shapeISO":"","shapeID":"91078587B8597340902608","shapeGroup":"QAT","shapeType":"ADM2"}},
{"type":"Feature","geometry":{"type":"Polygon","coordinates":[[[51.511455731456536,25.31891499142063],[51.51976804015062,25.307900354520168],[51.5213423,25.312166],[51.52807195770197,25.315856988859835],[51.526399410369564,25.326819470638224],[51.519610270216845,25.335680188421463],[51.518369679145515,25.325107786788916],[51.511455731456536,25.31891499142063]]]},"properties":{"shapeName":"63","shapeISO":"","shapeID":"91078587B45177861896297","shapeGroup":"QAT","shapeType":"ADM2"}},
{"type":"Feature","geometry":{"type":"Polygon","coordinates":[[[51.4827135361752,25.354176820462197],[51.477126193541025,25.35145916245979],[51.480640208461715,25.336764635634015],[51.49347505301503,25.335366412884337],[51.50229987328161,25.32941255053148],[51.50345383683336,25.350160804308114],[51.499300417434405,25.35387386592181],[51.4827135361752,25.354176820462197]]]},"properties":{"shapeName":"67","shapeISO":"","shapeID":"91078587B3591736578448","shapeGroup":"QAT","shapeType":"ADM2"}},
{"type":"Feature","geometry":{"type":"Polygon","coordinates":[[[51.45781148623836,25.343098233532853],[51.463351793179115,25.334055200042553],[51.480524715245465,25.33677358280163],[51.480640208461715,25.336764635634015],[51.477126193541025,25.35145916245979],[51.45781148623836,25.343098233532853]]]},"properties":{"shapeName":"31","shapeISO":"","shapeID":"91078587B64948083253590","shapeGroup":"QAT","shapeType":"ADM2"}},
{"type":"Feature","geometry":{"type":"Polygon","coordinates":[[[51.502456404601,25.329286787142358],[51.49483691018671,25.320645068680278],[51.49397845347004,25.31438360182279],[51.51824849028268,25.304653937319866],[51.51976804015062,25.307900354520168],[51.511455731456536,25.31891499142063],[51.502456404601,25.329286787142358]]]},"properties":{"shapeName":"64","shapeISO":"","shapeID":"91078587B90572776822782","shapeGroup":"QAT","shapeType":"ADM2"}},
{"type":"Feature","geometry":{"type":"Polygon","coordinates":[[[51.463351793179115,25.334055200042553],[51.47348853519736,25.31750799619954],[51.48493808379255,25.317824776411893],[51.48483971036255,25.32554682488895],[51.480524715245465,25.33677358280163],[51.463351793179115,25.334055200042553]]]},"properties":{"shapeName":"32","shapeISO":"","shapeID":"91078587B42740082367526","shapeGroup":"QAT","shapeType":"ADM2"}},
{"type":"Feature","geometry":{"type":"Polygon","coordinates":[[[51.50229987328161,25.32941255053148],[51.49347505301503,25.335366412884337],[51.480640208461715,25.336764635634015],[51.480524715245465,25.33677358280163],[51.48483971036255,25.32554682488895],[51.48493808379255,25.317824776411893],[51.48510840725264,25.31778278627302],[51.49396364747498,25.31438907717383],[51.49397845347004,25.31438360182279],[51.49483691018671,25.320645068680278],[51.502456404601,25.329286787142358],[51.50229987328161,25.32941255053148]]]},"properties":{"shapeName":"33","shapeISO":"","shapeID":"91078587B4294922321935","shapeGroup":"QAT","shapeType":"ADM2"}},
{"type":"Feature","geometry":{"type":"Polygon","coordinates":[[[51.61940530084869,25.197650865111243],[51.62024079999996,25.206242],[51.62536310000005,25.204786499999965],[51.619556,25.20775340000003],[51.625143900000026,25.206929099999936],[51.625587,25.204813499999958],[51.625676899999974,25.20662889999998],[51.6252904,25.207106],[51.6195929,25.2079087],[51.6199501,25.211548100000037],[51.6053943,25.224108400000024],[51.599682800000046,25.240875099999972],[51.60000380000006,25.24256769999996],[51.61495980000002,25.2477681],[51.6180814,25.251775300000023],[51.614918,25.25641309999996],[51.61721340000003,25.256010899999982],[51.6175889,25.25820379999997],[51.6204428,25.251721900000014],[51.63065659999998,25.252818399999985],[51.626493300000035,25.26425880000003],[51.6089624,25.3020291],[51.603971899999976,25.300200699999976],[51.595748200000024,25.2879775],[51.59030869999997,25.295143699999986],[51.5858841,25.2935713],[51.58997450000003,25.2849867],[51.587983200000025,25.285953899999974],[51.58783070766347,25.283974781625044],[51.6006476485352,25.243454042764355],[51.57640539064072,25.232949876626396],[51.582628526343505,25.220609000143206],[51.584350445769516,25.22128600948434],[51.5927136528986,25.203875634079633],[51.59890480311568,25.195287098266263],[51.602263500964796,25.197650865111243],[51.61940530084869,25.197650865111243]]]},"properties":{"shapeName":"49","shapeISO":"","shapeID":"91078587B40201324753921","shapeGroup":"QAT","shapeType":"ADM2"}},
{"type":"Feature","geometry":{"type":"Polygon","coordinates":[[[51.51214673850891,25.294247763354722],[51.525985813855776,25.294247763354722],[51.518807818680635,25.301496841807513],[51.50008150523838,25.301635974231463],[51.50548406043922,25.294247763354722],[51.51214673850891,25.294247763354722]]]},"properties":{"shapeName":"21","shapeISO":"","shapeID":"91078587B24677998302133","shapeGroup":"QAT","shapeType":"ADM2"}},
{"type":"Feature","geometry":{"type":"Polygon","coordinates":[[[51.50548406043922,25.294247763354722],[51.50008150523838,25.301635974231463],[51.49374898669143,25.31199579457117],[51.487161620677135,25.308357802724753],[51.48758727168655,25.294247763354722],[51.50532011737733,25.294247763354722],[51.50548406043922,25.294247763354722]]]},"properties":{"shapeName":"37","shapeISO":"","shapeID":"91078587B81580735513592","shapeGroup":"QAT","shapeType":"ADM2"}},
{"type":"Feature","geometry":{"type":"Polygon","coordinates":[[[51.47376279695549,25.30968986829555],[51.486244572344226,25.308451068588393],[51.48510840725264,25.31778278627302],[51.48493808379255,25.317824776411893],[51.47348853519736,25.31750799619954],[51.47376279695549,25.30968986829555]]]},"properties":{"shapeName":"34","shapeISO":"","shapeID":"91078587B88603978758954","shapeGroup":"QAT","shapeType":"ADM2"}},
{"type":"Feature","geometry":{"type":"Polygon","coordinates":[[[51.487161620677135,25.308357802724753],[51.486244572344226,25.308451068588393],[51.47376279695549,25.30968986829555],[51.47425788948604,25.294247763354722],[51.48758727168655,25.294247763354722],[51.487161620677135,25.308357802724753]]]},"properties":{"shapeName":"36","shapeISO":"","shapeID":"91078587B22410322487846","shapeGroup":"QAT","shapeType":"ADM2"}},
{"type":"Feature","geometry":{"type":"Polygon","coordinates":[[[51.48510840725264,25.31778278627302],[51.486244572344226,25.308451068588393],[51.487161620677135,25.308357802724753],[51.49374898669143,25.31199579457117],[51.49396364747498,25.31438907717383],[51.48510840725264,25.31778278627302]]]},"properties":{"shapeName":"35","shapeISO":"","shapeID":"91078587B93784378535894","shapeGroup":"QAT","shapeType":"ADM2"}},
{"type":"Feature","geometry":{"type":"Polygon","coordinates":[[[51.474636355516665,25.29381325466031],[51.486607148081205,25.281888891844662],[51.50429787035398,25.28343005018211],[51.50425065135719,25.2842412663308],[51.50532011737733,25.294247763354722],[51.48758727168655,25.294247763354722],[51.47425788948604,25.294247763354722],[51.474636355516665,25.29381325466031]]]},"properties":{"shapeName":"38","shapeISO":"","shapeID":"91078587B93924165383207","shapeGroup":"QAT","shapeType":"ADM2"}},
{"type":"Feature","geometry":{"type":"Polygon","coordinates":[[[51.4888967542581,25.279607959898602],[51.49627792439272,25.272254753513472],[51.497397490342415,25.264830174632532],[51.489363355649395,25.256642818652967],[51.48967381197854,25.256488843321506],[51.497670645054605,25.260977345108024],[51.51267429592581,25.269398220358408],[51.512727101489745,25.2694278567178],[51.50429787035398,25.28343005018211],[51.486607148081205,25.281888891844662],[51.4888967542581,25.279607959898602]]]},"properties":{"shapeName":"39","shapeISO":"","shapeID":"91078587B48537873933910","shapeGroup":"QAT","shapeType":"ADM2"}},
{"type":"Feature","geometry":{"type":"Polygon","coordinates":[[[51.534841500506694,25.255626363189133],[51.53484499217186,25.255664889663752],[51.53656747871786,25.264276175121687],[51.52230702364258,25.264781817132114],[51.52220505416164,25.26480170676901],[51.52151740965256,25.255681960803233],[51.534841500506694,25.255626363189133]]]},"properties":{"shapeName":"41","shapeISO":"","shapeID":"91078587B71009022079997","shapeGroup":"QAT","shapeType":"ADM2"}},
{"type":"Feature","geometry":{"type":"Polygon","coordinates":[[[51.53678942147745,25.264278405273615],[51.53656747871786,25.264276175121687],[51.53484499217186,25.255664889663752],[51.55070250099861,25.25846656411952],[51.55830731693555,25.264242443723624],[51.552368233660935,25.268239441042688],[51.54414259294277,25.264613573549372],[51.53678942147745,25.264278405273615]]]},"properties":{"shapeName":"42","shapeISO":"","shapeID":"91078587B68220687266900","shapeGroup":"QAT","shapeType":"ADM2"}},
{"type":"Feature","geometry":{"type":"Polygon","coordinates":[[[51.497670645054605,25.260977345108024],[51.50669480456068,25.255678864264866],[51.5215161882429,25.255591379351056],[51.52151740965256,25.255681960803233],[51.52220505416164,25.26480170676901],[51.51267429592581,25.269398220358408],[51.497670645054605,25.260977345108024]]]},"properties":{"shapeName":"40","shapeISO":"","shapeID":"91078587B42486259491848","shapeGroup":"QAT","shapeType":"ADM2"}},
{"type":"Feature","geometry":{"type":"Polygon","coordinates":[[[51.56620487934679,25.24999503398604],[51.56620487934679,25.256294826345265],[51.55830731693555,25.264242443723624],[51.55070250099861,25.25846656411952],[51.53484499217186,25.255664889663752],[51.534841500506694,25.255626363189133],[51.54643525643136,25.2410543360911],[51.54653109526613,25.24109768023793],[51.56620487934679,25.24999503398604]]]},"properties":{"shapeName":"45","shapeISO":"","shapeID":"91078587B95881702990633","shapeGroup":"QAT","shapeType":"ADM2"}},
{"type":"Feature","geometry":{"type":"Polygon","coordinates":[[[51.52151740965256,25.255681960803233],[51.5215161882429,25.255591379351056],[51.521316673398104,25.24079407659416],[51.5297188860108,25.233493940774082],[51.54643525643136,25.2410543360911],[51.534841500506694,25.255626363189133],[51.52151740965256,25.255681960803233]]]},"properties":{"shapeName":"44","shapeISO":"","shapeID":"91078587B22433394531175","shapeGroup":"QAT","shapeType":"ADM2"}},
{"type":"Feature","geometry":{"type":"Polygon","coordinates":[[[51.48967381197854,25.256488843321506],[51.521316673398104,25.24079407659416],[51.5215161882429,25.255591379351056],[51.50669480456068,25.255678864264866],[51.497670645054605,25.260977345108024],[51.48967381197854,25.256488843321506]]]},"properties":{"shapeName":"43","shapeISO":"","shapeID":"91078587B15697971941315","shapeGroup":"QAT","shapeType":"ADM2"}},
{"type":"Feature","geometry":{"type":"Polygon","coordinates":[[[51.514060677045045,25.28594176401667],[51.521738053261274,25.274485017157104],[51.53358251468116,25.28113209002811],[51.53910233536926,25.28422967087625],[51.54411663114227,25.287043495628104],[51.54959985013218,25.290120386844826],[51.54729159999998,25.292228],[51.55090319999998,25.29367059999996],[51.5482219,25.29353959999996],[51.54790790000003,25.295682099999933],[51.552482399999974,25.29842890000001],[51.55485489999998,25.294314300000025],[51.5564879,25.29496710000004],[51.55135050000003,25.304932299999976],[51.556118,25.30651],[51.558632600000024,25.3015286],[51.5613829,25.302683499999983],[51.558420400000045,25.3085543],[51.54985449999997,25.30474639999994],[51.55191579999999,25.299799600000025],[51.54811339999998,25.2979381],[51.54613609999998,25.301041899999948],[51.5443256,25.297455400000022],[51.54012379999998,25.299329600000025],[51.543415400000036,25.296170899999968],[51.53900609999993,25.294637],[51.53861669999995,25.291817600000037],[51.53424159999998,25.29161690000003],[51.53696719999998,25.29288880000002],[51.53480610000002,25.29562490000002],[51.53121060000003,25.29440059999997],[51.5345181,25.29479],[51.5339117,25.2916498],[51.525985813855776,25.294247763354722],[51.51214673850891,25.294247763354722],[51.514060677045045,25.28594176401667]]]},"properties":{"shapeName":"13","shapeISO":"","shapeID":"91078587B12401503508412","shapeGroup":"QAT","shapeType":"ADM2"}},
{"type":"Feature","geometry":{"type":"Polygon","coordinates":[[[51.50425065135719,25.2842412663308],[51.50429787035398,25.28343005018211],[51.512727101489745,25.2694278567178],[51.521738053261274,25.274485017157104],[51.514060677045045,25.28594176401667],[51.50425065135719,25.2842412663308]]]},"properties":{"shapeName":"23","shapeISO":"","shapeID":"91078587B28752145715053","shapeGroup":"QAT","shapeType":"ADM2"}},
{"type":"Feature","geometry":{"type":"Polygon","coordinates":[[[51.51267429592581,25.269398220358408],[51.52220505416164,25.26480170676901],[51.52230702364258,25.264781817132114],[51.52612799767511,25.272362580885687],[51.521738053261274,25.274485017157104],[51.512727101489745,25.2694278567178],[51.51267429592581,25.269398220358408]]]},"properties":{"shapeName":"24","shapeISO":"","shapeID":"91078587B3857116379359","shapeGroup":"QAT","shapeType":"ADM2"}},
{"type":"Feature","geometry":{"type":"Polygon","coordinates":[[[51.537876384131444,25.270692574291463],[51.52612799767511,25.272362580885687],[51.52230702364258,25.264781817132114],[51.53656747871786,25.264276175121687],[51.53678942147745,25.264278405273615],[51.537876384131444,25.270692574291463]]]},"properties":{"shapeName":"25","shapeISO":"","shapeID":"91078587B27846098888320","shapeGroup":"QAT","shapeType":"ADM2"}},
{"type":"Feature","geometry":{"type":"Polygon","coordinates":[[[51.53358251468116,25.28113209002811],[51.53526631234026,25.279438145165894],[51.539378200181346,25.277868860548107],[51.53910233536926,25.28422967087625],[51.53358251468116,25.28113209002811]]]},"properties":{"shapeName":"4","shapeISO":"","shapeID":"91078587B32621673387065","shapeGroup":"QAT","shapeType":"ADM2"}},
{"type":"Feature","geometry":{"type":"Polygon","coordinates":[[[51.521738053261274,25.274485017157104],[51.52612799767511,25.272362580885687],[51.53526631234026,25.279438145165894],[51.53358251468116,25.28113209002811],[51.521738053261274,25.274485017157104]]]},"properties":{"shapeName":"14","shapeISO":"","shapeID":"91078587B44176615316419","shapeGroup":"QAT","shapeType":"ADM2"}},
{"type":"Feature","geometry":{"type":"Polygon","coordinates":[[[51.5526150100475,25.275923692356123],[51.5473900321497,25.28161357951319],[51.539378200181346,25.277868860548107],[51.53526631234026,25.279438145165894],[51.52612799767511,25.272362580885687],[51.537876384131444,25.270692574291463],[51.5526150100475,25.275923692356123]]]},"properties":{"shapeName":"15","shapeISO":"","shapeID":"91078587B20152806481978","shapeGroup":"QAT","shapeType":"ADM2"}},
{"type":"Feature","geometry":{"type":"Polygon","coordinates":[[[51.54411663114227,25.287043495628104],[51.549513412318554,25.283512635434068],[51.55305137007247,25.286841097309633],[51.54959985013218,25.290120386844826],[51.54411663114227,25.287043495628104]]]},"properties":{"shapeName":"7","shapeISO":"","shapeID":"91078587B12539996095468","shapeGroup":"QAT","shapeType":"ADM2"}},
{"type":"Feature","geometry":{"type":"Polygon","coordinates":[[[51.53910233536926,25.28422967087625],[51.539378200181346,25.277868860548107],[51.5473900321497,25.28161357951319],[51.549513412318554,25.283512635434068],[51.54411663114227,25.287043495628104],[51.53910233536926,25.28422967087625]]]},"properties":{"shapeName":"6","shapeISO":"","shapeID":"91078587B49650131193986","shapeGroup":"QAT","shapeType":"ADM2"}},
{"type":"Feature","geometry":{"type":"Polygon","coordinates":[[[51.26602052740338,25.5833691849472],[51.08803827969494,25.5833691849472],[51.08803827969494,25.5877798991658],[50.92526020000002,25.58777380000003],[50.91986970000004,25.585197200000014],[50.919588500000025,25.581593900000026],[50.91589939999997,25.581334599999963],[50.9161865,25.576702],[50.9127824,25.575156],[50.918463400000036,25.5666661],[50.91250870000001,25.561258100000018],[50.910959499999976,25.5453004],[50.90656540000006,25.5416945],[50.914515899999984,25.53140460000002],[50.90601320000001,25.52239160000001],[50.909422,25.51544489999996],[50.91608880000002,25.51261759999998],[50.913967,25.505667500000033],[50.912263,25.5090123],[50.905456699999974,25.50849329999997],[50.902900899999985,25.51260950000002],[50.905452599999954,25.5136407],[50.89779149999997,25.517753500000012],[50.89792529999994,25.526504],[50.89636340000002,25.52933390000002],[50.888985200000015,25.53267430000001],[50.88954919999995,25.536278],[50.87990319999999,25.5372997],[50.877063700000036,25.5401285],[50.87904630000002,25.54321859999999],[50.8728051,25.5432133],[50.87158009999997,25.54114439999996],[50.8676199,25.543175399999978],[50.8718959,25.5637142],[50.86895380000003,25.5710106],[50.86051039999997,25.573600399999975],[50.8600778,25.584185200000025],[50.87254650000002,25.60017019999996],[50.874606400000026,25.611954499999953],[50.8796534,25.621593099999956],[50.879745599999964,25.6317376],[50.873561900000034,25.6330344],[50.873849099999966,25.629688900000048],[50.869875199999974,25.629170699999968],[50.8626181,25.64085619999996],[50.859357,25.641385200000023],[50.85538520000003,25.6388076],[50.85225869999995,25.6415073],[50.84942090000001,25.640345900000014],[50.84614590000002,25.647677800000036],[50.846933599999986,25.6509505],[50.84862069999996,25.6505371],[50.84630380000003,25.6534419],[50.842595299999935,25.64921810000003],[50.84544060000001,25.644588599999963],[50.8427469,25.6414975],[50.846018100000016,25.6371257],[50.83750519999997,25.6337708],[50.84233530000003,25.630945],[50.84205559999999,25.6277273],[50.8522841,25.620918199999984],[50.85399319999998,25.616030100000028],[50.84688809999995,25.6227143],[50.83808489999998,25.625021],[50.836525,25.6234752],[50.84337540000001,25.61573319999997],[50.842387,25.61360969999996],[50.834927,25.621700399999973],[50.82284760000002,25.622895],[50.82261959999998,25.620088500000012],[50.81725559999999,25.615287],[50.81506129999997,25.61721459999996],[50.8181716,25.62132289999999],[50.81615060000002,25.622214],[50.81503540000001,25.617906],[50.8147001,25.619550599999986],[50.80078640000004,25.6145615],[50.800404499999956,25.610184599999986],[50.79363629999997,25.600243599999985],[50.7983893,25.596941],[50.7983773,25.59446529999999],[50.807068,25.590589499999943],[50.8069421,25.593557200000024],[50.81530320000001,25.598713899999982],[50.82689390000003,25.59829740000001],[50.82781449999999,25.588314500000017],[50.83486630000004,25.576046499999954],[50.836759,25.565031400000017],[50.83246739999994,25.560556300000023],[50.835617899999974,25.554379400000013],[50.83014049999997,25.545408],[50.8239733,25.543150599999954],[50.823392599999956,25.536373],[50.818087200000036,25.5289558],[50.8192322,25.52548240000002],[50.8275935,25.524152400000034],[50.836731900000046,25.5099108],[50.83369159999999,25.50396380000002],[50.84358820000003,25.492642799999974],[50.8412617,25.489900299999988],[50.83791959999997,25.4900204],[50.83761340000003,25.487832399999945],[50.83511359999997,25.489323399999964],[50.83503409999994,25.48671829999997],[50.84342,25.476362399999946],[50.8477762,25.47462679999996],[50.84694509999994,25.471882099999974],[50.849640399999984,25.4690377],[50.84852769999998,25.4667074],[50.85017749999999,25.46792009999997],[50.84886889999998,25.46576759999997],[50.839527529991614,25.46187511309222],[50.839945651392476,25.45168191368031],[50.87033503352879,25.450420296386678],[50.90180696266776,25.467352385320392],[50.919805105311056,25.46750862817685],[50.93133211232824,25.467608694701752],[50.93137577523362,25.46350893274475],[50.96230623188423,25.456363209778033],[51.03311034474169,25.425500646370857],[51.079916979296456,25.426762524692293],[51.10166110616985,25.431178994768448],[51.124933434731155,25.431135345158143],[51.14370848403949,25.43110013065077],[51.15095652633062,25.425816117189832],[51.159689107404276,25.425579514153014],[51.18154239154109,25.44963177886432],[51.1902094782567,25.44174631962049],[51.19396448811837,25.441904033865683],[51.20042659811287,25.44742390232774],[51.20060124973434,25.463351246802606],[51.208023943646936,25.47809398861601],[51.265647338753475,25.47809398861601],[51.265647338753475,25.560111455543403],[51.25445167925643,25.569874367058496],[51.25445167925643,25.574587211910572],[51.26602052740338,25.574587211910572],[51.26602052740338,25.5833691849472]]]},"properties":{"shapeName":"72","shapeISO":"","shapeID":"91078587B78903366981324","shapeGroup":"QAT","shapeType":"ADM2"}},
{"type":"Feature","geometry":{"type":"Polygon","coordinates":[[[51.5526150100475,25.275923692356123],[51.55366226109976,25.276847003492293],[51.55482540000001,25.2867281],[51.5544773,25.28857919999997],[51.55305137007247,25.286841097309633],[51.549513412318554,25.283512635434068],[51.5473900321497,25.28161357951319],[51.5526150100475,25.275923692356123]]]},"properties":{"shapeName":"18-19","shapeISO":"","shapeID":"91078587B2684025593760","shapeGroup":"QAT","shapeType":"ADM2"}},
{"type":"Feature","geometry":{"type":"Polygon","coordinates":[[[51.5859101623739,25.282786512163543],[51.58089680000001,25.2915919],[51.58123589999995,25.293719700000025],[51.58453129999996,25.294490400000022],[51.578162599999985,25.29599579999997],[51.58164709999997,25.29692],[51.57979949999997,25.299475699999967],[51.57687590000001,25.299584800000012],[51.58056660000003,25.297986799999943],[51.57743650000002,25.2987118],[51.57686090000003,25.29274749999998],[51.57328740000003,25.292604599999944],[51.568635400000055,25.296259699999943],[51.56917019999996,25.29408780000002],[51.562369300000015,25.291648399999985],[51.563943797719006,25.290630011944046],[51.57512938818304,25.286804819889262],[51.578916089868486,25.278489437771086],[51.58144184565258,25.277554212781236],[51.58427156796651,25.27834152595496],[51.5859101623739,25.282786512163543]]]},"properties":{"shapeName":"28","shapeISO":"","shapeID":"91078587B7560813116985","shapeGroup":"QAT","shapeType":"ADM2"}},
{"type":"Feature","geometry":{"type":"Polygon","coordinates":[[[51.55233714951474,25.268260360643115],[51.55693875564741,25.28629787223369],[51.55482540000001,25.2867281],[51.55366226109976,25.276847003492293],[51.55233714951474,25.268260360643115]]]},"properties":{"shapeName":"27","shapeISO":"","shapeID":"91078587B74870148919967","shapeGroup":"QAT","shapeType":"ADM2"}},
{"type":"Feature","geometry":{"type":"Polygon","coordinates":[[[51.49980430802907,25.37771743259739],[51.52566001744712,25.380281044085862],[51.54156209999996,25.3845378],[51.53335989999996,25.382738099999944],[51.532716500000035,25.39107549999995],[51.52523790000005,25.393441899999985],[51.5292156,25.3947537],[51.5335329,25.391581399999968],[51.539074700000036,25.39658769999993],[51.53429040000005,25.40687069999998],[51.53712210000002,25.40899289999998],[51.51507560000003,25.409641900000025],[51.508803499999956,25.418666799999983],[51.5106934,25.4241935],[51.51476759999998,25.42593619999997],[51.5163555,25.424720099999973],[51.51449729999999,25.418491400000043],[51.51716230000002,25.413594799999977],[51.52182940000002,25.41128889999997],[51.53100660000004,25.411086099999988],[51.529802,25.42237659999998],[51.52503409999996,25.417409400000036],[51.5205988,25.42101610000003],[51.522813700000036,25.425255],[51.52991729999994,25.425781100000016],[51.5339358,25.4226712],[51.53302360000005,25.411783899999975],[51.53883510000004,25.410549499999973],[51.53516940000004,25.412113299999966],[51.5383237,25.425077900000016],[51.5321879,25.438667],[51.53570590000002,25.439553500000013],[51.535384,25.442305],[51.522798,25.4424784],[51.51947579999996,25.44480710000003],[51.51516110000002,25.455542],[51.521125,25.4555219],[51.5325262,25.447462099999974],[51.5367533,25.445625],[51.53873660000002,25.447215700000022],[51.53727110000002,25.4452963],[51.53932939999996,25.442942699999946],[51.54050689999995,25.444753799999976],[51.54244930000004,25.44381909999998],[51.54076229999995,25.4470039],[51.5444522,25.449877],[51.54048229999996,25.447906799999988],[51.5379257,25.44884779999996],[51.535323599999984,25.44744209999999],[51.53279639999995,25.44776269999997],[51.52184959999999,25.455452500000025],[51.518397,25.456526199999956],[51.508630693597574,25.466003689479958],[51.475076373728406,25.466003689479958],[51.48558559269973,25.42064179116443],[51.4975639509675,25.39147502263059],[51.49980430802907,25.37771743259739]]]},"properties":{"shapeName":"69","shapeISO":"","shapeID":"91078587B70962484835494","shapeGroup":"QAT","shapeType":"ADM2"}},
{"type":"Feature","geometry":{"type":"MultiPolygon","coordinates":[[[[51.11767803906745,24.47420099916456],[51.155556099999956,24.47879369999996],[51.1706849,24.4856225],[51.22046979999995,24.493202300000025],[51.2658281,24.505604099999967],[51.30142759999997,24.5054844],[51.295734600000024,24.519873400000037],[51.29687079999998,24.524504299999943],[51.29869709999997,24.523213800000022],[51.2974359,24.52553279999996],[51.300814699999954,24.526555699999953],[51.30196040000002,24.53504760000002],[51.301143900000014,24.546632200000012],[51.30283609999998,24.548173299999984],[51.2997663,24.55899009999996],[51.2997945,24.570830399999956],[51.30489430000002,24.584719699999948],[51.31631839999995,24.5939625],[51.31730649999998,24.595247299999986],[51.316895,24.5993666],[51.31674340000003,24.5952485],[51.3140657,24.593709799999957],[51.31153779999999,24.596031500000027],[51.311832100000025,24.601178899999947],[51.308176399999965,24.602859099999968],[51.3022449,24.5947635],[51.29801729999997,24.59271289999998],[51.290163,24.60482589999998],[51.2881816,24.60019650000004],[51.286501399999985,24.6040606],[51.28452179999998,24.600203499999985],[51.2801738,24.60741880000004],[51.28272489999998,24.615135800000047],[51.286242,24.61384230000003],[51.2837202,24.61925240000002],[51.27977030000002,24.61565610000001],[51.277784699999934,24.608967600000014],[51.271034700000016,24.612325899999973],[51.27076159999998,24.6161874],[51.25977689999997,24.61440509999997],[51.25470119999994,24.6105527],[51.24626380000005,24.6152001],[51.241753,24.612118399999957],[51.23330979999998,24.613933599999942],[51.23106240000003,24.6166393],[51.23133940000004,24.614194],[51.22908579999997,24.613553500000027],[51.22037080000004,24.621160199999963],[51.21558020000004,24.6188506],[51.21362259999998,24.620143100000018],[51.2156012,24.62607119999994],[51.21897860000003,24.625165],[51.21869310000002,24.627855100000016],[51.22108690000002,24.62836639999998],[51.21700589999998,24.629144499999953],[51.21474790000001,24.6260589],[51.21433109999997,24.629663099999973],[51.217861300000024,24.635320800000013],[51.2223706,24.63737340000002],[51.2206904,24.642781200000012],[51.2240694,24.64251889999997],[51.226611,24.646376],[51.22800789999997,24.64019630000001],[51.2330746,24.6389016],[51.23237669999998,24.64250619999999],[51.237587199999965,24.642498100000044],[51.23688749999999,24.645073200000013],[51.240698,24.64931359999995],[51.247458300000034,24.64981749999998],[51.257309400000025,24.646841300000037],[51.26323619999993,24.652879500000026],[51.265769200000044,24.651974599999935],[51.267746899999985,24.654930700000026],[51.27591579999995,24.65543059999999],[51.276319399999984,24.647064899999958],[51.2809646,24.6461551],[51.2832231,24.64859659999996],[51.28297519999999,24.663526],[51.2852175,24.65863109999993],[51.28326259999997,24.66609929999997],[51.28593759999994,24.665837],[51.28468110000002,24.670472399999962],[51.28933409999998,24.6730375],[51.288355299999985,24.67587079999994],[51.29102789999996,24.67457859999998],[51.29787540000002,24.651657],[51.3033395,24.6403206],[51.30629310000003,24.63877029999998],[51.30628489999996,24.635424],[51.308126199999975,24.64005340000001],[51.30658730000002,24.643917499999954],[51.3093996,24.642367499999967],[51.3108154,24.645453300000035],[51.31614940000002,24.63874979999996],[51.31588230000001,24.644541399999987],[51.3209328,24.637195299999952],[51.3215111,24.643114200000024],[51.32743460000003,24.646705],[51.32519890000003,24.653402100000022],[51.3280065,24.650049800000033],[51.328858,24.65249280000003],[51.3347723,24.6524798],[51.33872320000002,24.655431399999966],[51.3429437,24.653877400000017],[51.34407980000002,24.6573491],[51.3473059,24.652837899999966],[51.34362910000003,24.64718360000003],[51.34912119999996,24.64717089999995],[51.3482628,24.64228239999994],[51.353047300000014,24.641241599999987],[51.35446010000004,24.642911100000013],[51.357124400000025,24.639172799999955],[51.35822289999999,24.629389199999963],[51.356096799999975,24.62424639999997],[51.35807169999997,24.6255287],[51.35875810000003,24.619607],[51.34843869999998,24.60418740000003],[51.34393009999997,24.6026535],[51.34663250000001,24.612943],[51.3456531,24.615004500000012],[51.34339720000003,24.613722699999983],[51.341538700000015,24.603431],[51.34364319999998,24.600723],[51.347491499999975,24.602041899999943],[51.34306579999997,24.5954482],[51.33940679999998,24.595714],[51.3354801,24.601128100000015],[51.332665500000026,24.60139169999998],[51.33125050000001,24.5985635],[51.33078580000002,24.58260590000003],[51.338362199999985,24.5738376],[51.3345213,24.5581448],[51.33649680000003,24.560199600000026],[51.338176,24.556720400000017],[51.352709799999985,24.571230699999944],[51.36886506440391,24.57982337458648],[51.36752040000001,24.582778099999977],[51.364988500000024,24.5832991],[51.36441740000003,24.580469099999984],[51.36114709999998,24.58450680000001],[51.369499799999964,24.585862],[51.37007489999998,24.589979],[51.3723264,24.58984420000003],[51.37374389999996,24.593186900000017],[51.378103199999956,24.592018299999967],[51.37769009999998,24.59485060000002],[51.374034200000025,24.596146799999968],[51.371782899999964,24.596409699999974],[51.37121379999998,24.59435189999997],[51.3706591,24.597184599999967],[51.3762894,24.59717059999996],[51.37179889999997,24.6018149],[51.377430199999964,24.602058299999978],[51.377039,24.612612499999976],[51.3838433,24.628039],[51.38386219999996,24.63421649999995],[51.3903557,24.639605100000022],[51.38994259999996,24.642437399999963],[51.395579700000035,24.6439672],[51.3934816,24.648605800000027],[51.396165600000025,24.651172600000027],[51.4002489,24.65116190000003],[51.3976793,24.65416879999997],[51.403918400000016,24.653726],[51.399803099999964,24.643698599999965],[51.39627349999994,24.6408767],[51.39639729999998,24.635341799999964],[51.404571499999975,24.63776569999999],[51.403034599999984,24.641630800000012],[51.41137929999998,24.65280430000002],[51.41589110000002,24.65446539999996],[51.41419279999997,24.6518961],[51.41488189999997,24.64751869999995],[51.41714080000003,24.649314200000017],[51.415573600000016,24.64365569999997],[51.41698940000002,24.645968300000014],[51.41979619999995,24.643129399999957],[51.4178257,24.64339230000004],[51.41724970000003,24.6395329],[51.41964809999999,24.641070599999953],[51.42291910000002,24.650585],[51.4255414,24.652335699999977],[51.42911640000001,24.650953],[51.434624100000015,24.655699400000053],[51.4380442,24.66727220000003],[51.432290099999946,24.672951499999982],[51.43566850000001,24.672427],[51.434144600000046,24.67989569999999],[51.44076580000004,24.68013389999997],[51.44046249999999,24.6739573],[51.45059039999998,24.70970460000002],[51.4591028,24.725894500000013],[51.47793830000004,24.750802499999985],[51.482211800000044,24.762628599999967],[51.481892702806206,24.771570657878975],[51.45668967114607,24.771602817065315],[51.45668524052864,24.768740124950224],[51.3138649547085,24.768922368347486],[51.30874168137909,24.76892890580833],[51.308820529602265,24.76644991921785],[51.294265261326984,24.766068214156235],[51.256221888650835,24.721591548364238],[51.15155006769657,24.721591548364238],[51.15155006769657,24.718345847067386],[51.11767803906745,24.718345847067386],[51.11767803906745,24.47420099916456]]],[[[51.351211399999976,24.63944419999994],[51.3491051,24.641379200000017],[51.345153,24.63791389999998],[51.34227530000002,24.6152696],[51.34396380000002,24.61500839999998],[51.34539360000003,24.6229844],[51.3493276,24.620143899999967],[51.34598,24.631477099999938],[51.35103289999994,24.625802600000018],[51.351211399999976,24.63944419999994]]]]},"properties":{"shapeName":"98","shapeISO":"","shapeID":"91078587B41884610793448","shapeGroup":"QAT","shapeType":"ADM2"}},
{"type":"Feature","geometry":{"type":"MultiPolygon","coordinates":[[[[51.36770534191803,26.040895159778657],[51.359012899999954,26.0503326],[51.3564761,26.059346],[51.35739449999998,26.06533660000004],[51.36139479999995,26.066210699999957],[51.36500560000002,26.064319800000018],[51.36549960000003,26.066932099999978],[51.35827349999997,26.066995],[51.357646200000055,26.0693797],[51.36027290000004,26.075232500000013],[51.35751569999996,26.083969899999964],[51.3608768,26.100767700000013],[51.30985790000001,26.133303],[51.277264700000025,26.14179379999998],[51.269700799999974,26.146991199999977],[51.272201,26.147027100000017],[51.26251570000005,26.151162399999944],[51.262950400000015,26.15450720000002],[51.26565809999999,26.15373019999996],[51.267373599999964,26.155785799999947],[51.26195719999998,26.15643859999997],[51.259102599999956,26.1550288],[51.260557,26.1534805],[51.25198219999996,26.159029899999975],[51.23963019999997,26.156030899999966],[51.233420900000034,26.1450529],[51.223615600000024,26.1401226],[51.220505799999984,26.14001310000001],[51.21551589999994,26.144685599999978],[51.208825800000014,26.1403394],[51.21033730000004,26.14547129999997],[51.20683640000002,26.146679899999967],[51.20623240000002,26.14406680000002],[51.20414379999997,26.14765329999994],[51.2022906,26.1425165],[51.200244,26.1432635],[51.20252819999999,26.148705],[51.20002929999995,26.1432485],[51.2022033,26.142336200000013],[51.2000128,26.14004030000004],[51.190416100000036,26.13928650000001],[51.1873607,26.147076199999976],[51.18595511883438,26.142214952606924],[51.19518704946867,26.129051657309997],[51.19518704946867,26.116506744390513],[51.216145244045435,26.079491406653702],[51.216145244045435,26.040895159778657],[51.36770534191803,26.040895159778657]]],[[[51.261985,26.1689201],[51.2592663,26.1648077],[51.26454539999999,26.16608469999996],[51.273188,26.157014199999985],[51.26966009999999,26.158097600000012],[51.2705027,26.15243440000005],[51.27463610000002,26.15216920000003],[51.2732164,26.15474550000004],[51.27507879999997,26.158344600000024],[51.28161189999997,26.1476518],[51.2847442,26.145973399999967],[51.285033,26.147516800000016],[51.28815979999997,26.14352140000001],[51.3014,26.136675199999946],[51.281903400000026,26.150353900000013],[51.2691082,26.166076199999967],[51.261985,26.1689201]]],[[[51.21637230000001,26.1781312],[51.2121032,26.1831562],[51.21166930000002,26.180068699999985],[51.21565410000003,26.175688],[51.215073,26.16976989999998],[51.21891989999997,26.16783359999998],[51.22049249999997,26.17027639999995],[51.218785300000015,26.172337799999976],[51.223636,26.17361709999997],[51.22093039999997,26.175422699999963],[51.2266384,26.17747260000003],[51.23805309999997,26.1805423],[51.24788519999997,26.177180199999977],[51.2400508,26.18118189999997],[51.21637230000001,26.1781312]]]]},"properties":{"shapeName":"79","shapeISO":"","shapeID":"91078587B50341524344212","shapeGroup":"QAT","shapeType":"ADM2"}},
{"type":"Feature","geometry":{"type":"Polygon","coordinates":[[[51.4149449509868,25.56448803152796],[51.4032140048235,25.61413413080989],[51.40452016509817,25.62305141574923],[51.412543721071046,25.62338790403666],[51.45042236903607,25.651144922349427],[51.45886576224009,25.65333156464609],[51.49697765311131,25.63836067317147],[51.55182684254622,25.638961874145995],[51.55150889999998,25.651696800000042],[51.55490040000003,25.659057699999973],[51.54939980000002,25.659985],[51.552856099999985,25.662656899999973],[51.5479464,25.65959859999995],[51.54434384091545,25.661884293892147],[51.53712539999994,25.66135809999997],[51.534478800000024,25.664281],[51.536417594332804,25.667477203288218],[51.53181009999997,25.67072460000002],[51.533556,25.6760263],[51.53890319999995,25.677698499999984],[51.54053909999997,25.6845074],[51.5292282,25.68401749999996],[51.52945829999998,25.6811393],[51.52714469999999,25.680292899999984],[51.52677649999996,25.685346399999954],[51.51912489999997,25.684942799999956],[51.51983859999995,25.68790220000004],[51.51737260000003,25.685950300000012],[51.515062,25.687020800000028],[51.51713310000003,25.688077299999975],[51.50945350000004,25.687108],[51.50468130000006,25.691157099999963],[51.51586389999998,25.697709200000045],[51.5182149,25.694059200000012],[51.520615799999945,25.697219299999983],[51.537072400000014,25.704289699999965],[51.552966,25.701271199999958],[51.55526110000001,25.706152299999964],[51.55510420000002,25.7030646],[51.55864829999998,25.7015069],[51.55467329999997,25.701907699999964],[51.55338089999996,25.69895349999996],[51.56060519999997,25.694808099999975],[51.56255359999998,25.68630810000002],[51.5577145,25.684010399999988],[51.55688229999997,25.688259500000015],[51.548627300000035,25.68430219999998],[51.5477625,25.681474599999966],[51.5463482,25.6827666],[51.546735900000016,25.68077349999996],[51.56086279999998,25.6815685],[51.561184699999984,25.678458199999977],[51.561027199999955,25.6816038],[51.56707110000004,25.680881800000027],[51.56957729999996,25.678554599999938],[51.570019100000046,25.671522699999965],[51.5709353,25.677773399999953],[51.57654169999997,25.674421700000032],[51.576263,25.677285799999957],[51.58021279999995,25.679514100000024],[51.58194849999995,25.67632509999994],[51.58042260000003,25.679503400000034],[51.5825096,25.689979],[51.586656500000046,25.69030679999994],[51.58184869999995,25.6901656],[51.581695,25.69239919999997],[51.58556780000003,25.692791],[51.58180660000005,25.692558],[51.58208020000002,25.697443],[51.58717180000006,25.70126169999998],[51.58998329999995,25.70059489999996],[51.58726349999997,25.70139559999995],[51.5875747,25.70404509999998],[51.59055919999999,25.70946250000004],[51.59304330000003,25.708747599999935],[51.5918206,25.711246699999943],[51.595235899999984,25.72005119999997],[51.589721200000035,25.726609099999962],[51.587252,25.73564390000002],[51.57665620000005,25.739917499999954],[51.57549095522626,25.7345951980106],[51.57549095522626,25.72175644873503],[51.57863468441276,25.72175644873503],[51.57618956171214,25.712944758034656],[51.54942420072141,25.712944758034656],[51.54942420072141,25.71609186535497],[51.54278743910543,25.71609186535497],[51.54278743910543,25.71876684112171],[51.53527741938209,25.71876684112171],[51.53265764505999,25.72395926941826],[51.52392506398633,25.72395926941826],[51.52078133479983,25.71908154019848],[51.51466852804826,25.71908154019848],[51.51396954332476,25.7158786247567],[51.50342694107828,25.71593654199404],[51.503446914621335,25.718887733074705],[51.49665385808293,25.71892505072558],[51.49663664421341,25.716381620396515],[51.4919403941218,25.716407419787547],[51.49192027772504,25.71343505912411],[51.466403985560596,25.713575239219743],[51.4664239006635,25.716517853988385],[51.45801324687132,25.716564058827288],[51.45798728483668,25.71272794891295],[51.41815861144065,25.71294675886175],[51.41818039500488,25.716165466911434],[51.40295432157859,25.716249113231953],[51.40293058189282,25.71274136968925],[51.30808123877265,25.71326245034403],[51.30810431613678,25.71667231661265],[51.29956480831712,25.716719229264083],[51.29954139329883,25.71325947251276],[51.270964181667445,25.71341646875121],[51.263873524960324,25.699126801725264],[51.25524470513747,25.651817739632296],[51.24292947969073,25.622210190884083],[51.24516861159013,25.61413413080989],[51.26602052740338,25.587594776186094],[51.26830630788403,25.584685540444326],[51.31607445507145,25.560784785333365],[51.3375328024408,25.56448803152796],[51.4149449509868,25.56448803152796]]]},"properties":{"shapeName":"74","shapeISO":"","shapeID":"91078587B87151067735171","shapeGroup":"QAT","shapeType":"ADM2"}},
{"type":"Feature","geometry":{"type":"MultiPolygon","coordinates":[[[[51.54036029999999,25.3757924],[51.539442700000016,25.377533099999976],[51.54578639999996,25.383270100000015],[51.53235240000002,25.374721],[51.537991,25.3639845],[51.541310600000024,25.36578619999996],[51.54052629999999,25.371466],[51.54497659999997,25.37300849999997],[51.54789920000001,25.36776549999994],[51.542608500000014,25.3649258],[51.54308410000002,25.361491],[51.55340820000003,25.361626399999945],[51.55562029999997,25.3644018],[51.55440969999998,25.367868300000023],[51.5577768,25.3694836],[51.56013,25.3665186],[51.55652059999996,25.363832],[51.55638969999998,25.36096959999997],[51.56318879999996,25.361001500000015],[51.565042099999985,25.355947700000026],[51.571215,25.35678219999998],[51.57223330000004,25.358980699999968],[51.56628279999998,25.363789699999973],[51.56481930000004,25.37182849999996],[51.56099729999998,25.3767866],[51.55554619999999,25.3767831],[51.55188769999999,25.380075899999966],[51.55228829999998,25.375091199999986],[51.5501961,25.3733125],[51.547084300000016,25.375539499999938],[51.54899650000003,25.381742],[51.543826199999955,25.37987569999999],[51.54126140000007,25.37463970000002],[51.54036029999999,25.3757924]]],[[[51.5288894,25.37729149999996],[51.52535959999997,25.378551699999967],[51.512577300000025,25.373327499999984],[51.5197585,25.373602099999985],[51.52211429999995,25.368480499999947],[51.531873800000035,25.364966900000017],[51.53065849999999,25.3697595],[51.528137200000025,25.370857599999987],[51.5288894,25.37729149999996]]],[[[51.499300417434405,25.35387386592181],[51.50345383683336,25.350160804308114],[51.51958590269522,25.335738026475923],[51.51983756985548,25.35256895182193],[51.523109242939036,25.35689002776044],[51.526561287680245,25.35689002776044],[51.5307721,25.36306089999998],[51.5337413,25.36206149999999],[51.531931600000014,25.36403679999998],[51.518170100000034,25.368308500000033],[51.508406299999955,25.36421059999998],[51.504221500000014,25.36933609999996],[51.512094400000024,25.374957799999958],[51.52566001744712,25.380281044085862],[51.49980430802907,25.37771743259739],[51.49529308005699,25.371684944536533],[51.499300417434405,25.35387386592181]]]]},"properties":{"shapeName":"66","shapeISO":"","shapeID":"91078587B46503062575408","shapeGroup":"QAT","shapeType":"ADM2"}},
{"type":"Feature","geometry":{"type":"MultiPolygon","coordinates":[[[[51.519610270216845,25.335680188421463],[51.526399410369564,25.326819470638224],[51.52807195770197,25.315856988859835],[51.53875050000003,25.3170733],[51.539027099999984,25.323126800000026],[51.54242070000004,25.3253477],[51.53713619999996,25.33237529999999],[51.52692110000006,25.33166789999996],[51.522879899999985,25.3348349],[51.52341840000002,25.3401796],[51.53193580000002,25.3465278],[51.53313710000001,25.350748299999964],[51.5318237,25.35387],[51.52619789999998,25.35415150000001],[51.526561287680245,25.35689002776044],[51.523109242939036,25.35689002776044],[51.51983756985548,25.35256895182193],[51.51958590269522,25.335738026475923],[51.519610270216845,25.335680188421463]]],[[[51.581946899999984,25.349991100000025],[51.572538599999945,25.349621],[51.564441400000014,25.341253699999964],[51.569731300000015,25.343823499999985],[51.58443909999996,25.338142499999964],[51.58406009999997,25.3477954],[51.581946899999984,25.349991100000025]]]]},"properties":{"shapeName":"61","shapeISO":"","shapeID":"91078587B91929274058544","shapeGroup":"QAT","shapeType":"ADM2"}}
]}