{"type":"FeatureCollection", "features": [
{"type":"Feature","geometry":{"type":"Polygon","coordinates":[[[30.560141258000044,3.804482087000054],[30.579242915000066,3.733822247000035],[30.559196290000045,3.621679247000031],[30.62759054000003,3.606821247000028],[30.68324929100004,3.643848497000022],[30.731596916000058,3.625452747000054],[30.776878666000073,3.681111497000074],[30.798811916000034,3.603519497000036],[30.861310041000024,3.569676122000033],[30.86248929100003,3.480291997000052],[30.954511791000073,3.671018997000033],[31.09684088100005,3.738162295000052],[31.047380485000076,3.873003503000064],[30.97198683700003,3.948397152000041],[30.928965537000067,3.926144755000053],[30.83947678900006,3.879857471000037],[30.84176144500003,3.786186575000045],[30.711536052000042,3.777047951000043],[30.640711716000055,3.827310383000054],[30.560141258000044,3.804482087000054]]]},"properties":{"shapeName":"Morobo","shapeISO":"","shapeID":"79223893B16328156709571","shapeGroup":"SSD","shapeType":"ADM2"}},
{"type":"Feature","geometry":{"type":"Polygon","coordinates":[[[31.210425568000062,4.020221822000053],[31.09764291700003,3.973528368000075],[31.146265377000077,3.775797029000046],[31.290935791000038,3.793052497000076],[31.52745416600004,3.655494247000036],[31.66033816600003,3.720676622000042],[31.71090304200004,3.717166622000036],[31.799584766000066,3.827040733000047],[31.728026682000063,3.991624325000032],[31.693938133000074,3.957535776000043],[31.61854448500003,4.023790800000029],[31.577420677000077,4.128884976000052],[31.45633390900008,4.122031008000022],[31.210425568000062,4.020221822000053]]]},"properties":{"shapeName":"Kajo-keji","shapeISO":"","shapeID":"79223893B65724383376583","shapeGroup":"SSD","shapeType":"ADM2"}},
{"type":"Feature","geometry":{"type":"Polygon","coordinates":[[[31.09684088100005,3.738162295000052],[31.146265377000077,3.775797029000046],[31.09764291700003,3.973528368000075],[31.210425568000062,4.020221822000053],[31.10906619700006,4.154016192000029],[31.05880376500005,4.115177040000049],[31.042811173000075,4.252256400000022],[31.127343445000065,4.275102960000027],[31.175321221000047,4.254541056000051],[31.186744501000078,4.304803488000061],[31.127343445000065,4.332219360000067],[31.175321221000047,4.373343168000076],[30.513831808000077,4.670024466000029],[30.471097796000038,4.647470404000046],[30.49220907600005,4.574392896000063],[30.462508548000073,4.526415120000024],[30.56760272400004,4.403043696000054],[30.558464100000037,4.357350576000044],[30.592733940000073,4.357350576000044],[30.631573092000053,4.243117776000076],[30.560748756000066,4.199709312000039],[30.69782811600004,4.11289238400002],[30.727528644000074,4.179147408000063],[30.80292229300005,4.170008784000061],[30.805206949000024,4.131169632000024],[30.905731813000045,4.048922016000063],[30.892023877000042,3.973528368000075],[30.928965537000067,3.926144755000053],[30.97198683700003,3.948397152000041],[31.047380485000076,3.873003503000064],[31.09684088100005,3.738162295000052]]]},"properties":{"shapeName":"Lainya","shapeISO":"","shapeID":"79223893B40788586970477","shapeGroup":"SSD","shapeType":"ADM2"}},
{"type":"Feature","geometry":{"type":"Polygon","coordinates":[[[30.928965537000067,3.926144755000053],[30.892023877000042,3.973528368000075],[30.905731813000045,4.048922016000063],[30.805206949000024,4.131169632000024],[30.80292229300005,4.170008784000061],[30.727528644000074,4.179147408000063],[30.69782811600004,4.11289238400002],[30.560748756000066,4.199709312000039],[30.631573092000053,4.243117776000076],[30.592733940000073,4.357350576000044],[30.558464100000037,4.357350576000044],[30.56760272400004,4.403043696000054],[30.462508548000073,4.526415120000024],[30.49220907600005,4.574392896000063],[30.471097796000038,4.647470404000046],[30.397203863000072,4.608470829000055],[30.29962417300004,4.683281925000074],[30.205297139000038,4.709303176000049],[30.07844354100007,4.647502705000022],[29.954842600000063,4.650755361000051],[29.80937885900005,4.564554626000074],[29.828933790000065,4.558840873000065],[29.796965665000073,4.372716622000041],[29.964794165000058,4.302396497000075],[29.94499054000005,4.245334747000072],[29.975199665000048,4.206566372000054],[30.023198540000067,4.210929997000051],[30.057771290000062,4.133728872000063],[30.16216054000006,4.11976549700006],[30.159475290000046,4.051291497000022],[30.192034040000067,4.032494747000044],[30.20713866500006,3.941699497000059],[30.27561266500004,3.95881799700004],[30.299108665000063,3.92122437200004],[30.38637941500008,3.908805122000047],[30.404504915000075,3.867519247000075],[30.447133165000025,3.882288247000076],[30.46660129000003,3.834289247000072],[30.527355415000045,3.858624372000065],[30.560141258000044,3.804482087000054],[30.640711716000055,3.827310383000054],[30.711536052000042,3.777047951000043],[30.84176144500003,3.786186575000045],[30.83947678900006,3.879857471000037],[30.928965537000067,3.926144755000053]]]},"properties":{"shapeName":"Yei","shapeISO":"","shapeID":"79223893B15931514297219","shapeGroup":"SSD","shapeType":"ADM2"}},
{"type":"Feature","geometry":{"type":"Polygon","coordinates":[[[31.728026682000063,3.991624325000032],[31.763319529000057,4.029497999000057],[31.86415187600005,4.03925596800002],[31.984500161000028,4.104309095000076],[31.997510786000078,4.244173318000037],[32.04955328800003,4.237668005000046],[32.07232188200004,4.270194569000068],[32.06919688500005,4.370194490000074],[32.06581657000004,4.478364575000057],[32.00726875500004,4.517396451000025],[32.15038563500008,4.553175671000076],[32.13902144100007,4.573063010000055],[32.17315422900003,4.953252402000032],[32.09834313300007,5.213464910000027],[32.102242458000035,5.367878174000055],[31.828732837000075,5.465408736000029],[31.737346597000055,5.122710336000068],[31.252999525000064,5.312336784000024],[31.001687365000066,5.271212976000072],[30.924166661000072,5.385206321000055],[30.930639504000055,5.255749442000024],[30.963166068000078,5.206959597000036],[30.937144817000046,5.151664439000058],[30.90461825400007,5.151664439000058],[30.91112356600007,5.034568810000053],[30.862333721000027,4.93048380700003],[30.803785907000076,4.93048380700003],[30.702953560000026,4.849167399000066],[30.537254638000036,4.800432421000039],[30.513831808000077,4.670024466000029],[31.175321221000047,4.373343168000076],[31.127343445000065,4.332219360000067],[31.186744501000078,4.304803488000061],[31.175321221000047,4.254541056000051],[31.127343445000065,4.275102960000027],[31.042811173000075,4.252256400000022],[31.05880376500005,4.115177040000049],[31.10906619700006,4.154016192000029],[31.210425568000062,4.020221822000053],[31.45633390900008,4.122031008000022],[31.577420677000077,4.128884976000052],[31.61854448500003,4.023790800000029],[31.693938133000074,3.957535776000043],[31.728026682000063,3.991624325000032]]]},"properties":{"shapeName":"Juba","shapeISO":"","shapeID":"79223893B61077901252755","shapeGroup":"SSD","shapeType":"ADM2"}},
{"type":"Feature","geometry":{"type":"Polygon","coordinates":[[[32.102242458000035,5.367878174000055],[32.11441839200006,5.850045157000068],[31.69731703700006,5.872752680000076],[31.02171388200003,5.909533368000041],[30.611879182000052,6.251062284000056],[30.52405746100004,6.091682123000055],[30.30394139300006,6.081249592000063],[30.594595390000052,5.801069613000038],[30.65416371500004,5.743647894000048],[31.018461226000056,5.574509764000027],[30.995692631000054,5.385855696000021],[30.924166661000072,5.385206321000055],[31.001687365000066,5.271212976000072],[31.252999525000064,5.312336784000024],[31.737346597000055,5.122710336000068],[31.828732837000075,5.465408736000029],[32.102242458000035,5.367878174000055]]]},"properties":{"shapeName":"Terekeka","shapeISO":"","shapeID":"79223893B10688999436649","shapeGroup":"SSD","shapeType":"ADM2"}},
{"type":"Feature","geometry":{"type":"Polygon","coordinates":[[[31.799584766000066,3.827040733000047],[31.923182042000064,3.710566622000044],[31.954576167000027,3.587858872000027],[32.05379566700003,3.591210622000062],[32.08517691700007,3.531605497000044],[32.20332054200003,3.505563997000024],[32.219538542000066,3.564097997000033],[32.19642341700006,3.598211872000036],[32.41583279200006,3.744733372000042],[32.72285691700006,3.760205747000043],[32.88271466100008,3.808822033000069],[32.85002056800005,3.903167845000041],[32.79914837000007,3.895341353000049],[32.77256094000006,3.821487379000075],[32.642577946000074,3.883524717000057],[32.51554911200003,4.099178320000021],[32.308757986000046,4.161215657000071],[32.06919688500005,4.370194490000074],[32.07232188200004,4.270194569000068],[32.04955328800003,4.237668005000046],[31.997510786000078,4.244173318000037],[31.984500161000028,4.104309095000076],[31.86415187600005,4.03925596800002],[31.763319529000057,4.029497999000057],[31.728026682000063,3.991624325000032],[31.799584766000066,3.827040733000047]]]},"properties":{"shapeName":"Magwi","shapeISO":"","shapeID":"79223893B80026525075144","shapeGroup":"SSD","shapeType":"ADM2"}},
{"type":"Feature","geometry":{"type":"Polygon","coordinates":[[[32.88271466100008,3.808822033000069],[33.02708491800007,3.889856747000067],[33.179758168000035,3.776144122000062],[33.512134668000044,3.747902372000055],[33.59558826700004,3.833317537000028],[33.472696609000025,3.966241167000021],[33.23340973400008,4.116903273000048],[33.280676278000044,4.193711406000034],[33.15660160200002,4.285290333000034],[33.05194596600006,4.415616220000061],[32.94390215800007,4.373915101000023],[32.976397907000035,4.303015287000051],[32.92322304600003,4.264611220000063],[32.86413986700006,4.314831922000053],[32.855277390000026,4.246886267000036],[32.775515099000074,4.264611220000063],[32.82868996000008,4.149399022000068],[32.79028589300003,4.075545048000038],[32.85002056800005,3.903167845000041],[32.88271466100008,3.808822033000069]]]},"properties":{"shapeName":"Ikotos","shapeISO":"","shapeID":"79223893B75846050285915","shapeGroup":"SSD","shapeType":"ADM2"}},
{"type":"Feature","geometry":{"type":"Polygon","coordinates":[[[33.44315501900007,4.784543194000037],[33.454971655000065,4.651606042000026],[33.638129509000066,4.586614545000032],[33.80060825100003,4.217344677000028],[33.91808190000006,4.229331784000067],[33.74152507200006,4.654560200000049],[33.635175350000054,4.763864081000065],[33.660522609000054,4.85207254200003],[33.61449623800007,4.873167962000025],[33.56722969500004,4.775680717000057],[33.53768810500003,4.822947260000035],[33.44315501900007,4.784543194000037]]]},"properties":{"shapeName":"Kapoeta South","shapeISO":"","shapeID":"79223893B10541432646171","shapeGroup":"SSD","shapeType":"ADM2"}},
{"type":"Feature","geometry":{"type":"Polygon","coordinates":[[[33.59558826700004,3.833317537000028],[33.93862774300004,4.179848134000054],[33.91808190000006,4.229331784000067],[33.80060825100003,4.217344677000028],[33.638129509000066,4.586614545000032],[33.454971655000065,4.651606042000026],[33.44315501900007,4.784543194000037],[33.372255205000044,4.864305485000045],[33.31612618500003,4.840672214000051],[33.261321388000056,4.909899325000026],[33.059114357000055,4.67523931300002],[33.15364744300007,4.521623048000038],[33.07093099300005,4.462539869000068],[33.00003117800003,4.480264823000027],[33.05194596600006,4.415616220000061],[33.15660160200002,4.285290333000034],[33.280676278000044,4.193711406000034],[33.23340973400008,4.116903273000048],[33.472696609000025,3.966241167000021],[33.59558826700004,3.833317537000028]]]},"properties":{"shapeName":"Budi","shapeISO":"","shapeID":"79223893B70583427213056","shapeGroup":"SSD","shapeType":"ADM2"}},
{"type":"Feature","geometry":{"type":"Polygon","coordinates":[[[32.06919688500005,4.370194490000074],[32.308757986000046,4.161215657000071],[32.51554911200003,4.099178320000021],[32.642577946000074,3.883524717000057],[32.77256094000006,3.821487379000075],[32.79914837000007,3.895341353000049],[32.85002056800005,3.903167845000041],[32.79028589300003,4.075545048000038],[32.82868996000008,4.149399022000068],[32.775515099000074,4.264611220000063],[32.855277390000026,4.246886267000036],[32.86413986700006,4.314831922000053],[32.92322304600003,4.264611220000063],[32.976397907000035,4.303015287000051],[32.94390215800007,4.373915101000023],[33.05194596600006,4.415616220000061],[33.00003117800003,4.480264823000027],[32.97344374800008,4.509806412000046],[32.93208552300007,4.492081459000076],[32.89072729700007,4.627972770000042],[32.81096500600006,4.654560200000049],[32.73711103200003,4.613201975000038],[32.71052360200002,4.681147631000044],[32.654394582000066,4.681147631000044],[32.58940308500007,4.944067777000043],[32.48600752300007,4.923388664000072],[32.46828256900005,4.831809737000071],[32.50373247600004,4.781589035000025],[32.46237425100003,4.67523931300002],[32.47714504600003,4.512760571000058],[32.13902144100007,4.573063010000055],[32.15038563500008,4.553175671000076],[32.00726875500004,4.517396451000025],[32.06581657000004,4.478364575000057],[32.06919688500005,4.370194490000074]]]},"properties":{"shapeName":"Torit","shapeISO":"","shapeID":"79223893B91619257593054","shapeGroup":"SSD","shapeType":"ADM2"}},
{"type":"Feature","geometry":{"type":"Polygon","coordinates":[[[33.660522609000054,4.85207254200003],[33.78288329700007,5.277887737000071],[33.626312874000064,5.419687366000062],[33.73477741800008,5.779592446000038],[33.31159691000005,5.840269063000051],[33.26885964200005,5.570349472000032],[33.130014172000074,5.245391989000041],[33.261321388000056,4.909899325000026],[33.31612618500003,4.840672214000051],[33.372255205000044,4.864305485000045],[33.44315501900007,4.784543194000037],[33.53768810500003,4.822947260000035],[33.56722969500004,4.775680717000057],[33.61449623800007,4.873167962000025],[33.660522609000054,4.85207254200003]]]},"properties":{"shapeName":"Kapoeta North","shapeISO":"","shapeID":"79223893B90459000801703","shapeGroup":"SSD","shapeType":"ADM2"}},
{"type":"Feature","geometry":{"type":"Polygon","coordinates":[[[32.13902144100007,4.573063010000055],[32.47714504600003,4.512760571000058],[32.46237425100003,4.67523931300002],[32.50373247600004,4.781589035000025],[32.46828256900005,4.831809737000071],[32.48600752300007,4.923388664000072],[32.58940308500007,4.944067777000043],[32.654394582000066,4.681147631000044],[32.71052360200002,4.681147631000044],[32.73711103200003,4.613201975000038],[32.81096500600006,4.654560200000049],[32.89072729700007,4.627972770000042],[32.93208552300007,4.492081459000076],[32.97344374800008,4.509806412000046],[33.00003117800003,4.480264823000027],[33.07093099300005,4.462539869000068],[33.15364744300007,4.521623048000038],[33.059114357000055,4.67523931300002],[33.261321388000056,4.909899325000026],[33.130014172000074,5.245391989000041],[33.26885964200005,5.570349472000032],[33.31159691000005,5.840269063000051],[32.51949047800008,5.851466225000024],[32.11441839200006,5.850045157000068],[32.102242458000035,5.367878174000055],[32.09834313300007,5.213464910000027],[32.17315422900003,4.953252402000032],[32.13902144100007,4.573063010000055]]]},"properties":{"shapeName":"Lafon","shapeISO":"","shapeID":"79223893B81439496011559","shapeGroup":"SSD","shapeType":"ADM2"}},
{"type":"Feature","geometry":{"type":"Polygon","coordinates":[[[33.91808190000006,4.229331784000067],[33.93862774300004,4.179848134000054],[34.377469294000036,4.632717373000048],[35.95099142000004,4.628243373000032],[35.82460254500006,4.780357373000072],[35.81956942000005,5.108353123000029],[35.865891920000024,5.172515748000023],[35.82768967000004,5.250888123000038],[35.86403967000007,5.322661998000058],[35.713083045000076,5.398719123000035],[35.62556529500006,5.38413274800007],[35.540825795000046,5.424881873000061],[35.30799979500006,5.339531998000041],[35.30661542000007,5.503372748000061],[35.127053045000025,5.629204874000038],[35.126497295000036,5.687854624000067],[34.99785779500007,5.898591999000075],[35.01172664200004,6.008191775000057],[34.14426397600005,5.720879300000036],[33.73477741800008,5.779592446000038],[33.626312874000064,5.419687366000062],[33.78288329700007,5.277887737000071],[33.660522609000054,4.85207254200003],[33.635175350000054,4.763864081000065],[33.74152507200006,4.654560200000049],[33.91808190000006,4.229331784000067]]]},"properties":{"shapeName":"Kapoeta East","shapeISO":"","shapeID":"79223893B62671962917549","shapeGroup":"SSD","shapeType":"ADM2"}},
{"type":"Feature","geometry":{"type":"Polygon","coordinates":[[[31.69731703700006,5.872752680000076],[31.377831358000037,6.504231029000039],[31.17111955300004,6.485466373000065],[31.185697583000035,6.464640616000054],[31.127385464000042,6.418823951000036],[31.09822940500004,6.439649708000047],[31.012843803000067,6.333438349000062],[30.948283957000058,6.250135323000052],[30.860815779000063,6.275126231000058],[30.860815779000063,6.233474718000025],[30.82332941800007,6.214731537000034],[30.611879182000052,6.251062284000056],[31.02171388200003,5.909533368000041],[31.69731703700006,5.872752680000076]]]},"properties":{"shapeName":"Awerial","shapeISO":"","shapeID":"79223893B81946287385268","shapeGroup":"SSD","shapeType":"ADM2"}},
{"type":"Feature","geometry":{"type":"Polygon","coordinates":[[[30.611879182000052,6.251062284000056],[30.82332941800007,6.214731537000034],[30.860815779000063,6.233474718000025],[30.860815779000063,6.275126231000058],[30.948283957000058,6.250135323000052],[31.012843803000067,6.333438349000062],[30.929540776000067,6.38758531700006],[30.946201382000027,6.443814859000042],[30.837907447000077,6.545861067000033],[30.864980931000048,6.59792545800002],[30.785843056000033,6.679145909000056],[30.631732457000055,6.668733031000045],[30.567172611000046,6.610420912000052],[30.481787009000072,6.591677731000061],[30.363080196000055,6.681228485000076],[30.11941884400005,6.585430004000045],[30.129831722000063,6.520870159000026],[30.09026278500005,6.481301221000024],[30.027785515000062,6.502126978000035],[30.01737263700005,6.450062586000058],[29.965308245000074,6.466723192000075],[29.956967906000045,6.421684357000061],[29.967496049000033,6.363667502000055],[30.121825845000046,6.35244351700004],[30.20720807400005,6.157284136000044],[30.19196124800004,6.093247464000058],[30.30394139300006,6.081249592000063],[30.52405746100004,6.091682123000055],[30.611879182000052,6.251062284000056]]]},"properties":{"shapeName":"Yirol West","shapeISO":"","shapeID":"79223893B91549387440575","shapeGroup":"SSD","shapeType":"ADM2"}},
{"type":"Feature","geometry":{"type":"Polygon","coordinates":[[[29.956967906000045,6.421684357000061],[29.909078702000045,6.375089863000028],[29.750802952000072,6.393833044000075],[29.684160531000032,6.554191369000023],[29.63834386600007,6.577099702000055],[29.634178715000075,6.543778491000069],[29.600857504000032,6.545861067000033],[29.567536294000035,6.620833791000052],[29.586279475000026,6.666650455000024],[29.484233267000036,6.708301968000058],[29.43216887600005,6.67289818200004],[29.438416603000064,6.720797422000032],[29.373856757000055,6.727045149000048],[29.253067369000064,6.681228485000076],[29.16351661500005,6.762448936000055],[29.136443132000068,6.722879998000053],[28.993461471000046,6.690149256000041],[28.987461944000074,6.531441262000044],[28.899030350000032,6.406417283000053],[28.792302563000078,6.388121091000073],[28.49651412700007,6.497898243000066],[28.46602047300007,6.486615591000032],[28.49956349200005,6.367690344000039],[28.462971108000033,6.297554941000044],[28.49343033300005,6.274710522000021],[28.52395841500004,6.251814461000038],[28.572748260000026,6.074951272000021],[28.65508112400005,6.059704446000069],[28.819746851000048,5.815755220000028],[28.89667856600005,5.776087304000043],[29.014906232000044,5.715126164000026],[29.335916875000066,5.692196832000036],[29.569890721000036,5.675484415000028],[29.576993354000024,5.710287313000038],[29.63087802800004,5.974322217000065],[29.789445025000077,6.084099368000068],[29.79249439000006,6.309752402000072],[29.856531062000045,6.312801768000043],[29.871777889000043,6.264011923000055],[29.91141963800004,6.254863827000065],[29.899222176000023,6.312801768000043],[29.967496049000033,6.363667502000055],[29.956967906000045,6.421684357000061]]]},"properties":{"shapeName":"Wulu","shapeISO":"","shapeID":"79223893B61000747889625","shapeGroup":"SSD","shapeType":"ADM2"}},
{"type":"Feature","geometry":{"type":"Polygon","coordinates":[[[30.363080196000055,6.681228485000076],[30.319346107000058,6.718714847000058],[30.34641959100003,6.791604995000057],[30.32142868300008,7.014440591000039],[30.371286014000077,7.082087566000041],[30.223041893000072,7.114349577000041],[30.16523550900007,7.091495890000033],[30.10900596600004,6.979036804000032],[30.048611271000027,6.979036804000032],[29.871592340000063,6.795770146000052],[29.78412416200007,6.799935297000047],[29.725812044000065,6.731210301000033],[29.586279475000026,6.666650455000024],[29.567536294000035,6.620833791000052],[29.600857504000032,6.545861067000033],[29.634178715000075,6.543778491000069],[29.63834386600007,6.577099702000055],[29.684160531000032,6.554191369000023],[29.750802952000072,6.393833044000075],[29.909078702000045,6.375089863000028],[29.956967906000045,6.421684357000061],[29.965308245000074,6.466723192000075],[30.01737263700005,6.450062586000058],[30.027785515000062,6.502126978000035],[30.09026278500005,6.481301221000024],[30.129831722000063,6.520870159000026],[30.11941884400005,6.585430004000045],[30.363080196000055,6.681228485000076]]]},"properties":{"shapeName":"Rumbek East","shapeISO":"","shapeID":"79223893B32400871313636","shapeGroup":"SSD","shapeType":"ADM2"}},
{"type":"Feature","geometry":{"type":"Polygon","coordinates":[[[29.373856757000055,6.727045149000048],[29.415508270000032,6.820761054000059],[29.509224175000043,6.843669386000045],[29.52588478000007,6.904064081000058],[29.45299463200007,6.983201956000073],[29.596692353000037,7.20187240000007],[29.590444626000078,7.28517542700007],[29.280140852000045,7.46011178200007],[29.27805827700007,7.48718526600004],[29.170109586000024,7.510799042000031],[29.153661902000067,7.494752520000077],[29.07894290400003,7.421855937000032],[28.865487331000054,7.055932098000028],[28.993461471000046,6.690149256000041],[29.136443132000068,6.722879998000053],[29.16351661500005,6.762448936000055],[29.253067369000064,6.681228485000076],[29.373856757000055,6.727045149000048]]]},"properties":{"shapeName":"Cueibet","shapeISO":"","shapeID":"79223893B36009183812967","shapeGroup":"SSD","shapeType":"ADM2"}},
{"type":"Feature","geometry":{"type":"Polygon","coordinates":[[[29.590444626000078,7.28517542700007],[29.732059771000024,7.306001183000035],[30.054858998000043,7.249771640000063],[30.054858998000043,7.272679973000038],[30.144180538000057,7.295730693000053],[29.971482163000076,7.69160196100006],[29.92666646400005,7.796013062000043],[29.697964065000065,7.832605446000059],[29.533298337000076,7.702397547000032],[29.328990860000033,7.665805163000073],[29.170109586000024,7.510799042000031],[29.27805827700007,7.48718526600004],[29.280140852000045,7.46011178200007],[29.590444626000078,7.28517542700007]]]},"properties":{"shapeName":"Rumbek North","shapeISO":"","shapeID":"79223893B34085221347990","shapeGroup":"SSD","shapeType":"ADM2"}},
{"type":"Feature","geometry":{"type":"Polygon","coordinates":[[[29.586279475000026,6.666650455000024],[29.725812044000065,6.731210301000033],[29.78412416200007,6.799935297000047],[29.871592340000063,6.795770146000052],[30.048611271000027,6.979036804000032],[30.10900596600004,6.979036804000032],[30.16523550900007,7.091495890000033],[30.223041893000072,7.114349577000041],[30.144180538000057,7.295730693000053],[30.054858998000043,7.272679973000038],[30.054858998000043,7.249771640000063],[29.732059771000024,7.306001183000035],[29.590444626000078,7.28517542700007],[29.596692353000037,7.20187240000007],[29.45299463200007,6.983201956000073],[29.52588478000007,6.904064081000058],[29.509224175000043,6.843669386000045],[29.415508270000032,6.820761054000059],[29.373856757000055,6.727045149000048],[29.438416603000064,6.720797422000032],[29.43216887600005,6.67289818200004],[29.484233267000036,6.708301968000058],[29.586279475000026,6.666650455000024]]]},"properties":{"shapeName":"Rumbek Centre","shapeISO":"","shapeID":"79223893B15705410595049","shapeGroup":"SSD","shapeType":"ADM2"}},
{"type":"Feature","geometry":{"type":"Polygon","coordinates":[[[31.377831358000037,6.504231029000039],[31.312705187000063,6.609780341000032],[31.19085201200005,6.807266520000042],[30.706206216000055,7.213848563000056],[30.61887239300006,7.201386824000053],[30.536539530000027,7.067214749000073],[30.371286014000077,7.082087566000041],[30.32142868300008,7.014440591000039],[30.34641959100003,6.791604995000057],[30.319346107000058,6.718714847000058],[30.363080196000055,6.681228485000076],[30.481787009000072,6.591677731000061],[30.567172611000046,6.610420912000052],[30.631732457000055,6.668733031000045],[30.785843056000033,6.679145909000056],[30.864980931000048,6.59792545800002],[30.837907447000077,6.545861067000033],[30.946201382000027,6.443814859000042],[30.929540776000067,6.38758531700006],[31.012843803000067,6.333438349000062],[31.09822940500004,6.439649708000047],[31.127385464000042,6.418823951000036],[31.185697583000035,6.464640616000054],[31.17111955300004,6.485466373000065],[31.377831358000037,6.504231029000039]]]},"properties":{"shapeName":"Yirol East","shapeISO":"","shapeID":"79223893B59833655345818","shapeGroup":"SSD","shapeType":"ADM2"}},
{"type":"Feature","geometry":{"type":"Polygon","coordinates":[[[27.89926543400003,8.500324972000044],[27.959825830000057,8.563233378000064],[27.92323344600004,8.651664973000038],[27.999467579000054,8.700454818000026],[27.965924560000076,8.877318007000042],[27.91628612100004,8.915276814000038],[27.78646474800007,8.867260690000023],[27.78646474800007,8.831924074000028],[27.734499136000068,8.794508833000066],[27.68045490000003,8.834002698000063],[27.638882410000065,8.773722588000055],[27.52247944000004,8.732150099000023],[27.437611391000075,8.747630381000022],[27.399840596000047,8.684341736000022],[27.45804208100003,8.621983001000046],[27.51208631800006,8.60951125500003],[27.53910843600005,8.43074955000003],[27.568209178000075,8.416199178000056],[27.601467170000035,8.472322039000062],[27.705398394000042,8.513894529000027],[27.80735756400003,8.49614734100004],[27.89926543400003,8.500324972000044]]]},"properties":{"shapeName":"Aweil South","shapeISO":"","shapeID":"79223893B68307976822083","shapeGroup":"SSD","shapeType":"ADM2"}},
{"type":"Feature","geometry":{"type":"Polygon","coordinates":[[[27.437611391000075,8.747630381000022],[27.420918010000037,8.757693724000035],[27.33748186200006,8.732150099000023],[27.329167364000057,8.703049356000065],[27.187820900000077,8.757093592000047],[27.13793391300004,8.682263111000054],[26.994508824000036,8.748779094000042],[26.944621837000057,8.806980580000072],[26.93215009000005,8.87973243600004],[26.849005111000054,8.960798791000059],[26.84484786200005,8.871417938000036],[26.742995264000058,8.885968310000067],[26.713894521000043,8.865182065000056],[26.630749542000046,8.904675930000053],[26.587098428000047,8.80905920400005],[26.47693133200005,8.78203708600006],[26.333506244000034,8.638611997000055],[26.21424552800005,8.603445375000035],[26.27962554000004,8.212556366000058],[26.794968278000056,7.89237300700006],[26.929030063000027,7.966935461000048],[27.244099146000053,8.142170513000053],[27.725024700000063,8.32843224800007],[27.80735756400003,8.49614734100004],[27.705398394000042,8.513894529000027],[27.601467170000035,8.472322039000062],[27.568209178000075,8.416199178000056],[27.53910843600005,8.43074955000003],[27.51208631800006,8.60951125500003],[27.45804208100003,8.621983001000046],[27.399840596000047,8.684341736000022],[27.437611391000075,8.747630381000022]]]},"properties":{"shapeName":"Aweil Centre","shapeISO":"","shapeID":"79223893B3139508517189","shapeGroup":"SSD","shapeType":"ADM2"}},
{"type":"Feature","geometry":{"type":"Polygon","coordinates":[[[27.420918010000037,8.757693724000035],[27.43101996300004,8.850631694000072],[27.393604723000067,8.842317196000067],[27.393604723000067,8.90675455500002],[27.35706962000006,8.915693264000026],[27.258494132000067,8.967034664000039],[27.150405659000057,9.135403247000056],[27.119226292000064,9.14995361800004],[27.081811052000035,9.12293150000005],[27.100518672000078,9.156189492000067],[26.984115702000054,9.172818487000029],[26.93215009000005,9.118774251000048],[26.892656225000053,9.145796369000038],[26.792882251000037,9.11669562700007],[26.711815896000076,9.137481871000034],[26.57462668200003,9.060572766000064],[26.44990921400006,9.093830757000035],[26.358449737000058,8.996135407000054],[26.373000108000042,9.114617002000045],[26.15020535900004,9.208876297000074],[26.13630537100005,9.069428022000068],[26.21424552800005,8.603445375000035],[26.333506244000034,8.638611997000055],[26.47693133200005,8.78203708600006],[26.587098428000047,8.80905920400005],[26.630749542000046,8.904675930000053],[26.713894521000043,8.865182065000056],[26.742995264000058,8.885968310000067],[26.84484786200005,8.871417938000036],[26.849005111000054,8.960798791000059],[26.93215009000005,8.87973243600004],[26.944621837000057,8.806980580000072],[26.994508824000036,8.748779094000042],[27.13793391300004,8.682263111000054],[27.187820900000077,8.757093592000047],[27.329167364000057,8.703049356000065],[27.33748186200006,8.732150099000023],[27.420918010000037,8.757693724000035]]]},"properties":{"shapeName":"Aweil West","shapeISO":"","shapeID":"79223893B18780774215456","shapeGroup":"SSD","shapeType":"ADM2"}},
{"type":"Feature","geometry":{"type":"Polygon","coordinates":[[[27.35706962000006,8.915693264000026],[27.38113297600006,9.012764403000062],[27.325010115000055,9.154110867000043],[27.335403237000037,9.19360473200004],[27.179506402000072,9.447196918000031],[27.22939338900005,9.53449914600003],[27.22661617400007,9.624758632000066],[27.022363539000025,9.601928752000049],[26.703918290000047,9.488334627000029],[26.50952516600006,9.529685002000065],[26.33034116700003,9.613335877000054],[26.21867493800005,9.895780794000075],[26.15020535900004,9.208876297000074],[26.373000108000042,9.114617002000045],[26.358449737000058,8.996135407000054],[26.44990921400006,9.093830757000035],[26.57462668200003,9.060572766000064],[26.711815896000076,9.137481871000034],[26.792882251000037,9.11669562700007],[26.892656225000053,9.145796369000038],[26.93215009000005,9.118774251000048],[26.984115702000054,9.172818487000029],[27.100518672000078,9.156189492000067],[27.081811052000035,9.12293150000005],[27.119226292000064,9.14995361800004],[27.150405659000057,9.135403247000056],[27.258494132000067,8.967034664000039],[27.35706962000006,8.915693264000026]]]},"properties":{"shapeName":"Aweil North","shapeISO":"","shapeID":"79223893B62952270667029","shapeGroup":"SSD","shapeType":"ADM2"}},
{"type":"Feature","geometry":{"type":"Polygon","coordinates":[[[27.91628612100004,8.915276814000038],[27.862246139000035,8.956601506000027],[27.940303734000054,9.130519304000074],[28.03605996300007,9.343870902000049],[27.90722066400008,9.610159002000046],[27.22661617400007,9.624758632000066],[27.22939338900005,9.53449914600003],[27.179506402000072,9.447196918000031],[27.335403237000037,9.19360473200004],[27.325010115000055,9.154110867000043],[27.38113297600006,9.012764403000062],[27.35706962000006,8.915693264000026],[27.393604723000067,8.90675455500002],[27.393604723000067,8.842317196000067],[27.43101996300004,8.850631694000072],[27.420918010000037,8.757693724000035],[27.437611391000075,8.747630381000022],[27.52247944000004,8.732150099000023],[27.638882410000065,8.773722588000055],[27.68045490000003,8.834002698000063],[27.734499136000068,8.794508833000066],[27.78646474800007,8.831924074000028],[27.78646474800007,8.867260690000023],[27.91628612100004,8.915276814000038]]]},"properties":{"shapeName":"Aweil East","shapeISO":"","shapeID":"79223893B40976740779216","shapeGroup":"SSD","shapeType":"ADM2"}},
{"type":"Feature","geometry":{"type":"Polygon","coordinates":[[[30.371286014000077,7.082087566000041],[30.536539530000027,7.067214749000073],[30.61887239300006,7.201386824000053],[30.706206216000055,7.213848563000056],[30.690311525000027,7.284652191000021],[30.67042699700005,7.373228725000047],[30.50779417900003,7.656209827000055],[30.51708576900006,7.705201844000044],[30.543573399000024,7.84486389500006],[30.46452557300006,7.978761233000057],[30.286496791000047,7.990371805000052],[30.098177415000066,7.893358793000061],[29.971482163000076,7.69160196100006],[30.144180538000057,7.295730693000053],[30.223041893000072,7.114349577000041],[30.371286014000077,7.082087566000041]]]},"properties":{"shapeName":"Panyijiar","shapeISO":"","shapeID":"79223893B83393378605380","shapeGroup":"SSD","shapeType":"ADM2"}},
{"type":"Feature","geometry":{"type":"Polygon","coordinates":[[[29.971482163000076,7.69160196100006],[30.098177415000066,7.893358793000061],[30.047294684000065,7.928983654000035],[30.036710520000042,8.028474796000069],[30.104449170000066,8.045409458000051],[30.127734331000056,8.185120424000047],[30.062112513000045,8.223223415000064],[30.07481351000007,8.27614423500006],[30.10656600200008,8.280377901000065],[30.093865006000044,8.324831390000043],[30.12985116300007,8.350233383000045],[30.148902659000044,8.437023529000044],[30.208173977000058,8.426439365000022],[30.356285504000027,8.480917168000076],[30.284661954000057,8.557846166000047],[30.125617498000054,8.449724526000068],[30.01130852600005,8.441257194000059],[29.983789699000056,8.381985876000044],[29.854662898000072,8.335415554000065],[29.729769762000046,8.358700715000055],[29.666384581000045,8.286864176000051],[29.675958465000065,8.149147543000026],[29.697964065000065,7.832605446000059],[29.92666646400005,7.796013062000043],[29.971482163000076,7.69160196100006]]]},"properties":{"shapeName":"Mayendit","shapeISO":"","shapeID":"79223893B14659068163591","shapeGroup":"SSD","shapeType":"ADM2"}},
{"type":"Feature","geometry":{"type":"Polygon","coordinates":[[[30.46452557300006,7.978761233000057],[30.384193238000023,8.114834372000075],[30.332150736000074,8.111581715000057],[30.356285504000027,8.480917168000076],[30.208173977000058,8.426439365000022],[30.148902659000044,8.437023529000044],[30.12985116300007,8.350233383000045],[30.093865006000044,8.324831390000043],[30.10656600200008,8.280377901000065],[30.07481351000007,8.27614423500006],[30.062112513000045,8.223223415000064],[30.127734331000056,8.185120424000047],[30.104449170000066,8.045409458000051],[30.036710520000042,8.028474796000069],[30.047294684000065,7.928983654000035],[30.098177415000066,7.893358793000061],[30.286496791000047,7.990371805000052],[30.46452557300006,7.978761233000057]]]},"properties":{"shapeName":"Leer","shapeISO":"","shapeID":"79223893B69853556807394","shapeGroup":"SSD","shapeType":"ADM2"}},
{"type":"Feature","geometry":{"type":"Polygon","coordinates":[[[30.284661954000057,8.557846166000047],[30.29732053400005,8.582108445000074],[30.323693830000025,8.632657262000066],[30.235872108000024,8.707468358000028],[30.261893359000055,8.743247578000023],[30.220862811000075,8.917627409000033],[30.142552160000037,8.870974255000021],[30.021892690000072,8.900609915000075],[29.98802336500006,8.843455429000073],[29.91393421600003,8.845572262000076],[29.822313844000064,8.917275162000067],[29.81232624100005,8.877324754000028],[29.74247075900007,8.858273258000054],[29.606993459000023,8.873091088000024],[29.577357799000026,8.748197952000055],[29.274102285000026,8.695575834000067],[29.658322316000067,8.40283676200005],[29.666384581000045,8.286864176000051],[29.729769762000046,8.358700715000055],[29.854662898000072,8.335415554000065],[29.983789699000056,8.381985876000044],[30.01130852600005,8.441257194000059],[30.125617498000054,8.449724526000068],[30.284661954000057,8.557846166000047]]]},"properties":{"shapeName":"Koch","shapeISO":"","shapeID":"79223893B49077464819329","shapeGroup":"SSD","shapeType":"ADM2"}},
{"type":"Feature","geometry":{"type":"Polygon","coordinates":[[[29.606993459000023,8.873091088000024],[29.551955806000024,8.87944158700003],[29.48633398800007,8.993750558000045],[29.482100323000054,9.205433840000069],[29.34450619000006,9.440402282000036],[29.170925899000054,9.427701285000069],[29.149757571000066,9.393831960000057],[29.060850593000055,9.393831960000057],[28.94442478900004,9.31762597900007],[28.807549390000077,9.306363708000049],[28.78620383300006,9.105105597000033],[28.694722873000046,9.027956654000036],[29.097239096000067,9.037104750000026],[29.165715669000065,8.904874126000038],[29.274102285000026,8.695575834000067],[29.577357799000026,8.748197952000055],[29.606993459000023,8.873091088000024]]]},"properties":{"shapeName":"Mayom","shapeISO":"","shapeID":"79223893B58930219701541","shapeGroup":"SSD","shapeType":"ADM2"}},
{"type":"Feature","geometry":{"type":"Polygon","coordinates":[[[30.220862811000075,8.917627409000033],[30.20985085800004,8.964428210000051],[30.391999613000053,9.185608842000022],[30.35296773700003,9.338483690000032],[30.393732814000032,9.38618750300003],[30.31401561800004,9.39594879300006],[30.142552160000037,9.489089437000075],[29.94780354100004,9.482738938000068],[29.877077686000064,9.553384204000054],[29.816559907000055,9.32397647700003],[29.850429232000067,9.24353683000004],[29.831377737000025,9.163097183000048],[29.920284715000037,9.019152552000037],[29.87583122600006,8.97469906300006],[29.81232624100005,8.970465397000055],[29.822313844000064,8.917275162000067],[29.91393421600003,8.845572262000076],[29.98802336500006,8.843455429000073],[30.021892690000072,8.900609915000075],[30.142552160000037,8.870974255000021],[30.220862811000075,8.917627409000033]]]},"properties":{"shapeName":"Guit","shapeISO":"","shapeID":"79223893B83086090968913","shapeGroup":"SSD","shapeType":"ADM2"}},
{"type":"Feature","geometry":{"type":"Polygon","coordinates":[[[29.822313844000064,8.917275162000067],[29.81232624100005,8.970465397000055],[29.87583122600006,8.97469906300006],[29.920284715000037,9.019152552000037],[29.831377737000025,9.163097183000048],[29.850429232000067,9.24353683000004],[29.816559907000055,9.32397647700003],[29.877077686000064,9.553384204000054],[29.72341926300004,9.527192427000045],[29.538087595000036,9.750134923000076],[29.34450619000006,9.440402282000036],[29.482100323000054,9.205433840000069],[29.48633398800007,8.993750558000045],[29.551955806000024,8.87944158700003],[29.606993459000023,8.873091088000024],[29.74247075900007,8.858273258000054],[29.81232624100005,8.877324754000028],[29.822313844000064,8.917275162000067]]]},"properties":{"shapeName":"Rubkona","shapeISO":"","shapeID":"79223893B27394743162218","shapeGroup":"SSD","shapeType":"ADM2"}},
{"type":"Feature","geometry":{"type":"Polygon","coordinates":[[[29.34450619000006,9.440402282000036],[29.538087595000036,9.750134923000076],[29.078376539000033,9.750135752000062],[28.816697486000066,9.498473724000064],[28.76790764100008,9.419190226000069],[28.76790764100008,9.352104188000055],[28.807549390000077,9.306363708000049],[28.94442478900004,9.31762597900007],[29.060850593000055,9.393831960000057],[29.149757571000066,9.393831960000057],[29.170925899000054,9.427701285000069],[29.34450619000006,9.440402282000036]]]},"properties":{"shapeName":"Abiemnhom","shapeISO":"","shapeID":"79223893B7237342620432","shapeGroup":"SSD","shapeType":"ADM2"}},
{"type":"Feature","geometry":{"type":"Polygon","coordinates":[[[30.393732814000032,9.38618750300003],[30.50584258500004,9.517379789000074],[30.75600914200004,9.49297329600006],[30.761501374000034,9.611056292000058],[30.846070439000073,9.653340824000054],[30.82732766600003,9.71890925200006],[30.53155529000003,9.95945275300005],[29.996772665000037,10.288802128000043],[29.939027665000026,10.286644003000049],[29.539039540000033,10.08183187800006],[29.538087595000036,9.750134923000076],[29.72341926300004,9.527192427000045],[29.877077686000064,9.553384204000054],[29.94780354100004,9.482738938000068],[30.142552160000037,9.489089437000075],[30.31401561800004,9.39594879300006],[30.393732814000032,9.38618750300003]]]},"properties":{"shapeName":"Pariang","shapeISO":"","shapeID":"79223893B45292827901182","shapeGroup":"SSD","shapeType":"ADM2"}},
{"type":"Feature","geometry":{"type":"Polygon","coordinates":[[[28.993461471000046,6.690149256000041],[28.865487331000054,7.055932098000028],[29.07894290400003,7.421855937000032],[29.153661902000067,7.494752520000077],[28.86257627300006,7.595435021000071],[28.805943625000054,7.758072371000026],[28.74931097600006,7.790018994000036],[28.63459356000004,7.759524490000047],[28.582317269000043,7.665136743000062],[28.37242158600003,7.587424758000054],[28.536155876000066,7.43405339800006],[28.49041539600006,7.174857345000021],[28.49414318600003,6.761072710000064],[28.496328160000076,6.518540565000023],[28.49651412700007,6.497898243000066],[28.792302563000078,6.388121091000073],[28.899030350000032,6.406417283000053],[28.987461944000074,6.531441262000044],[28.993461471000046,6.690149256000041]]]},"properties":{"shapeName":"Tonj South","shapeISO":"","shapeID":"79223893B28236653000633","shapeGroup":"SSD","shapeType":"ADM2"}},
{"type":"Feature","geometry":{"type":"Polygon","coordinates":[[[29.170109586000024,7.510799042000031],[29.328990860000033,7.665805163000073],[29.533298337000076,7.702397547000032],[29.697964065000065,7.832605446000059],[29.675958465000065,8.149147543000026],[29.335967131000075,8.179186938000043],[29.20672852200005,8.026714422000055],[29.007788193000067,7.943943628000056],[28.890166538000074,7.797279589000027],[28.805943625000054,7.758072371000026],[28.86257627300006,7.595435021000071],[29.153661902000067,7.494752520000077],[29.170109586000024,7.510799042000031]]]},"properties":{"shapeName":"Tonj East","shapeISO":"","shapeID":"79223893B19595025939095","shapeGroup":"SSD","shapeType":"ADM2"}},
{"type":"Feature","geometry":{"type":"Polygon","coordinates":[[[29.666384581000045,8.286864176000051],[29.658322316000067,8.40283676200005],[29.274102285000026,8.695575834000067],[29.165715669000065,8.904874126000038],[28.65782746700006,8.677263822000043],[28.662183824000067,8.601753624000025],[28.59538634100005,8.514626472000032],[28.583769388000064,8.37667514800006],[28.65492322800003,8.243080182000028],[28.631689321000067,8.173378461000027],[28.451626541000053,8.180639057000064],[28.339813363000076,8.134171243000026],[28.171155862000035,7.993932202000053],[28.313552207000043,7.781681045000028],[28.295256015000064,7.659706432000064],[28.37242158600003,7.587424758000054],[28.582317269000043,7.665136743000062],[28.63459356000004,7.759524490000047],[28.74931097600006,7.790018994000036],[28.805943625000054,7.758072371000026],[28.890166538000074,7.797279589000027],[29.007788193000067,7.943943628000056],[29.20672852200005,8.026714422000055],[29.335967131000075,8.179186938000043],[29.675958465000065,8.149147543000026],[29.666384581000045,8.286864176000051]]]},"properties":{"shapeName":"Tonj North","shapeISO":"","shapeID":"79223893B57741024830751","shapeGroup":"SSD","shapeType":"ADM2"}},
{"type":"Feature","geometry":{"type":"Polygon","coordinates":[[[28.694722873000046,9.027956654000036],[28.608455414000048,8.988017329000058],[28.620072368000024,8.931384681000054],[28.528588858000035,8.829736337000043],[28.531493097000066,8.790529119000041],[28.458887137000033,8.773103689000038],[28.418227800000068,8.745513424000023],[28.41241932300005,8.662742630000025],[28.36595150900007,8.635152365000067],[28.320935814000052,8.488488326000038],[28.191697205000025,8.421690843000022],[28.229452304000063,8.34618064500006],[28.15210391900007,8.022330381000074],[28.171155862000035,7.993932202000053],[28.339813363000076,8.134171243000026],[28.451626541000053,8.180639057000064],[28.631689321000067,8.173378461000027],[28.65492322800003,8.243080182000028],[28.583769388000064,8.37667514800006],[28.59538634100005,8.514626472000032],[28.662183824000067,8.601753624000025],[28.65782746700006,8.677263822000043],[29.165715669000065,8.904874126000038],[29.097239096000067,9.037104750000026],[28.694722873000046,9.027956654000036]]]},"properties":{"shapeName":"Gogrial East","shapeISO":"","shapeID":"79223893B33443861604681","shapeGroup":"SSD","shapeType":"ADM2"}},
{"type":"Feature","geometry":{"type":"Polygon","coordinates":[[[27.89926543400003,8.500324972000044],[27.91713471500003,8.330566804000057],[27.877492966000034,8.278727594000031],[27.862246139000035,8.083568213000035],[28.15210391900007,8.022330381000074],[28.229452304000063,8.34618064500006],[28.191697205000025,8.421690843000022],[28.320935814000052,8.488488326000038],[28.36595150900007,8.635152365000067],[28.41241932300005,8.662742630000025],[28.418227800000068,8.745513424000023],[28.458887137000033,8.773103689000038],[28.45743501800007,8.866039317000059],[28.39644601200007,8.884916867000072],[28.360143032000053,8.855874483000036],[28.306414622000034,8.924124085000074],[28.27301588000006,8.906698654000024],[28.254138331000036,8.94300163400004],[28.12925608000006,8.970591899000055],[28.05084164400006,9.072240243000067],[28.010182306000047,9.044649978000052],[27.960810254000023,9.05771905100005],[27.96661873000005,9.109995342000047],[27.940303734000054,9.130519304000074],[27.862246139000035,8.956601506000027],[27.91628612100004,8.915276814000038],[27.965924560000076,8.877318007000042],[27.999467579000054,8.700454818000026],[27.92323344600004,8.651664973000038],[27.959825830000057,8.563233378000064],[27.89926543400003,8.500324972000044]]]},"properties":{"shapeName":"Gogrial West","shapeISO":"","shapeID":"79223893B68653566735715","shapeGroup":"SSD","shapeType":"ADM2"}},
{"type":"Feature","geometry":{"type":"Polygon","coordinates":[[[27.940303734000054,9.130519304000074],[27.96661873000005,9.109995342000047],[27.960810254000023,9.05771905100005],[28.010182306000047,9.044649978000052],[28.05084164400006,9.072240243000067],[28.12925608000006,8.970591899000055],[28.254138331000036,8.94300163400004],[28.27301588000006,8.906698654000024],[28.306414622000034,8.924124085000074],[28.360143032000053,8.855874483000036],[28.39644601200007,8.884916867000072],[28.45743501800007,8.866039317000059],[28.458887137000033,8.773103689000038],[28.531493097000066,8.790529119000041],[28.528588858000035,8.829736337000043],[28.620072368000024,8.931384681000054],[28.608455414000048,8.988017329000058],[28.694722873000046,9.027956654000036],[28.78620383300006,9.105105597000033],[28.807549390000077,9.306363708000049],[28.76790764100008,9.352104188000055],[28.03605996300007,9.343870902000049],[27.940303734000054,9.130519304000074]]]},"properties":{"shapeName":"Twic","shapeISO":"","shapeID":"79223893B10116449599990","shapeGroup":"SSD","shapeType":"ADM2"}},
{"type":"Feature","geometry":{"type":"Polygon","coordinates":[[[26.929030063000027,7.966935461000048],[26.87684854200006,7.689195105000067],[26.822701575000053,7.647543591000044],[26.75605915400007,7.489267841000071],[26.72690309500007,7.29350572900006],[26.61027885900006,7.178964068000028],[26.472828866000043,6.906146656000033],[26.445755383000062,6.827008781000075],[26.456332090000046,6.653786385000046],[27.083624704000044,6.714926016000049],[27.93238154200003,6.797650855000029],[28.032362441000032,6.747660405000033],[28.03684318300003,6.870742870000072],[28.09307272600006,6.866577719000077],[28.09307272600006,6.935302715000034],[27.986861367000074,7.014440591000039],[27.953540157000077,7.120651949000035],[28.005604548000065,7.349735272000032],[27.99935682100005,7.489267841000071],[28.063916667000058,7.510093598000026],[28.043090910000046,7.539249657000028],[27.997274246000075,7.520506476000037],[27.997274246000075,7.551745111000059],[28.049338637000062,7.568405717000076],[28.016017427000065,7.587148897000077],[28.04725606100004,7.676699651000035],[28.00976970000005,7.728764042000023],[27.809842436000054,7.75583752600005],[27.666144716000076,7.924526155000024],[27.661979565000024,7.849553431000061],[27.624493203000043,7.805819342000063],[27.387079578000055,7.872461763000047],[27.37250154800006,7.912030701000049],[27.397492456000066,7.951599638000062],[27.244099146000053,8.142170513000053],[26.929030063000027,7.966935461000048]]]},"properties":{"shapeName":"Wau","shapeISO":"","shapeID":"79223893B74023037447504","shapeGroup":"SSD","shapeType":"ADM2"}},
{"type":"Feature","geometry":{"type":"Polygon","coordinates":[[[27.80735756400003,8.49614734100004],[27.725024700000063,8.32843224800007],[27.244099146000053,8.142170513000053],[27.397492456000066,7.951599638000062],[27.37250154800006,7.912030701000049],[27.387079578000055,7.872461763000047],[27.624493203000043,7.805819342000063],[27.661979565000024,7.849553431000061],[27.666144716000076,7.924526155000024],[27.809842436000054,7.75583752600005],[28.00976970000005,7.728764042000023],[28.04725606100004,7.676699651000035],[28.016017427000065,7.587148897000077],[28.049338637000062,7.568405717000076],[27.997274246000075,7.551745111000059],[27.997274246000075,7.520506476000037],[28.043090910000046,7.539249657000028],[28.063916667000058,7.510093598000026],[27.99935682100005,7.489267841000071],[28.005604548000065,7.349735272000032],[27.953540157000077,7.120651949000035],[27.986861367000074,7.014440591000039],[28.09307272600006,6.935302715000034],[28.09307272600006,6.866577719000077],[28.03684318300003,6.870742870000072],[28.032362441000032,6.747660405000033],[28.49414318600003,6.761072710000064],[28.49041539600006,7.174857345000021],[28.536155876000066,7.43405339800006],[28.37242158600003,7.587424758000054],[28.295256015000064,7.659706432000064],[28.313552207000043,7.781681045000028],[28.171155862000035,7.993932202000053],[28.15210391900007,8.022330381000074],[27.862246139000035,8.083568213000035],[27.877492966000034,8.278727594000031],[27.91713471500003,8.330566804000057],[27.89926543400003,8.500324972000044],[27.80735756400003,8.49614734100004]]]},"properties":{"shapeName":"Jur River","shapeISO":"","shapeID":"79223893B97545569096613","shapeGroup":"SSD","shapeType":"ADM2"}},
{"type":"Feature","geometry":{"type":"Polygon","coordinates":[[[26.21424552800005,8.603445375000035],[26.13630537100005,9.069428022000068],[26.15020535900004,9.208876297000074],[26.21867493800005,9.895780794000075],[26.11598579300005,9.994994252000026],[26.04991891800006,10.117143627000075],[25.930622044000074,10.18178275200006],[25.933395293000046,10.379617377000045],[25.899676794000072,10.377292002000047],[25.896072294000078,10.411475627000073],[25.861772419000033,10.391593252000064],[25.83921579400004,10.42391662700004],[25.75940742000006,10.438683127000047],[25.69103979500005,10.402290252000057],[25.662669796000046,10.432404502000054],[25.643136171000037,10.398802127000067],[25.552444672000036,10.407057377000058],[25.473102048000044,10.372052127000075],[25.390020424000056,10.39010687700005],[25.27714130000004,10.360500002000038],[25.273765300000036,10.332463626000049],[25.213876176000042,10.359325626000043],[25.18026192700006,10.31749137600002],[25.097914428000024,10.316096876000074],[25.03142005500007,10.167651251000052],[25.078979054000058,10.114191376000065],[25.03097968000003,10.052790376000075],[25.04903430400003,10.016534001000025],[24.98665005600003,9.958773376000067],[24.98107193100003,9.89663850100004],[24.73917631200004,9.725313500000027],[24.754718061000062,9.590786500000036],[24.566183817000024,9.279615874000058],[24.572765192000077,9.159395999000026],[24.53832256900006,9.044112124000037],[24.57342331800004,8.909391124000024],[24.44201507200006,8.842041624000046],[24.456755197000064,8.799966999000048],[24.408050323000055,8.798343498000065],[24.39628007400006,8.739897623000047],[24.261811204000026,8.697214373000065],[24.223142456000062,8.64072787300006],[24.258399204000057,8.576659248000055],[24.164950084000054,8.482819248000055],[24.150733709000065,8.396454622000022],[24.231176206000043,8.288418748000026],[24.35540807700005,8.246207248000076],[24.457333323000057,8.281211873000075],[24.537980945000072,8.206912998000064],[24.634415192000063,8.225444749000076],[24.858856312000057,8.178428874000076],[24.90177768600006,8.04533762400007],[24.941742935000036,8.036288874000036],[24.961725559000058,7.983881624000048],[25.081998557000077,7.898483999000064],[25.174927680000053,7.912503749000052],[25.266147054000044,7.795063499000037],[25.28498180300005,7.80429624900006],[25.285654303000058,7.650268374000063],[25.166672431000052,7.586365124000054],[25.195885430000033,7.493735749000052],[25.285023054000078,7.472298624000075],[25.337711053000078,7.425360749000049],[25.354025553000042,7.353416124000034],[25.410725677000073,7.34710424900004],[25.480872301000034,7.271293249000053],[25.541049050000026,7.277404999000055],[25.611333674000036,7.215112624000028],[25.820530422000047,7.157141999000032],[25.837175672000058,7.107206874000042],[26.039942670000073,7.006012374000022],[26.038051170000074,6.926759249000042],[26.090256169000043,6.896117124000057],[26.10236166900006,6.817809749000048],[26.171590044000027,6.81213524900005],[26.205636669000057,6.747446499000034],[26.265785918000063,6.738178249000043],[26.256706793000035,6.708671124000034],[26.363008043000036,6.693917499000065],[26.415452386000027,6.649802008000052],[26.456332090000046,6.653786385000046],[26.445755383000062,6.827008781000075],[26.472828866000043,6.906146656000033],[26.61027885900006,7.178964068000028],[26.72690309500007,7.29350572900006],[26.75605915400007,7.489267841000071],[26.822701575000053,7.647543591000044],[26.87684854200006,7.689195105000067],[26.929030063000027,7.966935461000048],[26.794968278000056,7.89237300700006],[26.27962554000004,8.212556366000058],[26.21424552800005,8.603445375000035]]]},"properties":{"shapeName":"Raga","shapeISO":"","shapeID":"79223893B70929244954658","shapeGroup":"SSD","shapeType":"ADM2"}},
{"type":"Feature","geometry":{"type":"Polygon","coordinates":[[[30.205297139000038,4.709303176000049],[30.138933853000026,4.767942561000041],[30.143243208000058,4.835455792000062],[30.088658042000077,4.911587734000022],[30.10733191500003,4.92020644400003],[30.058492556000033,5.089707748000023],[29.937830611000038,5.230480018000037],[29.79705834200007,5.241971631000069],[29.76976575900005,5.399981321000041],[29.81860511800005,5.474676811000052],[29.80711350400003,5.612576177000051],[29.843884417000027,5.651575631000071],[29.617501876000063,5.67578005300004],[29.576993354000024,5.710287313000038],[29.569890721000036,5.675484415000028],[29.335916875000066,5.692196832000036],[29.318360803000076,5.608805491000055],[29.354272096000045,5.517231694000031],[29.314769674000047,5.434635719000028],[29.372227743000053,5.299968370000045],[29.384796696000024,5.195825620000051],[29.356067661000054,5.08629617500003],[29.393774519000033,5.010882460000062],[29.359658790000026,4.973175602000026],[29.391978954000024,4.93187761400003],[29.39736564800006,4.827734864000035],[29.366841049000072,4.782845748000057],[29.43327694100003,4.709227597000051],[29.42968581200006,4.640996139000038],[29.46941539900007,4.58423958700007],[29.464970289000064,4.669817248000072],[29.496045915000025,4.698865373000046],[29.533436290000054,4.65682212300004],[29.618935540000052,4.660000248000074],[29.74336229000005,4.570761998000023],[29.764550040000074,4.589041623000071],[29.80937885900005,4.564554626000074],[29.954842600000063,4.650755361000051],[30.07844354100007,4.647502705000022],[30.205297139000038,4.709303176000049]]]},"properties":{"shapeName":"Maridi","shapeISO":"","shapeID":"79223893B17245880032219","shapeGroup":"SSD","shapeType":"ADM2"}},
{"type":"Feature","geometry":{"type":"Polygon","coordinates":[[[30.513831808000077,4.670024466000029],[30.537254638000036,4.800432421000039],[30.483682268000052,4.875676441000053],[30.496610333000035,4.914460637000047],[30.41616903700003,5.091144200000031],[30.43915226400003,5.227607114000023],[30.401804519000052,5.272137118000046],[30.43915226400003,5.366942932000029],[30.413296133000074,5.458875842000054],[30.579924534000043,5.491914232000056],[30.47793646100007,5.622631339000066],[30.34003709500007,5.667161343000032],[30.261032250000028,5.695890378000058],[30.27970612200005,5.612576177000051],[30.157607725000048,5.632686501000023],[30.048437394000075,5.593902305000029],[30.04556449100005,5.53788068700004],[29.945012870000028,5.557991012000059],[29.843884417000027,5.651575631000071],[29.80711350400003,5.612576177000051],[29.81860511800005,5.474676811000052],[29.76976575900005,5.399981321000041],[29.79705834200007,5.241971631000069],[29.937830611000038,5.230480018000037],[30.058492556000033,5.089707748000023],[30.10733191500003,4.92020644400003],[30.088658042000077,4.911587734000022],[30.143243208000058,4.835455792000062],[30.138933853000026,4.767942561000041],[30.205297139000038,4.709303176000049],[30.29962417300004,4.683281925000074],[30.397203863000072,4.608470829000055],[30.471097796000038,4.647470404000046],[30.513831808000077,4.670024466000029]]]},"properties":{"shapeName":"Mundri West","shapeISO":"","shapeID":"79223893B75409904988016","shapeGroup":"SSD","shapeType":"ADM2"}},
{"type":"Feature","geometry":{"type":"Polygon","coordinates":[[[30.924166661000072,5.385206321000055],[30.995692631000054,5.385855696000021],[31.018461226000056,5.574509764000027],[30.65416371500004,5.743647894000048],[30.594595390000052,5.801069613000038],[30.34003709500007,5.667161343000032],[30.47793646100007,5.622631339000066],[30.579924534000043,5.491914232000056],[30.413296133000074,5.458875842000054],[30.43915226400003,5.366942932000029],[30.401804519000052,5.272137118000046],[30.43915226400003,5.227607114000023],[30.41616903700003,5.091144200000031],[30.496610333000035,4.914460637000047],[30.483682268000052,4.875676441000053],[30.537254638000036,4.800432421000039],[30.702953560000026,4.849167399000066],[30.803785907000076,4.93048380700003],[30.862333721000027,4.93048380700003],[30.91112356600007,5.034568810000053],[30.90461825400007,5.151664439000058],[30.937144817000046,5.151664439000058],[30.963166068000078,5.206959597000036],[30.930639504000055,5.255749442000024],[30.924166661000072,5.385206321000055]]]},"properties":{"shapeName":"Mundri East","shapeISO":"","shapeID":"79223893B67918062022173","shapeGroup":"SSD","shapeType":"ADM2"}},
{"type":"Feature","geometry":{"type":"Polygon","coordinates":[[[28.89667856600005,5.776087304000043],[28.78148697000006,5.601623233000055],[28.65041075000005,5.504662741000061],[28.592952681000043,5.206599008000069],[28.698890996000046,5.014473589000033],[28.77969140500005,4.996517942000025],[28.876651897000045,4.88160180400007],[28.864082944000074,4.716409855000052],[28.923336578000033,4.662542915000074],[28.908972061000043,4.578151376000051],[28.941146228000036,4.477380895000067],[29.036368289000052,4.492830248000075],[29.08520278900005,4.462566747000039],[29.079700289000073,4.432646997000063],[29.137003289000063,4.434484747000056],[29.225988414000028,4.340340997000055],[29.269191539000076,4.397729997000056],[29.346247539000046,4.398052372000052],[29.365269789000024,4.47091712200006],[29.444905164000033,4.514281373000074],[29.46941539900007,4.58423958700007],[29.42968581200006,4.640996139000038],[29.43327694100003,4.709227597000051],[29.366841049000072,4.782845748000057],[29.39736564800006,4.827734864000035],[29.391978954000024,4.93187761400003],[29.359658790000026,4.973175602000026],[29.393774519000033,5.010882460000062],[29.356067661000054,5.08629617500003],[29.384796696000024,5.195825620000051],[29.372227743000053,5.299968370000045],[29.314769674000047,5.434635719000028],[29.354272096000045,5.517231694000031],[29.318360803000076,5.608805491000055],[29.335916875000066,5.692196832000036],[29.014906232000044,5.715126164000026],[28.89667856600005,5.776087304000043]]]},"properties":{"shapeName":"Ibba","shapeISO":"","shapeID":"79223893B81466867971410","shapeGroup":"SSD","shapeType":"ADM2"}},
{"type":"Feature","geometry":{"type":"Polygon","coordinates":[[[28.572748260000026,6.074951272000021],[28.511254489000066,6.015725333000034],[28.47758765100008,5.901258086000041],[28.486565475000077,5.809235397000066],[28.416987344000063,5.688034782000045],[28.264364348000072,5.571323079000024],[28.17683057100004,5.420944539000061],[28.235186422000027,5.313210659000049],[28.30252009700007,5.263832631000071],[28.28456445000006,5.12243191400006],[28.32272019900006,5.066320518000055],[28.29803118500007,4.99674238800003],[28.29803118500007,4.702718675000028],[28.349653669000077,4.68476302800002],[28.273342171000024,4.586006972000064],[28.32496465500003,4.550095679000037],[28.291297818000032,4.464806357000043],[28.354142581000076,4.401961594000056],[28.35728652800003,4.348657904000049],[28.380636664000065,4.28336887200004],[28.454186164000077,4.286883122000063],[28.51091703900005,4.381141872000057],[28.672885164000036,4.432550997000021],[28.725483289000067,4.547999998000023],[28.793831539000053,4.572367623000048],[28.830680164000057,4.555785748000062],[28.844813414000043,4.484552747000066],[28.941146228000036,4.477380895000067],[28.908972061000043,4.578151376000051],[28.923336578000033,4.662542915000074],[28.864082944000074,4.716409855000052],[28.876651897000045,4.88160180400007],[28.77969140500005,4.996517942000025],[28.698890996000046,5.014473589000033],[28.592952681000043,5.206599008000069],[28.65041075000005,5.504662741000061],[28.78148697000006,5.601623233000055],[28.89667856600005,5.776087304000043],[28.819746851000048,5.815755220000028],[28.65508112400005,6.059704446000069],[28.572748260000026,6.074951272000021]]]},"properties":{"shapeName":"Yambio","shapeISO":"","shapeID":"79223893B76948069319823","shapeGroup":"SSD","shapeType":"ADM2"}},
{"type":"Feature","geometry":{"type":"Polygon","coordinates":[[[28.49343033300005,6.274710522000021],[28.441676358000052,6.244659827000021],[28.356387037000047,6.25363765000003],[28.230697511000074,6.139170403000037],[28.230697511000074,6.101014654000039],[28.10276352900007,5.94614720200002],[28.10276352900007,5.876569071000063],[28.037674310000057,5.845146690000036],[28.069096691000027,5.697012605000054],[28.033185398000057,5.636412298000039],[28.060118868000075,5.508478316000037],[28.028696487000047,5.483789302000048],[28.087052338000035,5.447878009000021],[28.057874412000047,5.380544334000035],[28.109496896000053,5.360344232000045],[28.13643036600007,5.209965691000036],[28.18131948200005,5.203232324000055],[28.17683057100004,5.13814310500004],[28.221719687000075,5.104476267000052],[28.199275129000057,4.983275653000021],[28.060118868000075,4.880030685000065],[27.943407165000053,4.855341671000076],[27.768705417000035,4.686805867000032],[27.794454289000043,4.614193248000049],[27.873446414000057,4.555023123000069],[27.93764603900007,4.549845748000052],[27.946817289000023,4.575288873000034],[28.04377041400005,4.555476498000075],[28.03943128900005,4.475635747000069],[28.07891778900006,4.417924747000029],[28.14380191400005,4.441532497000026],[28.137186539000027,4.40366874700004],[28.20606291400003,4.351857247000055],[28.35728652800003,4.348657904000049],[28.354142581000076,4.401961594000056],[28.291297818000032,4.464806357000043],[28.32496465500003,4.550095679000037],[28.273342171000024,4.586006972000064],[28.349653669000077,4.68476302800002],[28.29803118500007,4.702718675000028],[28.29803118500007,4.99674238800003],[28.32272019900006,5.066320518000055],[28.28456445000006,5.12243191400006],[28.30252009700007,5.263832631000071],[28.235186422000027,5.313210659000049],[28.17683057100004,5.420944539000061],[28.264364348000072,5.571323079000024],[28.416987344000063,5.688034782000045],[28.486565475000077,5.809235397000066],[28.47758765100008,5.901258086000041],[28.511254489000066,6.015725333000034],[28.572748260000026,6.074951272000021],[28.52395841500004,6.251814461000038],[28.49343033300005,6.274710522000021]]]},"properties":{"shapeName":"Nzara","shapeISO":"","shapeID":"79223893B44878437184267","shapeGroup":"SSD","shapeType":"ADM2"}},
{"type":"Feature","geometry":{"type":"Polygon","coordinates":[[[30.30394139300006,6.081249592000063],[30.19196124800004,6.093247464000058],[30.20720807400005,6.157284136000044],[30.121825845000046,6.35244351700004],[29.967496049000033,6.363667502000055],[29.899222176000023,6.312801768000043],[29.91141963800004,6.254863827000065],[29.871777889000043,6.264011923000055],[29.856531062000045,6.312801768000043],[29.79249439000006,6.309752402000072],[29.789445025000077,6.084099368000068],[29.63087802800004,5.974322217000065],[29.576993354000024,5.710287313000038],[29.617501876000063,5.67578005300004],[29.843884417000027,5.651575631000071],[29.945012870000028,5.557991012000059],[30.04556449100005,5.53788068700004],[30.048437394000075,5.593902305000029],[30.157607725000048,5.632686501000023],[30.27970612200005,5.612576177000051],[30.261032250000028,5.695890378000058],[30.34003709500007,5.667161343000032],[30.594595390000052,5.801069613000038],[30.30394139300006,6.081249592000063]]]},"properties":{"shapeName":"Mvolo","shapeISO":"","shapeID":"79223893B56262288593012","shapeGroup":"SSD","shapeType":"ADM2"}},
{"type":"Feature","geometry":{"type":"Polygon","coordinates":[[[28.49651412700007,6.497898243000066],[28.496328160000076,6.518540565000023],[28.416987344000063,6.498283335000053],[28.320475744000078,6.379327176000061],[28.069096691000027,6.24914873900002],[27.793028625000034,6.150392682000074],[27.858275793000075,6.017793600000061],[27.81996209500005,5.948391658000048],[27.862606756000048,5.890035806000071],[27.85362893200005,5.800257573000067],[27.968096179000042,5.661101312000028],[27.894029137000075,5.463589200000058],[27.68753920100005,5.432166818000042],[27.478804810000042,5.349121952000075],[27.25768935600007,5.347035958000049],[27.33433953900004,5.213712248000036],[27.45698728900004,5.096879123000065],[27.442912414000034,5.020360248000031],[27.48822953900003,4.96984737300005],[27.558744414000046,4.897025873000075],[27.679083164000076,4.876078248000056],[27.707442789000027,4.789996248000023],[27.760418164000043,4.788288998000041],[27.768705417000035,4.686805867000032],[27.943407165000053,4.855341671000076],[28.060118868000075,4.880030685000065],[28.199275129000057,4.983275653000021],[28.221719687000075,5.104476267000052],[28.17683057100004,5.13814310500004],[28.18131948200005,5.203232324000055],[28.13643036600007,5.209965691000036],[28.109496896000053,5.360344232000045],[28.057874412000047,5.380544334000035],[28.087052338000035,5.447878009000021],[28.028696487000047,5.483789302000048],[28.060118868000075,5.508478316000037],[28.033185398000057,5.636412298000039],[28.069096691000027,5.697012605000054],[28.037674310000057,5.845146690000036],[28.10276352900007,5.876569071000063],[28.10276352900007,5.94614720200002],[28.230697511000074,6.101014654000039],[28.230697511000074,6.139170403000037],[28.356387037000047,6.25363765000003],[28.441676358000052,6.244659827000021],[28.49343033300005,6.274710522000021],[28.462971108000033,6.297554941000044],[28.49956349200005,6.367690344000039],[28.46602047300007,6.486615591000032],[28.49651412700007,6.497898243000066]]]},"properties":{"shapeName":"Ezo","shapeISO":"","shapeID":"79223893B74346966367837","shapeGroup":"SSD","shapeType":"ADM2"}},
{"type":"Feature","geometry":{"type":"Polygon","coordinates":[[[26.456332090000046,6.653786385000046],[26.415452386000027,6.649802008000052],[26.288841543000046,6.48262624900002],[26.311032543000067,6.374153374000059],[26.47775666700005,6.284367624000026],[26.47568804200006,6.224108249000039],[26.532102792000046,6.226829749000046],[26.51991266700003,6.161343374000069],[26.447339167000052,6.072894374000043],[26.51622741700004,6.114000499000042],[26.56612166700006,6.032638749000057],[26.82339866600006,5.989274124000076],[26.835494416000074,5.896531124000035],[26.921675540000024,5.901066999000022],[27.068334540000023,5.795744499000023],[27.103411790000052,5.810259249000069],[27.162680290000026,5.773972499000024],[27.22376304000005,5.700945249000029],[27.23676579000005,5.600914748000037],[27.293010414000037,5.596681248000039],[27.241604040000027,5.451080498000067],[27.25768935600007,5.347035958000049],[27.478804810000042,5.349121952000075],[27.68753920100005,5.432166818000042],[27.894029137000075,5.463589200000058],[27.968096179000042,5.661101312000028],[27.85362893200005,5.800257573000067],[27.862606756000048,5.890035806000071],[27.81996209500005,5.948391658000048],[27.858275793000075,6.017793600000061],[27.227425758000038,6.159370505000027],[27.079291674000046,6.54092799600005],[27.083624704000044,6.714926016000049],[26.456332090000046,6.653786385000046]]]},"properties":{"shapeName":"Tambura","shapeISO":"","shapeID":"79223893B47853667167464","shapeGroup":"SSD","shapeType":"ADM2"}},
{"type":"Feature","geometry":{"type":"Polygon","coordinates":[[[28.49414318600003,6.761072710000064],[28.032362441000032,6.747660405000033],[27.93238154200003,6.797650855000029],[27.083624704000044,6.714926016000049],[27.079291674000046,6.54092799600005],[27.227425758000038,6.159370505000027],[27.858275793000075,6.017793600000061],[27.793028625000034,6.150392682000074],[28.069096691000027,6.24914873900002],[28.320475744000078,6.379327176000061],[28.416987344000063,6.498283335000053],[28.496328160000076,6.518540565000023],[28.49414318600003,6.761072710000064]]]},"properties":{"shapeName":"Nagero","shapeISO":"","shapeID":"79223893B92049236674471","shapeGroup":"SSD","shapeType":"ADM2"}},
{"type":"Feature","geometry":{"type":"Polygon","coordinates":[[[32.11441839200006,5.850045157000068],[32.51949047800008,5.851466225000024],[32.511969599000054,6.11720394200006],[32.45340607000003,6.151109144000031],[32.38867795800007,6.376116388000071],[32.404089414000055,6.462420537000071],[32.48422898000007,6.508654902000046],[32.47806439800007,6.77989651200005],[32.53354563600004,6.893941280000035],[32.50272272600006,6.964833973000054],[32.632178949000036,7.066549577000046],[32.58286229300006,7.091207905000033],[32.56128625600007,7.069631868000045],[32.15442384100004,7.09737248700003],[32.11435405800006,7.054220413000053],[31.789650271000028,7.019133845000056],[31.59652916600004,6.804554840000037],[31.439332324000077,6.782978803000049],[31.322205265000036,6.678180908000058],[31.312705187000063,6.609780341000032],[31.377831358000037,6.504231029000039],[31.69731703700006,5.872752680000076],[32.11441839200006,5.850045157000068]]]},"properties":{"shapeName":"Bor South","shapeISO":"","shapeID":"79223893B93297305003737","shapeGroup":"SSD","shapeType":"ADM2"}},
{"type":"Feature","geometry":{"type":"Polygon","coordinates":[[[33.73477741800008,5.779592446000038],[34.14426397600005,5.720879300000036],[35.01172664200004,6.008191775000057],[34.96337217000007,6.121291874000065],[34.958468295000046,6.243770624000035],[35.013344295000024,6.470397374000072],[34.89051529400007,6.600231874000031],[34.76721929400003,6.596612374000074],[34.65144216900006,6.734433125000066],[34.550413169000024,6.736664125000061],[34.53889154400008,6.759718472000031],[34.324356719000036,6.724415273000034],[34.287369227000056,6.672016326000062],[33.83119015600005,6.782978803000049],[33.76337975300004,6.736744437000027],[33.61234749300007,6.727497564000032],[33.52912563600006,6.81688400400003],[33.593853747000026,6.952504809000061],[33.56919541900004,6.99257459200004],[33.44590377800006,6.961751682000056],[33.22706111600007,7.054220413000053],[33.21596486800007,7.192923508000035],[33.04520594600007,7.229911001000062],[32.961984088000065,7.37477867900003],[32.93732576000008,7.35628493300004],[32.770882045000064,7.399437007000074],[32.699989351000056,7.279227657000035],[32.58286229300006,7.229911001000062],[32.58286229300006,7.091207905000033],[32.632178949000036,7.066549577000046],[32.50272272600006,6.964833973000054],[32.53354563600004,6.893941280000035],[32.47806439800007,6.77989651200005],[32.48422898000007,6.508654902000046],[32.404089414000055,6.462420537000071],[32.38867795800007,6.376116388000071],[32.45340607000003,6.151109144000031],[32.511969599000054,6.11720394200006],[32.51949047800008,5.851466225000024],[33.31159691000005,5.840269063000051],[33.73477741800008,5.779592446000038]]]},"properties":{"shapeName":"Pibor","shapeISO":"","shapeID":"79223893B32810285770131","shapeGroup":"SSD","shapeType":"ADM2"}},
{"type":"Feature","geometry":{"type":"Polygon","coordinates":[[[31.312705187000063,6.609780341000032],[31.322205265000036,6.678180908000058],[31.439332324000077,6.782978803000049],[31.59652916600004,6.804554840000037],[31.789650271000028,7.019133845000056],[31.725985389000073,7.202170382000077],[31.716738516000078,7.347038060000045],[31.667421860000047,7.448753663000048],[31.306793810000045,7.393272425000021],[31.131103222000036,7.300803694000024],[31.100280312000052,7.319297440000071],[30.690311525000027,7.284652191000021],[30.706206216000055,7.213848563000056],[31.19085201200005,6.807266520000042],[31.312705187000063,6.609780341000032]]]},"properties":{"shapeName":"Twic East","shapeISO":"","shapeID":"79223893B26459782826909","shapeGroup":"SSD","shapeType":"ADM2"}},
{"type":"Feature","geometry":{"type":"Polygon","coordinates":[[[34.53889154400008,6.759718472000031],[34.508567794000044,6.883863125000062],[34.457466544000056,6.922984625000026],[34.38252866900007,6.912001875000044],[34.293556419000026,6.947257125000021],[34.30623516900005,6.977952500000072],[34.195464919000074,7.038787125000056],[34.19034891900003,7.131874125000024],[34.02152441900006,7.246537],[34.036848544000065,7.357665750000024],[33.94438404400006,7.472390250000046],[33.949125794000054,7.510324375000039],[33.86825216900007,7.519281],[33.83163529300003,7.581846125000027],[33.67199566800008,7.700548375000039],[33.580321543000025,7.690274500000044],[33.49388587400006,7.737225748000071],[33.52912563600006,7.587456759000077],[33.467479816000036,7.430259917000058],[33.48597356200003,7.390190134000022],[33.40891628600008,7.371696388000032],[33.36884650300004,7.297721403000025],[33.257884026000056,7.26998078400004],[33.28870693600004,7.236075583000058],[33.257884026000056,7.192923508000035],[33.21596486800007,7.192923508000035],[33.22706111600007,7.054220413000053],[33.44590377800006,6.961751682000056],[33.56919541900004,6.99257459200004],[33.593853747000026,6.952504809000061],[33.52912563600006,6.81688400400003],[33.61234749300007,6.727497564000032],[33.76337975300004,6.736744437000027],[33.83119015600005,6.782978803000049],[34.287369227000056,6.672016326000062],[34.324356719000036,6.724415273000034],[34.53889154400008,6.759718472000031]]]},"properties":{"shapeName":"Pochalla","shapeISO":"","shapeID":"79223893B22691287422318","shapeGroup":"SSD","shapeType":"ADM2"}},
{"type":"Feature","geometry":{"type":"Polygon","coordinates":[[[30.690311525000027,7.284652191000021],[31.100280312000052,7.319297440000071],[31.131103222000036,7.300803694000024],[31.306793810000045,7.393272425000021],[31.667421860000047,7.448753663000048],[31.71365622500008,7.504234902000064],[31.722903098000074,7.673760908000077],[31.759890590000055,7.716912982000053],[31.74756142600006,7.753900474000034],[31.707491643000026,7.763147347000029],[31.72906768000007,7.929591062000043],[31.600093693000076,8.037069385000052],[31.359192758000063,7.938837935000038],[31.282135482000058,7.834040041000037],[30.958494925000025,7.812464004000049],[30.674924151000027,7.695336945000065],[30.51708576900006,7.705201844000044],[30.50779417900003,7.656209827000055],[30.67042699700005,7.373228725000047],[30.690311525000027,7.284652191000021]]]},"properties":{"shapeName":"Duk","shapeISO":"","shapeID":"79223893B68171722755013","shapeGroup":"SSD","shapeType":"ADM2"}},
{"type":"Feature","geometry":{"type":"Polygon","coordinates":[[[32.58286229300006,7.091207905000033],[32.58286229300006,7.229911001000062],[32.699989351000056,7.279227657000035],[32.770882045000064,7.399437007000074],[32.76163517200007,7.445671372000049],[32.616767494000044,7.464165118000039],[32.62601436700004,7.55046926700004],[32.56745083800007,7.590539050000075],[32.632178949000036,7.695336945000065],[32.58902687500006,7.898768152000059],[32.41333628700005,7.911097316000053],[32.34860817500004,7.880274406000069],[32.351690466000036,7.923426480000046],[32.23764569800005,8.114528524000036],[32.16983529600003,8.10836394200004],[32.123600931000055,8.037471248000031],[32.08044885600003,8.062129576000075],[32.06503740100004,8.160762889000068],[32.108189476000064,8.324124313000027],[32.08661343800003,8.34878264100007],[31.99414470800008,8.339535768000076],[31.98181554400003,8.259396201000072],[31.901675977000025,8.237820164000027],[31.90784055900008,8.268643075000057],[31.821536411000068,8.351864932000069],[31.70755913800008,8.347968946000037],[31.531801055000074,8.142269143000021],[31.525636473000077,8.099117068000055],[31.600093693000076,8.037069385000052],[31.72906768000007,7.929591062000043],[31.707491643000026,7.763147347000029],[31.74756142600006,7.753900474000034],[31.759890590000055,7.716912982000053],[31.722903098000074,7.673760908000077],[31.71365622500008,7.504234902000064],[31.667421860000047,7.448753663000048],[31.716738516000078,7.347038060000045],[31.725985389000073,7.202170382000077],[31.789650271000028,7.019133845000056],[32.11435405800006,7.054220413000053],[32.15442384100004,7.09737248700003],[32.56128625600007,7.069631868000045],[32.58286229300006,7.091207905000033]]]},"properties":{"shapeName":"Uror","shapeISO":"","shapeID":"79223893B11973303944142","shapeGroup":"SSD","shapeType":"ADM2"}},
{"type":"Feature","geometry":{"type":"Polygon","coordinates":[[[33.21596486800007,7.192923508000035],[33.257884026000056,7.192923508000035],[33.28870693600004,7.236075583000058],[33.257884026000056,7.26998078400004],[33.36884650300004,7.297721403000025],[33.40891628600008,7.371696388000032],[33.48597356200003,7.390190134000022],[33.467479816000036,7.430259917000058],[33.52912563600006,7.587456759000077],[33.49388587400006,7.737225748000071],[33.426116543000035,7.756790876000025],[33.323253168000065,7.707671251000022],[33.23374854300005,7.782943501000034],[33.046416168000064,7.790188001000047],[33.000071168000034,7.873845501000062],[32.99966541800006,7.941519626000058],[33.03565304500006,7.98798077400005],[32.83019081100008,7.98798077400005],[32.927770502000044,8.277467189000049],[32.644789400000036,8.43684735000005],[32.635261240000034,8.305630567000037],[32.493475853000064,8.216244127000039],[32.42566545100004,8.31795973100003],[32.39792483100007,8.293301403000044],[32.373266503000025,8.43816908100007],[32.277715482000076,8.419675335000022],[32.212987370000064,8.354947223000067],[32.16983529600003,8.10836394200004],[32.23764569800005,8.114528524000036],[32.351690466000036,7.923426480000046],[32.34860817500004,7.880274406000069],[32.41333628700005,7.911097316000053],[32.58902687500006,7.898768152000059],[32.632178949000036,7.695336945000065],[32.56745083800007,7.590539050000075],[32.62601436700004,7.55046926700004],[32.616767494000044,7.464165118000039],[32.76163517200007,7.445671372000049],[32.770882045000064,7.399437007000074],[32.93732576000008,7.35628493300004],[32.961984088000065,7.37477867900003],[33.04520594600007,7.229911001000062],[33.21596486800007,7.192923508000035]]]},"properties":{"shapeName":"Akobo","shapeISO":"","shapeID":"79223893B55602707979350","shapeGroup":"SSD","shapeType":"ADM2"}},
{"type":"Feature","geometry":{"type":"Polygon","coordinates":[[[30.51708576900006,7.705201844000044],[30.674924151000027,7.695336945000065],[30.958494925000025,7.812464004000049],[31.282135482000058,7.834040041000037],[31.359192758000063,7.938837935000038],[31.600093693000076,8.037069385000052],[31.525636473000077,8.099117068000055],[31.531801055000074,8.142269143000021],[31.70755913800008,8.347968946000037],[31.655092696000054,8.481321155000046],[31.544130219000067,8.499814901000036],[31.491731272000038,8.564543013000048],[31.525636473000077,8.675505489000045],[31.497895854000035,8.681670071000042],[31.506670099000075,8.77526202200005],[31.112609476000046,8.84194920400006],[31.044799074000025,8.848113786000056],[30.795133501000066,8.700163817000032],[30.29732053400005,8.582108445000074],[30.284661954000057,8.557846166000047],[30.356285504000027,8.480917168000076],[30.332150736000074,8.111581715000057],[30.384193238000023,8.114834372000075],[30.46452557300006,7.978761233000057],[30.543573399000024,7.84486389500006],[30.51708576900006,7.705201844000044]]]},"properties":{"shapeName":"Ayod","shapeISO":"","shapeID":"79223893B14285446390064","shapeGroup":"SSD","shapeType":"ADM2"}},
{"type":"Feature","geometry":{"type":"Polygon","coordinates":[[[32.16983529600003,8.10836394200004],[32.212987370000064,8.354947223000067],[32.277715482000076,8.419675335000022],[32.373266503000025,8.43816908100007],[32.39792483100007,8.293301403000044],[32.42566545100004,8.31795973100003],[32.493475853000064,8.216244127000039],[32.635261240000034,8.305630567000037],[32.644789400000036,8.43684735000005],[32.52118845800004,8.901977208000062],[32.41059814300007,8.927998459000037],[32.42686142400004,9.02232549300004],[32.39108220500003,9.097136589000058],[32.25772329400007,8.927998459000037],[32.09183782100007,8.833671425000034],[31.981247505000056,8.713323140000057],[31.851141251000058,8.82391345600007],[31.832179186000076,8.876222601000052],[31.506670099000075,8.77526202200005],[31.497895854000035,8.681670071000042],[31.525636473000077,8.675505489000045],[31.491731272000038,8.564543013000048],[31.544130219000067,8.499814901000036],[31.655092696000054,8.481321155000046],[31.70755913800008,8.347968946000037],[31.821536411000068,8.351864932000069],[31.90784055900008,8.268643075000057],[31.901675977000025,8.237820164000027],[31.98181554400003,8.259396201000072],[31.99414470800008,8.339535768000076],[32.08661343800003,8.34878264100007],[32.108189476000064,8.324124313000027],[32.06503740100004,8.160762889000068],[32.08044885600003,8.062129576000075],[32.123600931000055,8.037471248000031],[32.16983529600003,8.10836394200004]]]},"properties":{"shapeName":"Nyirol","shapeISO":"","shapeID":"79223893B2194918447747","shapeGroup":"SSD","shapeType":"ADM2"}},
{"type":"Feature","geometry":{"type":"Polygon","coordinates":[[[31.506670099000075,8.77526202200005],[31.832179186000076,8.876222601000052],[31.756814217000056,9.084125964000066],[31.815362031000063,9.145926434000046],[31.78283546700004,9.276032688000043],[31.620202650000067,9.292295970000055],[31.545391554000048,9.386623004000057],[31.457569833000036,9.341085815000042],[31.17846957900008,9.424815891000037],[31.075621984000065,9.341280350000034],[31.14343238600003,9.113190814000063],[31.091033439000057,9.01455750100007],[31.17425529600007,8.903595025000072],[31.112609476000046,8.84194920400006],[31.506670099000075,8.77526202200005]]]},"properties":{"shapeName":"Canal/Pigi","shapeISO":"","shapeID":"79223893B17498067697092","shapeGroup":"SSD","shapeType":"ADM2"}},
{"type":"Feature","geometry":{"type":"Polygon","coordinates":[[[30.29732053400005,8.582108445000074],[30.795133501000066,8.700163817000032],[31.044799074000025,8.848113786000056],[31.112609476000046,8.84194920400006],[31.17425529600007,8.903595025000072],[31.091033439000057,9.01455750100007],[31.14343238600003,9.113190814000063],[31.075621984000065,9.341280350000034],[31.17846957900008,9.424815891000037],[30.937144817000046,9.497213320000071],[30.75600914200004,9.49297329600006],[30.50584258500004,9.517379789000074],[30.393732814000032,9.38618750300003],[30.35296773700003,9.338483690000032],[30.391999613000053,9.185608842000022],[30.20985085800004,8.964428210000051],[30.220862811000075,8.917627409000033],[30.261893359000055,8.743247578000023],[30.235872108000024,8.707468358000028],[30.323693830000025,8.632657262000066],[30.29732053400005,8.582108445000074]]]},"properties":{"shapeName":"Fangak","shapeISO":"","shapeID":"79223893B14796875108361","shapeGroup":"SSD","shapeType":"ADM2"}},
{"type":"Feature","geometry":{"type":"Polygon","coordinates":[[[33.03565304500006,7.98798077400005],[33.08497041800007,8.074371376000045],[33.120743418000075,8.06227675100007],[33.11972141800004,8.110485126000071],[33.193754668000054,8.131523126000047],[33.16649891800006,8.196255251000025],[33.20567904300003,8.236678751000056],[33.169906043000026,8.295278501000041],[33.21811429300004,8.343691376000038],[33.18677041800004,8.384063751000042],[33.220189910000045,8.43451643800006],[33.03442109100007,8.447042991000046],[33.01176368400007,8.594316139000057],[32.989106277000076,8.585253176000037],[32.96871461000006,8.644162436000045],[32.989106277000076,8.67361706500003],[32.841833128000076,8.886596695000037],[32.873553499000025,8.911519844000054],[32.784261711000056,9.11584266400007],[32.42946831300003,9.08824762200004],[32.42686142400004,9.02232549300004],[32.41059814300007,8.927998459000037],[32.52118845800004,8.901977208000062],[32.644789400000036,8.43684735000005],[32.927770502000044,8.277467189000049],[32.83019081100008,7.98798077400005],[33.03565304500006,7.98798077400005]]]},"properties":{"shapeName":"Ulang","shapeISO":"","shapeID":"79223893B95619836669451","shapeGroup":"SSD","shapeType":"ADM2"}},
{"type":"Feature","geometry":{"type":"Polygon","coordinates":[[[34.134805680000056,9.197925587000043],[33.96337479600004,9.20153465900006],[34.00642387000005,8.972694844000046],[33.875010907000046,8.89792539900003],[33.69148590700007,8.884330955000053],[33.66429701800007,8.841281880000054],[33.60765349900004,8.836750399000039],[33.471709055000076,8.954568918000064],[33.486310495000055,8.868722518000027],[33.537415536000026,8.696274473000074],[33.521555351000075,8.594316139000057],[33.64843683300006,8.515015213000027],[33.64053731800004,8.46235178400002],[33.676114418000054,8.445820751000042],[33.69988554300005,8.378184876000034],[33.77795991800008,8.366453126000067],[33.896892294000054,8.483566001000042],[34.02329379400004,8.49017337600003],[34.080595919000075,8.635274751000054],[34.14693266900008,8.645342751000044],[34.134805680000056,9.197925587000043]]]},"properties":{"shapeName":"Maiwut","shapeISO":"","shapeID":"79223893B33528845536299","shapeGroup":"SSD","shapeType":"ADM2"}},
{"type":"Feature","geometry":{"type":"Polygon","coordinates":[[[33.220189910000045,8.43451643800006],[33.313601918000074,8.467617001000065],[33.39691629300006,8.426274501000023],[33.497124668000026,8.480691251000053],[33.59750079300005,8.44291650100007],[33.64053731800004,8.46235178400002],[33.64843683300006,8.515015213000027],[33.521555351000075,8.594316139000057],[33.537415536000026,8.696274473000074],[33.486310495000055,8.868722518000027],[33.42186275900008,8.852610584000047],[33.21568035100006,9.119967992000056],[33.13864516600006,9.135828177000064],[33.00949794300004,9.378262437000046],[32.959651647000044,9.378262437000046],[32.875819239000066,9.344276326000056],[32.83730164700006,9.119967992000056],[32.784261711000056,9.11584266400007],[32.873553499000025,8.911519844000054],[32.841833128000076,8.886596695000037],[32.989106277000076,8.67361706500003],[32.96871461000006,8.644162436000045],[32.989106277000076,8.585253176000037],[33.01176368400007,8.594316139000057],[33.03442109100007,8.447042991000046],[33.220189910000045,8.43451643800006]]]},"properties":{"shapeName":"Luakpiny/Nasir","shapeISO":"","shapeID":"79223893B70748738440916","shapeGroup":"SSD","shapeType":"ADM2"}},
{"type":"Feature","geometry":{"type":"Polygon","coordinates":[[[34.134805680000056,9.197925587000043],[34.10887641900007,9.498854752000057],[33.89957029400006,9.49863625200004],[33.85235350000005,9.511941141000023],[33.92938868500005,9.42357725200003],[33.875010907000046,9.412248548000036],[33.841024796000056,9.35333928800003],[33.66429701800007,9.339744844000052],[33.60991924000007,9.382793918000061],[33.59632479600003,9.464360585000065],[33.50116368500005,9.534598548000076],[33.37881368400008,9.514206881000064],[33.29951275800005,9.543661511000039],[33.16583405500006,9.634291141000062],[32.99816923900005,9.695466141000054],[32.99816923900005,9.770235585000023],[32.959651647000044,9.767969845000039],[32.91433683200006,9.68187169600003],[32.96418312800006,9.588976326000022],[32.943791462000036,9.471157807000054],[32.98230905400004,9.416780029000051],[32.959651647000044,9.378262437000046],[33.00949794300004,9.378262437000046],[33.13864516600006,9.135828177000064],[33.21568035100006,9.119967992000056],[33.42186275900008,8.852610584000047],[33.486310495000055,8.868722518000027],[33.471709055000076,8.954568918000064],[33.60765349900004,8.836750399000039],[33.66429701800007,8.841281880000054],[33.69148590700007,8.884330955000053],[33.875010907000046,8.89792539900003],[34.00642387000005,8.972694844000046],[33.96337479600004,9.20153465900006],[34.134805680000056,9.197925587000043]]]},"properties":{"shapeName":"Longochuk","shapeISO":"","shapeID":"79223893B31888405901503","shapeGroup":"SSD","shapeType":"ADM2"}},
{"type":"Feature","geometry":{"type":"Polygon","coordinates":[[[30.75600914200004,9.49297329600006],[30.937144817000046,9.497213320000071],[31.17846957900008,9.424815891000037],[31.457569833000036,9.341085815000042],[31.545391554000048,9.386623004000057],[31.620202650000067,9.292295970000055],[31.78283546700004,9.276032688000043],[31.815362031000063,9.145926434000046],[31.756814217000056,9.084125964000066],[31.832179186000076,8.876222601000052],[31.958194238000033,8.877533732000074],[32.06694979400004,8.95003743600006],[32.01030627500006,9.099576325000044],[32.01030627500006,9.192471696000041],[32.07601275700006,9.274038362000056],[31.865298868000025,9.339744844000052],[31.87209609000007,9.366933733000053],[31.70343975700007,9.473886529000026],[31.643256275000056,9.446234659000027],[31.58661275600008,9.530067066000072],[31.61153590500004,9.566318918000036],[31.552626645000032,9.607102252000061],[31.593409979000057,9.63882262200002],[31.591144238000027,9.702263363000043],[31.50957757100008,9.781564289000073],[31.36599571000005,9.819852785000023],[31.274713416000054,9.758305502000042],[30.892627541000024,9.748591377000025],[30.82732766600003,9.71890925200006],[30.846070439000073,9.653340824000054],[30.761501374000034,9.611056292000058],[30.75600914200004,9.49297329600006]]]},"properties":{"shapeName":"Panyikang","shapeISO":"","shapeID":"79223893B85148589397174","shapeGroup":"SSD","shapeType":"ADM2"}},
{"type":"Feature","geometry":{"type":"Polygon","coordinates":[[[31.70343975700007,9.473886529000026],[31.736151645000064,9.575381881000055],[31.867564609000055,9.672808733000068],[31.73162016400005,9.699997622000069],[31.607004423000035,9.790627252000036],[31.468794238000044,9.833676326000045],[31.42639637800005,9.898903803000053],[31.36599571000005,9.819852785000023],[31.50957757100008,9.781564289000073],[31.591144238000027,9.702263363000043],[31.593409979000057,9.63882262200002],[31.552626645000032,9.607102252000061],[31.61153590500004,9.566318918000036],[31.58661275600008,9.530067066000072],[31.643256275000056,9.446234659000027],[31.70343975700007,9.473886529000026]]]},"properties":{"shapeName":"Malakal","shapeISO":"","shapeID":"79223893B90064315418203","shapeGroup":"SSD","shapeType":"ADM2"}},
{"type":"Feature","geometry":{"type":"Polygon","coordinates":[[[32.42686142400004,9.02232549300004],[32.42946831300003,9.08824762200004],[32.784261711000056,9.11584266400007],[32.83730164700006,9.119967992000056],[32.875819239000066,9.344276326000056],[32.959651647000044,9.378262437000046],[32.98230905400004,9.416780029000051],[32.943791462000036,9.471157807000054],[32.96418312800006,9.588976326000022],[32.91433683200006,9.68187169600003],[32.959651647000044,9.767969845000039],[32.99816923900005,9.770235585000023],[32.95703141900003,10.060257217000071],[32.839567387000045,10.06251614100006],[32.796518313000036,10.101033734000055],[32.753469239000026,10.069313363000049],[32.764797943000076,9.990012437000075],[32.687762758000076,9.94922910400004],[32.64471368400007,10.017201326000077],[32.59486738700008,10.005872623000073],[32.547286832000054,9.90844577100006],[32.38868498000005,9.892585585000063],[32.32750997900007,9.965089289000048],[32.194707410000035,9.977347988000076],[31.962725720000037,9.756641141000046],[31.969522942000026,9.713592067000036],[31.90381646000003,9.736249474000033],[31.867564609000055,9.672808733000068],[31.736151645000064,9.575381881000055],[31.70343975700007,9.473886529000026],[31.87209609000007,9.366933733000053],[31.865298868000025,9.339744844000052],[32.07601275700006,9.274038362000056],[32.01030627500006,9.192471696000041],[32.01030627500006,9.099576325000044],[32.06694979400004,8.95003743600006],[31.958194238000033,8.877533732000074],[31.832179186000076,8.876222601000052],[31.851141251000058,8.82391345600007],[31.981247505000056,8.713323140000057],[32.09183782100007,8.833671425000034],[32.25772329400007,8.927998459000037],[32.39108220500003,9.097136589000058],[32.42686142400004,9.02232549300004]]]},"properties":{"shapeName":"Baliet","shapeISO":"","shapeID":"79223893B13684678916358","shapeGroup":"SSD","shapeType":"ADM2"}},
{"type":"Feature","geometry":{"type":"Polygon","coordinates":[[[31.867564609000055,9.672808733000068],[31.90381646000003,9.736249474000033],[31.969522942000026,9.713592067000036],[31.962725720000037,9.756641141000046],[32.194707410000035,9.977347988000076],[32.288992387000064,10.123691141000052],[32.09640442400007,10.180334660000028],[32.08280997900005,10.148614289000022],[31.962725720000037,10.221117993000064],[31.81998405300004,10.25283836400007],[31.788677633000077,10.303711297000063],[31.42639637800005,9.898903803000053],[31.468794238000044,9.833676326000045],[31.607004423000035,9.790627252000036],[31.73162016400005,9.699997622000069],[31.867564609000055,9.672808733000068]]]},"properties":{"shapeName":"Fashoda","shapeISO":"","shapeID":"79223893B4456195620437","shapeGroup":"SSD","shapeType":"ADM2"}},
{"type":"Feature","geometry":{"type":"Polygon","coordinates":[[[32.95703141900003,10.060257217000071],[33.00270072100005,10.166740215000061],[32.95937651600008,10.345944881000037],[32.86222479500003,10.420503179000036],[32.86449053600006,10.477146697000023],[32.91207109100003,10.46581799300003],[32.918868313000075,10.524727253000037],[32.86902201700008,10.610825401000056],[32.90300812800007,10.649342994000051],[32.89621090600008,10.721846697000046],[32.74440627600006,10.80341336400005],[32.467985906000024,10.848728179000034],[32.37282479400005,10.798881883000035],[32.11453035000005,10.538321697000072],[32.134922016000075,10.43183188200004],[32.23234886800003,10.436363364000044],[32.25953775700003,10.386517067000057],[32.288992387000064,10.123691141000052],[32.194707410000035,9.977347988000076],[32.32750997900007,9.965089289000048],[32.38868498000005,9.892585585000063],[32.547286832000054,9.90844577100006],[32.59486738700008,10.005872623000073],[32.64471368400007,10.017201326000077],[32.687762758000076,9.94922910400004],[32.764797943000076,9.990012437000075],[32.753469239000026,10.069313363000049],[32.796518313000036,10.101033734000055],[32.839567387000045,10.06251614100006],[32.95703141900003,10.060257217000071]]]},"properties":{"shapeName":"Melut","shapeISO":"","shapeID":"79223893B2646445325724","shapeGroup":"SSD","shapeType":"ADM2"}},
{"type":"Feature","geometry":{"type":"Polygon","coordinates":[[[32.288992387000064,10.123691141000052],[32.25953775700003,10.386517067000057],[32.23234886800003,10.436363364000044],[32.134922016000075,10.43183188200004],[32.11453035000005,10.538321697000072],[32.37282479400005,10.798881883000035],[32.467985906000024,10.848728179000034],[32.667371091000064,11.02772169800005],[32.64471368400007,11.29507910600006],[32.71495164700008,11.571499476000042],[32.78972109100005,11.705178180000075],[32.735343313000044,11.87964021700003],[32.74545579200003,11.947577379000052],[32.106578667000065,11.944997754000042],[32.384502292000036,11.696582754000076],[32.39345154200004,11.219735129000071],[32.47062666700003,11.042722754000067],[32.14736166700004,10.737269378000065],[31.99517429200006,10.653619753000044],[31.788677633000077,10.303711297000063],[31.81998405300004,10.25283836400007],[31.962725720000037,10.221117993000064],[32.08280997900005,10.148614289000022],[32.09640442400007,10.180334660000028],[32.288992387000064,10.123691141000052]]]},"properties":{"shapeName":"Manyo","shapeISO":"","shapeID":"79223893B45725284796006","shapeGroup":"SSD","shapeType":"ADM2"}},
{"type":"Feature","geometry":{"type":"Polygon","coordinates":[[[32.95937651600008,10.345944881000037],[33.07973590600005,10.601762438000037],[33.36009152100007,10.693850049000048],[33.21904366800004,10.735004378000042],[33.26568204300003,10.829231253000046],[33.135288168000045,11.625874504000024],[33.256809168000075,12.165812505000076],[33.29773704300004,12.211974130000044],[32.730537542000036,12.23635188000003],[32.74545579200003,11.947577379000052],[32.735343313000044,11.87964021700003],[32.78972109100005,11.705178180000075],[32.71495164700008,11.571499476000042],[32.64471368400007,11.29507910600006],[32.667371091000064,11.02772169800005],[32.467985906000024,10.848728179000034],[32.74440627600006,10.80341336400005],[32.89621090600008,10.721846697000046],[32.90300812800007,10.649342994000051],[32.86902201700008,10.610825401000056],[32.918868313000075,10.524727253000037],[32.91207109100003,10.46581799300003],[32.86449053600006,10.477146697000023],[32.86222479500003,10.420503179000036],[32.95937651600008,10.345944881000037]]]},"properties":{"shapeName":"Renk","shapeISO":"","shapeID":"79223893B54015778886033","shapeGroup":"SSD","shapeType":"ADM2"}},
{"type":"Feature","geometry":{"type":"Polygon","coordinates":[[[33.89957029400006,9.49863625200004],[33.898616669000035,9.679951627000037],[33.99284354400004,9.910759003000067],[33.97000104400007,10.148229628000024],[33.90147391900007,10.161554378000062],[33.79266729300008,10.339103628000032],[33.48268879300008,10.657910378000054],[33.36009152100007,10.693850049000048],[33.07973590600005,10.601762438000037],[32.95937651600008,10.345944881000037],[33.00270072100005,10.166740215000061],[32.95703141900003,10.060257217000071],[32.99816923900005,9.770235585000023],[32.99816923900005,9.695466141000054],[33.16583405500006,9.634291141000062],[33.29951275800005,9.543661511000039],[33.37881368400008,9.514206881000064],[33.50116368500005,9.534598548000076],[33.59632479600003,9.464360585000065],[33.60991924000007,9.382793918000061],[33.66429701800007,9.339744844000052],[33.841024796000056,9.35333928800003],[33.875010907000046,9.412248548000036],[33.92938868500005,9.42357725200003],[33.85235350000005,9.511941141000023],[33.89957029400006,9.49863625200004]]]},"properties":{"shapeName":"Maban","shapeISO":"","shapeID":"79223893B87220542132951","shapeGroup":"SSD","shapeType":"ADM2"}}
]}