{"type":"FeatureCollection", "features": [
{"type":"Feature","geometry":{"type":"Polygon","coordinates":[[[7.4021034,1.5468687],[7.4041515,1.5476434],[7.4031255,1.5499622],[7.4123402,1.5571862],[7.4192557,1.5569337],[7.4213084,1.5517802],[7.4255312,1.555392],[7.4221956,1.5636373],[7.4274422,1.5691824],[7.4260311,1.5718881],[7.4297387,1.5806545],[7.4294789,1.5858093],[7.4235823,1.5932795],[7.4245991,1.6033324],[7.4315125,1.6059153],[7.4394443,1.6166176],[7.4484084,1.6172693],[7.4507157,1.6143065],[7.4618489,1.6250122],[7.4581284,1.6340307],[7.4565939,1.6311942],[7.4520114,1.6323777],[7.4545384,1.6396985],[7.4491585,1.6409829],[7.4473683,1.6376308],[7.4450627,1.6381445],[7.4391674,1.6435528],[7.4378828,1.6487066],[7.4353235,1.6459978],[7.4276405,1.6448323],[7.4250831,1.639933],[7.4207523,1.6421636],[7.4253315,1.6497278],[7.4284046,1.6502456],[7.4332632,1.6603017],[7.4469644,1.6623747],[7.444655,1.6677856],[7.4491332,1.6735881],[7.4524626,1.6741063],[7.4586138,1.6689561],[7.4615588,1.6693454],[7.4587372,1.6744983],[7.4611698,1.675789],[7.4612795,1.6804573],[7.4525238,1.68162],[7.4409223,1.6920112],[7.4370859,1.684791],[7.4324762,1.6837563],[7.4299124,1.6868472],[7.4253046,1.6836211],[7.4168472,1.6896718],[7.4114692,1.6886364],[7.4096743,1.6912123],[7.4042954,1.691208],[7.402446,1.6941946],[7.3991737,1.6900434],[7.3935362,1.6932609],[7.395718,1.6870768],[7.3881682,1.6802399],[7.3786923,1.6792012],[7.3712614,1.6829326],[7.3681899,1.6803526],[7.3688358,1.6731364],[7.3661491,1.6705567],[7.369484,1.664116],[7.3664173,1.6558657],[7.3697481,1.6545798],[7.372316,1.6463341],[7.3664273,1.6434942],[7.3641257,1.6393685],[7.3645141,1.6336985],[7.3678456,1.6311237],[7.3696451,1.6228775],[7.3690102,1.6166911],[7.3635077,1.6110164],[7.363897,1.6050888],[7.3577515,1.6035373],[7.3564731,1.600959],[7.3418747,1.6006893],[7.3395653,1.6060999],[7.333929,1.6082855],[7.3282987,1.6032555],[7.3285583,1.5988743],[7.337269,1.5952731],[7.3342017,1.5877962],[7.3395903,1.5749136],[7.3392104,1.5689854],[7.3413093,1.5662569],[7.3380652,1.5602215],[7.3414003,1.5528781],[7.3460045,1.5529394],[7.3465183,1.5581661],[7.3544561,1.5602344],[7.3591964,1.5568876],[7.3647101,1.5478709],[7.3706018,1.5464574],[7.3754653,1.5498118],[7.3777715,1.5481387],[7.3826466,1.5362862],[7.3895594,1.5392552],[7.3981387,1.5393909],[7.4000695,1.5266336],[7.4046773,1.5296016],[7.4053131,1.5350148],[7.3990321,1.544031],[7.4021034,1.5468687]]]},"properties":{"shapeName":"Pagué","shapeISO":"","shapeID":"43174148B82261817076051","shapeGroup":"STP","shapeType":"ADM2"}},
{"type":"Feature","geometry":{"type":"Polygon","coordinates":[[[6.6939706,0.3963767],[6.6902921,0.3838464],[6.6915499,0.3776536],[6.7039357,0.3645733],[6.7082705,0.3563662],[6.7082882,0.3514887],[6.7021206,0.3472121],[6.706496,0.3351594],[6.7060894,0.3279383],[6.7050593,0.3222068],[6.6997732,0.3151399],[6.7143383,0.3174527],[6.7243884,0.3134696],[6.7388724,0.316197],[6.7485885,0.3105623],[6.7408742,0.3207681],[6.742274,0.3328755],[6.7397998,0.3345263],[6.7396853,0.34623],[6.7374155,0.3484737],[6.7341214,0.3402494],[6.7262694,0.3418253],[6.7218812,0.3501681],[6.7257555,0.3588709],[6.721852109296589,0.361460649875427],[6.7173388,0.3594301],[6.7134945,0.3635752],[6.7131801,0.3718447],[6.7217828,0.3751085],[6.7193037,0.3812074],[6.7027851,0.3834122],[6.6949,0.3908043],[6.6939706,0.3963767]]]},"properties":{"shapeName":"Água Grande","shapeISO":"","shapeID":"43174148B36740863505441","shapeGroup":"STP","shapeType":"ADM2"}},
{"type":"Feature","geometry":{"type":"Polygon","coordinates":[[[6.6939706,0.3963767],[6.6889784,0.4046198],[6.6697834,0.4084788],[6.6679913,0.4113123],[6.6608249,0.4133712],[6.6388178,0.4089849],[6.6385626,0.4066663],[6.6267896,0.4107848],[6.6219286,0.4069189],[6.6088773,0.406915],[6.6045491,0.3953959],[6.6019588,0.3955109],[6.5891305,0.3846601],[6.5902679,0.3729332],[6.5947311,0.3602305],[6.5854614,0.3519909],[6.5850408,0.3287913],[6.5902401,0.32424],[6.6195679,0.321053],[6.6270041,0.3297577],[6.6317685,0.3428857],[6.6434819,0.3589856],[6.6582727,0.3501094],[6.66203,0.3427079],[6.6760993,0.3366039],[6.6755718,0.3298464],[6.6834569,0.326253],[6.6886824,0.3193515],[6.6997732,0.3151399],[6.7050593,0.3222068],[6.7060894,0.3279383],[6.706496,0.3351594],[6.7021206,0.3472121],[6.7082882,0.3514887],[6.7082705,0.3563662],[6.7039357,0.3645733],[6.6915499,0.3776536],[6.6902921,0.3838464],[6.6939706,0.3963767]]]},"properties":{"shapeName":"Lobata","shapeISO":"","shapeID":"43174148B25004726463593","shapeGroup":"STP","shapeType":"ADM2"}},
{"type":"Feature","geometry":{"type":"Polygon","coordinates":[[[6.6997732,0.3151399],[6.6886824,0.3193515],[6.6834569,0.326253],[6.6755718,0.3298464],[6.6760993,0.3366039],[6.66203,0.3427079],[6.6582727,0.3501094],[6.6434819,0.3589856],[6.6317685,0.3428857],[6.6270041,0.3297577],[6.6195679,0.321053],[6.5902401,0.32424],[6.5850408,0.3287913],[6.5817845,0.2845633],[6.578008,0.2680925],[6.5900243,0.2549778],[6.6011994,0.2505404],[6.6089671,0.251948],[6.6266568,0.2425281],[6.6355145,0.2422749],[6.645531,0.2464548],[6.6502491,0.2437698],[6.6582349,0.2445911],[6.669423,0.2419079],[6.6716879,0.2450472],[6.6688297,0.255806],[6.6691344,0.2666892],[6.6699712,0.2722252],[6.6741426,0.2765768],[6.6860226,0.2797415],[6.6961292,0.2778854],[6.6980067,0.2750423],[6.7027488,0.2807178],[6.7055062,0.2808036],[6.7047229,0.2842797],[6.7204514,0.2902664],[6.7252843,0.2893302],[6.7274472,0.291795],[6.7312923,0.2891638],[6.7314402,0.2926331],[6.7339728,0.2917211],[6.7363268,0.2936991],[6.7376578,0.2919306],[6.7452926,0.2974025],[6.7484723,0.296244],[6.7493904,0.3002062],[6.7533238,0.300116],[6.7487544,0.3057908],[6.7485885,0.3105623],[6.7388724,0.316197],[6.7243884,0.3134696],[6.7143383,0.3174527],[6.6997732,0.3151399]]]},"properties":{"shapeName":"Mé-zóxi","shapeISO":"","shapeID":"43174148B76706884828518","shapeGroup":"STP","shapeType":"ADM2"}},
{"type":"Feature","geometry":{"type":"Polygon","coordinates":[[[6.6266568,0.2425281],[6.6223536,0.2135542],[6.6279026,0.2020487],[6.6421376,0.1879468],[6.6613079,0.1770163],[6.6659125,0.1626579],[6.672833243477639,0.15846584055188],[6.6769631,0.1614206],[6.6824626,0.1583443],[6.6826123,0.1633203],[6.6790449,0.1691382],[6.6818599,0.170555],[6.6875843,0.1683942],[6.6910342,0.1709959],[6.6868489,0.1771258],[6.6896341,0.1800416],[6.6928164,0.1792796],[6.6954823,0.1842473],[6.6992255,0.1845926],[6.6984644,0.1890702],[6.7021211,0.1922564],[6.7014803,0.1954997],[6.7056303,0.1984881],[6.7053574,0.2007377],[6.7128595,0.201478],[6.7173858,0.2053473],[6.7206433,0.2045145],[6.7228039,0.2131069],[6.7282474,0.2132064],[6.7288079,0.2151751],[6.7255561,0.216703],[6.7332913,0.2213048],[6.7359145,0.2291255],[6.7429312,0.2335237],[6.745498,0.2321108],[6.7425556,0.2357191],[6.7431243,0.2383364],[6.7490278,0.2423185],[6.7438294,0.2490868],[6.7454317,0.2551432],[6.7428052,0.2594456],[6.7471323,0.261795],[6.7466109,0.266508],[6.7497912,0.2678257],[6.7453113,0.2763273],[6.7506195,0.2827723],[6.7508111,0.2881803],[6.7577515,0.2870565],[6.760626,0.2943646],[6.7533238,0.300116],[6.7493904,0.3002062],[6.7484723,0.296244],[6.7452926,0.2974025],[6.7376578,0.2919306],[6.7363268,0.2936991],[6.7339728,0.2917211],[6.7314402,0.2926331],[6.7312923,0.2891638],[6.7274472,0.291795],[6.7252843,0.2893302],[6.7204514,0.2902664],[6.7047229,0.2842797],[6.7055062,0.2808036],[6.7027488,0.2807178],[6.6980067,0.2750423],[6.6961292,0.2778854],[6.6860226,0.2797415],[6.6741426,0.2765768],[6.6699712,0.2722252],[6.6691344,0.2666892],[6.6688297,0.255806],[6.6716879,0.2450472],[6.669423,0.2419079],[6.6582349,0.2445911],[6.6502491,0.2437698],[6.645531,0.2464548],[6.6355145,0.2422749],[6.6266568,0.2425281]]]},"properties":{"shapeName":"Cantagalo","shapeISO":"","shapeID":"43174148B99779095511190","shapeGroup":"STP","shapeType":"ADM2"}},
{"type":"Feature","geometry":{"type":"Polygon","coordinates":[[[6.5891305,0.3846601],[6.5861975,0.3799468],[6.5788141,0.374992],[6.5740043,0.3664517],[6.5607818,0.3588854],[6.5461955,0.3607839],[6.5415903,0.3574336],[6.5392894,0.3491895],[6.527969,0.3445753],[6.5225373,0.3320218],[6.5106348,0.3314072],[6.5044957,0.3223896],[6.4924704,0.3185227],[6.488928,0.3125827],[6.4882085,0.2963681],[6.4809225,0.2758473],[6.4779491,0.2716328],[6.4743747,0.2726058],[6.4704759,0.2693166],[6.4667665,0.263391],[6.4644662,0.2502533],[6.4698208,0.2475683],[6.4630597,0.2492226],[6.4628047,0.2440707],[6.460246,0.2438127],[6.4622933,0.242525],[6.4612702,0.239949],[6.4653647,0.2368586],[6.4653657,0.2319643],[6.4615288,0.2250085],[6.4656237,0.2201149],[6.4635772,0.2167659],[6.4672893,0.2013108],[6.4630686,0.1966735],[6.4674184,0.1969318],[6.4678032,0.1868855],[6.4785516,0.1745225],[6.4775293,0.1647336],[6.4802182,0.1503085],[6.4782991,0.1464444],[6.4838011,0.1441265],[6.4855928,0.13949],[6.4878956,0.140263],[6.4881519,0.1361415],[6.4843139,0.1348531],[6.4853377,0.1326631],[6.4968527,0.1260959],[6.5251243,0.1437469],[6.5359733,0.1546388],[6.5427883,0.1677451],[6.5461529,0.1865762],[6.5469253,0.2072527],[6.5548218,0.24658],[6.5534313,0.2534636],[6.5603922,0.2632053],[6.5686662,0.2635658],[6.578008,0.2680925],[6.5817845,0.2845633],[6.5850408,0.3287913],[6.5854614,0.3519909],[6.5947311,0.3602305],[6.5902679,0.3729332],[6.5891305,0.3846601]]]},"properties":{"shapeName":"Lemba","shapeISO":"","shapeID":"43174148B20195011652309","shapeGroup":"STP","shapeType":"ADM2"}},
{"type":"Feature","geometry":{"type":"MultiPolygon","coordinates":[[[[6.578008,0.2680925],[6.5686662,0.2635658],[6.5603922,0.2632053],[6.5534313,0.2534636],[6.5548218,0.24658],[6.5469253,0.2072527],[6.5461529,0.1865762],[6.5427883,0.1677451],[6.5359733,0.1546388],[6.5251243,0.1437469],[6.4968527,0.1260959],[6.49583,0.1160495],[6.4922479,0.1150188],[6.4912247,0.1111547],[6.4978775,0.1119281],[6.5006926,0.1065188],[6.5119512,0.1075499],[6.5163016,0.1005951],[6.5136153,0.090033],[6.5165584,0.0887452],[6.5156627,0.0828202],[6.5180944,0.0774107],[6.51528,0.0712281],[6.513233,0.0712279],[6.5159194,0.0696825],[6.5160481,0.061439],[6.5132335,0.060151],[6.5150478,0.0553488],[6.5125633,0.0517123],[6.5074167,0.0523821],[6.5062603,0.0480789],[6.5103995,0.0450498],[6.5131232,0.0382763],[6.5115685,0.0236119],[6.5161859,0.0218478],[6.516944865194671,0.018990822399674],[6.5190712,0.0243899],[6.530223447182609,0.025860389878261],[6.533890775516022,0.029149475116341],[6.5334712,0.0327978],[6.536605697101785,0.032603146694029],[6.5339608,0.0367095],[6.5359651,0.0421182],[6.5340503,0.0447268],[6.5370675,0.0473329],[6.540484,0.0473111],[6.547231,0.0342618],[6.5527722,0.0380711],[6.554313079531704,0.034848245148493],[6.557505095207651,0.035521634870594],[6.5581259,0.0496892],[6.5638271,0.0518298],[6.5631674,0.0557579],[6.566698350344924,0.056764961623044],[6.5640633,0.0615191],[6.5654105,0.0678334],[6.5635901,0.0703712],[6.568345,0.0793391],[6.5684984,0.0841478],[6.5784829,0.0865592],[6.5792508,0.0830818],[6.5851566,0.0837924],[6.5871839,0.0767703],[6.5892312,0.0762551],[6.5897428,0.0794759],[6.598619,0.0759324],[6.5979632,0.0810636],[6.6017809,0.0847024],[6.6043734,0.082507],[6.6066283,0.084362],[6.6137968,0.0821818],[6.610869,0.0859761],[6.6148203,0.0873343],[6.6212214,0.097645],[6.6242423,0.0990242],[6.627042,0.0970342],[6.6277177,0.1015835],[6.6363453,0.1015663],[6.6349934,0.1053107],[6.6382384,0.1071781],[6.6531037,0.109393],[6.6543268,0.1204115],[6.6463225,0.124515],[6.646018,0.1293246],[6.6555654,0.131371],[6.6535999,0.1345293],[6.6551738,0.1382307],[6.6593152,0.1384622],[6.6733053,0.1465413],[6.6690551,0.146508],[6.6673776,0.1501566],[6.6698039,0.1552789],[6.6756649,0.1543602],[6.6726909,0.1558453],[6.672833243477639,0.15846584055188],[6.6659125,0.1626579],[6.6613079,0.1770163],[6.6421376,0.1879468],[6.6279026,0.2020487],[6.6223536,0.2135542],[6.6266568,0.2425281],[6.6089671,0.251948],[6.6011994,0.2505404],[6.5900243,0.2549778],[6.578008,0.2680925]]],[[[6.527428,0.0042535],[6.512418499999962,-0.003511],[6.512012699999959,-0.008220499999961],[6.516685,-0.00962909999998],[6.514948599999959,-0.011553899999988],[6.517338399999984,-0.01392159999996],[6.518864599999963,-0.011781199999965],[6.523596,-0.0129184],[6.529766799999981,-0.004738499999984],[6.525632400000026,-0.0014442],[6.5295578,0.003316199999976],[6.527428,0.0042535]]]]},"properties":{"shapeName":"Caué","shapeISO":"","shapeID":"43174148B37019359222323","shapeGroup":"STP","shapeType":"ADM2"}}
]}