{"type":"FeatureCollection", "features": [
{"type":"Feature","geometry":{"type":"Polygon","coordinates":[[[-55.27748855312065,5.906738858495811],[-55.27811165057374,5.857202610974907],[-55.25692633716857,5.844117564459951],[-55.218917392529896,5.841002077194486],[-55.22857540305284,5.890226775988843],[-55.27748855312065,5.906738858495811]]]},"properties":{"shapeName":"Weg Naar See","shapeISO":"","shapeID":"93971198B55832706288336","shapeGroup":"SUR","shapeType":"ADM2"}},
{"type":"Feature","geometry":{"type":"Polygon","coordinates":[[[-57.04411260125115,5.901026839653874],[-57.04740507400886,5.944590410831301],[-57.105224624353156,5.939827713705271],[-57.11993677806287,5.881544950932079],[-57.17916262761233,5.811002060067435],[-57.1897251995064,5.992546264498482],[-57.22971207882004,5.719428334092055],[-57.20896416974221,5.680195924199419],[-57.222544619320445,5.586075863928142],[-57.30893136802635,5.464606287145179],[-57.31044030686837,5.391045518596488],[-57.38268075393031,5.302961213693309],[-57.334583328340784,5.29126693766762],[-57.33043374652522,5.230532149276139],[-57.30138667381625,5.206011893093242],[-57.27224529242967,5.20987854887593],[-57.269009473171714,5.252607512894744],[-57.231975487083155,5.267972694293878],[-57.207832465610764,5.317767676080685],[-57.02078533747875,5.82069837247545],[-57.04411260125115,5.901026839653874]]]},"properties":{"shapeName":"Westelijke Polders","shapeISO":"","shapeID":"93971198B80225832499652","shapeGroup":"SUR","shapeType":"ADM2"}},
{"type":"Feature","geometry":{"type":"Polygon","coordinates":[[[-57.04411260125115,5.901026839653874],[-57.01117305929056,5.901594762791126],[-57.01176811662423,5.966158483494257],[-57.03387694591263,5.967017699575683],[-57.04740507400886,5.944590410831301],[-57.04411260125115,5.901026839653874]]]},"properties":{"shapeName":"Nieuw Nickerie","shapeISO":"","shapeID":"93971198B22310393483030","shapeGroup":"SUR","shapeType":"ADM2"}},
{"type":"Feature","geometry":{"type":"Polygon","coordinates":[[[-57.02078533747875,5.82069837247545],[-56.934187516747116,5.895941718121271],[-56.90026924872796,5.90724780746099],[-56.88479775805256,5.871544367440825],[-56.85980535003844,5.882255399446874],[-56.80355404514664,5.975890369468844],[-56.981643339107244,6.00706867518403],[-57.040554015140515,5.992192241842295],[-57.03387694591263,5.967017699575683],[-57.01176811662423,5.966158483494257],[-57.01117305929056,5.901594762791126],[-57.04411260125115,5.901026839653874],[-57.02078533747875,5.82069837247545]]]},"properties":{"shapeName":"Oostelijke Polders","shapeISO":"","shapeID":"93971198B64591647456497","shapeGroup":"SUR","shapeType":"ADM2"}},
{"type":"Feature","geometry":{"type":"Polygon","coordinates":[[[-57.269009473171714,5.252607512894744],[-57.25799583761549,5.253173464488996],[-56.77894726999274,5.330258517792832],[-56.76087706831596,5.333166244803432],[-56.851920840367384,5.746433563036837],[-56.74187223969163,5.962302699469426],[-56.80355404514664,5.975890369468844],[-56.85980535003844,5.882255399446874],[-56.88479775805256,5.871544367440825],[-56.90026924872796,5.90724780746099],[-56.934187516747116,5.895941718121271],[-57.02078533747875,5.82069837247545],[-57.207832465610764,5.317767676080685],[-57.231975487083155,5.267972694293878],[-57.269009473171714,5.252607512894744]]]},"properties":{"shapeName":"Groot Henar","shapeISO":"","shapeID":"93971198B23386052659438","shapeGroup":"SUR","shapeType":"ADM2"}},
{"type":"Feature","geometry":{"type":"Polygon","coordinates":[[[-56.77894726999274,5.330258517792832],[-56.50410982883773,5.306537429121715],[-56.4809375961972,5.330339722468497],[-56.51065545950811,5.342835926475546],[-56.491018567497015,5.375861608494199],[-56.53743303952323,5.406209532511339],[-56.53862315419057,5.361580232486133],[-56.58682279821779,5.372886321825852],[-56.56569826287252,5.39490344317162],[-56.58384751154944,5.414242806515876],[-56.549334186196596,5.434474755860633],[-56.60735227622936,5.512724795238162],[-56.557069931534315,5.541287547254295],[-56.51541591817745,5.532361687249254],[-56.64127054424851,5.76145876071199],[-56.64184117047021,5.942326456111492],[-56.74187223969163,5.962302699469426],[-56.851920840367384,5.746433563036837],[-56.76087706831596,5.333166244803432],[-56.77894726999274,5.330258517792832]]]},"properties":{"shapeName":"Wageningen","shapeISO":"","shapeID":"93971198B34414051922750","shapeGroup":"SUR","shapeType":"ADM2"}},
{"type":"Feature","geometry":{"type":"Polygon","coordinates":[[[-57.25799583761549,5.253173464488996],[-57.20464107490039,5.163128611707431],[-57.232013712249184,5.14349171969634],[-57.272180082271866,5.189311134388885],[-57.317701968297584,5.170864357045134],[-57.35221529365039,5.069704610321331],[-57.312643980961376,5.025521603296375],[-57.44906087470511,4.990859513610129],[-57.542484876091194,5.019422265626259],[-57.60437083879279,4.999190316281497],[-57.69288561717611,5.01867844395917],[-57.772920828554646,4.934031538244689],[-57.82915374658641,4.943552455583399],[-57.924065391306634,4.838524836190747],[-57.92168516197196,4.777828988156467],[-57.87289046061107,4.751051408141343],[-57.83807960659142,4.624006667402921],[-57.95947130265998,4.389256549270337],[-57.94905779932076,4.341949491243619],[-57.98446371067409,4.326478000568214],[-57.98386865334042,4.272327783204295],[-58.06925938072197,4.132786838458817],[-58.03266335470131,4.082504493763752],[-58.03444852670232,4.000386581717373],[-57.97851313733741,3.936715447014745],[-57.977620551336905,3.902797178995588],[-57.89074218062116,3.87512701297996],[-57.83331914792206,3.770099393587306],[-57.81874024324714,3.672509990865521],[-57.6892378681736,3.566640935498873],[-57.59142834178542,3.600805582158356],[-57.49145870972896,3.581168690147265],[-57.411125969683575,3.516456205110719],[-57.27069243893758,3.463198573747305],[-57.23350135558322,3.401907668379354],[-57.17637585155096,3.366501757026023],[-57.191847342226374,3.326930444337005],[-57.16268953287658,3.285276430980146],[-56.916187032404004,3.246151411291381],[-56.73766983230318,3.370518394028287],[-56.72190081296093,3.442520331402287],[-56.792266342667354,3.547845479461771],[-56.69731315559319,3.632557452784639],[-56.77039798565498,3.709552309886436],[-56.83525923502494,3.685750016539658],[-56.917079618404486,3.716097940556798],[-56.94951024308947,3.756561839246319],[-57.02448746713182,3.759537125914666],[-57.026867696466496,3.821423088616285],[-57.066439009155516,3.872300490645021],[-56.9920568424468,3.987444084710053],[-56.946237427754255,4.002320518051788],[-56.946832485087924,4.068371882089093],[-56.893277325057674,4.095744519437886],[-56.83496170635807,4.078487856761473],[-56.80758906900928,4.110620952779621],[-56.818895158349,4.180242660818942],[-56.94445225575324,4.20344989683205],[-56.951592943757284,4.226062075511487],[-56.92779065041051,4.363817848255955],[-56.78215036799487,4.517193876009243],[-56.78274542532854,4.58086501071187],[-56.678610391936395,4.598121673388283],[-56.60184799589302,4.661792808090913],[-56.591732021220636,4.723678770792533],[-56.559598925202486,4.749861293473987],[-56.478671127823446,4.727844172128219],[-56.35073380108452,4.779019102823788],[-56.29420335438593,4.767713013484069],[-56.257309799698405,4.966462162929652],[-56.3293117370724,5.008116176286511],[-56.374684858764674,5.114631439013335],[-56.427049904127585,5.156880509703863],[-56.44519915280447,5.323496563131298],[-56.4809375961972,5.330339722468497],[-56.50410982883773,5.306537429121715],[-56.77894726999274,5.330258517792832],[-57.25799583761549,5.253173464488996]]]},"properties":{"shapeName":"Kabalebo","shapeISO":"","shapeID":"93971198B81328580196700","shapeGroup":"SUR","shapeType":"ADM2"}},
{"type":"Feature","geometry":{"type":"Polygon","coordinates":[[[-57.6892378681736,3.566640935498873],[-57.652346608402446,3.510617602626142],[-57.679762896338545,3.435222810801872],[-57.63303058735656,3.377897845117304],[-57.590659960546226,3.398460061069377],[-57.46105569030286,3.341135095384808],[-57.28253826999166,3.363878152422708],[-57.2800458801793,3.185049183384977],[-57.25886056677414,3.165110064885997],[-57.27630729546075,3.138939971856085],[-57.235182863556595,3.132708997325154],[-57.250137202430835,3.11401607373236],[-57.17661170296584,3.04049057426737],[-57.209012770526684,3.036751989548811],[-57.20028940618338,2.964472684990007],[-57.15418019465449,2.963226490083821],[-57.20153560108957,2.92334825308586],[-57.181596482590585,2.868515677213664],[-57.15791877937305,2.837360804559007],[-57.10184000859467,2.845149522722671],[-57.113678860203436,2.800286506099965],[-57.07753920792403,2.794678629022127],[-57.032053093848255,2.680651795106083],[-56.997003862111775,2.681742215648996],[-56.966160538183665,2.55525343267109],[-56.910393316131845,2.546218519601239],[-56.92628230118572,2.525967852375713],[-56.90042375688235,2.448080670739071],[-56.84901821700218,2.417704669900779],[-56.85151060681455,2.363183642755129],[-56.79449718985653,2.342309878076509],[-56.78624114860304,2.271276768423892],[-56.669098827421536,2.121421830954992],[-56.553670024236055,2.120798733501899],[-56.448210780300066,2.046338587857269],[-56.33153578220839,2.043612536499986],[-56.243211718232445,2.001241909689652],[-55.947863525466296,1.948590174903282],[-55.888980816149,1.998126422424186],[-55.89349827268395,2.117761133418067],[-56.03003450209299,2.238953588044683],[-56.030657599546075,2.283660830304115],[-56.114308432623844,2.316529220954778],[-56.07598793925862,2.387562330607396],[-56.038290543346484,2.374165735365893],[-55.98937739327867,2.419340300715146],[-55.97364418258808,2.530407421728997],[-56.14546330527851,2.558602581481463],[-56.10838900681949,2.655494235437447],[-56.07069161090736,2.676368000116067],[-56.05947585675168,2.736496904339555],[-56.15449821834839,2.797248906016135],[-56.07941497525067,2.858624005145811],[-56.1264588329592,2.910964191205634],[-56.10979097608897,2.980283782862245],[-56.17537198302703,3.045085917983931],[-56.154653992711694,3.119078740538741],[-56.17023142903902,3.229055441009678],[-56.258088169925145,3.215347297041629],[-56.31042835598497,3.236532610446795],[-56.29453937093109,3.30320403792776],[-56.34002548500689,3.366448429416713],[-56.350306592982925,3.433431405624227],[-56.32444804867957,3.492314114941528],[-56.23846060015273,3.436391118526419],[-56.17129934606237,3.471353336653868],[-56.210800037868964,3.584253367316281],[-56.33472915665561,3.627526262262739],[-56.38426540417652,3.596527163971356],[-56.412149015202445,3.622074159548176],[-56.48816690447981,3.612104600298685],[-56.51651783859554,3.657279165647938],[-56.4998499817253,3.737347188370405],[-56.57695829154557,3.671454632705805],[-56.69731315559319,3.632557452784639],[-56.792266342667354,3.547845479461771],[-56.72190081296093,3.442520331402287],[-56.73766983230318,3.370518394028287],[-56.916187032404004,3.246151411291381],[-57.16268953287658,3.285276430980146],[-57.191847342226374,3.326930444337005],[-57.17637585155096,3.366501757026023],[-57.23350135558322,3.401907668379354],[-57.27069243893758,3.463198573747305],[-57.411125969683575,3.516456205110719],[-57.49145870972896,3.581168690147265],[-57.59142834178542,3.600805582158356],[-57.6892378681736,3.566640935498873]]]},"properties":{"shapeName":"Coeroeni","shapeISO":"","shapeID":"93971198B23871026357608","shapeGroup":"SUR","shapeType":"ADM2"}},
{"type":"Feature","geometry":{"type":"Polygon","coordinates":[[[-56.69731315559319,3.632557452784639],[-56.57695829154557,3.671454632705805],[-56.4998499817253,3.737347188370405],[-56.51651783859554,3.657279165647938],[-56.48816690447981,3.612104600298685],[-56.412149015202445,3.622074159548176],[-56.38426540417652,3.596527163971356],[-56.33472915665561,3.627526262262739],[-56.210800037868964,3.584253367316281],[-56.12910699713513,3.774265712466178],[-56.18051253701531,3.982068713072736],[-56.185497316640024,4.184575385328007],[-56.150292310540266,4.223518976146328],[-56.012587773406686,4.243769643371853],[-55.95931294116722,4.209810832178277],[-55.839366681446776,4.287386465088374],[-55.79948844444881,4.484596808992353],[-55.67346698456069,4.734770436409248],[-55.724249426987775,4.89521803058073],[-55.70337566230913,4.983074771466861],[-55.724249426987754,4.993978976895992],[-55.720199293542635,5.043982547506715],[-55.794036341734184,5.094453441207257],[-56.06414908765006,5.102865256824015],[-56.01056270668405,5.156763186516571],[-55.98314641874793,5.281382677135196],[-55.99405062417707,5.399148095769797],[-55.92614662911037,5.527769319352466],[-55.929871586508476,5.543083607434311],[-55.99747766016903,5.515667319498206],[-55.984051230775954,5.472858142457849],[-55.985480817737795,5.469708205084309],[-56.04420996915102,5.444945758572135],[-56.04794855386958,5.419866086085136],[-56.07972652397733,5.425318188799701],[-56.08954030886354,5.370485612927506],[-56.3573164393303,5.390113182699941],[-56.39034060434423,5.351792689334713],[-56.44519915280447,5.323496563131298],[-56.427049904127585,5.156880509703863],[-56.374684858764674,5.114631439013335],[-56.3293117370724,5.008116176286511],[-56.257309799698405,4.966462162929652],[-56.29420335438593,4.767713013484069],[-56.35073380108452,4.779019102823788],[-56.478671127823446,4.727844172128219],[-56.559598925202486,4.749861293473987],[-56.591732021220636,4.723678770792533],[-56.60184799589302,4.661792808090913],[-56.678610391936395,4.598121673388283],[-56.78274542532854,4.58086501071187],[-56.78215036799487,4.517193876009243],[-56.92779065041051,4.363817848255955],[-56.951592943757284,4.226062075511487],[-56.94445225575324,4.20344989683205],[-56.818895158349,4.180242660818942],[-56.80758906900928,4.110620952779621],[-56.83496170635807,4.078487856761473],[-56.893277325057674,4.095744519437886],[-56.946832485087924,4.068371882089093],[-56.946237427754255,4.002320518051788],[-56.9920568424468,3.987444084710053],[-57.066439009155516,3.872300490645021],[-57.026867696466496,3.821423088616285],[-57.02448746713182,3.759537125914666],[-56.94951024308947,3.756561839246319],[-56.917079618404486,3.716097940556798],[-56.83525923502494,3.685750016539658],[-56.77039798565498,3.709552309886436],[-56.69731315559319,3.632557452784639]]]},"properties":{"shapeName":"Boven Coppename","shapeISO":"","shapeID":"93971198B62732710904404","shapeGroup":"SUR","shapeType":"ADM2"}},
{"type":"Feature","geometry":{"type":"Polygon","coordinates":[[[-56.17129934606237,3.471353336653868],[-56.061656697837876,3.542785008642081],[-55.84731117397386,3.842494883579879],[-55.68094415399798,4.302963901415708],[-55.52392359581851,4.373997011068326],[-55.379988084153986,4.539740933591098],[-55.32017072865704,4.608281653431343],[-55.29773922034569,4.734147338956157],[-55.301627430440334,4.735258256126055],[-55.39369622812203,4.757825042173696],[-55.37500330452924,4.841320100888176],[-55.49089943080456,4.939769498476892],[-55.53878330176709,5.0578425714791],[-55.569409709894295,5.074358548345009],[-55.70337566230913,4.983074771466861],[-55.724249426987775,4.89521803058073],[-55.67346698456069,4.734770436409248],[-55.79948844444881,4.484596808992353],[-55.839366681446776,4.287386465088374],[-55.95931294116722,4.209810832178277],[-56.012587773406686,4.243769643371853],[-56.150292310540266,4.223518976146328],[-56.185497316640024,4.184575385328007],[-56.18051253701531,3.982068713072736],[-56.12910699713513,3.774265712466178],[-56.210800037868964,3.584253367316281],[-56.17129934606237,3.471353336653868]]]},"properties":{"shapeName":"Boven Saramacca","shapeISO":"","shapeID":"93971198B46869777654486","shapeGroup":"SUR","shapeType":"ADM2"}},
{"type":"Feature","geometry":{"type":"Polygon","coordinates":[[[-56.17023142903902,3.229055441009678],[-56.105429293917766,3.234195994997705],[-56.03642125098772,3.330776100227141],[-56.01352241958655,3.280772529616416],[-55.95012225373432,3.304917555923775],[-55.85619031268053,3.236376836083531],[-55.770825961606775,3.271581842183293],[-55.61411695215384,3.276878170534585],[-55.582962079499175,3.360373229249066],[-55.60352429545125,3.391528101903723],[-55.543706939954305,3.420502133472554],[-55.50289405677668,3.504464515276854],[-55.48451268191041,3.678620253416385],[-55.39634439229772,3.76710009175561],[-55.26829786568709,3.787350758981137],[-55.29197764762851,3.964829077242827],[-55.32702480064111,4.121330993839059],[-55.299608512705,4.206072247459725],[-55.32359776464909,4.230061499403812],[-55.26658434769106,4.305456291228081],[-55.2902620509086,4.351253954030427],[-55.25381084990262,4.488023844984369],[-55.28029249165908,4.519490266365572],[-55.379988084153986,4.539740933591098],[-55.52392359581851,4.373997011068326],[-55.68094415399798,4.302963901415708],[-55.84731117397386,3.842494883579879],[-56.061656697837876,3.542785008642081],[-56.17129934606237,3.471353336653868],[-56.23846060015273,3.436391118526419],[-56.32444804867957,3.492314114941528],[-56.350306592982925,3.433431405624227],[-56.34002548500689,3.366448429416713],[-56.29453937093109,3.30320403792776],[-56.31042835598497,3.236532610446795],[-56.258088169925145,3.215347297041629],[-56.17023142903902,3.229055441009678]]]},"properties":{"shapeName":"Boven Suriname","shapeISO":"","shapeID":"93971198B39782155326528","shapeGroup":"SUR","shapeType":"ADM2"}},
{"type":"Feature","geometry":{"type":"Polygon","coordinates":[[[-55.97364418258808,2.530407421728997],[-55.92628877615354,2.539130786072313],[-55.712254801016044,2.423234659796989],[-55.51815994437754,2.449404752826901],[-55.40195226937568,2.423546208523536],[-55.34338110878493,2.504237328699097],[-55.25895140389081,2.499252549074352],[-55.1925915251364,2.550034991501443],[-55.15707497031009,2.550658088954536],[-55.131839523459824,2.514518436675135],[-55.02326479225834,2.570441433090245],[-54.9815172629011,2.554863996762917],[-54.91671512777941,2.432736895956662],[-54.829481484346374,2.43024450614429],[-54.77963368809894,2.455168404268014],[-54.73227828166386,2.430244506144289],[-54.73227828166386,2.34301086271125],[-54.7017465064623,2.319333159493712],[-54.548464533001386,2.353603519413834],[-54.4113830933209,2.482584692204114],[-54.346892506925755,2.630258788587187],[-54.241589037353,2.758928412650919],[-54.19189701546883,2.940405545864297],[-54.22554427793588,3.1397967308541],[-54.08036257136518,3.30865614064234],[-54.01556043624349,3.434677600530426],[-53.990948086846316,3.588582671444432],[-54.119929259636606,3.77301951756],[-54.217132462319135,3.827852093432196],[-54.35608319435892,4.027243278422002],[-54.36231416888985,4.149370379228257],[-54.427739401464635,4.359354220920642],[-54.44767851996362,4.494566368241854],[-54.419639134574425,4.589900278565104],[-54.47135622318116,4.728851010604874],[-54.47260241808736,4.877771301894134],[-54.440824447979615,5.030430177901952],[-54.31651650608756,5.205832110947672],[-54.48132578243072,5.310824031793865],[-54.5212040194287,5.305527703442575],[-54.63834634061021,5.374691520735913],[-54.67355134670997,5.37500306946246],[-54.746765297448434,5.215334347107344],[-54.802220970773725,5.172963720297011],[-54.81281362747631,5.041178608967813],[-54.846230614797804,4.986318941902069],[-54.77231229302526,4.958929745159521],[-54.72557998404326,4.886650440600718],[-54.773870036657975,4.824029146564857],[-54.79225141152423,4.710313861375361],[-54.83711442814693,4.669812526924307],[-54.827767966350535,4.519646040728862],[-54.908459086526086,4.426492971491437],[-54.88727377312095,4.189715939316044],[-54.94210634899314,4.161676553926854],[-54.955502944234674,4.11790395784706],[-55.01376255609888,4.176786667164361],[-55.05893712144817,4.103261167699372],[-55.12778939001495,4.103261167699372],[-55.29197764762851,3.964829077242827],[-55.26829786568709,3.787350758981137],[-55.39634439229772,3.76710009175561],[-55.48451268191041,3.678620253416385],[-55.50289405677668,3.504464515276854],[-55.543706939954305,3.420502133472554],[-55.60352429545125,3.391528101903723],[-55.582962079499175,3.360373229249066],[-55.61411695215384,3.276878170534585],[-55.770825961606775,3.271581842183293],[-55.85619031268053,3.236376836083531],[-55.95012225373432,3.304917555923775],[-56.01352241958655,3.280772529616416],[-56.03642125098772,3.330776100227141],[-56.105429293917766,3.234195994997705],[-56.17023142903902,3.229055441009678],[-56.154653992711694,3.119078740538741],[-56.17537198302703,3.045085917983931],[-56.10979097608897,2.980283782862245],[-56.1264588329592,2.910964191205634],[-56.07941497525067,2.858624005145811],[-56.15449821834839,2.797248906016135],[-56.05947585675168,2.736496904339555],[-56.07069161090736,2.676368000116067],[-56.10838900681949,2.655494235437447],[-56.14546330527851,2.558602581481463],[-55.97364418258808,2.530407421728997]]]},"properties":{"shapeName":"Tapanahony","shapeISO":"","shapeID":"93971198B58608400996115","shapeGroup":"SUR","shapeType":"ADM2"}},
{"type":"Feature","geometry":{"type":"Polygon","coordinates":[[[-55.70337566230913,4.983074771466861],[-55.569409709894295,5.074358548345009],[-55.53878330176709,5.0578425714791],[-55.503205605503645,5.061273501830073],[-55.514421359659316,5.08245881523524],[-55.483578035731206,5.118131144424821],[-55.44027276274123,5.120000436784101],[-55.40226381810256,5.184179474452694],[-55.37920921233812,5.184179474452694],[-55.36489960192249,5.306188460631833],[-55.39743481284107,5.391826700695986],[-55.41581618770732,5.405223295937488],[-55.40678127463747,5.371576033470459],[-55.442609378190326,5.372199130923552],[-55.442297829463776,5.404911747210941],[-55.47750283556354,5.404600198484395],[-55.48466845627413,5.435910845502326],[-55.63397260623961,5.425494271543222],[-55.88812405715196,5.413946660280791],[-55.93984114575871,5.38621882361815],[-55.908063175650966,5.434197327506322],[-55.932052427595046,5.435755071139054],[-55.93672565849324,5.491522293190891],[-55.911801760369514,5.481241185214854],[-55.89466658040945,5.508345924424404],[-55.92614662911037,5.527769319352466],[-55.99405062417707,5.399148095769797],[-55.98314641874793,5.281382677135196],[-56.01056270668405,5.156763186516571],[-56.06414908765006,5.102865256824015],[-55.794036341734184,5.094453441207257],[-55.720199293542635,5.043982547506715],[-55.724249426987754,4.993978976895992],[-55.70337566230913,4.983074771466861]]]},"properties":{"shapeName":"Bigi Poika","shapeISO":"","shapeID":"93971198B76485498216743","shapeGroup":"SUR","shapeType":"ADM2"}},
{"type":"Feature","geometry":{"type":"Polygon","coordinates":[[[-55.36489960192249,5.306188460631833],[-55.22566569190153,5.326232377212218],[-55.11856590797919,5.343182811577449],[-55.11859870258199,5.556324428312573],[-55.19606442668707,5.595204096266222],[-55.427343490589635,5.542616284344521],[-55.38777680231822,5.490899195737793],[-55.437001501112576,5.440428302037251],[-55.45444822979919,5.454447994731846],[-55.45257893743991,5.426097060616109],[-55.46597553268141,5.450086312560194],[-55.48466845627413,5.435910845502326],[-55.47750283556354,5.404600198484395],[-55.442297829463776,5.404911747210941],[-55.442609378190326,5.372199130923552],[-55.40678127463747,5.371576033470459],[-55.41581618770732,5.405223295937488],[-55.39743481284107,5.391826700695986],[-55.36489960192249,5.306188460631833]]]},"properties":{"shapeName":"Zuid","shapeISO":"","shapeID":"93971198B35927993757014","shapeGroup":"SUR","shapeType":"ADM2"}},
{"type":"Feature","geometry":{"type":"Polygon","coordinates":[[[-55.19606442668707,5.595204096266222],[-55.217359648897244,5.655708472080934],[-55.35103736324141,5.647697907701973],[-55.4170623826136,5.641377230659792],[-55.382792022693486,5.601498993661829],[-55.427343490589635,5.542616284344521],[-55.19606442668707,5.595204096266222]]]},"properties":{"shapeName":"Noord","shapeISO":"","shapeID":"93971198B90069721487789","shapeGroup":"SUR","shapeType":"ADM2"}},
{"type":"Feature","geometry":{"type":"Polygon","coordinates":[[[-55.11856590797919,5.343182811577449],[-55.02719978813106,5.33142688453636],[-54.990240627244845,5.406469490843681],[-55.00476950310044,5.473946553137347],[-55.06781626015493,5.514888447681887],[-55.06843935760801,5.611157004184778],[-55.10707139969978,5.604302932200754],[-55.043203910757725,5.67907462657193],[-55.093363255731724,5.698702196344364],[-55.10613675352013,5.66723577496316],[-55.14961773380371,5.686462817787948],[-55.19991292021065,5.672843652040998],[-55.217359648897244,5.655708472080934],[-55.19606442668707,5.595204096266222],[-55.11859870258199,5.556324428312573],[-55.11856590797919,5.343182811577449]]]},"properties":{"shapeName":"Oost","shapeISO":"","shapeID":"93971198B94445050916405","shapeGroup":"SUR","shapeType":"ADM2"}},
{"type":"Feature","geometry":{"type":"Polygon","coordinates":[[[-54.63834634061021,5.374691520735913],[-54.63632127388797,5.536385309813603],[-55.00476950310044,5.473946553137347],[-54.990240627244845,5.406469490843681],[-55.02719978813106,5.33142688453636],[-54.95768378532078,5.278734512959599],[-54.9879439921102,5.219668968135367],[-54.978246001272844,5.179662017917788],[-54.90040032971013,5.141025958722121],[-54.887741096211045,5.120779308600484],[-54.912664994334776,5.075293194524686],[-54.874032952243,5.045696065502762],[-54.87707730349677,4.977020322263707],[-54.846230614797804,4.986318941902069],[-54.81281362747631,5.041178608967813],[-54.802220970773725,5.172963720297011],[-54.746765297448434,5.215334347107344],[-54.67355134670997,5.37500306946246],[-54.63834634061021,5.374691520735913]]]},"properties":{"shapeName":"Carolina","shapeISO":"","shapeID":"93971198B31918784658993","shapeGroup":"SUR","shapeType":"ADM2"}},
{"type":"Feature","geometry":{"type":"Polygon","coordinates":[[[-56.4809375961972,5.330339722468497],[-56.44519915280447,5.323496563131298],[-56.39034060434423,5.351792689334713],[-56.39174257361464,5.901520417326189],[-56.56184817830906,5.947318080128535],[-56.64184117047021,5.942326456111492],[-56.64127054424851,5.76145876071199],[-56.51541591817745,5.532361687249254],[-56.557069931534315,5.541287547254295],[-56.60735227622936,5.512724795238162],[-56.549334186196596,5.434474755860633],[-56.58384751154944,5.414242806515876],[-56.56569826287252,5.39490344317162],[-56.58682279821779,5.372886321825852],[-56.53862315419057,5.361580232486133],[-56.53743303952323,5.406209532511339],[-56.491018567497015,5.375861608494199],[-56.51065545950811,5.342835926475546],[-56.4809375961972,5.330339722468497]]]},"properties":{"shapeName":"Johanna Maria","shapeISO":"","shapeID":"93971198B30813945070392","shapeGroup":"SUR","shapeType":"ADM2"}},
{"type":"Feature","geometry":{"type":"Polygon","coordinates":[[[-56.3573164393303,5.390113182699941],[-56.36183389586617,5.896224088974897],[-56.39174257361464,5.901520417326189],[-56.39034060434423,5.351792689334713],[-56.3573164393303,5.390113182699941]]]},"properties":{"shapeName":"Totness","shapeISO":"","shapeID":"93971198B69078943336327","shapeGroup":"SUR","shapeType":"ADM2"}},
{"type":"Feature","geometry":{"type":"Polygon","coordinates":[[[-55.985480817737795,5.469708205084309],[-55.984051230775954,5.472858142457849],[-55.99747766016903,5.515667319498206],[-55.929871586508476,5.543083607434311],[-55.985171485471405,5.572992285182837],[-56.00479905524384,5.615051363266623],[-55.987975424010315,5.66053747734242],[-55.92971581214611,5.666145354420258],[-55.935802165821954,5.767140159261249],[-56.36183389586617,5.896224088974897],[-56.3573164393303,5.390113182699941],[-56.08954030886354,5.370485612927506],[-56.07972652397733,5.425318188799701],[-56.04794855386958,5.419866086085136],[-56.04420996915102,5.444945758572135],[-55.985480817737795,5.469708205084309]]]},"properties":{"shapeName":"Welgelegen","shapeISO":"","shapeID":"93971198B5728059707518","shapeGroup":"SUR","shapeType":"ADM2"}},
{"type":"Feature","geometry":{"type":"Polygon","coordinates":[[[-55.379988084153986,4.539740933591098],[-55.28029249165908,4.519490266365572],[-55.25381084990262,4.488023844984369],[-55.2902620509086,4.351253954030427],[-55.26658434769106,4.305456291228081],[-55.32359776464909,4.230061499403812],[-55.299608512705,4.206072247459725],[-55.32702480064111,4.121330993839059],[-55.29197764762851,3.964829077242827],[-55.12778939001495,4.103261167699372],[-55.05893712144817,4.103261167699372],[-55.01376255609888,4.176786667164361],[-54.955502944234674,4.11790395784706],[-54.94210634899314,4.161676553926854],[-54.88727377312095,4.189715939316044],[-54.908459086526086,4.426492971491437],[-54.827767966350535,4.519646040728862],[-54.83711442814693,4.669812526924307],[-54.79225141152423,4.710313861375361],[-54.773870036657975,4.824029146564857],[-54.72557998404326,4.886650440600718],[-54.77231229302526,4.958929745159521],[-54.846230614797804,4.986318941902069],[-54.87707730349677,4.977020322263707],[-55.00784313029487,4.965316494053755],[-55.07669539886166,4.94942750899988],[-55.10411168679775,4.984009417646548],[-55.17327550409107,4.975441827666518],[-55.15614032413101,4.930578811043812],[-55.18355661206712,4.807517064057918],[-55.222811751611985,4.793497371363323],[-55.253031978087,4.72557974897617],[-55.29773922034569,4.734147338956157],[-55.32017072865704,4.608281653431343],[-55.379988084153986,4.539740933591098]]]},"properties":{"shapeName":"Sarakreet","shapeISO":"","shapeID":"93971198B36157323571507","shapeGroup":"SUR","shapeType":"ADM2"}},
{"type":"Feature","geometry":{"type":"Polygon","coordinates":[[[-54.90040032971013,5.141025958722121],[-55.083393696482496,5.111744395530641],[-55.00908932520111,5.002390792512797],[-55.00784313029487,4.965316494053755],[-54.87707730349677,4.977020322263707],[-54.874032952243,5.045696065502762],[-54.912664994334776,5.075293194524686],[-54.887741096211045,5.120779308600484],[-54.90040032971013,5.141025958722121]]]},"properties":{"shapeName":"Centrum","shapeISO":"","shapeID":"93971198B67299458321601","shapeGroup":"SUR","shapeType":"ADM2"}},
{"type":"Feature","geometry":{"type":"Polygon","coordinates":[[[-55.29773922034569,4.734147338956157],[-55.253031978087,4.72557974897617],[-55.222811751611985,4.793497371363323],[-55.18355661206712,4.807517064057918],[-55.15614032413101,4.930578811043812],[-55.17327550409107,4.975441827666518],[-55.10411168679775,4.984009417646548],[-55.07669539886166,4.94942750899988],[-55.00784313029487,4.965316494053755],[-55.00908932520111,5.002390792512797],[-55.083393696482496,5.111744395530641],[-55.2910409227258,5.103410467095522],[-55.283252204562125,4.981594915015816],[-55.3038144205142,4.942651324197496],[-55.277332778757746,4.882833968700556],[-55.30319132306109,4.8423326342495],[-55.301627430440334,4.735258256126055],[-55.29773922034569,4.734147338956157]]]},"properties":{"shapeName":"BrownSweg","shapeISO":"","shapeID":"93971198B42151889919298","shapeGroup":"SUR","shapeType":"ADM2"}},
{"type":"Feature","geometry":{"type":"Polygon","coordinates":[[[-54.9879439921102,5.219668968135367],[-55.26331308606311,5.210271680300991],[-55.2910409227258,5.103410467095522],[-55.083393696482496,5.111744395530641],[-54.90040032971013,5.141025958722121],[-54.978246001272844,5.179662017917788],[-54.9879439921102,5.219668968135367]]]},"properties":{"shapeName":"Klaaskreek","shapeISO":"","shapeID":"93971198B88217520842745","shapeGroup":"SUR","shapeType":"ADM2"}},
{"type":"Feature","geometry":{"type":"Polygon","coordinates":[[[-55.22566569190153,5.326232377212218],[-55.26331308606311,5.210271680300991],[-54.9879439921102,5.219668968135367],[-54.95768378532078,5.278734512959599],[-55.02719978813106,5.33142688453636],[-55.11856590797919,5.343182811577449],[-55.22566569190153,5.326232377212218]]]},"properties":{"shapeName":"Marshallkreek","shapeISO":"","shapeID":"93971198B1585930264110","shapeGroup":"SUR","shapeType":"ADM2"}},
{"type":"Feature","geometry":{"type":"Polygon","coordinates":[[[-55.301627430440334,4.735258256126055],[-55.30319132306109,4.8423326342495],[-55.277332778757746,4.882833968700556],[-55.3038144205142,4.942651324197496],[-55.283252204562125,4.981594915015816],[-55.2910409227258,5.103410467095522],[-55.26331308606311,5.210271680300991],[-55.22566569190153,5.326232377212218],[-55.36489960192249,5.306188460631833],[-55.37920921233812,5.184179474452694],[-55.40226381810256,5.184179474452694],[-55.44027276274123,5.120000436784101],[-55.483578035731206,5.118131144424821],[-55.514421359659316,5.08245881523524],[-55.503205605503645,5.061273501830073],[-55.53878330176709,5.0578425714791],[-55.49089943080456,4.939769498476892],[-55.37500330452924,4.841320100888176],[-55.39369622812203,4.757825042173696],[-55.301627430440334,4.735258256126055]]]},"properties":{"shapeName":"Kwakoegron","shapeISO":"","shapeID":"93971198B32357559574331","shapeGroup":"SUR","shapeType":"ADM2"}},
{"type":"Feature","geometry":{"type":"Polygon","coordinates":[[[-55.12716629256222,5.87044343185316],[-55.12373925657021,5.855800641705471],[-55.08105708103333,5.871689626759347],[-55.041801941488465,5.878232150016824],[-55.031209284785874,5.940541895326137],[-54.978401775636236,5.941943864595596],[-54.98182881162823,5.997087989194336],[-55.0595602189016,6.007524871533646],[-55.17296395536456,5.976525773242262],[-55.17670254008311,5.946928644220338],[-55.10660407661014,5.885865093817212],[-55.12716629256222,5.87044343185316]]]},"properties":{"shapeName":"Margaretha","shapeISO":"","shapeID":"93971198B51080798731868","shapeGroup":"SUR","shapeType":"ADM2"}},
{"type":"Feature","geometry":{"type":"Polygon","coordinates":[[[-55.041801941488465,5.878232150016824],[-54.95690491350453,5.862343164962944],[-54.912197671245096,5.891784519621594],[-54.871696336794045,5.860941195693484],[-54.83212964852263,5.881503411645557],[-54.78290494972828,5.842559820827237],[-54.738353481832114,5.845986856819249],[-54.7162335222473,5.85595641606874],[-54.71945644884586,5.898243802735356],[-54.72776082512953,5.97683732196881],[-54.98182881162823,5.997087989194336],[-54.978401775636236,5.941943864595596],[-55.031209284785874,5.940541895326137],[-55.041801941488465,5.878232150016824]]]},"properties":{"shapeName":"Bakkie","shapeISO":"","shapeID":"93971198B42981087538347","shapeGroup":"SUR","shapeType":"ADM2"}},
{"type":"Feature","geometry":{"type":"Polygon","coordinates":[[[-55.08105708103333,5.871689626759347],[-55.08650918374791,5.803460455645643],[-55.0556658598198,5.795048640028886],[-55.02201859735277,5.797852578567805],[-54.98307500653445,5.850815862080721],[-54.96095504694963,5.830876743581741],[-54.95690491350453,5.862343164962944],[-55.041801941488465,5.878232150016824],[-55.08105708103333,5.871689626759347]]]},"properties":{"shapeName":"Almaar","shapeISO":"","shapeID":"93971198B3219809848629","shapeGroup":"SUR","shapeType":"ADM2"}},
{"type":"Feature","geometry":{"type":"Polygon","coordinates":[[[-55.12373925657021,5.855800641705471],[-55.14289950325282,5.817480148340239],[-55.117352507676,5.789752311677595],[-55.08650918374791,5.803460455645643],[-55.08105708103333,5.871689626759347],[-55.12373925657021,5.855800641705471]]]},"properties":{"shapeName":"Nieuw Amsterdam","shapeISO":"","shapeID":"93971198B39717830243745","shapeGroup":"SUR","shapeType":"ADM2"}},
{"type":"Feature","geometry":{"type":"Polygon","coordinates":[[[-54.95690491350453,5.862343164962944],[-54.96095504694963,5.830876743581741],[-54.98307500653445,5.850815862080721],[-55.02201859735277,5.797852578567805],[-55.0556658598198,5.795048640028886],[-55.023264792258956,5.746758587414167],[-54.74069009728121,5.680398708659746],[-54.70797748099384,5.696910791166712],[-54.702369603916,5.734919735805392],[-54.73757461001576,5.760155182655664],[-54.738353481832114,5.845986856819249],[-54.78290494972828,5.842559820827237],[-54.83212964852263,5.881503411645557],[-54.871696336794045,5.860941195693484],[-54.912197671245096,5.891784519621594],[-54.95690491350453,5.862343164962944]]]},"properties":{"shapeName":"Tamanredjo","shapeISO":"","shapeID":"93971198B9703952996753","shapeGroup":"SUR","shapeType":"ADM2"}},
{"type":"Feature","geometry":{"type":"Polygon","coordinates":[[[-55.00476950310044,5.473946553137347],[-54.63632127388797,5.536385309813603],[-54.63242691480622,5.589270706144872],[-54.65735081292994,5.582416634160849],[-54.65735081292994,5.651580451454185],[-54.70797748099384,5.696910791166712],[-54.74069009728121,5.680398708659746],[-55.023264792258956,5.746758587414167],[-55.0556658598198,5.795048640028886],[-55.08650918374791,5.803460455645643],[-55.117352507676,5.789752311677595],[-55.14289950325282,5.817480148340239],[-55.14990934960011,5.821218733058791],[-55.1818370128905,5.819666402397789],[-55.18750273762945,5.810683887296472],[-55.18137577098131,5.79598328620852],[-55.1767581737841,5.787087457391419],[-55.14688871731843,5.752362299748455],[-55.093363255731724,5.698702196344364],[-55.043203910757725,5.67907462657193],[-55.10707139969978,5.604302932200754],[-55.06843935760801,5.611157004184778],[-55.06781626015493,5.514888447681887],[-55.00476950310044,5.473946553137347]]]},"properties":{"shapeName":"Meerzorg","shapeISO":"","shapeID":"93971198B92210653043495","shapeGroup":"SUR","shapeType":"ADM2"}},
{"type":"Feature","geometry":{"type":"Polygon","coordinates":[[[-54.71945644884586,5.898243802735356],[-54.526078370849696,5.885499387348069],[-54.28691937706602,5.852217831350169],[-54.26074928403611,5.829163225585723],[-54.260437735309566,5.740683387246499],[-54.198823895036156,5.656254528952162],[-54.162922983900486,5.631329784228654],[-54.09656310514607,5.646595671829435],[-54.088151289529314,5.630706686775561],[-54.036122652196035,5.665911692875323],[-53.985028661042435,5.753456885034908],[-54.01961056968909,5.831344066671551],[-54.2003088310861,5.891784519621583],[-54.72776082512953,5.97683732196881],[-54.71945644884586,5.898243802735356]]]},"properties":{"shapeName":"Galibi","shapeISO":"","shapeID":"93971198B48007723073023","shapeGroup":"SUR","shapeType":"ADM2"}},
{"type":"Feature","geometry":{"type":"Polygon","coordinates":[[[-54.198823895036156,5.656254528952162],[-54.22990596010797,5.642233989657779],[-54.175384932962324,5.580858890528107],[-54.14917339807346,5.354812360671099],[-54.020856764595244,5.543473043342519],[-54.01088720534575,5.631952881681744],[-54.036122652196035,5.665911692875323],[-54.088151289529314,5.630706686775561],[-54.09656310514607,5.646595671829435],[-54.162922983900486,5.631329784228654],[-54.198823895036156,5.656254528952162]]]},"properties":{"shapeName":"Albina","shapeISO":"","shapeID":"93971198B8075185621590","shapeGroup":"SUR","shapeType":"ADM2"}},
{"type":"Feature","geometry":{"type":"Polygon","coordinates":[[[-54.260437735309566,5.740683387246499],[-54.35452545072659,5.73102537672355],[-54.31620495736134,5.491444406009243],[-54.15046103483855,5.350157058520375],[-54.14917339807346,5.354812360671099],[-54.175384932962324,5.580858890528107],[-54.22990596010797,5.642233989657779],[-54.198823895036156,5.656254528952162],[-54.260437735309566,5.740683387246499]]]},"properties":{"shapeName":"Moengotapoe","shapeISO":"","shapeID":"93971198B59024113358190","shapeGroup":"SUR","shapeType":"ADM2"}},
{"type":"Feature","geometry":{"type":"Polygon","coordinates":[[[-54.31651650608756,5.205832110947672],[-54.27040729455894,5.270400584524453],[-54.15046103483855,5.350157058520375],[-54.31620495736134,5.491444406009243],[-54.63242691480622,5.589270706144872],[-54.63632127388797,5.536385309813603],[-54.63834634061021,5.374691520735913],[-54.5212040194287,5.305527703442575],[-54.48132578243072,5.310824031793865],[-54.31651650608756,5.205832110947672]]]},"properties":{"shapeName":"Patamacca","shapeISO":"","shapeID":"93971198B71150220201851","shapeGroup":"SUR","shapeType":"ADM2"}},
{"type":"Feature","geometry":{"type":"Polygon","coordinates":[[[-54.526078370849696,5.885499387348069],[-54.538339199388965,5.715915263486039],[-54.35452545072659,5.73102537672355],[-54.260437735309566,5.740683387246499],[-54.26074928403611,5.829163225585723],[-54.28691937706602,5.852217831350169],[-54.526078370849696,5.885499387348069]]]},"properties":{"shapeName":"Wanhatti","shapeISO":"","shapeID":"93971198B26814124309823","shapeGroup":"SUR","shapeType":"ADM2"}},
{"type":"Feature","geometry":{"type":"Polygon","coordinates":[[[-54.738353481832114,5.845986856819249],[-54.73757461001576,5.760155182655664],[-54.702369603916,5.734919735805392],[-54.70797748099384,5.696910791166712],[-54.65735081292994,5.651580451454185],[-54.65735081292994,5.582416634160849],[-54.63242691480622,5.589270706144872],[-54.31620495736134,5.491444406009243],[-54.35452545072659,5.73102537672355],[-54.538339199388965,5.715915263486039],[-54.526078370849696,5.885499387348069],[-54.71945644884586,5.898243802735356],[-54.7162335222473,5.85595641606874],[-54.738353481832114,5.845986856819249]]]},"properties":{"shapeName":"Moengo","shapeISO":"","shapeID":"93971198B20856406880104","shapeGroup":"SUR","shapeType":"ADM2"}},
{"type":"Feature","geometry":{"type":"Polygon","coordinates":[[[-55.218917392529896,5.841002077194486],[-55.208908889689575,5.835549974479921],[-55.2174764796696,5.890694099078662],[-55.22857540305284,5.890226775988843],[-55.218917392529896,5.841002077194486]]]},"properties":{"shapeName":"Munder","shapeISO":"","shapeID":"93971198B65668744282627","shapeGroup":"SUR","shapeType":"ADM2"}},
{"type":"Feature","geometry":{"type":"Polygon","coordinates":[[[-55.14990934960011,5.821218733058791],[-55.19301990463568,5.850815862080698],[-55.188035125010934,5.90175407887106],[-55.2174764796696,5.890694099078662],[-55.208908889689575,5.835549974479921],[-55.1818370128905,5.819666402397789],[-55.14990934960011,5.821218733058791]]]},"properties":{"shapeName":"Rainville","shapeISO":"","shapeID":"93971198B89671256308393","shapeGroup":"SUR","shapeType":"ADM2"}},
{"type":"Feature","geometry":{"type":"Polygon","coordinates":[[[-55.12716629256222,5.87044343185316],[-55.188035125010934,5.90175407887106],[-55.19301990463568,5.850815862080698],[-55.14990934960011,5.821218733058791],[-55.14289950325282,5.817480148340239],[-55.12373925657021,5.855800641705471],[-55.12716629256222,5.87044343185316]]]},"properties":{"shapeName":"Blauwgrond","shapeISO":"","shapeID":"93971198B56648857464016","shapeGroup":"SUR","shapeType":"ADM2"}},
{"type":"Feature","geometry":{"type":"Polygon","coordinates":[[[-55.22359062342808,5.826982384499891],[-55.227913362008884,5.805719183913084],[-55.22386322856378,5.81600029188912],[-55.22359062342808,5.826982384499891]]]},"properties":{"shapeName":"Flora","shapeISO":"","shapeID":"93971198B54086577669133","shapeGroup":"SUR","shapeType":"ADM2"}},
{"type":"Feature","geometry":{"type":"Polygon","coordinates":[[[-55.1818370128905,5.819666402397789],[-55.208908889689575,5.835549974479921],[-55.218917392529896,5.841002077194486],[-55.22359062342808,5.826982384499891],[-55.22386322856378,5.81600029188912],[-55.18750273762945,5.810683887296472],[-55.1818370128905,5.819666402397789]]]},"properties":{"shapeName":"Centrum","shapeISO":"","shapeID":"93971198B59726276873513","shapeGroup":"SUR","shapeType":"ADM2"}},
{"type":"Feature","geometry":{"type":"Polygon","coordinates":[[[-55.24831980359769,5.790686957857212],[-55.253529386770175,5.781722876450287],[-55.207517363793805,5.777217157623848],[-55.20735114605681,5.777212475434074],[-55.24831980359769,5.790686957857212]]]},"properties":{"shapeName":"Pontibuiten","shapeISO":"","shapeID":"93971198B33771230340661","shapeGroup":"SUR","shapeType":"ADM2"}},
{"type":"Feature","geometry":{"type":"Polygon","coordinates":[[[-55.18750273762945,5.810683887296472],[-55.22386322856378,5.81600029188912],[-55.227913362008884,5.805719183913084],[-55.18137577098131,5.79598328620852],[-55.18750273762945,5.810683887296472]]]},"properties":{"shapeName":"Livornio","shapeISO":"","shapeID":"93971198B37830600094273","shapeGroup":"SUR","shapeType":"ADM2"}},
{"type":"Feature","geometry":{"type":"Polygon","coordinates":[[[-55.92614662911037,5.527769319352466],[-55.89466658040945,5.508345924424404],[-55.911801760369514,5.481241185214854],[-55.93672565849324,5.491522293190891],[-55.932052427595046,5.435755071139054],[-55.908063175650966,5.434197327506322],[-55.93984114575871,5.38621882361815],[-55.88812405715196,5.413946660280791],[-55.63397260623961,5.425494271543222],[-55.633544306053736,5.456550032316248],[-55.56350357072717,5.521733356468058],[-55.56804760053585,5.580805743980637],[-55.61536818681913,5.611517117859855],[-55.601200144034046,5.668107382506705],[-55.66378560788384,5.675603607230265],[-55.668486328375565,5.865512715095639],[-55.94817919763272,5.861438757336151],[-55.919661493316305,5.83198090892139],[-55.935802165821954,5.767140159261249],[-55.92971581214611,5.666145354420258],[-55.987975424010315,5.66053747734242],[-56.00479905524384,5.615051363266623],[-55.985171485471405,5.572992285182837],[-55.929871586508476,5.543083607434311],[-55.92614662911037,5.527769319352466]]]},"properties":{"shapeName":"Calcutta","shapeISO":"","shapeID":"93971198B85277795494184","shapeGroup":"SUR","shapeType":"ADM2"}},
{"type":"Feature","geometry":{"type":"Polygon","coordinates":[[[-55.601200144034046,5.668107382506705],[-55.539843277585504,5.721043905316869],[-55.52981507386984,5.821325942473502],[-55.56177997321352,5.826653425697447],[-55.572748321027525,5.858618325041125],[-55.668486328375565,5.865512715095639],[-55.66378560788384,5.675603607230265],[-55.601200144034046,5.668107382506705]]]},"properties":{"shapeName":"Tijgerkreek","shapeISO":"","shapeID":"93971198B48960256202941","shapeGroup":"SUR","shapeType":"ADM2"}},
{"type":"Feature","geometry":{"type":"Polygon","coordinates":[[[-55.539843277585504,5.721043905316869],[-55.48985894969028,5.760921684154938],[-55.484218085100224,5.820620834399746],[-55.572748321027525,5.858618325041125],[-55.56177997321352,5.826653425697447],[-55.52981507386984,5.821325942473502],[-55.539843277585504,5.721043905316869]]]},"properties":{"shapeName":"Groningen","shapeISO":"","shapeID":"93971198B74436417809264","shapeGroup":"SUR","shapeType":"ADM2"}},
{"type":"Feature","geometry":{"type":"Polygon","coordinates":[[[-55.48985894969028,5.760921684154938],[-55.4646317497181,5.786618956176325],[-55.423892172123224,5.758414633226022],[-55.3455468305946,5.763428735083854],[-55.32902426368452,5.809601875900009],[-55.330504525021105,5.835506449290183],[-55.484218085100224,5.820620834399746],[-55.48985894969028,5.760921684154938]]]},"properties":{"shapeName":"Jarikaba","shapeISO":"","shapeID":"93971198B41549192400182","shapeGroup":"SUR","shapeType":"ADM2"}},
{"type":"Feature","geometry":{"type":"Polygon","coordinates":[[[-55.668486328375565,5.865512715095639],[-55.572748321027525,5.858618325041125],[-55.484218085100224,5.820620834399746],[-55.330504525021105,5.835506449290183],[-55.33033020264713,5.841433410005232],[-55.32768409272609,5.931401147321214],[-55.60157940671015,5.97699813609087],[-55.75153239039594,5.966813241692153],[-55.88330925484707,5.940489206938535],[-55.95899085476374,5.886900993332961],[-55.94817919763272,5.861438757336151],[-55.668486328375565,5.865512715095639]]]},"properties":{"shapeName":"Wayamboweg","shapeISO":"","shapeID":"93971198B6398497569253","shapeGroup":"SUR","shapeType":"ADM2"}},
{"type":"Feature","geometry":{"type":"Polygon","coordinates":[[[-55.48466845627413,5.435910845502326],[-55.46597553268141,5.450086312560194],[-55.45257893743991,5.426097060616109],[-55.45444822979919,5.454447994731846],[-55.437001501112576,5.440428302037251],[-55.38777680231822,5.490899195737793],[-55.427343490589635,5.542616284344521],[-55.382792022693486,5.601498993661829],[-55.4170623826136,5.641377230659792],[-55.35103736324141,5.647697907701973],[-55.37704165788917,5.692134474292817],[-55.35663852364711,5.744823896538938],[-55.3455468305946,5.763428735083854],[-55.423892172123224,5.758414633226022],[-55.4646317497181,5.786618956176325],[-55.48985894969028,5.760921684154938],[-55.539843277585504,5.721043905316869],[-55.601200144034046,5.668107382506705],[-55.61536818681913,5.611517117859855],[-55.56804760053585,5.580805743980637],[-55.56350357072717,5.521733356468058],[-55.633544306053736,5.456550032316248],[-55.63397260623961,5.425494271543222],[-55.48466845627413,5.435910845502326]]]},"properties":{"shapeName":"Kampong Baroe","shapeISO":"","shapeID":"93971198B39924248316405","shapeGroup":"SUR","shapeType":"ADM2"}},
{"type":"Feature","geometry":{"type":"Polygon","coordinates":[[[-55.27748855312065,5.906738858495811],[-55.32768409272609,5.931401147321214],[-55.33033020264713,5.841433410005232],[-55.25693330735762,5.826267024214248],[-55.25692633716857,5.844117564459951],[-55.27811165057374,5.857202610974907],[-55.27748855312065,5.906738858495811]]]},"properties":{"shapeName":"Kwatta","shapeISO":"","shapeID":"93971198B97783973915980","shapeGroup":"SUR","shapeType":"ADM2"}},
{"type":"Feature","geometry":{"type":"Polygon","coordinates":[[[-55.18137577098131,5.79598328620852],[-55.227913362008884,5.805719183913084],[-55.22359062342808,5.826982384499891],[-55.218917392529896,5.841002077194486],[-55.25692633716857,5.844117564459951],[-55.25693330735762,5.826267024214248],[-55.33033020264713,5.841433410005232],[-55.330504525021105,5.835506449290183],[-55.32902426368452,5.809601875900009],[-55.24831980359769,5.790686957857212],[-55.20735114605681,5.777212475434074],[-55.1767581737841,5.787087457391419],[-55.18137577098131,5.79598328620852]]]},"properties":{"shapeName":"Saramacca Polder","shapeISO":"","shapeID":"93971198B62899333828464","shapeGroup":"SUR","shapeType":"ADM2"}},
{"type":"Feature","geometry":{"type":"Polygon","coordinates":[[[-55.32902426368452,5.809601875900009],[-55.3455468305946,5.763428735083854],[-55.35663852364711,5.744823896538938],[-55.274017533779066,5.732012253130884],[-55.253529386770175,5.781722876450287],[-55.24831980359769,5.790686957857212],[-55.32902426368452,5.809601875900009]]]},"properties":{"shapeName":"Koewarasan","shapeISO":"","shapeID":"93971198B6923625999642","shapeGroup":"SUR","shapeType":"ADM2"}},
{"type":"Feature","geometry":{"type":"Polygon","coordinates":[[[-55.093363255731724,5.698702196344364],[-55.14688871731843,5.752362299748455],[-55.16919146681378,5.724647791027195],[-55.14961773380371,5.686462817787948],[-55.10613675352013,5.66723577496316],[-55.093363255731724,5.698702196344364]]]},"properties":{"shapeName":"Domburg","shapeISO":"","shapeID":"93971198B63054852933738","shapeGroup":"SUR","shapeType":"ADM2"}},
{"type":"Feature","geometry":{"type":"Polygon","coordinates":[[[-55.14961773380371,5.686462817787948],[-55.16919146681378,5.724647791027195],[-55.14688871731843,5.752362299748455],[-55.1767581737841,5.787087457391419],[-55.20735114605681,5.777212475434074],[-55.207517363793805,5.777217157623848],[-55.21243809533759,5.731542181081713],[-55.192695069272375,5.721200595999935],[-55.19991292021065,5.672843652040998],[-55.14961773380371,5.686462817787948]]]},"properties":{"shapeName":"Houttuin","shapeISO":"","shapeID":"93971198B84478829429785","shapeGroup":"SUR","shapeType":"ADM2"}},
{"type":"Feature","geometry":{"type":"Polygon","coordinates":[[[-55.253529386770175,5.781722876450287],[-55.274017533779066,5.732012253130884],[-55.22544342203134,5.714932968677648],[-55.21243809533759,5.731542181081713],[-55.207517363793805,5.777217157623848],[-55.253529386770175,5.781722876450287]]]},"properties":{"shapeName":"De Nieuwe Grond","shapeISO":"","shapeID":"93971198B87571320518547","shapeGroup":"SUR","shapeType":"ADM2"}},
{"type":"Feature","geometry":{"type":"Polygon","coordinates":[[[-55.217359648897244,5.655708472080934],[-55.19991292021065,5.672843652040998],[-55.192695069272375,5.721200595999935],[-55.21243809533759,5.731542181081713],[-55.22544342203134,5.714932968677648],[-55.274017533779066,5.732012253130884],[-55.35663852364711,5.744823896538938],[-55.37704165788917,5.692134474292817],[-55.35103736324141,5.647697907701973],[-55.217359648897244,5.655708472080934]]]},"properties":{"shapeName":"Lelydorp","shapeISO":"","shapeID":"93971198B51186528794975","shapeGroup":"SUR","shapeType":"ADM2"}}
]}