{"type":"FeatureCollection", "features": [
{"type":"Feature","geometry":{"type":"Polygon","coordinates":[[[31.18457,-25.8739],[31.2026,-25.88635],[31.2103,-25.8826],[31.21646,-25.89244],[31.22493,-25.88695],[31.21987,-25.8819],[31.25033,-25.85862],[31.27725,-25.89278],[31.28469,-25.89098],[31.28925,-25.90414],[31.29849,-25.89909],[31.30157,-25.91361],[31.3216,-25.90989],[31.32272,-25.92492],[31.33091,-25.90897],[31.39423,-25.89326],[31.4277664,-25.9168651],[31.43916,-25.92048],[31.45842,-25.91115],[31.448,-25.86365],[31.45652,-25.82253],[31.41505,-25.83563],[31.41348,-25.81457],[31.39067,-25.78555],[31.39185,-25.7592],[31.3765808,-25.7283759],[31.31594,-25.74304],[31.26357,-25.80963],[31.18457,-25.8739]]]},"properties":{"shapeName":"Inkhundla Ntfonjeni","shapeISO":"","shapeID":"25544865B10788448603865","shapeGroup":"SWZ","shapeType":"ADM2"}},
{"type":"Feature","geometry":{"type":"Polygon","coordinates":[[[31.48639,-26.90767],[31.50962,-26.92676],[31.51123,-26.94558],[31.5392669,-26.970734],[31.5519134,-26.9679524],[31.5571624,-26.9739292],[31.5628994,-26.9655091],[31.5656273,-26.9743037],[31.5706425,-26.9677712],[31.585539,-26.9696648],[31.5782975,-26.9749409],[31.5854067,-26.9772934],[31.602523,-26.978447],[31.61733,-27.01212],[31.69281,-27.04064],[31.70692,-27.00776],[31.7040641,-26.981744],[31.7096926,-26.9746195],[31.7220192,-26.9766294],[31.7288961,-26.9393101],[31.7458989,-26.941822],[31.7498378,-26.9212277],[31.7579488,-26.9236],[31.7534276,-26.9143538],[31.7343863,-26.9007153],[31.7638969,-26.8595022],[31.82355,-26.8453],[31.82489,-26.83418],[31.84384,-26.82576],[31.82653,-26.80955],[31.82179,-26.79135],[31.80511,-26.78332],[31.82618,-26.75375],[31.785,-26.74443],[31.74993,-26.75874],[31.74694,-26.73509],[31.72772,-26.73051],[31.7088,-26.74299],[31.68306,-26.73926],[31.68325,-26.75109],[31.67061,-26.74945],[31.66567,-26.7617],[31.63296,-26.75291],[31.62053,-26.76753],[31.58841,-26.76701],[31.5650227,-26.7812698],[31.55305,-26.78012],[31.53957,-26.81166],[31.5457,-26.83603],[31.51197,-26.86237],[31.51456,-26.87444],[31.48639,-26.90767]]]},"properties":{"shapeName":"Inkhundla Sithobela","shapeISO":"","shapeID":"25544865B34685739182114","shapeGroup":"SWZ","shapeType":"ADM2"}},
{"type":"Feature","geometry":{"type":"Polygon","coordinates":[[[31.8755083,-25.9962468],[31.91816,-26.06776],[31.9474,-26.07939],[31.96513,-26.09883],[31.9750758,-26.1427479],[31.9860278,-26.149975],[31.9951774,-26.1342181],[32.0126439,-26.1371693],[32.0040866,-26.1129951],[32.0242766,-26.1067124],[32.0181028,-26.133594],[32.030883,-26.1509226],[32.0271579,-26.1711297],[32.0340587,-26.1742957],[32.0518428,-26.1792023],[32.0802442,-26.1669314],[32.0984403,-26.1941367],[32.1053495,-26.1616842],[32.0871127,-26.00893],[32.0062989,-26.0004101],[31.9751905,-25.9526462],[31.8755083,-25.9962468]]]},"properties":{"shapeName":"Inkhundla Lomahasha","shapeISO":"","shapeID":"25544865B99062950351047","shapeGroup":"SWZ","shapeType":"ADM2"}},
{"type":"Feature","geometry":{"type":"Polygon","coordinates":[[[31.45842,-25.91115],[31.51267,-25.92696],[31.56371,-25.94043],[31.58618,-25.93154],[31.57719,-25.90544],[31.58425,-25.89176],[31.5831123,-25.8224677],[31.4935387,-25.7664993],[31.47702,-25.80197],[31.45652,-25.82253],[31.448,-25.86365],[31.45842,-25.91115]]]},"properties":{"shapeName":"Inkhundla Mayiwane","shapeISO":"","shapeID":"25544865B478936886015","shapeGroup":"SWZ","shapeType":"ADM2"}},
{"type":"Feature","geometry":{"type":"Polygon","coordinates":[[[31.14524,-26.56781],[31.16664,-26.58865],[31.18786,-26.58657],[31.20856,-26.59542],[31.23248,-26.58811],[31.23978,-26.56833],[31.25326,-26.55852],[31.26361,-26.5582],[31.27362,-26.57088],[31.28439,-26.56602],[31.29524,-26.55339],[31.28649,-26.54649],[31.29083,-26.52517],[31.28007,-26.50918],[31.30257,-26.49736],[31.29716,-26.48933],[31.28122,-26.50133],[31.27549,-26.48567],[31.25414,-26.48178],[31.24939,-26.47041],[31.23889,-26.47032],[31.23574,-26.48086],[31.22259,-26.46159],[31.20783,-26.4769],[31.19045,-26.48192],[31.17456,-26.46048],[31.17914,-26.45462],[31.15613,-26.45206],[31.15747,-26.47458],[31.16856,-26.47741],[31.17955,-26.50075],[31.15522,-26.50716],[31.16078,-26.5199],[31.14524,-26.56781]]]},"properties":{"shapeName":"Inkhundla Lobamba Lomdzala","shapeISO":"","shapeID":"25544865B34584477207861","shapeGroup":"SWZ","shapeType":"ADM2"}},
{"type":"Feature","geometry":{"type":"Polygon","coordinates":[[[31.17263,-26.24027],[31.1867,-26.24676],[31.1653,-26.27493],[31.18044,-26.29495],[31.17439,-26.34941],[31.16348,-26.34439],[31.15595,-26.34941],[31.15937,-26.36846],[31.21018,-26.37122],[31.25629,-26.42461],[31.26618,-26.40632],[31.26328,-26.38743],[31.28442,-26.36116],[31.27592,-26.34384],[31.28391,-26.32773],[31.28302,-26.2981],[31.26855,-26.29495],[31.25388,-26.27193],[31.23179,-26.26495],[31.21881,-26.24717],[31.21757,-26.22657],[31.2032,-26.21653],[31.18578,-26.21851],[31.17263,-26.24027]]]},"properties":{"shapeName":"Inkhundla Hhukwini","shapeISO":"","shapeID":"25544865B11475880596120","shapeGroup":"SWZ","shapeType":"ADM2"}},
{"type":"Feature","geometry":{"type":"Polygon","coordinates":[[[31.60385,-27.24762],[31.61256,-27.25923],[31.60075,-27.30798],[31.6092491,-27.3158893],[31.8101998,-27.3168995],[31.80189,-27.30179],[31.81839,-27.26953],[31.80999,-27.19683],[31.8198,-27.13737],[31.81242,-27.10366],[31.8174495,-27.0902339],[31.790151,-27.0884233],[31.7892518,-27.0708589],[31.7742272,-27.0602658],[31.7623864,-27.0637465],[31.779214,-27.0787713],[31.7607185,-27.0770485],[31.7521869,-27.1061448],[31.7307995,-27.092584],[31.6960092,-27.1332534],[31.6799328,-27.1220594],[31.6662454,-27.1338788],[31.6667969,-27.1682179],[31.6550924,-27.1848937],[31.6419511,-27.1881156],[31.60385,-27.24762]]]},"properties":{"shapeName":"Inkhundla Matsanjeni","shapeISO":"","shapeID":"25544865B33657580683918","shapeGroup":"SWZ","shapeType":"ADM2"}},
{"type":"Feature","geometry":{"type":"Polygon","coordinates":[[[31.4468,-26.4777],[31.45432,-26.48974],[31.49792,-26.51118],[31.51266,-26.53242],[31.54819,-26.53631],[31.57296,-26.52951],[31.61258,-26.51839],[31.60085,-26.41536],[31.62771,-26.40062],[31.62685,-26.38208],[31.66764,-26.35112],[31.65759,-26.34207],[31.6252,-26.34879],[31.61529,-26.33536],[31.60025,-26.33418],[31.60083,-26.34997],[31.55869,-26.37578],[31.5534,-26.38902],[31.52831,-26.38194],[31.52179,-26.39635],[31.49983,-26.40333],[31.50381,-26.42225],[31.47794,-26.42818],[31.46974,-26.41833],[31.46628,-26.42715],[31.45741,-26.42617],[31.454,-26.46998],[31.4468,-26.4777]]]},"properties":{"shapeName":"Inkhundla Mafutseni","shapeISO":"","shapeID":"25544865B4547818203338","shapeGroup":"SWZ","shapeType":"ADM2"}},
{"type":"Feature","geometry":{"type":"Polygon","coordinates":[[[31.2296574,-27.228141],[31.38503,-27.2793192],[31.38763,-27.25509],[31.40794,-27.22613],[31.3899,-27.20571],[31.39429,-27.16625],[31.40622,-27.12798],[31.39515,-27.11426],[31.36612,-27.11529],[31.34163,-27.10716],[31.34132,-27.09853],[31.33191,-27.10099],[31.3203,-27.08863],[31.29899,-27.1366],[31.25429,-27.14157],[31.26924,-27.18331],[31.23891,-27.19132],[31.245,-27.21466],[31.2296574,-27.228141]]]},"properties":{"shapeName":"Inkhundla Zombodze","shapeISO":"","shapeID":"25544865B75252057291440","shapeGroup":"SWZ","shapeType":"ADM2"}},
{"type":"Feature","geometry":{"type":"Polygon","coordinates":[[[31.45652,-25.82253],[31.47702,-25.80197],[31.4935387,-25.7664993],[31.4163,-25.71876],[31.3765808,-25.7283759],[31.39185,-25.7592],[31.39067,-25.78555],[31.41348,-25.81457],[31.41505,-25.83563],[31.45652,-25.82253]]]},"properties":{"shapeName":"Inkhundla Timpisini","shapeISO":"","shapeID":"25544865B14062061502324","shapeGroup":"SWZ","shapeType":"ADM2"}},
{"type":"Feature","geometry":{"type":"Polygon","coordinates":[[[31.94944,-26.5129],[31.97599,-26.54724],[32.01327,-26.63061],[32.0208,-26.67841],[32.01651,-26.7243],[32.01055,-26.77992],[32.0212335,-26.8071782],[32.0539999,-26.8183701],[32.1001399,-26.8051001],[32.1194199,-26.8380499],[32.134622,-26.8402618],[32.1349923,-26.52725],[32.1057876,-26.4655673],[32.08248,-26.46926],[32.07482,-26.48393],[32.06454,-26.48655],[32.05616,-26.47917],[32.03791,-26.48858],[32.02767,-26.48258],[31.96718,-26.49321],[31.94944,-26.5129]]]},"properties":{"shapeName":"Inkhundla Tikhuba","shapeISO":"","shapeID":"25544865B99429407754877","shapeGroup":"SWZ","shapeType":"ADM2"}},
{"type":"Feature","geometry":{"type":"Polygon","coordinates":[[[31.8101998,-27.3168995],[31.9777599,-27.3175201],[31.9748403,-27.16605],[31.90276,-27.16437],[31.90914,-27.14633],[31.86079,-27.14405],[31.86187,-27.1078],[31.84159,-27.10728],[31.8174495,-27.0902339],[31.81242,-27.10366],[31.8198,-27.13737],[31.80999,-27.19683],[31.81839,-27.26953],[31.80189,-27.30179],[31.8101998,-27.3168995]]]},"properties":{"shapeName":"Inkhundla Somntongo","shapeISO":"","shapeID":"25544865B68491225088815","shapeGroup":"SWZ","shapeType":"ADM2"}},
{"type":"Feature","geometry":{"type":"Polygon","coordinates":[[[31.82618,-26.75375],[31.83814,-26.75219],[31.8534,-26.74445],[31.84748,-26.73041],[31.86024,-26.72199],[31.85463,-26.71385],[31.84061,-26.72449],[31.81154,-26.6924],[31.79492,-26.6623],[31.80584,-26.65593],[31.76005,-26.58857],[31.72636,-26.60424],[31.70654,-26.57542],[31.67009,-26.59609],[31.63762,-26.54644],[31.63031,-26.56513],[31.58947,-26.5662],[31.60157,-26.6375],[31.53778,-26.66006],[31.52841,-26.67322],[31.51115,-26.67014],[31.50805,-26.69602],[31.48644,-26.72546],[31.48113,-26.77139],[31.48871,-26.77971],[31.55647,-26.76786],[31.55305,-26.78012],[31.5650227,-26.7812698],[31.58841,-26.76701],[31.62053,-26.76753],[31.63296,-26.75291],[31.66567,-26.7617],[31.67061,-26.74945],[31.68325,-26.75109],[31.68306,-26.73926],[31.7088,-26.74299],[31.72772,-26.73051],[31.74694,-26.73509],[31.74993,-26.75874],[31.785,-26.74443],[31.82618,-26.75375]]]},"properties":{"shapeName":"Inkhundla Siphofaneni","shapeISO":"","shapeID":"25544865B49995279620890","shapeGroup":"SWZ","shapeType":"ADM2"}},
{"type":"Feature","geometry":{"type":"Polygon","coordinates":[[[31.60385,-27.24762],[31.5853782,-27.2481806],[31.54592,-27.23043],[31.53411,-27.23513],[31.51433,-27.22963],[31.49952,-27.20674],[31.44485,-27.20008],[31.44556,-27.18808],[31.42216,-27.16566],[31.42062,-27.14948],[31.40763,-27.16681],[31.39429,-27.16625],[31.3899,-27.20571],[31.40794,-27.22613],[31.38763,-27.25509],[31.38503,-27.2793192],[31.4936899,-27.3151601],[31.6092491,-27.3158893],[31.60075,-27.30798],[31.61256,-27.25923],[31.60385,-27.24762]]]},"properties":{"shapeName":"Inkhundla Shiselweni","shapeISO":"","shapeID":"25544865B11062726816998","shapeGroup":"SWZ","shapeType":"ADM2"}},
{"type":"Feature","geometry":{"type":"Polygon","coordinates":[[[31.39515,-27.11426],[31.40777,-27.10198],[31.42595,-27.10498],[31.41901,-27.08858],[31.49916,-27.08957],[31.5183,-27.02929],[31.49691,-27.01599],[31.50129,-26.99384],[31.48426,-26.98072],[31.45959,-26.97341],[31.40431,-27.03294],[31.36738,-27.0429],[31.36726,-27.06778],[31.35556,-27.07634],[31.3419,-27.07578],[31.33549,-27.0583],[31.31477,-27.05455],[31.3203,-27.08863],[31.33191,-27.10099],[31.34132,-27.09853],[31.34163,-27.10716],[31.36612,-27.11529],[31.39515,-27.11426]]]},"properties":{"shapeName":"Inkhundla Sandleni","shapeISO":"","shapeID":"25544865B96981286977121","shapeGroup":"SWZ","shapeType":"ADM2"}},
{"type":"Feature","geometry":{"type":"Polygon","coordinates":[[[31.18457,-25.8739],[31.12657,-25.92115],[31.11275,-25.98257],[31.0849638,-26.0364693],[31.10793,-26.03483],[31.10442,-26.05613],[31.11544,-26.06074],[31.12299,-26.0525],[31.15374,-26.05392],[31.16589,-26.04018],[31.18509,-26.0659],[31.20795,-26.06493],[31.23201,-26.05233],[31.25501,-26.0598],[31.24668,-26.07144],[31.2633,-26.07448],[31.27068,-26.08832],[31.29098,-26.07327],[31.29936,-26.08769],[31.32261,-26.07427],[31.33078,-26.08527],[31.34545,-26.0829],[31.34472,-26.06619],[31.30748,-26.04287],[31.31552,-26.03399],[31.311471,-26.0162332],[31.3585251,-26.0237285],[31.3560887,-26.0091221],[31.3874992,-25.9770977],[31.344121,-25.9461704],[31.3650131,-25.9275567],[31.4175059,-25.9565739],[31.4277664,-25.9168651],[31.39423,-25.89326],[31.33091,-25.90897],[31.32272,-25.92492],[31.3216,-25.90989],[31.30157,-25.91361],[31.29849,-25.89909],[31.28925,-25.90414],[31.28469,-25.89098],[31.27725,-25.89278],[31.25033,-25.85862],[31.21987,-25.8819],[31.22493,-25.88695],[31.21646,-25.89244],[31.2103,-25.8826],[31.2026,-25.88635],[31.18457,-25.8739]]]},"properties":{"shapeName":"Inkhundla Piggs Peak","shapeISO":"","shapeID":"25544865B91965971492812","shapeGroup":"SWZ","shapeType":"ADM2"}},
{"type":"Feature","geometry":{"type":"Polygon","coordinates":[[[31.16664,-26.58865],[31.15706,-26.59527],[31.13606,-26.58855],[31.05668,-26.61995],[31.0527,-26.63687],[31.05999,-26.64215],[31.095,-26.63387],[31.10774,-26.63867],[31.11595,-26.63123],[31.14576,-26.6429],[31.16034,-26.62972],[31.1989,-26.64669],[31.22241,-26.64421],[31.23459,-26.6631],[31.2506,-26.66276],[31.26616,-26.67812],[31.28388,-26.67573],[31.29323,-26.6994],[31.30466,-26.71073],[31.34251,-26.71145],[31.36319,-26.69451],[31.38415,-26.69381],[31.39837,-26.67754],[31.39125,-26.68145],[31.37595,-26.66448],[31.37089,-26.638],[31.35066,-26.61396],[31.33206,-26.60494],[31.33432,-26.59621],[31.3202,-26.59214],[31.3154,-26.60082],[31.30607,-26.58743],[31.29385,-26.58894],[31.28439,-26.56602],[31.27362,-26.57088],[31.26361,-26.5582],[31.25326,-26.55852],[31.23978,-26.56833],[31.23248,-26.58811],[31.20856,-26.59542],[31.18786,-26.58657],[31.16664,-26.58865]]]},"properties":{"shapeName":"Inkhundla Ntondozi","shapeISO":"","shapeID":"25544865B29554005324446","shapeGroup":"SWZ","shapeType":"ADM2"}},
{"type":"Feature","geometry":{"type":"Polygon","coordinates":[[[31.11866,-26.85362],[31.16205,-26.88685],[31.17304,-26.88178],[31.1907,-26.88862],[31.2145527,-26.9208013],[31.2109835,-26.9257018],[31.205933,-26.9182268],[31.1824571,-26.9172113],[31.1948141,-26.9342822],[31.1889132,-26.9423739],[31.1781923,-26.9340965],[31.1634993,-26.9358851],[31.1668384,-26.9459208],[31.1461694,-26.9772163],[31.1657586,-26.9929057],[31.17464,-26.99929],[31.22492,-26.96414],[31.25288,-26.95699],[31.26351,-26.93956],[31.29203,-26.94668],[31.33251,-26.8976],[31.3605,-26.88585],[31.3684,-26.82963],[31.38061,-26.81832],[31.37814,-26.80942],[31.35398,-26.79796],[31.3224132,-26.8071921],[31.3076831,-26.8042286],[31.3217752,-26.8302697],[31.293401,-26.8293292],[31.2925831,-26.843312],[31.3013694,-26.8514063],[31.2909901,-26.8575454],[31.2151,-26.80807],[31.19098,-26.83133],[31.17407,-26.82243],[31.11866,-26.85362]]]},"properties":{"shapeName":"Inkhundla Nkwene","shapeISO":"","shapeID":"25544865B73521890891897","shapeGroup":"SWZ","shapeType":"ADM2"}},
{"type":"Feature","geometry":{"type":"Polygon","coordinates":[[[31.7534276,-26.9143538],[31.78732,-26.93982],[31.84452,-26.93331],[31.84758,-26.92165],[31.90258,-26.90291],[31.90286,-26.91286],[31.93131,-26.909],[31.94206,-26.91732],[31.93818,-26.93161],[31.97668,-26.94479],[31.97585,-26.96161],[31.9930682,-26.9672096],[32.0158599,-26.8198801],[32.0113481,-26.8101955],[32.0212335,-26.8071782],[32.01055,-26.77992],[32.01651,-26.7243],[31.99496,-26.71882],[31.9901905,-26.679316],[31.98069,-26.67475],[31.9677,-26.69168],[31.94728,-26.69127],[31.93075,-26.7184],[31.91871,-26.71967],[31.91506,-26.75407],[31.83814,-26.75219],[31.82618,-26.75375],[31.80511,-26.78332],[31.82179,-26.79135],[31.82653,-26.80955],[31.84384,-26.82576],[31.82489,-26.83418],[31.82355,-26.8453],[31.7638969,-26.8595022],[31.7343863,-26.9007153],[31.7534276,-26.9143538]]]},"properties":{"shapeName":"Inkhundla Nkilongo","shapeISO":"","shapeID":"25544865B71233313163720","shapeGroup":"SWZ","shapeType":"ADM2"}},
{"type":"Feature","geometry":{"type":"Polygon","coordinates":[[[31.18578,-26.21851],[31.20425,-26.16674],[31.25819,-26.1658],[31.26468,-26.14047],[31.28339,-26.12357],[31.29122,-26.12952],[31.29474,-26.12053],[31.30226,-26.12115],[31.29772,-26.1146],[31.30903,-26.10041],[31.29403,-26.09273],[31.29936,-26.08769],[31.29098,-26.07327],[31.27068,-26.08832],[31.2633,-26.07448],[31.24668,-26.07144],[31.25501,-26.0598],[31.23201,-26.05233],[31.20795,-26.06493],[31.18509,-26.0659],[31.16589,-26.04018],[31.15374,-26.05392],[31.12299,-26.0525],[31.11544,-26.06074],[31.10442,-26.05613],[31.10793,-26.03483],[31.0849638,-26.0364693],[31.0181576,-26.1605156],[31.0248,-26.17263],[31.0465,-26.17743],[31.04885,-26.20088],[31.05979,-26.20095],[31.07402,-26.21812],[31.08344,-26.21852],[31.09454,-26.24129],[31.11932,-26.25665],[31.11615,-26.26489],[31.12991,-26.28176],[31.15797,-26.27442],[31.17263,-26.24027],[31.18578,-26.21851]]]},"properties":{"shapeName":"Inkhundla Nkhaba","shapeISO":"","shapeID":"25544865B7556618042138","shapeGroup":"SWZ","shapeType":"ADM2"}},
{"type":"Feature","geometry":{"type":"Polygon","coordinates":[[[31.28439,-26.56602],[31.29385,-26.58894],[31.30607,-26.58743],[31.3154,-26.60082],[31.3202,-26.59214],[31.33432,-26.59621],[31.33206,-26.60494],[31.35066,-26.61396],[31.37089,-26.638],[31.37595,-26.66448],[31.39125,-26.68145],[31.39837,-26.67754],[31.39975,-26.66935],[31.41301,-26.67057],[31.41942,-26.70351],[31.43654,-26.71567],[31.45207,-26.75574],[31.48113,-26.77139],[31.48644,-26.72546],[31.50805,-26.69602],[31.51115,-26.67014],[31.48892,-26.67661],[31.45134,-26.6587],[31.4517083,-26.6413165],[31.4392285,-26.634318],[31.4385461,-26.622397],[31.44907,-26.61204],[31.42573,-26.57843],[31.42446,-26.55881],[31.39658,-26.5518],[31.38637,-26.54085],[31.37225,-26.5505],[31.35524,-26.52109],[31.32327,-26.52017],[31.31054,-26.53721],[31.29083,-26.52517],[31.28649,-26.54649],[31.29524,-26.55339],[31.28439,-26.56602]]]},"properties":{"shapeName":"Inkhundla Nhlambeni","shapeISO":"","shapeID":"25544865B62426569350432","shapeGroup":"SWZ","shapeType":"ADM2"}},
{"type":"Feature","geometry":{"type":"Polygon","coordinates":[[[31.4277664,-25.9168651],[31.4175059,-25.9565739],[31.3650131,-25.9275567],[31.344121,-25.9461704],[31.3874992,-25.9770977],[31.3560887,-26.0091221],[31.3585251,-26.0237285],[31.311471,-26.0162332],[31.31552,-26.03399],[31.30748,-26.04287],[31.34472,-26.06619],[31.34545,-26.0829],[31.36155,-26.0852],[31.36906,-26.09518],[31.38795,-26.08385],[31.41305,-26.10702],[31.44087,-26.09254],[31.45832,-26.11923],[31.47886,-26.11826],[31.51945,-26.1026],[31.51541,-26.07615],[31.52716,-26.04437],[31.54774,-26.02699],[31.5463,-26.00166],[31.53745,-25.98929],[31.54337,-25.96214],[31.5155,-25.94364],[31.51267,-25.92696],[31.45842,-25.91115],[31.43916,-25.92048],[31.4277664,-25.9168651]]]},"properties":{"shapeName":"Inkhundla Ndzingeni","shapeISO":"","shapeID":"25544865B5702357250471","shapeGroup":"SWZ","shapeType":"ADM2"}},
{"type":"Feature","geometry":{"type":"Polygon","coordinates":[[[31.48639,-26.90767],[31.41611,-26.89656],[31.39769,-26.88694],[31.3605,-26.88585],[31.33251,-26.8976],[31.29203,-26.94668],[31.26351,-26.93956],[31.25288,-26.95699],[31.27923,-26.97286],[31.2835,-26.98094],[31.27479,-26.99174],[31.31718,-27.02695],[31.33176,-27.03196],[31.34136,-27.02646],[31.36738,-27.0429],[31.40431,-27.03294],[31.45959,-26.97341],[31.48426,-26.98072],[31.4881,-26.97254],[31.5028,-26.97501],[31.5045,-26.96752],[31.5392669,-26.970734],[31.51123,-26.94558],[31.50962,-26.92676],[31.48639,-26.90767]]]},"properties":{"shapeName":"Inkhundla Mtsambama","shapeISO":"","shapeID":"25544865B87308763732212","shapeGroup":"SWZ","shapeType":"ADM2"}},
{"type":"Feature","geometry":{"type":"Polygon","coordinates":[[[31.94944,-26.5129],[31.91416,-26.46367],[31.91025,-26.4217],[31.8953,-26.42506],[31.90157,-26.4714],[31.87677,-26.51839],[31.79386,-26.54142],[31.77231,-26.53362],[31.77276,-26.5239],[31.76329,-26.52005],[31.74617,-26.52341],[31.74668,-26.53512],[31.73233,-26.54134],[31.65376,-26.53771],[31.63762,-26.54644],[31.67009,-26.59609],[31.70654,-26.57542],[31.72636,-26.60424],[31.76005,-26.58857],[31.80584,-26.65593],[31.79492,-26.6623],[31.81154,-26.6924],[31.84061,-26.72449],[31.85463,-26.71385],[31.86024,-26.72199],[31.84748,-26.73041],[31.8534,-26.74445],[31.83814,-26.75219],[31.91506,-26.75407],[31.91871,-26.71967],[31.93075,-26.7184],[31.94728,-26.69127],[31.9677,-26.69168],[31.98069,-26.67475],[31.9901905,-26.679316],[31.99496,-26.71882],[32.01651,-26.7243],[32.0208,-26.67841],[32.01327,-26.63061],[31.97599,-26.54724],[31.94944,-26.5129]]]},"properties":{"shapeName":"Inkhundla Mpolonjeni","shapeISO":"","shapeID":"25544865B6295441038761","shapeGroup":"SWZ","shapeType":"ADM2"}},
{"type":"Feature","geometry":{"type":"Polygon","coordinates":[[[31.66764,-26.35112],[31.68405,-26.32302],[31.68509,-26.26869],[31.70537,-26.2571],[31.68795,-26.20024],[31.67791,-26.16314],[31.6127,-26.1732],[31.5863,-26.17265],[31.57247,-26.16374],[31.57172,-26.17187],[31.54515,-26.17988],[31.54988,-26.20413],[31.53824,-26.21953],[31.51132,-26.21847],[31.53011,-26.23163],[31.51022,-26.24154],[31.51343,-26.25043],[31.48959,-26.25619],[31.48486,-26.24763],[31.4705,-26.25167],[31.42413,-26.28727],[31.42759,-26.30663],[31.46103,-26.3223],[31.48411,-26.34982],[31.48602,-26.36362],[31.50037,-26.36131],[31.51135,-26.38023],[31.52831,-26.38194],[31.5534,-26.38902],[31.55869,-26.37578],[31.60083,-26.34997],[31.60025,-26.33418],[31.61529,-26.33536],[31.6252,-26.34879],[31.65759,-26.34207],[31.66764,-26.35112]]]},"properties":{"shapeName":"Inkhundla Mkhiweni","shapeISO":"","shapeID":"25544865B73094271858918","shapeGroup":"SWZ","shapeType":"ADM2"}},
{"type":"Feature","geometry":{"type":"Polygon","coordinates":[[[31.8755083,-25.9962468],[31.86786,-25.9996],[31.7651235,-25.9358954],[31.75091,-25.95589],[31.72874,-25.95432],[31.72329,-25.94503],[31.6945,-25.9531],[31.67182,-25.94384],[31.66612,-25.94846],[31.67024,-26.05621],[31.68776,-26.15519],[31.67601,-26.15129],[31.67791,-26.16314],[31.68795,-26.20024],[31.70619,-26.17255],[31.73444,-26.16754],[31.74505,-26.14946],[31.78048,-26.13853],[31.78445,-26.14538],[31.76925,-26.17828],[31.77717,-26.23457],[31.78905,-26.25192],[31.85053,-26.25413],[31.85672,-26.18812],[31.86515,-26.18751],[31.84856,-26.16574],[31.88278,-26.14489],[31.88121,-26.16912],[31.89825,-26.17106],[31.94569,-26.28147],[31.98894,-26.24104],[32.00139,-26.19757],[32.01691,-26.1938],[32.0340587,-26.1742957],[32.0271579,-26.1711297],[32.030883,-26.1509226],[32.0181028,-26.133594],[32.0242766,-26.1067124],[32.0040866,-26.1129951],[32.0126439,-26.1371693],[31.9951774,-26.1342181],[31.9860278,-26.149975],[31.9750758,-26.1427479],[31.96513,-26.09883],[31.9474,-26.07939],[31.91816,-26.06776],[31.8755083,-25.9962468]]]},"properties":{"shapeName":"Inkhundla Mhlume","shapeISO":"","shapeID":"25544865B37706944907644","shapeGroup":"SWZ","shapeType":"ADM2"}},
{"type":"Feature","geometry":{"type":"Polygon","coordinates":[[[31.51267,-25.92696],[31.5155,-25.94364],[31.54337,-25.96214],[31.53745,-25.98929],[31.5463,-26.00166],[31.54774,-26.02699],[31.57186,-26.02338],[31.58259,-26.01317],[31.60066,-26.01542],[31.62765,-26.03624],[31.6371,-26.05531],[31.67024,-26.05621],[31.66612,-25.94846],[31.67182,-25.94384],[31.6945,-25.9531],[31.72329,-25.94503],[31.72874,-25.95432],[31.75091,-25.95589],[31.7651235,-25.9358954],[31.5831123,-25.8224677],[31.58425,-25.89176],[31.57719,-25.90544],[31.58618,-25.93154],[31.56371,-25.94043],[31.51267,-25.92696]]]},"properties":{"shapeName":"Inkhundla Mhlangatane","shapeISO":"","shapeID":"25544865B85200764608315","shapeGroup":"SWZ","shapeType":"ADM2"}},
{"type":"Feature","geometry":{"type":"Polygon","coordinates":[[[31.15613,-26.45206],[31.13278,-26.45623],[31.11913,-26.44068],[31.09959,-26.4462],[31.07029,-26.44037],[31.04361,-26.39391],[30.92077,-26.33628],[30.89835,-26.31553],[30.8162885,-26.4426591],[30.855,-26.46255],[30.85569,-26.47581],[30.86748,-26.48655],[30.89501,-26.48885],[30.88999,-26.49858],[30.90129,-26.51008],[30.92239,-26.508],[30.92232,-26.53323],[30.9076,-26.54193],[30.91045,-26.54754],[30.95096,-26.55579],[31.01954,-26.5449],[31.01659,-26.53296],[31.03754,-26.51457],[31.0863,-26.49899],[31.0807,-26.50861],[31.09898,-26.54304],[31.10628,-26.54653],[31.10599,-26.53965],[31.12771,-26.53319],[31.14524,-26.56781],[31.16078,-26.5199],[31.15522,-26.50716],[31.17955,-26.50075],[31.16856,-26.47741],[31.15747,-26.47458],[31.15613,-26.45206]]]},"properties":{"shapeName":"Inkhundla Mhlambanyatsi","shapeISO":"","shapeID":"25544865B94915093759021","shapeGroup":"SWZ","shapeType":"ADM2"}},
{"type":"Feature","geometry":{"type":"Polygon","coordinates":[[[31.3203,-27.08863],[31.31477,-27.05455],[31.33549,-27.0583],[31.3419,-27.07578],[31.35556,-27.07634],[31.36726,-27.06778],[31.36738,-27.0429],[31.34136,-27.02646],[31.33176,-27.03196],[31.31718,-27.02695],[31.27479,-26.99174],[31.2835,-26.98094],[31.27923,-26.97286],[31.25288,-26.95699],[31.22492,-26.96414],[31.17464,-26.99929],[31.1657586,-26.9929057],[31.1518314,-27.0079347],[31.15896,-27.01507],[31.13925,-27.04818],[31.149,-27.06401],[31.15453,-27.05883],[31.14826,-27.04911],[31.16308,-27.04624],[31.17208,-27.05613],[31.17426,-27.0667],[31.16488,-27.06795],[31.1779,-27.07706],[31.15946,-27.08801],[31.17835,-27.11052],[31.16907,-27.11895],[31.18149,-27.14064],[31.22349,-27.12245],[31.25429,-27.14157],[31.29899,-27.1366],[31.3203,-27.08863]]]},"properties":{"shapeName":"Inkhundla Mbangweni","shapeISO":"","shapeID":"25544865B23697894353870","shapeGroup":"SWZ","shapeType":"ADM2"}},
{"type":"Feature","geometry":{"type":"Polygon","coordinates":[[[31.17263,-26.24027],[31.15797,-26.27442],[31.12991,-26.28176],[31.11716,-26.29204],[31.11227,-26.2786],[31.08536,-26.27197],[31.08193,-26.28987],[31.09537,-26.31591],[31.05644,-26.33487],[31.0593,-26.34468],[31.07218,-26.34177],[31.09276,-26.37873],[31.12361,-26.37923],[31.15937,-26.36846],[31.15595,-26.34941],[31.16348,-26.34439],[31.17439,-26.34941],[31.18044,-26.29495],[31.1653,-26.27493],[31.1867,-26.24676],[31.17263,-26.24027]]]},"properties":{"shapeName":"Inkhundla Mbabane","shapeISO":"","shapeID":"25544865B94244502272687","shapeGroup":"SWZ","shapeType":"ADM2"}},
{"type":"Feature","geometry":{"type":"Polygon","coordinates":[[[31.25429,-27.14157],[31.22349,-27.12245],[31.18149,-27.14064],[31.16907,-27.11895],[31.17835,-27.11052],[31.15946,-27.08801],[31.1779,-27.07706],[31.16488,-27.06795],[31.17426,-27.0667],[31.17208,-27.05613],[31.16308,-27.04624],[31.14826,-27.04911],[31.15453,-27.05883],[31.149,-27.06401],[31.13925,-27.04818],[31.15896,-27.01507],[31.1518314,-27.0079347],[31.1427286,-27.0085146],[31.1223279,-27.032163],[31.1155687,-27.0524788],[31.0985742,-27.0666002],[31.1003767,-27.0819616],[31.0880482,-27.0861825],[31.0878848,-27.0780222],[31.0708656,-27.0736949],[31.0712538,-27.0663902],[31.0502457,-27.0662431],[31.0377422,-27.0796441],[31.06133,-27.09629],[31.15055,-27.20208],[31.2296574,-27.228141],[31.245,-27.21466],[31.23891,-27.19132],[31.26924,-27.18331],[31.25429,-27.14157]]]},"properties":{"shapeName":"Inkhundla Maseyisini","shapeISO":"","shapeID":"25544865B74382320525051","shapeGroup":"SWZ","shapeType":"ADM2"}},
{"type":"Feature","geometry":{"type":"Polygon","coordinates":[[[31.28391,-26.32773],[31.30417,-26.31521],[31.35166,-26.30766],[31.36259,-26.29285],[31.37232,-26.27818],[31.37942,-26.28938],[31.40213,-26.28192],[31.40955,-26.29519],[31.42413,-26.28727],[31.4705,-26.25167],[31.48486,-26.24763],[31.48959,-26.25619],[31.51343,-26.25043],[31.51022,-26.24154],[31.53011,-26.23163],[31.51132,-26.21847],[31.53824,-26.21953],[31.54988,-26.20413],[31.51224,-26.19012],[31.50593,-26.17982],[31.49223,-26.18073],[31.48254,-26.16029],[31.48714,-26.1315],[31.47886,-26.11826],[31.45832,-26.11923],[31.44087,-26.09254],[31.41305,-26.10702],[31.38795,-26.08385],[31.36906,-26.09518],[31.36155,-26.0852],[31.34545,-26.0829],[31.33078,-26.08527],[31.32261,-26.07427],[31.29936,-26.08769],[31.29403,-26.09273],[31.30903,-26.10041],[31.29772,-26.1146],[31.30226,-26.12115],[31.29474,-26.12053],[31.29122,-26.12952],[31.28339,-26.12357],[31.26468,-26.14047],[31.25819,-26.1658],[31.20425,-26.16674],[31.18578,-26.21851],[31.2032,-26.21653],[31.21757,-26.22657],[31.21881,-26.24717],[31.23179,-26.26495],[31.25388,-26.27193],[31.26855,-26.29495],[31.28302,-26.2981],[31.28391,-26.32773]]]},"properties":{"shapeName":"Inkhundla Maphalaleni","shapeISO":"","shapeID":"25544865B19615198899380","shapeGroup":"SWZ","shapeType":"ADM2"}},
{"type":"Feature","geometry":{"type":"Polygon","coordinates":[[[31.4468,-26.4777],[31.40249,-26.47132],[31.38386,-26.48494],[31.33547,-26.47878],[31.33508,-26.49218],[31.35524,-26.52109],[31.37225,-26.5505],[31.38637,-26.54085],[31.39707,-26.50415],[31.42719,-26.49018],[31.45432,-26.48974],[31.4468,-26.4777]]]},"properties":{"shapeName":"Inkhundla Manzini","shapeISO":"","shapeID":"25544865B2374856354731","shapeGroup":"SWZ","shapeType":"ADM2"}},
{"type":"Feature","geometry":{"type":"Polygon","coordinates":[[[30.8162885,-26.4426591],[30.80506,-26.466671],[30.79181,-26.56911],[30.79101,-26.6951798],[30.81574,-26.71022],[30.8245,-26.70196],[30.83101,-26.71059],[30.84663,-26.71014],[30.8599,-26.68608],[30.90595,-26.68701],[30.92326,-26.66009],[30.95262,-26.65005],[30.98134,-26.6733],[30.99733,-26.62526],[30.98339,-26.62078],[30.98743,-26.60425],[31.01143,-26.6013],[31.03099,-26.58696],[31.03688,-26.55308],[31.01954,-26.5449],[30.95096,-26.55579],[30.91045,-26.54754],[30.9076,-26.54193],[30.92232,-26.53323],[30.92239,-26.508],[30.90129,-26.51008],[30.88999,-26.49858],[30.89501,-26.48885],[30.86748,-26.48655],[30.85569,-26.47581],[30.855,-26.46255],[30.8162885,-26.4426591]]]},"properties":{"shapeName":"Inkhundla Mangcongco","shapeISO":"","shapeID":"25544865B24678717441439","shapeGroup":"SWZ","shapeType":"ADM2"}},
{"type":"Feature","geometry":{"type":"Polygon","coordinates":[[[31.29323,-26.6994],[31.26927,-26.69758],[31.2492245,-26.7061837],[31.2283838,-26.7022491],[31.21661,-26.71056],[31.20536,-26.69871],[31.1863776,-26.7061357],[31.1685429,-26.683797],[31.1621691,-26.6855318],[31.1648445,-26.7014993],[31.1445302,-26.7013447],[31.1403165,-26.723303],[31.1222,-26.72772],[31.13114,-26.7506],[31.12762,-26.78523],[31.09842,-26.78055],[31.07083,-26.79422],[31.05133,-26.78879],[31.04757,-26.80548],[31.05481,-26.81143],[31.04464,-26.83376],[31.07108,-26.85957],[31.06156,-26.89272],[31.0839,-26.86943],[31.11866,-26.85362],[31.17407,-26.82243],[31.19098,-26.83133],[31.2151,-26.80807],[31.2909901,-26.8575454],[31.3013694,-26.8514063],[31.2925831,-26.843312],[31.293401,-26.8293292],[31.3217752,-26.8302697],[31.3076831,-26.8042286],[31.3224132,-26.8071921],[31.35398,-26.79796],[31.38544,-26.7991],[31.39334,-26.77599],[31.4416,-26.75413],[31.45207,-26.75574],[31.43654,-26.71567],[31.41942,-26.70351],[31.41301,-26.67057],[31.39975,-26.66935],[31.39837,-26.67754],[31.38415,-26.69381],[31.36319,-26.69451],[31.34251,-26.71145],[31.30466,-26.71073],[31.29323,-26.6994]]]},"properties":{"shapeName":"Inkhundla Mahlangatja","shapeISO":"","shapeID":"25544865B64693820583012","shapeGroup":"SWZ","shapeType":"ADM2"}},
{"type":"Feature","geometry":{"type":"Polygon","coordinates":[[[32.0340587,-26.1742957],[32.01691,-26.1938],[32.00139,-26.19757],[31.98894,-26.24104],[31.94569,-26.28147],[31.94712,-26.29822],[31.95888,-26.2981],[31.96347,-26.31603],[31.92699,-26.40859],[31.91025,-26.4217],[31.91416,-26.46367],[31.94944,-26.5129],[31.96718,-26.49321],[32.02767,-26.48258],[32.03791,-26.48858],[32.05616,-26.47917],[32.06454,-26.48655],[32.07482,-26.48393],[32.08248,-26.46926],[32.1057876,-26.4655673],[32.0774184,-26.4056457],[32.0743831,-26.305709],[32.0984403,-26.1941367],[32.0802442,-26.1669314],[32.0518428,-26.1792023],[32.0340587,-26.1742957]]]},"properties":{"shapeName":"Inkhundla Lugongolweni","shapeISO":"","shapeID":"25544865B88364100009265","shapeGroup":"SWZ","shapeType":"ADM2"}},
{"type":"Feature","geometry":{"type":"Polygon","coordinates":[[[31.29716,-26.48933],[31.29928,-26.48014],[31.33547,-26.47878],[31.3663,-26.39257],[31.36538,-26.34248],[31.37881,-26.30003],[31.36259,-26.29285],[31.35166,-26.30766],[31.30417,-26.31521],[31.28391,-26.32773],[31.27592,-26.34384],[31.28442,-26.36116],[31.26328,-26.38743],[31.26618,-26.40632],[31.25629,-26.42461],[31.26424,-26.45826],[31.24939,-26.47041],[31.25414,-26.48178],[31.27549,-26.48567],[31.28122,-26.50133],[31.29716,-26.48933]]]},"properties":{"shapeName":"Inkhundla Ludzeludze","shapeISO":"","shapeID":"25544865B4564355932947","shapeGroup":"SWZ","shapeType":"ADM2"}},
{"type":"Feature","geometry":{"type":"Polygon","coordinates":[[[31.69281,-27.04064],[31.70103,-27.04586],[31.76465,-27.03661],[31.7742272,-27.0602658],[31.7892518,-27.0708589],[31.790151,-27.0884233],[31.8174495,-27.0902339],[31.84159,-27.10728],[31.86187,-27.1078],[31.86079,-27.14405],[31.90914,-27.14633],[31.90276,-27.16437],[31.9748403,-27.16605],[31.9844399,-27.0012099],[31.9930682,-26.9672096],[31.97585,-26.96161],[31.97668,-26.94479],[31.93818,-26.93161],[31.94206,-26.91732],[31.93131,-26.909],[31.90286,-26.91286],[31.90258,-26.90291],[31.84758,-26.92165],[31.84452,-26.93331],[31.78732,-26.93982],[31.7534276,-26.9143538],[31.7579488,-26.9236],[31.7498378,-26.9212277],[31.7458989,-26.941822],[31.7288961,-26.9393101],[31.7220192,-26.9766294],[31.7096926,-26.9746195],[31.7040641,-26.981744],[31.70692,-27.00776],[31.69281,-27.04064]]]},"properties":{"shapeName":"Inkhundla Lubuli","shapeISO":"","shapeID":"25544865B36979951032132","shapeGroup":"SWZ","shapeType":"ADM2"}},
{"type":"Feature","geometry":{"type":"Polygon","coordinates":[[[31.24939,-26.47041],[31.26424,-26.45826],[31.25629,-26.42461],[31.21018,-26.37122],[31.15937,-26.36846],[31.12361,-26.37923],[31.10934,-26.39774],[31.12235,-26.42282],[31.12542,-26.43889],[31.11913,-26.44068],[31.13278,-26.45623],[31.15613,-26.45206],[31.17914,-26.45462],[31.17456,-26.46048],[31.19045,-26.48192],[31.20783,-26.4769],[31.22259,-26.46159],[31.23574,-26.48086],[31.23889,-26.47032],[31.24939,-26.47041]]]},"properties":{"shapeName":"Inkhundla Lobamba","shapeISO":"","shapeID":"25544865B71211064556638","shapeGroup":"SWZ","shapeType":"ADM2"}},
{"type":"Feature","geometry":{"type":"Polygon","coordinates":[[[31.14524,-26.56781],[31.12771,-26.53319],[31.10599,-26.53965],[31.10628,-26.54653],[31.09898,-26.54304],[31.0807,-26.50861],[31.0863,-26.49899],[31.03754,-26.51457],[31.01659,-26.53296],[31.01954,-26.5449],[31.03688,-26.55308],[31.03099,-26.58696],[31.01143,-26.6013],[30.98743,-26.60425],[30.98339,-26.62078],[30.99733,-26.62526],[31.01742,-26.61741],[31.05668,-26.61995],[31.13606,-26.58855],[31.15706,-26.59527],[31.16664,-26.58865],[31.14524,-26.56781]]]},"properties":{"shapeName":"Inkhundla Lamgabhi","shapeISO":"","shapeID":"25544865B81777462131642","shapeGroup":"SWZ","shapeType":"ADM2"}},
{"type":"Feature","geometry":{"type":"Polygon","coordinates":[[[31.6662454,-27.1338788],[31.6597274,-27.1286404],[31.6435385,-27.1339585],[31.6424982,-27.1520564],[31.6301852,-27.142178],[31.6076814,-27.1415166],[31.5982016,-27.1483393],[31.5821132,-27.1331659],[31.58165,-27.10739],[31.56964,-27.10141],[31.51852,-27.08694],[31.49916,-27.08957],[31.41901,-27.08858],[31.42595,-27.10498],[31.40777,-27.10198],[31.39515,-27.11426],[31.40622,-27.12798],[31.39429,-27.16625],[31.40763,-27.16681],[31.42062,-27.14948],[31.42216,-27.16566],[31.44556,-27.18808],[31.44485,-27.20008],[31.49952,-27.20674],[31.51433,-27.22963],[31.53411,-27.23513],[31.54592,-27.23043],[31.5853782,-27.2481806],[31.60385,-27.24762],[31.6419511,-27.1881156],[31.6550924,-27.1848937],[31.6667969,-27.1682179],[31.6662454,-27.1338788]]]},"properties":{"shapeName":"Inkhundla Hosea","shapeISO":"","shapeID":"25544865B71505016077226","shapeGroup":"SWZ","shapeType":"ADM2"}},
{"type":"Feature","geometry":{"type":"Polygon","coordinates":[[[31.60085,-26.41536],[31.65782,-26.41975],[31.69013,-26.40844],[31.70496,-26.39135],[31.7223,-26.38913],[31.73105,-26.3765],[31.72924,-26.35994],[31.74445,-26.35077],[31.76171,-26.35747],[31.76203,-26.37332],[31.84641,-26.36617],[31.86798,-26.34529],[31.87246,-26.32082],[31.89799,-26.31811],[31.90278,-26.30691],[31.94569,-26.28147],[31.89825,-26.17106],[31.88121,-26.16912],[31.88278,-26.14489],[31.84856,-26.16574],[31.86515,-26.18751],[31.85672,-26.18812],[31.85053,-26.25413],[31.78905,-26.25192],[31.77717,-26.23457],[31.76925,-26.17828],[31.78445,-26.14538],[31.78048,-26.13853],[31.74505,-26.14946],[31.73444,-26.16754],[31.70619,-26.17255],[31.68795,-26.20024],[31.70537,-26.2571],[31.68509,-26.26869],[31.68405,-26.32302],[31.66764,-26.35112],[31.62685,-26.38208],[31.62771,-26.40062],[31.60085,-26.41536]]]},"properties":{"shapeName":"Inkhundla Hlane","shapeISO":"","shapeID":"25544865B95753753422766","shapeGroup":"SWZ","shapeType":"ADM2"}},
{"type":"Feature","geometry":{"type":"Polygon","coordinates":[[[31.57296,-26.52951],[31.58826,-26.54284],[31.58947,-26.5662],[31.63031,-26.56513],[31.63762,-26.54644],[31.65376,-26.53771],[31.73233,-26.54134],[31.74668,-26.53512],[31.74617,-26.52341],[31.76329,-26.52005],[31.77276,-26.5239],[31.77231,-26.53362],[31.79386,-26.54142],[31.87677,-26.51839],[31.90157,-26.4714],[31.8953,-26.42506],[31.91025,-26.4217],[31.92699,-26.40859],[31.96347,-26.31603],[31.95888,-26.2981],[31.94712,-26.29822],[31.94569,-26.28147],[31.90278,-26.30691],[31.89799,-26.31811],[31.87246,-26.32082],[31.86798,-26.34529],[31.84641,-26.36617],[31.76203,-26.37332],[31.76171,-26.35747],[31.74445,-26.35077],[31.72924,-26.35994],[31.73105,-26.3765],[31.7223,-26.38913],[31.70496,-26.39135],[31.69013,-26.40844],[31.65782,-26.41975],[31.60085,-26.41536],[31.61258,-26.51839],[31.57296,-26.52951]]]},"properties":{"shapeName":"Inkhundla Dvokodvweni","shapeISO":"","shapeID":"25544865B2448699584693","shapeGroup":"SWZ","shapeType":"ADM2"}},
{"type":"Feature","geometry":{"type":"Polygon","coordinates":[[[31.47886,-26.11826],[31.48714,-26.1315],[31.48254,-26.16029],[31.49223,-26.18073],[31.50593,-26.17982],[31.51224,-26.19012],[31.54988,-26.20413],[31.54515,-26.17988],[31.57172,-26.17187],[31.57247,-26.16374],[31.5863,-26.17265],[31.6127,-26.1732],[31.67791,-26.16314],[31.67601,-26.15129],[31.68776,-26.15519],[31.67024,-26.05621],[31.6371,-26.05531],[31.62765,-26.03624],[31.60066,-26.01542],[31.58259,-26.01317],[31.57186,-26.02338],[31.54774,-26.02699],[31.52716,-26.04437],[31.51541,-26.07615],[31.51945,-26.1026],[31.47886,-26.11826]]]},"properties":{"shapeName":"Inkhundla Madlangempisi","shapeISO":"","shapeID":"25544865B1439783352799","shapeGroup":"SWZ","shapeType":"ADM2"}},
{"type":"Feature","geometry":{"type":"Polygon","coordinates":[[[31.55305,-26.78012],[31.55647,-26.76786],[31.48871,-26.77971],[31.48113,-26.77139],[31.45207,-26.75574],[31.4416,-26.75413],[31.39334,-26.77599],[31.38544,-26.7991],[31.35398,-26.79796],[31.37814,-26.80942],[31.38061,-26.81832],[31.3684,-26.82963],[31.3605,-26.88585],[31.39769,-26.88694],[31.41611,-26.89656],[31.48639,-26.90767],[31.51456,-26.87444],[31.51197,-26.86237],[31.5457,-26.83603],[31.53957,-26.81166],[31.55305,-26.78012]]]},"properties":{"shapeName":"Inkhundla Kubuta","shapeISO":"","shapeID":"25544865B51984486124327","shapeGroup":"SWZ","shapeType":"ADM2"}},
{"type":"Feature","geometry":{"type":"Polygon","coordinates":[[[31.45432,-26.48974],[31.42719,-26.49018],[31.39707,-26.50415],[31.38637,-26.54085],[31.39658,-26.5518],[31.42446,-26.55881],[31.42573,-26.57843],[31.44907,-26.61204],[31.4385461,-26.622397],[31.4392285,-26.634318],[31.4517083,-26.6413165],[31.45134,-26.6587],[31.48892,-26.67661],[31.51115,-26.67014],[31.52841,-26.67322],[31.53778,-26.66006],[31.60157,-26.6375],[31.58947,-26.5662],[31.58826,-26.54284],[31.57296,-26.52951],[31.54819,-26.53631],[31.51266,-26.53242],[31.49792,-26.51118],[31.45432,-26.48974]]]},"properties":{"shapeName":"Inkhundla Mthongwaneni","shapeISO":"","shapeID":"25544865B27395168638163","shapeGroup":"SWZ","shapeType":"ADM2"}},
{"type":"Feature","geometry":{"type":"Polygon","coordinates":[[[31.0181576,-26.1605156],[30.961438,-26.261732],[30.89835,-26.31553],[30.92077,-26.33628],[31.04361,-26.39391],[31.07029,-26.44037],[31.09959,-26.4462],[31.11913,-26.44068],[31.12542,-26.43889],[31.12235,-26.42282],[31.10934,-26.39774],[31.12361,-26.37923],[31.09276,-26.37873],[31.07218,-26.34177],[31.0593,-26.34468],[31.05644,-26.33487],[31.09537,-26.31591],[31.08193,-26.28987],[31.08536,-26.27197],[31.11227,-26.2786],[31.11716,-26.29204],[31.12991,-26.28176],[31.11615,-26.26489],[31.11932,-26.25665],[31.09454,-26.24129],[31.08344,-26.21852],[31.07402,-26.21812],[31.05979,-26.20095],[31.04885,-26.20088],[31.0465,-26.17743],[31.0248,-26.17263],[31.0181576,-26.1605156]]]},"properties":{"shapeName":"Inkhundla Motjane","shapeISO":"","shapeID":"25544865B62605108409281","shapeGroup":"SWZ","shapeType":"ADM2"}},
{"type":"Feature","geometry":{"type":"Polygon","coordinates":[[[31.29083,-26.52517],[31.31054,-26.53721],[31.32327,-26.52017],[31.35524,-26.52109],[31.33508,-26.49218],[31.33547,-26.47878],[31.29928,-26.48014],[31.29716,-26.48933],[31.30257,-26.49736],[31.28007,-26.50918],[31.29083,-26.52517]]]},"properties":{"shapeName":"Inkhundla Kwaluseni","shapeISO":"","shapeID":"25544865B87479074006038","shapeGroup":"SWZ","shapeType":"ADM2"}},
{"type":"Feature","geometry":{"type":"Polygon","coordinates":[[[31.5854067,-26.9772934],[31.5783086,-26.9889182],[31.56034,-26.99288],[31.58249,-27.00051],[31.59394,-27.03126],[31.61238,-27.04823],[31.61789,-27.07449],[31.60576,-27.10443],[31.57337,-27.09665],[31.56964,-27.10141],[31.58165,-27.10739],[31.5821132,-27.1331659],[31.5982016,-27.1483393],[31.6076814,-27.1415166],[31.6301852,-27.142178],[31.6424982,-27.1520564],[31.6435385,-27.1339585],[31.6597274,-27.1286404],[31.6662454,-27.1338788],[31.6799328,-27.1220594],[31.6960092,-27.1332534],[31.7307995,-27.092584],[31.7521869,-27.1061448],[31.7607185,-27.0770485],[31.779214,-27.0787713],[31.7623864,-27.0637465],[31.7742272,-27.0602658],[31.76465,-27.03661],[31.70103,-27.04586],[31.69281,-27.04064],[31.61733,-27.01212],[31.602523,-26.978447],[31.5854067,-26.9772934]]]},"properties":{"shapeName":"Inkhundla Sigwe","shapeISO":"","shapeID":"25544865B76074174917722","shapeGroup":"SWZ","shapeType":"ADM2"}},
{"type":"Feature","geometry":{"type":"Polygon","coordinates":[[[31.52831,-26.38194],[31.51135,-26.38023],[31.50037,-26.36131],[31.48602,-26.36362],[31.48411,-26.34982],[31.46103,-26.3223],[31.42759,-26.30663],[31.42413,-26.28727],[31.40955,-26.29519],[31.40213,-26.28192],[31.37942,-26.28938],[31.37232,-26.27818],[31.36259,-26.29285],[31.37881,-26.30003],[31.36538,-26.34248],[31.3663,-26.39257],[31.33547,-26.47878],[31.38386,-26.48494],[31.40249,-26.47132],[31.4468,-26.4777],[31.454,-26.46998],[31.45741,-26.42617],[31.46628,-26.42715],[31.46974,-26.41833],[31.47794,-26.42818],[31.50381,-26.42225],[31.49983,-26.40333],[31.52179,-26.39635],[31.52831,-26.38194]]]},"properties":{"shapeName":"Inkhundla Ekukhanyeni","shapeISO":"","shapeID":"25544865B36253147760946","shapeGroup":"SWZ","shapeType":"ADM2"}},
{"type":"Feature","geometry":{"type":"Polygon","coordinates":[[[31.05668,-26.61995],[31.01742,-26.61741],[30.99733,-26.62526],[30.98134,-26.6733],[30.95262,-26.65005],[30.92326,-26.66009],[30.90595,-26.68701],[30.8599,-26.68608],[30.84663,-26.71014],[30.83101,-26.71059],[30.8245,-26.70196],[30.81574,-26.71022],[30.79101,-26.6951798],[30.80265,-26.82402],[30.81322,-26.84448],[30.84805,-26.81897],[30.887285,-26.803585],[30.890428,-26.7870945],[30.89628,-26.78074],[30.92134,-26.78506],[30.93908,-26.77359],[30.94535,-26.79435],[31.04901,-26.7762],[31.05133,-26.78879],[31.07083,-26.79422],[31.09842,-26.78055],[31.12762,-26.78523],[31.13114,-26.7506],[31.1222,-26.72772],[31.1403165,-26.723303],[31.1445302,-26.7013447],[31.1648445,-26.7014993],[31.1621691,-26.6855318],[31.1685429,-26.683797],[31.1863776,-26.7061357],[31.20536,-26.69871],[31.21661,-26.71056],[31.2283838,-26.7022491],[31.2492245,-26.7061837],[31.26927,-26.69758],[31.29323,-26.6994],[31.28388,-26.67573],[31.26616,-26.67812],[31.2506,-26.66276],[31.23459,-26.6631],[31.22241,-26.64421],[31.1989,-26.64669],[31.16034,-26.62972],[31.14576,-26.6429],[31.11595,-26.63123],[31.10774,-26.63867],[31.095,-26.63387],[31.05999,-26.64215],[31.0527,-26.63687],[31.05668,-26.61995]]]},"properties":{"shapeName":"Inkhundla Ngwempisi","shapeISO":"","shapeID":"25544865B616938903867","shapeGroup":"SWZ","shapeType":"ADM2"}},
{"type":"Feature","geometry":{"type":"Polygon","coordinates":[[[31.5392669,-26.970734],[31.5045,-26.96752],[31.5028,-26.97501],[31.4881,-26.97254],[31.48426,-26.98072],[31.50129,-26.99384],[31.49691,-27.01599],[31.5183,-27.02929],[31.49916,-27.08957],[31.51852,-27.08694],[31.56964,-27.10141],[31.57337,-27.09665],[31.60576,-27.10443],[31.61789,-27.07449],[31.61238,-27.04823],[31.59394,-27.03126],[31.58249,-27.00051],[31.56034,-26.99288],[31.5783086,-26.9889182],[31.5854067,-26.9772934],[31.5782975,-26.9749409],[31.585539,-26.9696648],[31.5706425,-26.9677712],[31.5656273,-26.9743037],[31.5628994,-26.9655091],[31.5571624,-26.9739292],[31.5519134,-26.9679524],[31.5392669,-26.970734]]]},"properties":{"shapeName":"Inkhundla Ngudzeni","shapeISO":"","shapeID":"25544865B16433175131284","shapeGroup":"SWZ","shapeType":"ADM2"}},
{"type":"Feature","geometry":{"type":"Polygon","coordinates":[[[31.11866,-26.85362],[31.0839,-26.86943],[31.06156,-26.89272],[31.07108,-26.85957],[31.04464,-26.83376],[31.05481,-26.81143],[31.04757,-26.80548],[31.05133,-26.78879],[31.04901,-26.7762],[30.94535,-26.79435],[30.93908,-26.77359],[30.92134,-26.78506],[30.89628,-26.78074],[30.890428,-26.7870945],[30.90742,-26.85993],[30.97356,-26.90821],[30.97652,-26.95343],[30.958326,-26.992129],[30.98476,-27.03698],[31.0377422,-27.0796441],[31.0502457,-27.0662431],[31.0712538,-27.0663902],[31.0708656,-27.0736949],[31.0878848,-27.0780222],[31.0880482,-27.0861825],[31.1003767,-27.0819616],[31.0985742,-27.0666002],[31.1155687,-27.0524788],[31.1223279,-27.032163],[31.1427286,-27.0085146],[31.1518314,-27.0079347],[31.1657586,-26.9929057],[31.1461694,-26.9772163],[31.1668384,-26.9459208],[31.1634993,-26.9358851],[31.1781923,-26.9340965],[31.1889132,-26.9423739],[31.1948141,-26.9342822],[31.1824571,-26.9172113],[31.205933,-26.9182268],[31.2109835,-26.9257018],[31.2145527,-26.9208013],[31.1907,-26.88862],[31.17304,-26.88178],[31.16205,-26.88685],[31.11866,-26.85362]]]},"properties":{"shapeName":"Inkhundla Gege","shapeISO":"","shapeID":"25544865B4123625373150","shapeGroup":"SWZ","shapeType":"ADM2"}}
]}