{"type":"FeatureCollection", "features": [
{"type":"Feature","geometry":{"type":"Polygon","coordinates":[[[19.915432,15.770231],[19.565941,15.833475],[19.494468,15.90011],[19.394667,16.075748],[19.340477,16.108329],[19.275925,16.095841],[19.27,15.916],[19.211777,15.720606],[19.09,15.545],[18.825866,15.355853],[18.655695,15.313914],[18.420654,15.316978],[18.238308,15.355853],[17.993654,15.509789],[17.586,13.76],[17.271,13.662],[17.234,13.427],[17.45,13.497],[17.612,13.456],[17.757,13.481],[18.014,13.477],[18.049,13.329],[18.045,13.066],[17.966,12.867],[17.939,12.671],[18.018,12.452],[18.065,12.452],[18.33,12.618],[18.473868,12.691957],[19.103,12.694],[19.1195,12.879],[19.036,13.041],[19.031,13.102],[18.856,13.1185],[18.736,13.179],[18.71,13.2425],[18.722,13.297],[18.846,13.423],[18.896,13.551],[18.99,14.215],[19.372,14.622],[19.482994,14.781446],[19.692005,15.206205],[19.915432,15.770231]]]},"properties":{"shapeName":"Batha Ouest","shapeISO":"","shapeID":"50815135B78939282341988","shapeGroup":"TCD","shapeType":"ADM2"}},
{"type":"Feature","geometry":{"type":"Polygon","coordinates":[[[19.103,12.694],[19.184,12.687],[19.777,13.031],[20.045,12.935],[20.331,13.001],[20.357727,13.059],[20.365574,13.419648],[20.267241,13.613835],[20.295093,13.755198],[20.268339,13.829176],[20.056005,13.957248],[20.062001,14.082392],[20.043,15.742],[19.915432,15.770231],[19.692005,15.206205],[19.482994,14.781446],[19.372,14.622],[18.99,14.215],[18.896,13.551],[18.846,13.423],[18.722,13.297],[18.71,13.2425],[18.736,13.179],[18.856,13.1185],[19.031,13.102],[19.036,13.041],[19.1195,12.879],[19.103,12.694]]]},"properties":{"shapeName":"Batha Est","shapeISO":"","shapeID":"50815135B79604505945545","shapeGroup":"TCD","shapeType":"ADM2"}},
{"type":"Feature","geometry":{"type":"Polygon","coordinates":[[[17.234,13.427],[17.241,13.21],[17.161,13.099],[16.997,12.937],[16.966,12.8685],[17.092,12.783],[17.15,12.609],[17.293,12.487],[17.31,12.346],[17.388,12.27],[17.411,12.184],[17.446,12.155],[17.598,12.125],[17.567,12.199],[17.608,12.239],[17.882,12.446],[18.018,12.452],[17.939,12.671],[17.966,12.867],[18.045,13.066],[18.049,13.329],[18.014,13.477],[17.757,13.481],[17.612,13.456],[17.45,13.497],[17.234,13.427]]]},"properties":{"shapeName":"Fitri","shapeISO":"","shapeID":"50815135B60006364885554","shapeGroup":"TCD","shapeType":"ADM2"}},
{"type":"Feature","geometry":{"type":"Polygon","coordinates":[[[19.915432,15.770231],[20.043,15.742],[20.251534,15.631045],[20.319709,15.618037],[20.496238,15.654044],[20.547546,15.628486],[20.744837,15.800356],[20.400563,16.712158],[20.460864,16.992117],[20.543108446000076,17.941509778000068],[20.513274,18.024326],[19.802909835000037,18.01209195100006],[19.187482,18.001456],[19.155404,17.896471],[19.091246,17.841062],[18.904606,17.806067],[17.033882,16.096916],[17.170235,16.03506],[17.853353,15.725168],[17.993654,15.509789],[18.238308,15.355853],[18.420654,15.316978],[18.655695,15.313914],[18.825866,15.355853],[19.09,15.545],[19.211777,15.720606],[19.27,15.916],[19.275925,16.095841],[19.340477,16.108329],[19.394667,16.075748],[19.494468,15.90011],[19.565941,15.833475],[19.915432,15.770231]]]},"properties":{"shapeName":"Borkou","shapeISO":"","shapeID":"50815135B4564368173337","shapeGroup":"TCD","shapeType":"ADM2"}},
{"type":"Feature","geometry":{"type":"Polygon","coordinates":[[[17.335,11.472],[17.139,11.566],[17.019,11.668],[16.858,11.676],[16.79,11.904],[16.708,11.995],[16.725,12.133],[16.666,12.229],[16.302,12.354],[16.054662,12.32271],[15.976966,12.334794],[15.684,12.338],[15.504554,12.22256],[15.429,12.119],[15.403,12.006],[15.4,11.938],[15.465,11.814],[15.421,11.727],[15.376,11.731],[15.429,11.602],[15.369,11.399],[15.423021,11.281951],[15.386231,11.238154],[15.397,11.212],[15.438,11.061],[15.544,10.94],[15.745,10.825],[16.048,10.752],[16.039,10.833],[16.061,10.897],[16.096,10.914],[16.348,10.949],[16.459,10.996],[16.992,11.101],[17.122,10.977],[17.152,10.721],[17.241,10.654],[17.254,10.599],[17.327,10.574],[17.363,10.795],[17.304984,11.230428],[17.335,11.472]]]},"properties":{"shapeName":"Baguirmi","shapeISO":"","shapeID":"50815135B83477967363059","shapeGroup":"TCD","shapeType":"ADM2"}},
{"type":"Feature","geometry":{"type":"Polygon","coordinates":[[[15.504554,12.22256],[15.373,12.363],[15.259376,12.276357],[15.042614,12.216573],[15.173041,12.101967],[15.164726,12.038363],[15.08672103400005,11.992270103000067],[15.05348,11.9702],[15.06432,11.92775],[15.04209,11.89872],[15.05453,11.85167],[15.0949,11.84647],[15.11895,11.79355],[15.08035,11.76146],[15.10224,11.7295],[15.06564,11.71073],[15.100559126000064,11.582312091000063],[15.14249,11.53736],[15.05874,11.41005],[15.06979,11.36779],[15.02658,11.2828],[15.03376752500003,11.092988126000023],[15.231,11.209],[15.397,11.212],[15.386231,11.238154],[15.423021,11.281951],[15.369,11.399],[15.429,11.602],[15.376,11.731],[15.421,11.727],[15.465,11.814],[15.4,11.938],[15.403,12.006],[15.429,12.119],[15.504554,12.22256]]]},"properties":{"shapeName":"Chari","shapeISO":"","shapeID":"50815135B55510615891344","shapeGroup":"TCD","shapeType":"ADM2"}},
{"type":"Feature","geometry":{"type":"Polygon","coordinates":[[[16.048,10.752],[16.124895,10.757735],[16.149,10.707],[16.129,10.314],[16.196279,10.209158],[16.483,10.2],[16.584,10.265],[16.62294,10.234006],[16.618906,10.171187],[16.662014,10.071043],[16.737832,10.053095],[16.776,10.01],[16.895633,9.990362],[16.941957,9.945135],[17.164,9.92],[17.218,9.857],[17.381,9.826],[17.461,9.785],[17.591,9.673],[17.721532971000045,9.808175026000072],[17.63528597100003,9.885900026000058],[17.63183397100005,9.975911026000063],[17.582710104000057,10.09608796200007],[17.489,10.172],[17.543,10.451],[17.327,10.574],[17.254,10.599],[17.241,10.654],[17.152,10.721],[17.122,10.977],[16.992,11.101],[16.459,10.996],[16.348,10.949],[16.096,10.914],[16.061,10.897],[16.039,10.833],[16.048,10.752]]]},"properties":{"shapeName":"Loug-Chari","shapeISO":"","shapeID":"50815135B30125763845581","shapeGroup":"TCD","shapeType":"ADM2"}},
{"type":"Feature","geometry":{"type":"Polygon","coordinates":[[[18.33,12.618],[18.442,12.422],[18.489,12.278],[18.472,12.188],[18.583,12.175],[18.659,12.064],[18.619,11.971],[18.444,11.88],[18.545,11.614],[18.591,11.408],[18.902,11.331],[18.874,11.477],[18.902,11.692],[18.967,11.852],[19.181,12.076],[19.18,12.164],[19.101,12.434],[19.103,12.694],[18.473868,12.691957],[18.33,12.618]]]},"properties":{"shapeName":"Guéra","shapeISO":"","shapeID":"50815135B83117027765697","shapeGroup":"TCD","shapeType":"ADM2"}},
{"type":"Feature","geometry":{"type":"Polygon","coordinates":[[[18.018,12.452],[17.882,12.446],[17.608,12.239],[17.567,12.199],[17.598,12.125],[17.545,11.911],[17.634,11.796],[17.68,11.68],[17.747,11.652],[18.045,11.632],[18.174,11.599],[18.591,11.408],[18.545,11.614],[18.444,11.88],[18.619,11.971],[18.659,12.064],[18.583,12.175],[18.472,12.188],[18.489,12.278],[18.442,12.422],[18.33,12.618],[18.065,12.452],[18.018,12.452]]]},"properties":{"shapeName":"Abtouyour","shapeISO":"","shapeID":"50815135B86536624745263","shapeGroup":"TCD","shapeType":"ADM2"}},
{"type":"Feature","geometry":{"type":"Polygon","coordinates":[[[17.327,10.574],[17.543,10.451],[17.864,10.497],[17.962,10.397],[18.067,10.35],[18.164,10.346],[18.341,10.24],[18.381,10.247],[18.496,10.186],[18.642,10.025],[18.632,9.919],[18.794001,9.879],[18.825001,9.988],[19.080999,10.0015],[19.161,10.155],[19.208,10.146],[19.215,10.187],[19.355,10.299],[19.344,10.344],[19.43,10.469],[19.496,10.496],[19.584,10.478],[19.701935,10.587214],[19.726,10.717],[19.707,10.873],[19.737,10.911],[19.694,11.001],[19.479,11.048],[19.405,11.104],[18.902,11.331],[18.591,11.408],[18.174,11.599],[18.045,11.632],[17.747,11.652],[17.68,11.68],[17.545,11.672],[17.377205,11.542701],[17.335,11.472],[17.304984,11.230428],[17.363,10.795],[17.327,10.574]]]},"properties":{"shapeName":"Barh-Signaka","shapeISO":"","shapeID":"50815135B50589595383303","shapeGroup":"TCD","shapeType":"ADM2"}},
{"type":"Feature","geometry":{"type":"Polygon","coordinates":[[[19.103,12.694],[19.101,12.434],[19.18,12.164],[19.181,12.076],[18.967,11.852],[18.902,11.692],[19.055,11.689],[19.088,11.6],[19.215,11.638],[19.341,11.855],[19.313,11.982],[19.465,12.123],[19.58,12.083],[19.906,12.04],[19.889,12.079],[20.001,12.385],[20.082,12.494],[20.154,12.531],[20.114,12.614],[20.174,12.727],[20.244,12.764],[20.23,12.8],[20.045,12.935],[19.777,13.031],[19.184,12.687],[19.103,12.694]]]},"properties":{"shapeName":"Mangalmé","shapeISO":"","shapeID":"50815135B54463089232866","shapeGroup":"TCD","shapeType":"ADM2"}},
{"type":"Feature","geometry":{"type":"Polygon","coordinates":[[[15.91,13.173],[15.755,13.163],[15.550018527000077,13.259288535000053],[15.513457517000063,13.14740467100006],[15.487402419000034,13.140087829000038],[15.459560804000034,13.007141396000065],[15.482976622000024,12.911029015000054],[15.415161983000075,12.858204981000029],[15.298092501000042,12.893896896000058],[15.11958237600004,13.00755876200003],[14.932959726000036,12.999841961000072],[14.835,12.993],[14.835468,12.855753],[14.899006,12.811995],[15.002,12.809998],[15.260003,12.588995],[15.409004,12.559999],[15.780006,12.552997],[16.195006,12.618993],[16.144007,12.718999],[16.175009,12.847992],[16.106001,12.958993],[16.107897,13.031258],[15.998,13.044],[15.966,13.122],[15.91,13.173]]]},"properties":{"shapeName":"Dagana","shapeISO":"","shapeID":"50815135B82618270305421","shapeGroup":"TCD","shapeType":"ADM2"}},
{"type":"Feature","geometry":{"type":"Polygon","coordinates":[[[17.161,13.099],[17.024,13.157],[16.9,13.109],[16.846,13.136],[16.762,13.09],[16.547,13.07],[16.468,13.034],[16.361,13.051],[16.107897,13.031258],[16.106001,12.958993],[16.175009,12.847992],[16.144007,12.718999],[16.195006,12.618993],[16.090003,12.431995],[15.976966,12.334794],[16.054662,12.32271],[16.302,12.354],[16.666,12.229],[16.725,12.133],[16.708,11.995],[16.79,11.904],[16.858,11.676],[17.019,11.668],[17.139,11.566],[17.335,11.472],[17.377205,11.542701],[17.545,11.672],[17.68,11.68],[17.634,11.796],[17.545,11.911],[17.598,12.125],[17.446,12.155],[17.411,12.184],[17.388,12.27],[17.31,12.346],[17.293,12.487],[17.15,12.609],[17.092,12.783],[16.966,12.8685],[16.997,12.937],[17.161,13.099]]]},"properties":{"shapeName":"Dababa","shapeISO":"","shapeID":"50815135B80092252042653","shapeGroup":"TCD","shapeType":"ADM2"}},
{"type":"Feature","geometry":{"type":"Polygon","coordinates":[[[15.976966,12.334794],[16.090003,12.431995],[16.195006,12.618993],[15.780006,12.552997],[15.409004,12.559999],[15.260003,12.588995],[15.002,12.809998],[14.899006,12.811995],[14.835468,12.855753],[14.835,12.993],[14.528987545000064,12.975167917000022],[14.56875,12.89176],[14.555478334000043,12.78096215000005],[14.58573,12.74737],[14.62159,12.77037],[14.62159,12.73839],[14.71675,12.71833],[14.71861,12.65736],[14.74768,12.68632],[14.76523,12.63547],[14.83153,12.6285],[14.84897,12.45638],[14.878009220000024,12.46416987400005],[14.91047,12.37923],[14.90831649300003,12.18518931500006],[15.042614,12.216573],[15.259376,12.276357],[15.373,12.363],[15.504554,12.22256],[15.684,12.338],[15.976966,12.334794]]]},"properties":{"shapeName":"Haraze-Al-Biar","shapeISO":"","shapeID":"50815135B49730685193773","shapeGroup":"TCD","shapeType":"ADM2"}},
{"type":"Feature","geometry":{"type":"Polygon","coordinates":[[[16.094018,14.543327],[15.888,14.527],[15.791,14.454],[15.725,14.48],[15.623,14.457],[15.567,14.403],[15.381,14.466],[15.313,14.534],[15.203,14.586],[15.135,14.576],[14.996,14.611],[14.963,14.478],[14.741,14.149],[14.545113,13.985921],[14.66802814700003,13.810205255000028],[14.758882,13.651042],[14.811489,13.698541],[14.904251,13.685728],[15.437852312000075,13.744115675000046],[15.499,13.747],[15.522,13.808],[15.607,13.878],[15.619,14.032],[15.984687,14.323662],[16.094018,14.543327]]]},"properties":{"shapeName":"Kanem","shapeISO":"","shapeID":"50815135B90270246712933","shapeGroup":"TCD","shapeType":"ADM2"}},
{"type":"Feature","geometry":{"type":"Polygon","coordinates":[[[17.033882,16.096916],[16.099142,16.515758],[15.455665814000042,16.845821496000042],[14.38476,15.73155],[13.86221,15.03134],[13.78968,14.86321],[13.80996,14.72172],[13.67731,14.63656],[13.696019620000072,14.551122605000046],[13.660188560000051,14.526512314000058],[13.741979,14.497439],[13.931536,14.503542],[13.971157,14.4496],[14.028054,14.452015],[14.083146,14.38602],[14.096559,14.319444],[14.158776,14.308915],[14.211105,14.22708],[14.270109,14.225507],[14.309982,14.157679],[14.438591,14.130628],[14.545113,13.985921],[14.741,14.149],[14.963,14.478],[14.996,14.611],[15.135,14.576],[15.203,14.586],[15.313,14.534],[15.381,14.466],[15.567,14.403],[15.623,14.457],[15.725,14.48],[15.791,14.454],[15.888,14.527],[16.094018,14.543327],[16.323108,15.003612],[17.170235,16.03506],[17.033882,16.096916]]]},"properties":{"shapeName":"Nord Kanem","shapeISO":"","shapeID":"50815135B74780249962770","shapeGroup":"TCD","shapeType":"ADM2"}},
{"type":"Feature","geometry":{"type":"Polygon","coordinates":[[[15.91,13.173],[15.934,13.45],[15.876,13.614],[15.884584,13.747385],[15.602,13.749],[15.607,13.878],[15.522,13.808],[15.499,13.747],[15.437852312000075,13.744115675000046],[15.514632196000036,13.584230657000035],[15.472751625000058,13.532917507000036],[15.457183264000037,13.441625025000064],[15.550018527000077,13.259288535000053],[15.755,13.163],[15.91,13.173]]]},"properties":{"shapeName":"Wadi Bissam","shapeISO":"","shapeID":"50815135B97156808183777","shapeGroup":"TCD","shapeType":"ADM2"}},
{"type":"Feature","geometry":{"type":"Polygon","coordinates":[[[14.932959726000036,12.999841961000072],[14.928962608000063,13.128549170000042],[15.001525681000032,13.192703736000055],[15.010418609000055,13.273184738000054],[14.962989658000026,13.32950661700005],[14.936618528000054,13.524242749000052],[14.847398031000068,13.605967735000036],[14.736545048000039,13.50890742300004],[14.689431720000073,13.544599338000069],[14.531841203000056,13.532716809000021],[14.498123055000065,13.468932478000056],[14.369999133000022,13.472841488000029],[14.325134219000063,13.444807438000055],[14.237625798000067,13.343011928000067],[13.952343297000027,13.259012446000042],[14.08543,13.07806],[14.459879934000071,13.074499995000053],[14.528987545000064,12.975167917000022],[14.835,12.993],[14.932959726000036,12.999841961000072]]]},"properties":{"shapeName":"Mamdi","shapeISO":"","shapeID":"50815135B65244945482941","shapeGroup":"TCD","shapeType":"ADM2"}},
{"type":"Feature","geometry":{"type":"Polygon","coordinates":[[[15.550018527000077,13.259288535000053],[15.457183264000037,13.441625025000064],[15.472751625000058,13.532917507000036],[15.514632196000036,13.584230657000035],[15.437852312000075,13.744115675000046],[14.904251,13.685728],[14.811489,13.698541],[14.844629654000073,13.67379298000003],[14.847398031000068,13.605967735000036],[14.936618528000054,13.524242749000052],[14.962989658000026,13.32950661700005],[15.010418609000055,13.273184738000054],[15.001525681000032,13.192703736000055],[14.928962608000063,13.128549170000042],[14.932959726000036,12.999841961000072],[15.11958237600004,13.00755876200003],[15.298092501000042,12.893896896000058],[15.415161983000075,12.858204981000029],[15.482976622000024,12.911029015000054],[15.459560804000034,13.007141396000065],[15.487402419000034,13.140087829000038],[15.513457517000063,13.14740467100006],[15.550018527000077,13.259288535000053]]]},"properties":{"shapeName":"Wayi","shapeISO":"","shapeID":"50815135B86238137663719","shapeGroup":"TCD","shapeType":"ADM2"}},
{"type":"Feature","geometry":{"type":"Polygon","coordinates":[[[16.099338,8.984572],[16.02067,8.986298],[15.95646,8.950802],[15.914988,8.969782],[15.925623,8.828365],[15.781744,8.78044],[15.733066,8.692921],[15.730969,8.586113],[15.687087,8.523104],[15.741548,8.467034],[15.649038,8.447132],[15.629565,8.386305],[15.648,8.311],[15.803,8.334],[15.862,8.435],[16.117001,8.608],[16.273001,8.66],[16.339668,8.655418],[16.375363,8.692],[16.352411,8.754307],[16.387289,8.85689],[16.271875,8.889956],[16.164015,8.870635],[16.099338,8.984572]]]},"properties":{"shapeName":"Lac Wey","shapeISO":"","shapeID":"50815135B84328468709684","shapeGroup":"TCD","shapeType":"ADM2"}},
{"type":"Feature","geometry":{"type":"Polygon","coordinates":[[[15.781744,8.78044],[15.771684,8.817728],[15.573,9.023],[15.441,9.061],[15.387,9.033],[15.357,8.759],[15.291585,8.700625],[15.236042268000062,8.501152165000065],[15.248539743000038,8.461474683000063],[15.384462,8.377997],[15.445771,8.376119],[15.490567,8.290296],[15.527229,8.302479],[15.529386,8.273043],[15.648,8.311],[15.629565,8.386305],[15.649038,8.447132],[15.741548,8.467034],[15.687087,8.523104],[15.730969,8.586113],[15.733066,8.692921],[15.781744,8.78044]]]},"properties":{"shapeName":"Dodjé","shapeISO":"","shapeID":"50815135B21432441174008","shapeGroup":"TCD","shapeType":"ADM2"}},
{"type":"Feature","geometry":{"type":"Polygon","coordinates":[[[16.099338,8.984572],[16.097161,9.098271],[16.044001,9.128],[15.959168006000027,9.114889063000021],[15.929,9.061],[15.893,9.052],[15.652,9.061],[15.573,9.023],[15.771684,8.817728],[15.781744,8.78044],[15.925623,8.828365],[15.914988,8.969782],[15.95646,8.950802],[16.02067,8.986298],[16.099338,8.984572]]]},"properties":{"shapeName":"Guéni","shapeISO":"","shapeID":"50815135B88319439398100","shapeGroup":"TCD","shapeType":"ADM2"}},
{"type":"Feature","geometry":{"type":"Polygon","coordinates":[[[16.375363,8.692],[16.493,8.746],[16.594,8.899],[16.448617,9.083139],[16.427,9.118],[16.364,9.245],[16.213556,9.153804],[16.157061,9.079563],[16.097161,9.098271],[16.099338,8.984572],[16.164015,8.870635],[16.271875,8.889956],[16.387289,8.85689],[16.352411,8.754307],[16.375363,8.692]]]},"properties":{"shapeName":"Ngourkosso","shapeISO":"","shapeID":"50815135B58104899779962","shapeGroup":"TCD","shapeType":"ADM2"}},
{"type":"Feature","geometry":{"type":"Polygon","coordinates":[[[16.448617,9.083139],[16.580357,9.041611],[16.716154,8.912488],[16.801065,8.612907],[16.849256,8.575122],[17.046,8.631],[17.142,8.762],[17.15113,8.922402],[17.134001,9.078],[16.986,9.05],[16.771999,9.071],[16.542999,9.153],[16.427,9.118],[16.448617,9.083139]]]},"properties":{"shapeName":"La Pendé","shapeISO":"","shapeID":"50815135B99305267844407","shapeGroup":"TCD","shapeType":"ADM2"}},
{"type":"Feature","geometry":{"type":"Polygon","coordinates":[[[16.849256,8.575122],[16.844335,8.474052],[16.812991,8.413989],[16.969172,8.417226],[16.990357,8.27821],[17.108,8.131],[17.212999,8.157],[17.295,8.296],[17.046,8.631],[16.849256,8.575122]]]},"properties":{"shapeName":"Kouh Est","shapeISO":"","shapeID":"50815135B98764858098702","shapeGroup":"TCD","shapeType":"ADM2"}},
{"type":"Feature","geometry":{"type":"Polygon","coordinates":[[[16.812991,8.413989],[16.709749,8.275521],[16.661557,8.070532],[16.633124,8.040905],[16.790809,7.921189],[16.971533,7.956943],[17.198128,7.96286],[17.108,8.131],[16.990357,8.27821],[16.969172,8.417226],[16.812991,8.413989]]]},"properties":{"shapeName":"Kouh Ouest","shapeISO":"","shapeID":"50815135B27112556056018","shapeGroup":"TCD","shapeType":"ADM2"}},
{"type":"Feature","geometry":{"type":"Polygon","coordinates":[[[16.339668,8.655418],[16.358697,8.581447],[16.451673,8.46361],[16.625463,8.176422],[16.633124,8.040905],[16.661557,8.070532],[16.709749,8.275521],[16.812991,8.413989],[16.844335,8.474052],[16.849256,8.575122],[16.801065,8.612907],[16.716154,8.912488],[16.580357,9.041611],[16.448617,9.083139],[16.594,8.899],[16.493,8.746],[16.375363,8.692],[16.339668,8.655418]]]},"properties":{"shapeName":"La Nya","shapeISO":"","shapeID":"50815135B28220035440725","shapeGroup":"TCD","shapeType":"ADM2"}},
{"type":"Feature","geometry":{"type":"Polygon","coordinates":[[[16.633124,8.040905],[16.625463,8.176422],[16.451673,8.46361],[16.279263,8.399142],[16.324831,8.145823],[16.298352,7.997218],[16.37226,7.66687],[16.43052,7.71871],[16.41254,7.76791],[16.43896,7.8052],[16.4891,7.79028],[16.51883,7.84568],[16.595918873000073,7.880185613000037],[16.59448,7.76888],[16.66803,7.73822],[16.66723,7.66866],[16.72678,7.65023],[16.81487,7.53568],[16.84385,7.52979],[16.908,7.55815],[16.90092,7.6165],[17.040315733000057,7.635039967000068],[17.09064,7.66048],[17.09127,7.69215],[17.16045,7.66675],[17.1657,7.70276],[17.21857,7.72656],[17.23258,7.76344],[17.26266,7.74697],[17.282213915000057,7.80166790800007],[17.198128,7.96286],[16.971533,7.956943],[16.790809,7.921189],[16.633124,8.040905]]]},"properties":{"shapeName":"La Nya Pendé","shapeISO":"","shapeID":"50815135B51143570982343","shapeGroup":"TCD","shapeType":"ADM2"}},
{"type":"Feature","geometry":{"type":"Polygon","coordinates":[[[15.648,8.311],[15.529386,8.273043],[15.527229,8.302479],[15.490567,8.290296],[15.445771,8.376119],[15.384462,8.377997],[15.248539743000038,8.461474683000063],[15.45323,7.89471],[15.51076,7.7962],[15.59732,7.76746],[15.57392,7.59052],[15.50748,7.52747],[15.72795,7.51913],[15.74297,7.47853],[15.809590009000033,7.44107000200006],[15.99003,7.49039],[16.06614,7.58191],[16.23546,7.60665],[16.37226,7.66687],[16.298352,7.997218],[16.324831,8.145823],[16.279263,8.399142],[16.451673,8.46361],[16.358697,8.581447],[16.339668,8.655418],[16.273001,8.66],[16.117001,8.608],[15.862,8.435],[15.803,8.334],[15.648,8.311]]]},"properties":{"shapeName":"Monts de Lam","shapeISO":"","shapeID":"50815135B14191552615898","shapeGroup":"TCD","shapeType":"ADM2"}},
{"type":"Feature","geometry":{"type":"Polygon","coordinates":[[[17.15113,8.922402],[17.300033,8.901156],[17.383491,8.839227],[17.363808,8.80057],[17.392442,8.782179],[17.410913,8.824321],[17.491292,8.766618],[17.512329,8.741005],[17.468653,8.697992],[17.495557,8.6122],[17.574606,8.65733],[17.677377,8.779402],[17.995845,8.958948],[18.025728,8.99737],[18.109298,9.027893],[18.200076,9.176273],[18.011551,9.198907],[17.825446,9.295637],[17.763119,9.435802],[17.665852,9.448493],[17.620535,9.542804],[17.554001,9.597],[17.483999,9.641],[17.209,9.576],[17.257,9.492],[17.228001,9.47],[17.229001,9.382],[17.075001,9.261],[17.222,9.166],[17.134001,9.078],[17.15113,8.922402]]]},"properties":{"shapeName":"Mandoul Oriental","shapeISO":"","shapeID":"50815135B49309888435923","shapeGroup":"TCD","shapeType":"ADM2"}},
{"type":"Feature","geometry":{"type":"Polygon","coordinates":[[[17.108,8.131],[17.198128,7.96286],[17.282213915000057,7.80166790800007],[17.36525,7.84875],[17.402986759000044,7.843020506000073],[17.46776890700005,7.894048616000021],[17.515066447000038,7.868748978000042],[17.54716,7.92134],[17.61652,7.92688],[17.67167,7.98277],[17.92164,7.95861],[18.03198,8.0093],[18.213988872000073,8.019401084000037],[18.170038,8.207246],[18.177851,8.339806],[18.123126,8.530081],[18.063966,8.599255],[18.061482,8.784922],[18.019103,8.844281],[17.995845,8.958948],[17.677377,8.779402],[17.574606,8.65733],[17.495557,8.6122],[17.390339,8.50566],[17.295,8.296],[17.212999,8.157],[17.108,8.131]]]},"properties":{"shapeName":"Barh-Sara","shapeISO":"","shapeID":"50815135B19223233714044","shapeGroup":"TCD","shapeType":"ADM2"}},
{"type":"Feature","geometry":{"type":"Polygon","coordinates":[[[17.046,8.631],[17.295,8.296],[17.390339,8.50566],[17.495557,8.6122],[17.468653,8.697992],[17.512329,8.741005],[17.491292,8.766618],[17.410913,8.824321],[17.392442,8.782179],[17.363808,8.80057],[17.383491,8.839227],[17.300033,8.901156],[17.15113,8.922402],[17.142,8.762],[17.046,8.631]]]},"properties":{"shapeName":"Mandoul Occidental","shapeISO":"","shapeID":"50815135B23154120961269","shapeGroup":"TCD","shapeType":"ADM2"}},
{"type":"Feature","geometry":{"type":"Polygon","coordinates":[[[16.124895,10.757735],[15.96313,10.51543],[15.888047,10.506541],[15.728571,10.573956],[15.689935,10.709389],[15.656949,10.734757],[15.462772,10.766868],[15.41208,10.709862],[15.372998,10.721032],[15.305846,10.832266],[15.262644,10.846853],[15.182932,10.827365],[15.116229512000075,10.727511075000052],[15.15452,10.64646],[15.14593,10.53835],[15.24111,10.47072],[15.31021,10.30745],[15.39345,10.25107],[15.51394,10.09059],[15.67519,10.00741],[15.68369,9.98506],[15.659041387000059,9.976515919000065],[15.765491,9.852559],[15.795977,9.831459],[15.793854,9.724676],[15.865365,9.711347],[15.914504,9.655807],[15.969872,9.665553],[16.137997,9.810439],[16.263,10.031],[16.23797,10.179938],[16.196279,10.209158],[16.129,10.314],[16.149,10.707],[16.124895,10.757735]]]},"properties":{"shapeName":"Mayo-Boneye","shapeISO":"","shapeID":"50815135B64807508580818","shapeGroup":"TCD","shapeType":"ADM2"}},
{"type":"Feature","geometry":{"type":"Polygon","coordinates":[[[15.765491,9.852559],[15.672126,9.793025],[15.398572,9.773321],[15.184996,9.726874],[15.128268,9.595366],[15.070506,9.559199],[15.089313,9.438501],[15.137888,9.35732],[15.421,9.21],[15.533933,9.380614],[15.665,9.504],[15.727278,9.676318],[15.793854,9.724676],[15.795977,9.831459],[15.765491,9.852559]]]},"properties":{"shapeName":"Kabbia","shapeISO":"","shapeID":"50815135B59741228858752","shapeGroup":"TCD","shapeType":"ADM2"}},
{"type":"Feature","geometry":{"type":"Polygon","coordinates":[[[15.397,11.212],[15.231,11.209],[15.03376752500003,11.092988126000023],[15.09214,10.89253],[15.06941,10.80538],[15.116229512000075,10.727511075000052],[15.182932,10.827365],[15.262644,10.846853],[15.305846,10.832266],[15.372998,10.721032],[15.41208,10.709862],[15.462772,10.766868],[15.656949,10.734757],[15.689935,10.709389],[15.728571,10.573956],[15.888047,10.506541],[15.96313,10.51543],[16.124895,10.757735],[16.048,10.752],[15.745,10.825],[15.544,10.94],[15.438,11.061],[15.397,11.212]]]},"properties":{"shapeName":"Mayo-Lemié","shapeISO":"","shapeID":"50815135B13713715101650","shapeGroup":"TCD","shapeType":"ADM2"}},
{"type":"Feature","geometry":{"type":"Polygon","coordinates":[[[15.659041387000059,9.976515919000065],[15.43501,9.93331],[15.2361,9.99644],[15.21259,9.96453],[15.13283,9.99462],[15.10145,9.96386],[14.98549,10.0011],[14.83598,9.92449],[14.72439861600003,9.951347148000025],[14.734057,9.820081],[14.748995,9.669794],[14.950137,9.698441],[15.038319,9.657867],[15.027231,9.596514],[15.070506,9.559199],[15.128268,9.595366],[15.184996,9.726874],[15.398572,9.773321],[15.672126,9.793025],[15.765491,9.852559],[15.659041387000059,9.976515919000065]]]},"properties":{"shapeName":"Mont Illi","shapeISO":"","shapeID":"50815135B57632005694692","shapeGroup":"TCD","shapeType":"ADM2"}},
{"type":"Feature","geometry":{"type":"Polygon","coordinates":[[[14.734057,9.820081],[14.603096,9.713321],[14.52577,9.697953],[14.425421,9.762581],[14.324253,9.757426],[14.229885,9.851733],[14.154888940000035,9.869178287000068],[14.03856,9.73749],[14.02207,9.64709],[14.26967615500007,9.379656699000066],[14.391016,9.43252],[14.611559,9.368204],[14.741093,9.562888],[14.748995,9.669794],[14.734057,9.820081]]]},"properties":{"shapeName":"Lac Léré","shapeISO":"","shapeID":"50815135B81119267829848","shapeGroup":"TCD","shapeType":"ADM2"}},
{"type":"Feature","geometry":{"type":"Polygon","coordinates":[[[14.72439861600003,9.951347148000025],[14.499559065000028,10.008830087000035],[14.23641,9.99741],[14.20023,9.9815],[14.154888940000035,9.869178287000068],[14.229885,9.851733],[14.324253,9.757426],[14.425421,9.762581],[14.52577,9.697953],[14.603096,9.713321],[14.734057,9.820081],[14.72439861600003,9.951347148000025]]]},"properties":{"shapeName":"Mayo-Binder","shapeISO":"","shapeID":"50815135B24188788926450","shapeGroup":"TCD","shapeType":"ADM2"}},
{"type":"Feature","geometry":{"type":"Polygon","coordinates":[[[18.213988872000073,8.019401084000037],[18.61805,8.05247],[18.6577,8.19495],[18.83718,8.28897],[18.8505,8.34726],[18.876199304000068,8.341170077000072],[18.92393985700005,8.390391824000062],[18.92172,8.42422],[19.02905834200004,8.53245865200006],[19.07747942000003,8.64078143100005],[19.008116,8.680547],[18.819598,8.653766],[18.754062,8.69216],[18.681112,8.695552],[18.530571,8.878166],[18.463812,8.832813],[18.441059,8.737942],[18.319325,8.584323],[18.123126,8.530081],[18.177851,8.339806],[18.170038,8.207246],[18.213988872000073,8.019401084000037]]]},"properties":{"shapeName":"Grande Sido","shapeISO":"","shapeID":"50815135B5443465425830","shapeGroup":"TCD","shapeType":"ADM2"}},
{"type":"Feature","geometry":{"type":"Polygon","coordinates":[[[18.632,9.919],[18.530628,9.886298],[18.472105,9.820927],[18.443424,9.838133],[18.378312,9.820276],[18.297545,9.526378],[18.319071,9.454423],[18.374352,9.356679],[18.458964,9.308778],[18.527914,9.204436],[18.649309,9.208623],[18.762848,9.275635],[18.778035,9.320263],[18.841419,9.343498],[18.848835,9.120351],[18.967469,9.055191],[19.022481710000022,8.994327977000069],[19.21836,9.03147],[19.30231,9.0079],[19.50676,9.03417],[19.52302,9.0163],[19.57762,9.03995],[19.67199,9.02076],[19.78003,9.05862],[19.92714,9.0608],[19.988073582000027,9.098148598000023],[19.695012,9.910986],[19.613001,10.067],[19.653999,10.097],[19.648001,10.156],[19.691999,10.267],[19.635,10.289],[19.701935,10.587214],[19.584,10.478],[19.496,10.496],[19.43,10.469],[19.344,10.344],[19.355,10.299],[19.215,10.187],[19.208,10.146],[19.161,10.155],[19.080999,10.0015],[18.825001,9.988],[18.794001,9.879],[18.632,9.919]]]},"properties":{"shapeName":"Lac Iro","shapeISO":"","shapeID":"50815135B94662216566844","shapeGroup":"TCD","shapeType":"ADM2"}},
{"type":"Feature","geometry":{"type":"Polygon","coordinates":[[[20.357727,13.059],[20.54,13.012],[20.763,13.017],[21.494703,13.15387],[21.632,13.209],[21.699,13.336],[21.65446,13.507619],[21.495,13.74],[21.430039,13.754863],[21.373,13.815],[21.341,13.967],[21.253,14.039],[21.109054,14.128561],[21.005,14.153],[20.846,14.32],[20.767,14.367],[20.606,14.414],[20.486,14.376],[20.357807,14.386205],[20.241509,14.299147],[20.062001,14.082392],[20.056005,13.957248],[20.268339,13.829176],[20.295093,13.755198],[20.267241,13.613835],[20.365574,13.419648],[20.357727,13.059]]]},"properties":{"shapeName":"Ouara","shapeISO":"","shapeID":"50815135B92277339053304","shapeGroup":"TCD","shapeType":"ADM2"}},
{"type":"Feature","geometry":{"type":"Polygon","coordinates":[[[20.763,13.017],[20.764078,12.888165],[20.915,12.853],[20.941,12.8],[20.932,12.694],[21.086526,12.634386],[21.224,12.67],[21.358,12.647],[21.484,12.778],[21.681,12.861],[21.625,12.979],[21.632,13.209],[21.494703,13.15387],[20.763,13.017]]]},"properties":{"shapeName":"Abdi","shapeISO":"","shapeID":"50815135B4539380481876","shapeGroup":"TCD","shapeType":"ADM2"}},
{"type":"Feature","geometry":{"type":"Polygon","coordinates":[[[21.632,13.209],[21.625,12.979],[21.681,12.861],[21.81513650900007,12.807348154000067],[21.936051803000055,13.061240410000039],[21.975202109000065,13.076120415000048],[22.010307364000028,13.142574809000052],[22.13541498400008,13.17103462600005],[22.290427082000065,13.353784210000072],[22.21761618000005,13.466901144000076],[22.225128418000054,13.548668943000052],[22.14206042400008,13.630003343000055],[22.114756337000074,13.683311324000044],[22.123753927000052,13.735797858000069],[22.071945544000073,13.778637136000043],[22.191872372000034,13.911232884000071],[22.089,13.968],[21.671,14.092],[21.437,14.126],[21.253,14.039],[21.341,13.967],[21.373,13.815],[21.430039,13.754863],[21.495,13.74],[21.65446,13.507619],[21.699,13.336],[21.632,13.209]]]},"properties":{"shapeName":"Assoungha","shapeISO":"","shapeID":"50815135B12284790062818","shapeGroup":"TCD","shapeType":"ADM2"}},
{"type":"Feature","geometry":{"type":"Polygon","coordinates":[[[19.701935,10.587214],[19.635,10.289],[19.691999,10.267],[19.648001,10.156],[19.653999,10.097],[19.613001,10.067],[19.695012,9.910986],[19.874895,9.967674],[20.081787,9.976194],[20.178276,10.013474],[20.618378,9.979836],[20.740205,10.034719],[20.789047,10.309847],[20.944364,10.676246],[21.00305,10.887895],[21.149803,11.190157],[21.369773,11.466996],[21.401532,11.59991],[21.096107,11.546021],[21.099001,11.64],[21.05586,11.663709],[20.303205,12.034967],[20.148063,12.03588],[20.112682,11.920938],[19.991056,11.736725],[19.971598,11.648269],[20.112527,11.431373],[20.162064,11.186747],[19.802866,11.015454],[19.694,11.001],[19.737,10.911],[19.707,10.873],[19.726,10.717],[19.701935,10.587214]]]},"properties":{"shapeName":"Bahr-Azoum","shapeISO":"","shapeID":"50815135B73615292321578","shapeGroup":"TCD","shapeType":"ADM2"}},
{"type":"Feature","geometry":{"type":"Polygon","coordinates":[[[18.902,11.331],[19.405,11.104],[19.479,11.048],[19.694,11.001],[19.802866,11.015454],[20.162064,11.186747],[20.112527,11.431373],[19.971598,11.648269],[19.991056,11.736725],[20.112682,11.920938],[20.148063,12.03588],[20.018636,12.027082],[20.011,11.982],[19.92107,11.96001],[19.906,12.04],[19.58,12.083],[19.465,12.123],[19.313,11.982],[19.341,11.855],[19.215,11.638],[19.088,11.6],[19.055,11.689],[18.902,11.692],[18.874,11.477],[18.902,11.331]]]},"properties":{"shapeName":"Aboudéia","shapeISO":"","shapeID":"50815135B13353907786726","shapeGroup":"TCD","shapeType":"ADM2"}},
{"type":"Feature","geometry":{"type":"Polygon","coordinates":[[[19.988073582000027,9.098148598000023],[20.10146,9.15655],[20.30336,9.12154],[20.43423,9.15388],[20.52863756100004,9.337066780000043],[20.63786,9.3178],[20.62353,9.33462],[20.66689,9.39835],[20.76081,9.40113],[20.79824,9.4434],[20.82733,9.43042],[20.8745,9.5231],[20.91529,9.52543],[20.92747,9.57107],[20.95159,9.5679],[20.95148,9.61638],[20.98802,9.62071],[20.96715,9.64253],[20.993747937000023,9.645589294000047],[20.99860859300003,9.684937673000036],[20.96782,9.70227],[21.00439,9.70568],[20.994988251000052,9.74704388300006],[21.03053,9.7285],[21.030466948000026,9.773997184000052],[21.11531,9.79194],[21.13307,9.8479],[21.19898,9.89534],[21.25405,9.99038],[21.34061,9.9637],[21.38508,9.99172],[21.453439597000056,10.083079995000048],[21.46808,10.15221],[21.53675,10.22694],[21.58866,10.21133],[21.668319171000064,10.231830094000031],[21.67647,10.2781],[21.72826,10.30177],[21.72314,10.34706],[21.77099,10.41169],[21.71754,10.50787],[21.73363,10.65398],[21.75861,10.64224],[21.78859,10.6694],[21.78849,10.79461],[21.83262,10.83948],[21.88079,10.86995],[21.94004,10.85226],[22.07416,10.89583],[22.1518,10.87602],[22.468049588000042,10.998599395000042],[22.163,11.634],[22.020206,11.657407],[21.952226,11.704763],[21.401532,11.59991],[21.369773,11.466996],[21.149803,11.190157],[21.00305,10.887895],[20.944364,10.676246],[20.789047,10.309847],[20.740205,10.034719],[20.618378,9.979836],[20.178276,10.013474],[20.081787,9.976194],[19.874895,9.967674],[19.695012,9.910986],[19.988073582000027,9.098148598000023]]]},"properties":{"shapeName":"Haraze-Mangueigne","shapeISO":"","shapeID":"50815135B51440340925469","shapeGroup":"TCD","shapeType":"ADM2"}},
{"type":"Feature","geometry":{"type":"Polygon","coordinates":[[[16.196279,10.209158],[16.23797,10.179938],[16.263,10.031],[16.137997,9.810439],[15.969872,9.665553],[16.170621,9.571343],[16.223529,9.518488],[16.281615,9.367235],[16.364,9.245],[16.427,9.118],[16.542999,9.153],[16.771999,9.071],[16.986,9.05],[17.134001,9.078],[17.222,9.166],[17.075001,9.261],[17.229001,9.382],[17.228001,9.47],[17.257,9.492],[17.209,9.576],[17.483999,9.641],[17.554001,9.597],[17.591,9.673],[17.461,9.785],[17.381,9.826],[17.218,9.857],[17.164,9.92],[16.941957,9.945135],[16.895633,9.990362],[16.776,10.01],[16.737832,10.053095],[16.662014,10.071043],[16.618906,10.171187],[16.62294,10.234006],[16.584,10.265],[16.483,10.2],[16.196279,10.209158]]]},"properties":{"shapeName":"Tandjilé Est","shapeISO":"","shapeID":"50815135B89886025568853","shapeGroup":"TCD","shapeType":"ADM2"}},
{"type":"Feature","geometry":{"type":"Polygon","coordinates":[[[20.062001,14.082392],[20.241509,14.299147],[20.357807,14.386205],[20.486,14.376],[20.606,14.414],[20.767,14.367],[20.846,14.32],[21.005,14.153],[21.109054,14.128561],[21.253,14.039],[21.437,14.126],[21.444,14.33],[21.508,14.555],[21.469,14.718],[21.241,14.876],[21.006,14.917],[21.009549,14.97347],[21.028526,15.039646],[21.106726,15.114697],[21.190942,15.176739],[21.324284,15.189748],[21.443,15.294],[21.564,15.537],[21.588601,15.720742],[21.686081,15.889866],[21.482903,15.89853],[21.424816,15.866941],[21.190178,15.877453],[21.099321,15.829176],[21.101623,15.729417],[20.731686,15.570348],[20.547546,15.628486],[20.496238,15.654044],[20.319709,15.618037],[20.251534,15.631045],[20.043,15.742],[20.062001,14.082392]]]},"properties":{"shapeName":"Biltine","shapeISO":"","shapeID":"50815135B98948114650625","shapeGroup":"TCD","shapeType":"ADM2"}},
{"type":"Feature","geometry":{"type":"Polygon","coordinates":[[[22.191872372000034,13.911232884000071],[22.234609213000056,13.957369435000032],[22.294591198000035,13.964537094000036],[22.321752851000042,14.011692742000037],[22.534896384000035,14.11015373600003],[22.568279971000038,14.184285487000068],[22.547345474000053,14.23332429100003],[22.46548326800007,14.241623684000047],[22.425,14.292500001000064],[22.45728077700005,14.342455642000061],[22.44275383100006,14.483574561000069],[22.381467299000064,14.513479153000048],[22.409477382000034,14.595573228000035],[22.238,14.698],[22.079,14.905],[22.022,14.976],[21.777,14.96],[21.496,14.777],[21.469,14.718],[21.508,14.555],[21.444,14.33],[21.437,14.126],[21.671,14.092],[22.089,13.968],[22.191872372000034,13.911232884000071]]]},"properties":{"shapeName":"Dar-Tama","shapeISO":"","shapeID":"50815135B35128958764518","shapeGroup":"TCD","shapeType":"ADM2"}},
{"type":"Feature","geometry":{"type":"Polygon","coordinates":[[[22.409477382000034,14.595573228000035],[22.715504683000063,14.696438815000022],[22.672708020000073,14.86583170700004],[22.760024420000036,14.907035467000071],[22.750521277000075,14.96901649800003],[22.812730487000067,15.035173107000048],[22.935301108000033,15.100437447000047],[22.933605641000042,15.169167667000067],[23.00447002900006,15.235563874000036],[22.98865998900004,15.414909004000037],[22.918749973000047,15.490781566000067],[22.696781,15.693203],[22.365395,15.814052],[22.322747,15.88695],[22.015278,15.984883],[21.938912681000033,15.943618719000028],[21.966050160000066,15.892794],[21.983999400000073,15.699999780000041],[21.931999200000064,15.595999740000025],[21.944999520000067,15.53400036000005],[22.051000440000053,15.39700029000005],[22.03899948000003,15.256999980000046],[22.114999800000078,15.085000080000043],[22.079,14.905],[22.238,14.698],[22.409477382000034,14.595573228000035]]]},"properties":{"shapeName":"Kobé","shapeISO":"","shapeID":"50815135B20529104749764","shapeGroup":"TCD","shapeType":"ADM2"}},
{"type":"Feature","geometry":{"type":"Polygon","coordinates":[[[15.042614,12.216573],[14.90831649300003,12.18518931500006],[14.89573,12.15215],[14.95717,12.09753],[15.038086068000041,12.096243076000064],[15.0611,12.04159],[15.03971,12.02417],[15.08672103400005,11.992270103000067],[15.164726,12.038363],[15.173041,12.101967],[15.042614,12.216573]]]},"properties":{"shapeName":"N'Djaména","shapeISO":"","shapeID":"50815135B39277656442366","shapeGroup":"TCD","shapeType":"ADM2"}},
{"type":"Feature","geometry":{"type":"Polygon","coordinates":[[[17.271,13.662],[17.007194,13.82831],[16.247757,13.889559],[16.197806,14.035955],[16.040132,14.219773],[15.984687,14.323662],[15.619,14.032],[15.607,13.878],[15.602,13.749],[15.884584,13.747385],[16.072,13.699],[16.1,13.734999],[16.278999,13.723999],[16.431234,13.580668],[16.617316,13.303767],[16.522319,13.120501],[16.615824,13.076842],[16.547,13.07],[16.762,13.09],[16.846,13.136],[16.9,13.109],[17.024,13.157],[17.161,13.099],[17.241,13.21],[17.234,13.427],[17.271,13.662]]]},"properties":{"shapeName":"Barh-El-Gazel Sud","shapeISO":"","shapeID":"50815135B11223303174297","shapeGroup":"TCD","shapeType":"ADM2"}},
{"type":"Feature","geometry":{"type":"Polygon","coordinates":[[[16.107897,13.031258],[16.361,13.051],[16.468,13.034],[16.547,13.07],[16.615824,13.076842],[16.522319,13.120501],[16.617316,13.303767],[16.431234,13.580668],[16.278999,13.723999],[16.1,13.734999],[16.072,13.699],[15.884584,13.747385],[15.876,13.614],[15.934,13.45],[15.91,13.173],[15.966,13.122],[15.998,13.044],[16.107897,13.031258]]]},"properties":{"shapeName":"Barh-El-Gazel Ouest","shapeISO":"","shapeID":"50815135B59767652467514","shapeGroup":"TCD","shapeType":"ADM2"}},
{"type":"Feature","geometry":{"type":"Polygon","coordinates":[[[23.999999999000067,16.455499019000058],[24,19.5],[22.34156786500006,20.31666256500006],[22.350164,16.755897],[22.328025,16.709156526000072],[22.267915,16.674503526000024],[22.328025,16.564514],[22.531057,16.051491],[23.067051,15.989211],[23.999999999000067,16.455499019000058]]]},"properties":{"shapeName":"Am-Djarass","shapeISO":"","shapeID":"50815135B96833037498211","shapeGroup":"TCD","shapeType":"ADM2"}},
{"type":"Feature","geometry":{"type":"Polygon","coordinates":[[[22.918749973000047,15.490781566000067],[22.927206458000057,15.553552963000072],[23.12416558500007,15.720406389000061],[23.35080638900007,15.694116904000055],[23.628314700000033,15.765264725000065],[23.999999999000067,15.711117313000045],[23.999999999000067,16.455499019000058],[23.067051,15.989211],[22.531057,16.051491],[22.328025,16.564514],[22.145833,16.327142],[22.051631,16.292264],[22.015278,15.984883],[22.322747,15.88695],[22.365395,15.814052],[22.696781,15.693203],[22.918749973000047,15.490781566000067]]]},"properties":{"shapeName":"Wadi Hawar","shapeISO":"","shapeID":"50815135B62585523695590","shapeGroup":"TCD","shapeType":"ADM2"}},
{"type":"Feature","geometry":{"type":"Polygon","coordinates":[[[21.358,12.647],[21.339,12.521],[21.281,12.402],[21.229,12.373],[21.209422,12.275203],[21.273,12.091],[21.05586,11.663709],[21.099001,11.64],[21.096107,11.546021],[21.401532,11.59991],[21.952226,11.704763],[22.020206,11.657407],[22.163,11.634],[22.468049588000042,10.998599395000042],[22.61227,10.99704],[22.875510141000063,10.931368940000027],[22.988245535000033,11.221265636000055],[22.979033065000067,11.302335365000033],[22.93428678500004,11.318654596000044],[22.941919975000076,11.424729598000056],[22.787676919000035,11.40525180700007],[22.761618791000046,11.469739091000065],[22.656070217000035,11.517643931000066],[22.561839818000067,11.630562482000073],[22.555259480000075,11.704788663000045],[22.640467011000055,12.069752406000077],[22.477839930000073,12.032434378000062],[22.491915584000026,12.184959098000036],[22.44138167600005,12.28487317400004],[22.43538221500006,12.380633777000071],[22.364825636000035,12.44604047200005],[22.42580615600008,12.51450982800003],[22.458540885000048,12.63337417300005],[22.194498189000058,12.755787498000075],[22.195447131000037,12.710950060000073],[22.15108416000004,12.673704144000055],[21.946989878000068,12.623883093000074],[21.81513650900007,12.807348154000067],[21.681,12.861],[21.484,12.778],[21.358,12.647]]]},"properties":{"shapeName":"Kimiti","shapeISO":"","shapeID":"50815135B66817745888418","shapeGroup":"TCD","shapeType":"ADM2"}},
{"type":"Feature","geometry":{"type":"Polygon","coordinates":[[[20.045,12.935],[20.23,12.8],[20.244,12.764],[20.174,12.727],[20.114,12.614],[20.154,12.531],[20.082,12.494],[20.001,12.385],[19.889,12.079],[19.906,12.04],[19.92107,11.96001],[20.011,11.982],[20.018636,12.027082],[20.148063,12.03588],[20.303205,12.034967],[21.05586,11.663709],[21.273,12.091],[21.209422,12.275203],[21.229,12.373],[21.281,12.402],[21.339,12.521],[21.358,12.647],[21.224,12.67],[21.086526,12.634386],[20.932,12.694],[20.941,12.8],[20.915,12.853],[20.764078,12.888165],[20.763,13.017],[20.54,13.012],[20.357727,13.059],[20.331,13.001],[20.045,12.935]]]},"properties":{"shapeName":"Djourf Al Ahmar","shapeISO":"","shapeID":"50815135B90510100968968","shapeGroup":"TCD","shapeType":"ADM2"}},
{"type":"Feature","geometry":{"type":"Polygon","coordinates":[[[20.98388330100005,20.985227854000073],[18.973126171000047,21.97538599300003],[16.910524259000056,22.991074084000047],[16.908517,21.837646],[16.962096,21.718582],[16.723968,21.438782],[16.807313,21.069683],[17.253802,20.670819],[17.443238,20.561776],[17.372305,20.317277],[16.519625,18.820411],[18.775147,18.826398],[18.897732,18.668059],[19.191203,18.648814],[19.504954,18.653117784000074],[19.51001496300006,20.00291584200005],[20.493921,20.000779],[20.98388330100005,20.985227854000073]]]},"properties":{"shapeName":"Tibesti Est","shapeISO":"","shapeID":"50815135B39039287340708","shapeGroup":"TCD","shapeType":"ADM2"}},
{"type":"Feature","geometry":{"type":"Polygon","coordinates":[[[16.910524259000056,22.991074084000047],[15.999999999000067,23.439444],[14.998418908000076,22.997183328000062],[15.19187,21.98975],[15.19843,21.49131],[15.288579903000027,21.432320064000066],[15.62559,20.96324],[15.54616,20.88042],[15.5901,20.77447],[15.99564,20.34847],[15.75355,19.94778],[15.72463,19.76368],[15.5938,18.73187],[15.508295066000073,16.949068449000038],[16.519625,18.820411],[17.372305,20.317277],[17.443238,20.561776],[17.253802,20.670819],[16.807313,21.069683],[16.723968,21.438782],[16.962096,21.718582],[16.908517,21.837646],[16.910524259000056,22.991074084000047]]]},"properties":{"shapeName":"Tibesti Ouest","shapeISO":"","shapeID":"50815135B44379234996248","shapeGroup":"TCD","shapeType":"ADM2"}},
{"type":"Feature","geometry":{"type":"Polygon","coordinates":[[[20.460864,16.992117],[20.854666,16.994294],[22.267915,16.674503526000024],[22.328025,16.709156526000072],[22.350164,16.755897],[22.34156786500006,20.31666256500006],[20.98388330100005,20.985227854000073],[20.493921,20.000779],[19.51001496300006,20.00291584200005],[19.504954,18.653117784000074],[19.191203,18.648814],[19.802909835000037,18.01209195100006],[20.513274,18.024326],[20.543108446000076,17.941509778000068],[20.460864,16.992117]]]},"properties":{"shapeName":"Fada","shapeISO":"","shapeID":"50815135B99861554638026","shapeGroup":"TCD","shapeType":"ADM2"}},
{"type":"Feature","geometry":{"type":"Polygon","coordinates":[[[20.547546,15.628486],[20.731686,15.570348],[21.101623,15.729417],[21.099321,15.829176],[21.190178,15.877453],[21.424816,15.866941],[21.482903,15.89853],[21.686081,15.889866],[21.938912681000033,15.943618719000028],[22.015278,15.984883],[22.051631,16.292264],[22.145833,16.327142],[22.328025,16.564514],[22.267915,16.674503526000024],[20.854666,16.994294],[20.460864,16.992117],[20.400563,16.712158],[20.744837,15.800356],[20.547546,15.628486]]]},"properties":{"shapeName":"Mourtcha","shapeISO":"","shapeID":"50815135B12013942151217","shapeGroup":"TCD","shapeType":"ADM2"}},
{"type":"Feature","geometry":{"type":"Polygon","coordinates":[[[17.591,9.673],[17.554001,9.597],[17.620535,9.542804],[17.665852,9.448493],[17.763119,9.435802],[17.825446,9.295637],[18.011551,9.198907],[18.200076,9.176273],[18.109298,9.027893],[18.025728,8.99737],[17.995845,8.958948],[18.019103,8.844281],[18.061482,8.784922],[18.063966,8.599255],[18.123126,8.530081],[18.319325,8.584323],[18.441059,8.737942],[18.463812,8.832813],[18.530571,8.878166],[18.681112,8.695552],[18.754062,8.69216],[18.819598,8.653766],[19.008116,8.680547],[19.07747942000003,8.64078143100005],[19.12222,8.67125],[19.10509,8.69872],[18.9466,8.81276],[18.90972,8.80694],[18.90078,8.85059],[18.86246,8.85262],[18.88899,8.90097],[18.96035,8.92762],[19.022481710000022,8.994327977000069],[18.967469,9.055191],[18.848835,9.120351],[18.841419,9.343498],[18.778035,9.320263],[18.762848,9.275635],[18.649309,9.208623],[18.527914,9.204436],[18.458964,9.308778],[18.374352,9.356679],[18.319071,9.454423],[18.297545,9.526378],[18.378312,9.820276],[18.443424,9.838133],[18.472105,9.820927],[18.530628,9.886298],[18.632,9.919],[18.642,10.025],[18.496,10.186],[18.381,10.247],[18.341,10.24],[18.164,10.346],[18.067,10.35],[17.962,10.397],[17.864,10.497],[17.543,10.451],[17.489,10.172],[17.582710104000057,10.09608796200007],[17.63183397100005,9.975911026000063],[17.63528597100003,9.885900026000058],[17.721532971000045,9.808175026000072],[17.591,9.673]]]},"properties":{"shapeName":"Bahr-Köh","shapeISO":"","shapeID":"50815135B48101754695472","shapeGroup":"TCD","shapeType":"ADM2"}},
{"type":"Feature","geometry":{"type":"Polygon","coordinates":[[[15.573,9.023],[15.652,9.061],[15.893,9.052],[15.929,9.061],[15.959168006000027,9.114889063000021],[15.9459,9.279957],[16.223529,9.518488],[16.170621,9.571343],[15.969872,9.665553],[15.914504,9.655807],[15.865365,9.711347],[15.793854,9.724676],[15.727278,9.676318],[15.665,9.504],[15.533933,9.380614],[15.421,9.21],[15.441,9.061],[15.573,9.023]]]},"properties":{"shapeName":"Tandjile Ouest","shapeISO":"","shapeID":"50815135B85738495348243","shapeGroup":"TCD","shapeType":"ADM2"}},
{"type":"Feature","geometry":{"type":"Polygon","coordinates":[[[16.097161,9.098271],[16.157061,9.079563],[16.213556,9.153804],[16.364,9.245],[16.281615,9.367235],[16.223529,9.518488],[15.9459,9.279957],[15.959168006000027,9.114889063000021],[16.044001,9.128],[16.097161,9.098271]]]},"properties":{"shapeName":"Tandjilé Centre","shapeISO":"","shapeID":"50815135B21537967756666","shapeGroup":"TCD","shapeType":"ADM2"}},
{"type":"Feature","geometry":{"type":"Polygon","coordinates":[[[19.802909835000037,18.01209195100006],[19.191203,18.648814],[18.897732,18.668059],[18.775147,18.826398],[16.519625,18.820411],[15.508295066000073,16.949068449000038],[15.50555,16.89787],[15.455665814000042,16.845821496000042],[16.099142,16.515758],[17.033882,16.096916],[18.904606,17.806067],[19.091246,17.841062],[19.155404,17.896471],[19.187482,18.001456],[19.802909835000037,18.01209195100006]]]},"properties":{"shapeName":"Borkou Yala","shapeISO":"","shapeID":"50815135B13621547433724","shapeGroup":"TCD","shapeType":"ADM2"}},
{"type":"Feature","geometry":{"type":"Polygon","coordinates":[[[17.993654,15.509789],[17.853353,15.725168],[17.170235,16.03506],[16.323108,15.003612],[16.094018,14.543327],[15.984687,14.323662],[16.040132,14.219773],[16.197806,14.035955],[16.247757,13.889559],[17.007194,13.82831],[17.271,13.662],[17.586,13.76],[17.993654,15.509789]]]},"properties":{"shapeName":"Barh-El-Gazel Nord","shapeISO":"","shapeID":"50815135B23579173703051","shapeGroup":"TCD","shapeType":"ADM2"}},
{"type":"Feature","geometry":{"type":"Polygon","coordinates":[[[21.469,14.718],[21.496,14.777],[21.777,14.96],[22.022,14.976],[22.079,14.905],[22.114999800000078,15.085000080000043],[22.03899948000003,15.256999980000046],[22.051000440000053,15.39700029000005],[21.944999520000067,15.53400036000005],[21.931999200000064,15.595999740000025],[21.983999400000073,15.699999780000041],[21.966050160000066,15.892794],[21.938912681000033,15.943618719000028],[21.686081,15.889866],[21.588601,15.720742],[21.564,15.537],[21.443,15.294],[21.324284,15.189748],[21.190942,15.176739],[21.106726,15.114697],[21.028526,15.039646],[21.009549,14.97347],[21.006,14.917],[21.241,14.876],[21.469,14.718]]]},"properties":{"shapeName":"Mégri","shapeISO":"","shapeID":"50815135B12471481376218","shapeGroup":"TCD","shapeType":"ADM2"}},
{"type":"Feature","geometry":{"type":"Polygon","coordinates":[[[15.441,9.061],[15.421,9.21],[15.137888,9.35732],[15.089313,9.438501],[15.070506,9.559199],[15.027231,9.596514],[15.038319,9.657867],[14.950137,9.698441],[14.748995,9.669794],[14.741093,9.562888],[14.611559,9.368204],[14.391016,9.43252],[14.26967615500007,9.379656699000066],[14.31741,9.36674],[14.38577,9.28863],[14.38076,9.19691],[14.49326,9.0919],[14.50994,9.03237],[14.55966,9.01192],[14.75357,8.82017],[14.8979,8.809],[14.925287338000032,8.769012082000074],[14.91062,8.75566],[14.98727,8.72269],[14.98836,8.67742],[15.106938246000027,8.673419974000069],[15.20761,8.6108],[15.236042268000062,8.501152165000065],[15.291585,8.700625],[15.357,8.759],[15.387,9.033],[15.441,9.061]]]},"properties":{"shapeName":"Mayo-Dallah","shapeISO":"","shapeID":"50815135B58245995276010","shapeGroup":"TCD","shapeType":"ADM2"}},
{"type":"Feature","geometry":{"type":"Polygon","coordinates":[[[14.545113,13.985921],[14.438591,14.130628],[14.309982,14.157679],[14.270109,14.225507],[14.211105,14.22708],[14.158776,14.308915],[14.096559,14.319444],[14.083146,14.38602],[14.028054,14.452015],[13.971157,14.4496],[13.931536,14.503542],[13.741979,14.497439],[13.660188560000051,14.526512314000058],[13.49339,14.47461],[13.47622,14.40789],[13.63351,13.71363],[13.737074470000039,13.565844943000059],[13.791851440000073,13.637802825000051],[13.962541550000026,13.737917655000047],[14.078386134000027,13.723058913000045],[14.14976996400003,13.65588672900003],[14.385764907000066,13.747258032000047],[14.441444294000064,13.794371359000024],[14.511400448000074,13.775097725000023],[14.66802814700003,13.810205255000028],[14.545113,13.985921]]]},"properties":{"shapeName":"Fouli","shapeISO":"","shapeID":"50815135B95453652867262","shapeGroup":"TCD","shapeType":"ADM2"}},
{"type":"Feature","geometry":{"type":"Polygon","coordinates":[[[14.66802814700003,13.810205255000028],[14.511400448000074,13.775097725000023],[14.441444294000064,13.794371359000024],[14.385764907000066,13.747258032000047],[14.14976996400003,13.65588672900003],[14.078386134000027,13.723058913000045],[13.962541550000026,13.737917655000047],[13.791851440000073,13.637802825000051],[13.737074470000039,13.565844943000059],[13.952343297000027,13.259012446000042],[14.237625798000067,13.343011928000067],[14.325134219000063,13.444807438000055],[14.369999133000022,13.472841488000029],[14.498123055000065,13.468932478000056],[14.531841203000056,13.532716809000021],[14.689431720000073,13.544599338000069],[14.736545048000039,13.50890742300004],[14.847398031000068,13.605967735000036],[14.844629654000073,13.67379298000003],[14.811489,13.698541],[14.758882,13.651042],[14.66802814700003,13.810205255000028]]]},"properties":{"shapeName":"Kaya","shapeISO":"","shapeID":"50815135B89390943871593","shapeGroup":"TCD","shapeType":"ADM2"}}
]}