{"type":"FeatureCollection", "features": [
{"type":"Feature","geometry":{"type":"Polygon","coordinates":[[[1.621503435000022,8.365959170000053],[1.6302,8.44951],[1.65019,8.47767],[1.63112,8.51869],[1.62483,9.04229],[1.60564,9.09728],[1.559119831000032,9.170150159000059],[1.47767,9.23691],[1.450081687000022,9.278937317000043],[1.432500005000065,9.231388092000032],[1.396667004000051,9.195833206000032],[1.41138899300006,9.125],[1.371943951000048,9.04583358800005],[1.379721999000026,8.99222278600007],[1.35972201800007,8.94944477100006],[1.366667032000066,8.925277710000046],[1.34888899300006,8.932778358000064],[1.325278044000072,8.887222290000068],[1.301388979000023,8.876667023000039],[1.31361103100005,8.867500305000021],[1.309721947000071,8.845832825000059],[1.326388955000027,8.801944733000028],[1.302500010000074,8.784444809000036],[1.303889036000044,8.759444237000025],[1.272222042000067,8.73527813000004],[1.275277972000026,8.714444160000028],[1.24444401300002,8.696389198000077],[1.248332977000075,8.681388855000023],[1.260555983000074,8.671667099000047],[1.242499948000045,8.560555458000067],[1.269166946000041,8.555833817000064],[1.227777958000047,8.518610954000053],[1.238332987000035,8.482777596000062],[1.221111059000066,8.42472267200003],[1.227571607000073,8.373539925000046],[1.621503435000022,8.365959170000053]]]},"properties":{"shapeName":"Tchamba","shapeISO":"","shapeID":"56601680B17532793096074","shapeGroup":"TGO","shapeType":"ADM2"}},
{"type":"Feature","geometry":{"type":"Polygon","coordinates":[[[1.450081687000022,9.278937317000043],[1.431233457000076,9.297813451000025],[1.367499948000045,9.251388550000058],[1.333055973000057,9.250278473000037],[1.223055959000021,9.21583271000003],[1.174721956000042,9.212499619000027],[1.087777972000026,9.22999954200003],[1.01866102200006,9.213599205000037],[0.995277822000048,9.201666832000058],[0.985833287000048,9.174445152000033],[0.999722183000074,9.059166908000066],[0.950833321000061,9.017777443000057],[0.873610973000041,9.004166603000044],[0.903888881000057,8.920556068000053],[0.962499976000061,8.89388847400005],[0.988333285000067,8.809444427000074],[1.065554976000044,8.74583339700007],[1.096667051000054,8.747222900000054],[1.126389027000073,8.73333358800005],[1.187777996000023,8.738056183000026],[1.215278029000046,8.691389084000036],[1.248332977000075,8.681388855000023],[1.24444401300002,8.696389198000077],[1.275277972000026,8.714444160000028],[1.272222042000067,8.73527813000004],[1.303889036000044,8.759444237000025],[1.302500010000074,8.784444809000036],[1.326388955000027,8.801944733000028],[1.309721947000071,8.845832825000059],[1.31361103100005,8.867500305000021],[1.301388979000023,8.876667023000039],[1.325278044000072,8.887222290000068],[1.34888899300006,8.932778358000064],[1.366667032000066,8.925277710000046],[1.35972201800007,8.94944477100006],[1.379721999000026,8.99222278600007],[1.371943951000048,9.04583358800005],[1.41138899300006,9.125],[1.396667004000051,9.195833206000032],[1.432500005000065,9.231388092000032],[1.450081687000022,9.278937317000043]]]},"properties":{"shapeName":"Tchaoudjo","shapeISO":"","shapeID":"56601680B14222633765071","shapeGroup":"TGO","shapeType":"ADM2"}},
{"type":"Feature","geometry":{"type":"Polygon","coordinates":[[[1.431233457000076,9.297813451000025],[1.40312,9.35491],[1.40133570100005,9.425408838000067],[1.371667027000058,9.446944237000025],[1.291666985000063,9.429166794000025],[1.23611104500003,9.441111565000028],[1.179167032000066,9.417778015000067],[1.142222047000075,9.43027782400003],[1.118610978000049,9.404443741000023],[1.066388965000044,9.413332939000043],[1.033889055000031,9.405833244000064],[1.011389017000056,9.412499428000046],[0.983888924000041,9.453888893000055],[0.956944406000048,9.384166718000074],[0.956111073000045,9.347499847000051],[0.961388886000066,9.332221985000047],[1.029167056000063,9.280277252000076],[1.033611059000066,9.240278244000024],[1.01866102200006,9.213599205000037],[1.087777972000026,9.22999954200003],[1.174721956000042,9.212499619000027],[1.223055959000021,9.21583271000003],[1.333055973000057,9.250278473000037],[1.367499948000045,9.251388550000058],[1.431233457000076,9.297813451000025]]]},"properties":{"shapeName":"Assoli","shapeISO":"","shapeID":"56601680B59731994726086","shapeGroup":"TGO","shapeType":"ADM2"}},
{"type":"Feature","geometry":{"type":"Polygon","coordinates":[[[1.362392705000047,9.48597981000006],[1.34159,9.54626],[1.36606,9.61139],[1.3693,9.6615],[1.358723965000024,9.913892621000059],[1.258056045000046,9.858889580000039],[1.211110950000034,9.771389008000028],[1.239444017000039,9.749444962000041],[1.246389031000035,9.706944466000039],[1.304721951000033,9.665555],[1.297500014000036,9.603889465000066],[1.269721985000047,9.535000801000024],[1.362392705000047,9.48597981000006]]]},"properties":{"shapeName":"Binah","shapeISO":"","shapeID":"56601680B44914344892125","shapeGroup":"TGO","shapeType":"ADM2"}},
{"type":"Feature","geometry":{"type":"Polygon","coordinates":[[[1.358723965000024,9.913892621000059],[1.3552,10],[1.17331096700002,10.107654297000067],[1.171110988000066,10.024999619000027],[1.12750005700002,9.935000420000051],[1.086388946000056,9.904166222000072],[1.073611021000033,9.860555649000048],[1.03638899300006,9.849444389000041],[1.002778053000043,9.864444733000028],[0.952222228000039,9.846666336000055],[0.929722190000064,9.858889580000039],[0.908611119000057,9.853611946000058],[0.883888900000045,9.87083339700007],[0.848611116000029,9.851944923000076],[0.836944401000039,9.835832596000046],[0.860833287000048,9.80472278600007],[0.856388927000069,9.756111145000034],[0.871666729000026,9.72999954200003],[0.861111224000069,9.703332901000067],[0.878611088000071,9.673611641000036],[0.913539524000043,9.654069607000054],[0.916212618000031,9.645280838000076],[0.996388912000043,9.63888835900002],[1.034999967000033,9.645000458000027],[1.058889031000035,9.662499428000046],[1.096111059000066,9.662221909000039],[1.131943941000031,9.696389198000077],[1.156388998000068,9.694999695000035],[1.211110950000034,9.771389008000028],[1.258056045000046,9.858889580000039],[1.358723965000024,9.913892621000059]]]},"properties":{"shapeName":"Doufelgou","shapeISO":"","shapeID":"56601680B89390870579143","shapeGroup":"TGO","shapeType":"ADM2"}},
{"type":"Feature","geometry":{"type":"Polygon","coordinates":[[[1.17331096700002,10.107654297000067],[0.998343300000045,10.22082940000007],[0.977222204000043,10.18389034300003],[0.91638892900005,10.188059807000059],[0.896944523000059,10.165280342000074],[0.855000019000045,10.182499886000073],[0.809166729000026,10.152219772000024],[0.781944513000042,10.179439545000037],[0.736666679000052,10.172780037000052],[0.742777824000029,10.145000458000027],[0.694722176000028,10.064169884000023],[0.68777781700004,9.990555763000032],[0.666666687000031,9.942222595000032],[0.679293990000076,9.875913620000063],[0.689444423000054,9.845555305000062],[0.739166677000071,9.844721794000066],[0.767222206000042,9.891666331000067],[0.817222178000065,9.87277793900006],[0.840833257000043,9.883333144000062],[0.848611116000029,9.851944923000076],[0.883888900000045,9.87083339700007],[0.908611119000057,9.853611946000058],[0.929722190000064,9.858889580000039],[0.952222228000039,9.846666336000055],[1.002778053000043,9.864444733000028],[1.03638899300006,9.849444389000041],[1.073611021000033,9.860555649000048],[1.086388946000056,9.904166222000072],[1.12750005700002,9.935000420000051],[1.171110988000066,10.024999619000027],[1.17331096700002,10.107654297000067]]]},"properties":{"shapeName":"Keran","shapeISO":"","shapeID":"56601680B30245465113687","shapeGroup":"TGO","shapeType":"ADM2"}},
{"type":"Feature","geometry":{"type":"Polygon","coordinates":[[[1.40133570100005,9.425408838000067],[1.390209128000038,9.497299652000038],[1.362392705000047,9.48597981000006],[1.269721985000047,9.535000801000024],[1.297500014000036,9.603889465000066],[1.304721951000033,9.665555],[1.246389031000035,9.706944466000039],[1.239444017000039,9.749444962000041],[1.211110950000034,9.771389008000028],[1.156388998000068,9.694999695000035],[1.131943941000031,9.696389198000077],[1.096111059000066,9.662221909000039],[1.058889031000035,9.662499428000046],[1.034999967000033,9.645000458000027],[0.996388912000043,9.63888835900002],[0.916212618000031,9.645280838000076],[0.914722204000043,9.632222176000028],[0.93083316000002,9.620555953000064],[0.954721987000028,9.625],[0.970833302000074,9.607222557000057],[1.008056045000046,9.59388828300007],[1.005833030000076,9.520000458000027],[0.983888924000041,9.453888893000055],[1.011389017000056,9.412499428000046],[1.033889055000031,9.405833244000064],[1.066388965000044,9.413332939000043],[1.118610978000049,9.404443741000023],[1.142222047000075,9.43027782400003],[1.179167032000066,9.417778015000067],[1.23611104500003,9.441111565000028],[1.291666985000063,9.429166794000025],[1.371667027000058,9.446944237000025],[1.40133570100005,9.425408838000067]]]},"properties":{"shapeName":"Kozah","shapeISO":"","shapeID":"56601680B44378348729827","shapeGroup":"TGO","shapeType":"ADM2"}},
{"type":"Feature","geometry":{"type":"Polygon","coordinates":[[[1.25912466475635,6.200151369934127],[1.231111050000038,6.24777698500003],[1.199445009000044,6.271945],[1.141111016000025,6.286110878000045],[1.11501133400003,6.259479523000039],[1.105740163000064,6.168159789000072],[1.17568880400006,6.168449550000048],[1.189726195000048,6.188944793000076],[1.25912466475635,6.200151369934127]]]},"properties":{"shapeName":"Golfe","shapeISO":"","shapeID":"56601680B59402294179516","shapeGroup":"TGO","shapeType":"ADM2"}},
{"type":"Feature","geometry":{"type":"Polygon","coordinates":[[[1.769534777000047,6.398222256000054],[1.77608,6.41604],[1.75518,6.43678],[1.750619698000037,6.463920250000058],[1.73393,6.47582],[1.72794,6.49835],[1.69573,6.50041],[1.69639,6.55262],[1.67017,6.55606],[1.67591,6.57998],[1.663008903000048,6.583870920000038],[1.650833011000032,6.564167023000039],[1.576943994000032,6.569444180000062],[1.537500024000053,6.551389217000064],[1.562222004000034,6.514999866000039],[1.597777963000055,6.420278072000031],[1.625555992000045,6.393610954000053],[1.623610973000041,6.371110916000021],[1.599722028000031,6.361667156000067],[1.642815953000024,6.335719217000076],[1.666039004000027,6.367199353000046],[1.74757771700007,6.381649251000056],[1.769534777000047,6.398222256000054]]]},"properties":{"shapeName":"Bas-Mono","shapeISO":"","shapeID":"56601680B95494992900514","shapeGroup":"TGO","shapeType":"ADM2"}},
{"type":"Feature","geometry":{"type":"Polygon","coordinates":[[[1.537500024000053,6.551389217000064],[1.446388960000036,6.523056030000021],[1.39333295800003,6.442222118000075],[1.366111040000021,6.422500134000074],[1.405277967000075,6.251389027000073],[1.485278010000059,6.210000038000032],[1.585000038000032,6.231111050000038],[1.585832953000022,6.267499924000049],[1.606111050000038,6.30388879800006],[1.599722028000031,6.361667156000067],[1.623610973000041,6.371110916000021],[1.625555992000045,6.393610954000053],[1.597777963000055,6.420278072000031],[1.562222004000034,6.514999866000039],[1.537500024000053,6.551389217000064]]]},"properties":{"shapeName":"Vo","shapeISO":"","shapeID":"56601680B43007755983133","shapeGroup":"TGO","shapeType":"ADM2"}},
{"type":"Feature","geometry":{"type":"Polygon","coordinates":[[[1.663008903000048,6.583870920000038],[1.65129,6.57836],[1.6344,6.59682],[1.61715,6.59684],[1.60247,6.62745],[1.611228733000075,6.641923678000069],[1.602834899000072,6.666285083000048],[1.57392,6.68824],[1.62609993500007,6.76024007500007],[1.60838,6.77127],[1.61274,6.79243],[1.59662,6.80644],[1.61479,6.82508],[1.5996,6.83013],[1.5945,6.86898],[1.60668835000007,6.883474651000029],[1.605068885000037,6.905770465000046],[1.587612992000061,6.91304455300002],[1.557500005000065,6.900834084000053],[1.530277967000075,6.857222080000042],[1.498056054000074,6.836111069000026],[1.464722037000058,6.831110954000053],[1.411110997000037,6.84444522900003],[1.375833035000028,6.833889008000028],[1.308055997000054,6.786943913000073],[1.240712047000045,6.72179794300007],[1.249722004000034,6.713889122000069],[1.242221951000033,6.69000005700002],[1.303333044000055,6.658332825000059],[1.291666985000063,6.581388950000076],[1.306388974000072,6.518610954000053],[1.340278029000046,6.477777958000047],[1.366111040000021,6.422500134000074],[1.39333295800003,6.442222118000075],[1.446388960000036,6.523056030000021],[1.537500024000053,6.551389217000064],[1.576943994000032,6.569444180000062],[1.650833011000032,6.564167023000039],[1.663008903000048,6.583870920000038]]]},"properties":{"shapeName":"Yoto","shapeISO":"","shapeID":"56601680B13855645397073","shapeGroup":"TGO","shapeType":"ADM2"}},
{"type":"Feature","geometry":{"type":"Polygon","coordinates":[[[0.984974130000069,7.219943501000046],[1.113610983000058,7.32000017200005],[1.120000005000065,7.376945019000061],[1.142778039000063,7.439167023000039],[1.121667027000058,7.479444981000029],[1.121667027000058,7.558055878000062],[1.161666989000025,7.626389027000073],[1.150555015000066,7.666944981000029],[1.156111002000046,7.721388817000047],[1.143610954000053,7.780834198000036],[1.103888988000051,7.799167156000067],[1.087499976000061,7.849999905000061],[1.050163031000068,7.904068947000042],[0.944166720000055,7.855278015000067],[0.911666572000058,7.778889179000032],[0.902628666000055,7.691314743000021],[0.910000026000034,7.613055229000054],[0.944999993000067,7.591111183000066],[0.989444375000062,7.584167004000051],[0.999166727000045,7.567222118000075],[0.792777777000026,7.403334141000073],[0.775277674000051,7.365277767000066],[0.779999971000052,7.302777767000066],[0.79086099400007,7.290969261000043],[0.939999998000076,7.289721966000059],[0.968888879000076,7.263054848000024],[0.984974130000069,7.219943501000046]]]},"properties":{"shapeName":"Amou","shapeISO":"","shapeID":"56601680B97066679611380","shapeGroup":"TGO","shapeType":"ADM2"}},
{"type":"Feature","geometry":{"type":"Polygon","coordinates":[[[0.902628666000055,7.691314743000021],[0.827916419000076,7.684894159000066],[0.807113710000067,7.63288738600005],[0.794821200000058,7.635724119000031],[0.77874637900004,7.665982605000067],[0.693644386000074,7.61964929800007],[0.670950521000066,7.627213920000031],[0.655821278000076,7.64801662900004],[0.650147812000057,7.700968980000027],[0.632062418000032,7.706493200000068],[0.594567736000045,7.703248314000064],[0.588423141000021,7.62734385400006],[0.521322342000076,7.594531087000064],[0.530721213000049,7.588867970000024],[0.519942254000057,7.462899306000054],[0.532957906000036,7.458663866000052],[0.538121337000064,7.424613780000072],[0.566793841000049,7.395798507000052],[0.625257197000053,7.410598755000024],[0.644292885000027,7.398725244000047],[0.646836275000055,7.367475417000037],[0.792777777000026,7.403334141000073],[0.999166727000045,7.567222118000075],[0.989444375000062,7.584167004000051],[0.944999993000067,7.591111183000066],[0.910000026000034,7.613055229000054],[0.902628666000055,7.691314743000021]]]},"properties":{"shapeName":"Wawa","shapeISO":"","shapeID":"56601680B48376088277440","shapeGroup":"TGO","shapeType":"ADM2"}},
{"type":"Feature","geometry":{"type":"Polygon","coordinates":[[[1.227571607000073,8.373539925000046],[1.16018271400003,8.393236160000072],[1.131133199000033,8.360522270000047],[1.005251765000025,8.389310837000039],[0.953695357000072,8.370467186000042],[0.781491697000035,8.40422725700006],[0.732192516000055,8.366148949000035],[0.709935119000022,8.38666756300006],[0.710440608000056,8.357177438000065],[0.731070534000025,8.34627950600003],[0.731141918000048,8.290243201000067],[0.684433100000035,8.282914461000075],[0.672464411000021,8.264473639000073],[0.637795664000066,8.258953289000033],[0.618712388000063,8.216099197000062],[0.587684216000071,8.207890057000043],[0.590396802000043,8.191566955000042],[0.611446364000074,8.183690806000072],[0.583450068000047,8.095050700000058],[0.598987947000069,8.024428299000022],[0.596156390000033,7.976696312000058],[0.61729968800006,7.896689722000076],[0.68138891500007,7.900556087000041],[0.723611116000029,7.934443951000048],[0.80805558000003,7.942222118000075],[0.834166586000038,7.969721794000066],[0.87944400300006,7.958889008000028],[0.962777793000043,7.980556011000033],[1.033226013000046,7.962689877000059],[1.071388960000036,7.948888779000072],[1.164846539000052,7.965635777000045],[1.20166695100005,7.973332882000022],[1.245000005000065,8.005555153000046],[1.232777953000038,8.020277977000035],[1.25111103100005,8.057222366000076],[1.264443994000032,8.182778358000064],[1.243332982000027,8.216943741000023],[1.229166985000063,8.304166794000025],[1.238610983000058,8.365278244000024],[1.227571607000073,8.373539925000046]]]},"properties":{"shapeName":"Blitta","shapeISO":"","shapeID":"56601680B83789166363061","shapeGroup":"TGO","shapeType":"ADM2"}},
{"type":"Feature","geometry":{"type":"Polygon","coordinates":[[[1.248332977000075,8.681388855000023],[1.215278029000046,8.691389084000036],[1.187777996000023,8.738056183000026],[1.126389027000073,8.73333358800005],[1.096667051000054,8.747222900000054],[1.065554976000044,8.74583339700007],[0.988333285000067,8.809444427000074],[0.962499976000061,8.89388847400005],[0.903888881000057,8.920556068000053],[0.873610973000041,9.004166603000044],[0.785555601000056,9.025277138000035],[0.773611009000035,9.053611755000077],[0.754999995000048,9.045278549000045],[0.734722237000028,9.052499716000057],[0.710833311000044,9.01361084000007],[0.694239928000059,9.01031462100002],[0.707996424000044,8.981407753000042],[0.715396714000065,8.903704703000074],[0.743147803000056,8.872253469000043],[0.700596133000033,8.846352452000076],[0.706146351000029,8.720547515000021],[0.752398166000035,8.690946354000062],[0.78199932800004,8.63914432100006],[0.720946932000061,8.574391779000052],[0.687645625000073,8.552190908000057],[0.630293374000075,8.537390327000026],[0.611395247000075,8.51351900800006],[0.643768111000043,8.494900638000047],[0.650168862000044,8.427823634000049],[0.685170733000064,8.417377800000054],[0.709935119000022,8.38666756300006],[0.732192516000055,8.366148949000035],[0.781491697000035,8.40422725700006],[0.953695357000072,8.370467186000042],[1.005251765000025,8.389310837000039],[1.131133199000033,8.360522270000047],[1.16018271400003,8.393236160000072],[1.227571607000073,8.373539925000046],[1.221111059000066,8.42472267200003],[1.238332987000035,8.482777596000062],[1.227777958000047,8.518610954000053],[1.269166946000041,8.555833817000064],[1.242499948000045,8.560555458000067],[1.260555983000074,8.671667099000047],[1.248332977000075,8.681388855000023]]]},"properties":{"shapeName":"Sotouboua","shapeISO":"","shapeID":"56601680B24632394959352","shapeGroup":"TGO","shapeType":"ADM2"}},
{"type":"Feature","geometry":{"type":"Polygon","coordinates":[[[1.01866102200006,9.213599205000037],[1.033611059000066,9.240278244000024],[1.029167056000063,9.280277252000076],[0.961388886000066,9.332221985000047],[0.956111073000045,9.347499847000051],[0.956944406000048,9.384166718000074],[0.983888924000041,9.453888893000055],[1.005833030000076,9.520000458000027],[1.008056045000046,9.59388828300007],[0.970833302000074,9.607222557000057],[0.954721987000028,9.625],[0.93083316000002,9.620555953000064],[0.914722204000043,9.632222176000028],[0.916212618000031,9.645280838000076],[0.913539524000043,9.654069607000054],[0.859789014000057,9.612149239000075],[0.855760515000043,9.598049164000031],[0.832596362000061,9.61617755900005],[0.815475047000064,9.577906609000024],[0.750011265000069,9.571863174000043],[0.671454668000024,9.542656898000075],[0.684547424000073,9.48424243900007],[0.632176399000059,9.435899734000031],[0.562348658000076,9.405350767000073],[0.544449411000073,9.343749541000022],[0.554633503000048,9.307462762000057],[0.537596564000069,9.30325111600007],[0.503260942000054,9.252187884000023],[0.530934073000026,9.20657361700006],[0.501428756000053,9.153511638000055],[0.474564643000065,9.14449348100004],[0.483011729000054,9.101615594000066],[0.465824442000041,9.091242430000023],[0.454529581000031,9.050338210000064],[0.466463477000048,9.006237658000032],[0.511446287000069,8.936790333000033],[0.509209593000037,8.902549890000046],[0.524223993000021,8.880230546000064],[0.519988553000076,8.856245580000063],[0.501634406000051,8.845565005000026],[0.535833418000038,8.848888397000053],[0.554722190000064,8.872500420000051],[0.58472222100005,8.873333931000047],[0.592499971000052,8.886111259000074],[0.578611076000072,8.899444580000022],[0.583888888000047,8.915555],[0.630833328000051,8.945555687000024],[0.643333316000053,8.981666565000069],[0.671666682000023,8.98333358800005],[0.694239928000059,9.01031462100002],[0.710833311000044,9.01361084000007],[0.734722237000028,9.052499716000057],[0.754999995000048,9.045278549000045],[0.773611009000035,9.053611755000077],[0.785555601000056,9.025277138000035],[0.873610973000041,9.004166603000044],[0.950833321000061,9.017777443000057],[0.999722183000074,9.059166908000066],[0.985833287000048,9.174445152000033],[0.995277822000048,9.201666832000058],[1.01866102200006,9.213599205000037]]]},"properties":{"shapeName":"Bassar","shapeISO":"","shapeID":"56601680B12598387573686","shapeGroup":"TGO","shapeType":"ADM2"}},
{"type":"Feature","geometry":{"type":"Polygon","coordinates":[[[0.848611116000029,9.851944923000076],[0.840833257000043,9.883333144000062],[0.817222178000065,9.87277793900006],[0.767222206000042,9.891666331000067],[0.739166677000071,9.844721794000066],[0.689444423000054,9.845555305000062],[0.679293990000076,9.875913620000063],[0.666111112000067,9.883333206000032],[0.655277729000034,9.873611450000055],[0.631944461000046,9.891943892000029],[0.55805558000003,9.873055458000067],[0.517777681000041,9.909443855000063],[0.520555615000035,9.940278053000043],[0.468055155000059,9.942777706000072],[0.423611104000031,9.960833549000029],[0.422500014000036,9.99416732800006],[0.40760872900006,10.019869476000054],[0.359656524000059,10.028144312000052],[0.359347193000076,9.98355321400004],[0.386853762000044,9.936963368000022],[0.354968986000074,9.91883187600007],[0.357729160000019,9.845473094000056],[0.331959599000072,9.793696024000042],[0.32049059700006,9.724596477000034],[0.345236991000036,9.715150017000042],[0.351899482000022,9.674175699000045],[0.382796765000023,9.640309693000063],[0.374011013000029,9.606413167000028],[0.384065811000028,9.58608970900002],[0.358304179000072,9.56921139900004],[0.290790940000022,9.573145441000065],[0.267916390000039,9.563754502000052],[0.242884461000074,9.571717765000074],[0.245517731000064,9.522478786000022],[0.294724982000048,9.522732595000036],[0.314363467000021,9.505314941000051],[0.270232398000076,9.477110397000047],[0.23254173700002,9.485961992000057],[0.230860251000024,9.464340623000055],[0.249063128000046,9.436524724000037],[0.285373701000026,9.428981833000023],[0.337412512000071,9.450444571000048],[0.350356781000073,9.473120834000042],[0.345098171000075,9.485660593000034],[0.359969802000023,9.498628655000061],[0.386239051000075,9.490681256000073],[0.456028642000035,9.497248568000032],[0.500429383000039,9.473715699000024],[0.498763761000021,9.436953027000072],[0.51798980500007,9.439237310000067],[0.562348658000076,9.405350767000073],[0.632176399000059,9.435899734000031],[0.684547424000073,9.48424243900007],[0.671454668000024,9.542656898000075],[0.750011265000069,9.571863174000043],[0.815475047000064,9.577906609000024],[0.832596362000061,9.61617755900005],[0.855760515000043,9.598049164000031],[0.859789014000057,9.612149239000075],[0.913539524000043,9.654069607000054],[0.878611088000071,9.673611641000036],[0.861111224000069,9.703332901000067],[0.871666729000026,9.72999954200003],[0.856388927000069,9.756111145000034],[0.860833287000048,9.80472278600007],[0.836944401000039,9.835832596000046],[0.848611116000029,9.851944923000076]]]},"properties":{"shapeName":"Dankpen","shapeISO":"","shapeID":"56601680B12249670822801","shapeGroup":"TGO","shapeType":"ADM2"}},
{"type":"Feature","geometry":{"type":"Polygon","coordinates":[[[1.11501133400003,6.259479523000039],[1.087244034000037,6.257707119000031],[1.029820681000047,6.323143005000077],[1.037833214000045,6.361202717000026],[1.070551157000068,6.385240555000053],[1.067212582000025,6.445334435000063],[0.931332886000064,6.618940353000028],[0.918312430000071,6.665012360000048],[0.898915172000045,6.685209751000059],[0.88277781000005,6.641388893000055],[0.82027781000005,6.572222233000048],[0.771111071000064,6.541388988000051],[0.718171063000057,6.537622163000037],[0.719130863000032,6.501575780000053],[0.744304701000033,6.481350683000073],[0.748160287000076,6.44292206700004],[0.78133714300003,6.432328385000062],[0.788142401000073,6.408985873000063],[0.856811139000058,6.383598316000075],[0.893870291000042,6.333245563000048],[1.005305710000073,6.33270589600005],[1.024307868000051,6.254168889000027],[1.065829462000067,6.219048046000069],[1.085439200000053,6.168075692000059],[1.105740163000064,6.168159789000072],[1.11501133400003,6.259479523000039]]]},"properties":{"shapeName":"Ave","shapeISO":"","shapeID":"56601680B41562196478781","shapeGroup":"TGO","shapeType":"ADM2"}},
{"type":"Feature","geometry":{"type":"Polygon","coordinates":[[[1.25912466475635,6.200151369934127],[1.301110983000058,6.190834045000031],[1.398144960000025,6.213856220000025],[1.405277967000075,6.251389027000073],[1.366111040000021,6.422500134000074],[1.340278029000046,6.477777958000047],[1.306388974000072,6.518610954000053],[1.291666985000063,6.581388950000076],[1.303333044000055,6.658332825000059],[1.242221951000033,6.69000005700002],[1.249722004000034,6.713889122000069],[1.240712047000045,6.72179794300007],[1.19611096400007,6.738611221000042],[1.149166942000022,6.788610935000065],[1.120000005000065,6.793334007000055],[1.121943951000048,6.808888912000043],[0.892222226000058,6.825554848000024],[0.898915172000045,6.685209751000059],[0.918312430000071,6.665012360000048],[0.931332886000064,6.618940353000028],[1.067212582000025,6.445334435000063],[1.070551157000068,6.385240555000053],[1.037833214000045,6.361202717000026],[1.029820681000047,6.323143005000077],[1.087244034000037,6.257707119000031],[1.11501133400003,6.259479523000039],[1.141111016000025,6.286110878000045],[1.199445009000044,6.271945],[1.231111050000038,6.24777698500003],[1.25912466475635,6.200151369934127]]]},"properties":{"shapeName":"Zio","shapeISO":"","shapeID":"56601680B44610096966608","shapeGroup":"TGO","shapeType":"ADM2"}},
{"type":"Feature","geometry":{"type":"Polygon","coordinates":[[[0.898915172000045,6.685209751000059],[0.892222226000058,6.825554848000024],[0.890169203000028,6.920064926000066],[0.846473515000071,6.901150227000073],[0.818653047000055,6.916874886000073],[0.769060016000026,6.993078709000031],[0.750916243000063,6.994288445000052],[0.740029991000029,6.988240719000032],[0.736401260000036,6.925342083000032],[0.720676601000036,6.901150227000073],[0.634796083000026,6.817688942000075],[0.64568233500006,6.781401634000076],[0.639516100000037,6.744994577000057],[0.65095930800004,6.737166210000055],[0.638110217000076,6.63530148600006],[0.656598630000076,6.608651523000049],[0.672588607000023,6.614647765000029],[0.68781715700004,6.592447394000033],[0.740974315000074,6.582667810000032],[0.744097455000031,6.558707612000035],[0.718171063000057,6.537622163000037],[0.771111071000064,6.541388988000051],[0.82027781000005,6.572222233000048],[0.88277781000005,6.641388893000055],[0.898915172000045,6.685209751000059]]]},"properties":{"shapeName":"Agou","shapeISO":"","shapeID":"56601680B98633254865748","shapeGroup":"TGO","shapeType":"ADM2"}},
{"type":"Feature","geometry":{"type":"Polygon","coordinates":[[[0.792777777000026,7.403334141000073],[0.646836275000055,7.367475417000037],[0.657165769000073,7.308781620000047],[0.629298207000033,7.196153116000062],[0.616687064000075,7.183423],[0.617258135000043,7.162007851000055],[0.606098462000034,7.159223882000049],[0.59542979500003,7.112066656000025],[0.660758235974444,7.142813621744887],[0.730351865000046,7.175774574000059],[0.755374372000063,7.224985600000025],[0.764549315000068,7.279201031000071],[0.79086099400007,7.290969261000043],[0.779999971000052,7.302777767000066],[0.775277674000051,7.365277767000066],[0.792777777000026,7.403334141000073]]]},"properties":{"shapeName":"Danyi","shapeISO":"","shapeID":"56601680B28886338508193","shapeGroup":"TGO","shapeType":"ADM2"}},
{"type":"Feature","geometry":{"type":"Polygon","coordinates":[[[1.227571607000073,8.373539925000046],[1.238610983000058,8.365278244000024],[1.229166985000063,8.304166794000025],[1.243332982000027,8.216943741000023],[1.264443994000032,8.182778358000064],[1.25111103100005,8.057222366000076],[1.232777953000038,8.020277977000035],[1.245000005000065,8.005555153000046],[1.20166695100005,7.973332882000022],[1.164846539000052,7.965635777000045],[1.170187235000071,7.935068607000062],[1.194220185000063,7.920382023000059],[1.315720201000033,7.916376114000059],[1.33841800700003,7.87365102800004],[1.36779165300004,7.848282814000072],[1.473269701000049,7.813568592000024],[1.495967507000046,7.821579456000052],[1.49196207500006,7.857629299000052],[1.511989594000056,7.916376114000059],[1.570736885000031,7.940409184000032],[1.633683875000031,7.93155838000007],[1.633469950000062,8.318990659000065],[1.621503435000022,8.365959170000053],[1.227571607000073,8.373539925000046]]]},"properties":{"shapeName":"Est-Mono","shapeISO":"","shapeID":"56601680B43372711183576","shapeGroup":"TGO","shapeType":"ADM2"}},
{"type":"Feature","geometry":{"type":"Polygon","coordinates":[[[1.587612992000061,6.91304455300002],[1.55918,6.97219],[1.55783,6.99749],[1.536942840000052,7.028712749000022],[1.576296687000024,7.062163830000031],[1.521201253000072,7.08577585200004],[1.503491998000072,7.109388351000064],[1.464138150000053,7.10348510700004],[1.463154316000043,7.120210648000068],[1.439541936000069,7.142838955000059],[1.442493439000032,7.186128616000076],[1.478895783000041,7.193999290000022],[1.480863571000043,7.202853680000032],[1.452331901000036,7.256965637000064],[1.465668569000059,7.27904772100004],[1.416666985000063,7.273889065000049],[1.274999976000061,7.18861103100005],[1.153610945000025,7.175833225000076],[1.052500010000074,7.099443913000073],[0.992222190000064,7.082221985000047],[0.920000017000064,7.031389236000052],[0.890169203000028,6.920064926000066],[0.892222226000058,6.825554848000024],[1.121943951000048,6.808888912000043],[1.120000005000065,6.793334007000055],[1.149166942000022,6.788610935000065],[1.19611096400007,6.738611221000042],[1.240712047000045,6.72179794300007],[1.308055997000054,6.786943913000073],[1.375833035000028,6.833889008000028],[1.411110997000037,6.84444522900003],[1.464722037000058,6.831110954000053],[1.498056054000074,6.836111069000026],[1.530277967000075,6.857222080000042],[1.557500005000065,6.900834084000053],[1.587612992000061,6.91304455300002]]]},"properties":{"shapeName":"Haho","shapeISO":"","shapeID":"56601680B64184766281932","shapeGroup":"TGO","shapeType":"ADM2"}},
{"type":"Feature","geometry":{"type":"Polygon","coordinates":[[[0.79086099400007,7.290969261000043],[0.764549315000068,7.279201031000071],[0.755374372000063,7.224985600000025],[0.730351865000046,7.175774574000059],[0.660758235974444,7.142813621744887],[0.662403549000032,7.056678588000068],[0.68524637500002,7.037642900000037],[0.74044987000002,7.026221487000043],[0.750916243000063,6.994288445000052],[0.769060016000026,6.993078709000031],[0.818653047000055,6.916874886000073],[0.846473515000071,6.901150227000073],[0.890169203000028,6.920064926000066],[0.920000017000064,7.031389236000052],[0.992222190000064,7.082221985000047],[0.984974130000069,7.219943501000046],[0.968888879000076,7.263054848000024],[0.939999998000076,7.289721966000059],[0.79086099400007,7.290969261000043]]]},"properties":{"shapeName":"Kpélé","shapeISO":"","shapeID":"56601680B91306020007274","shapeGroup":"TGO","shapeType":"ADM2"}},
{"type":"Feature","geometry":{"type":"Polygon","coordinates":[[[1.55783,6.99749],[1.642029912000055,6.994573224000021],[1.635889395000049,7.400906702000043],[1.543889046000061,7.292778015000067],[1.465668569000059,7.27904772100004],[1.452331901000036,7.256965637000064],[1.480863571000043,7.202853680000032],[1.478895783000041,7.193999290000022],[1.442493439000032,7.186128616000076],[1.439541936000069,7.142838955000059],[1.463154316000043,7.120210648000068],[1.464138150000053,7.10348510700004],[1.503491998000072,7.109388351000064],[1.521201253000072,7.08577585200004],[1.576296687000024,7.062163830000031],[1.536942840000052,7.028712749000022],[1.55783,6.99749]]]},"properties":{"shapeName":"Moyen-Mono","shapeISO":"","shapeID":"56601680B67578860005589","shapeGroup":"TGO","shapeType":"ADM2"}},
{"type":"Feature","geometry":{"type":"Polygon","coordinates":[[[0.984974130000069,7.219943501000046],[0.992222190000064,7.082221985000047],[1.052500010000074,7.099443913000073],[1.153610945000025,7.175833225000076],[1.274999976000061,7.18861103100005],[1.416666985000063,7.273889065000049],[1.465668569000059,7.27904772100004],[1.543889046000061,7.292778015000067],[1.635889395000049,7.400906702000043],[1.643625105000069,7.483234075000041],[1.607842517000051,7.488203879000025],[1.588858654000035,7.519268382000064],[1.537084483000058,7.532211924000023],[1.519826426000066,7.496832908000044],[1.448205490000021,7.484752268000022],[1.434399045000021,7.415720040000053],[1.399882931000036,7.469220017000055],[1.379173262000052,7.476986142000044],[1.379173262000052,7.504599033000034],[1.336028120000037,7.519268382000064],[1.344657149000057,7.545155467000029],[1.306689423000023,7.56500223300003],[1.316181355000026,7.588300609000044],[1.283391047000066,7.594340929000055],[1.296334589000026,7.636623169000075],[1.281665241000042,7.665961866000032],[1.20055237300005,7.679768311000032],[1.191060442000037,7.743623122000031],[1.156111002000046,7.721388817000047],[1.150555015000066,7.666944981000029],[1.161666989000025,7.626389027000073],[1.121667027000058,7.558055878000062],[1.121667027000058,7.479444981000029],[1.142778039000063,7.439167023000039],[1.120000005000065,7.376945019000061],[1.113610983000058,7.32000017200005],[0.984974130000069,7.219943501000046]]]},"properties":{"shapeName":"Ogou","shapeISO":"","shapeID":"56601680B48471181858151","shapeGroup":"TGO","shapeType":"ADM2"}},
{"type":"Feature","geometry":{"type":"Polygon","coordinates":[[[0.804607402000045,10.724182132000067],[0.87382,10.80496],[0.88508,10.86182],[0.90097948600004,10.886741251000046],[0.89052,10.92094],[0.912155272000064,10.996490061000031],[0.65631,10.99735],[0.49468,10.931],[0.50584,10.98011],[0.48997,10.98623],[0.502845989000036,11.009080056000073],[0.408804893000024,11.027991697000061],[0.409830689000046,10.986471176000066],[0.386236906000022,10.923896790000072],[0.295964986000058,10.782333374000075],[0.30519732800002,10.763869286000045],[0.330842763000021,10.78438568100006],[0.334946036000019,10.768998146000058],[0.313350230000026,10.691920280000033],[0.471597880000047,10.703963280000039],[0.540716529000065,10.677083969000023],[0.671273947000032,10.715483665000022],[0.804607402000045,10.724182132000067]]]},"properties":{"shapeName":"Kpendjal","shapeISO":"","shapeID":"56601680B9516770320708","shapeGroup":"TGO","shapeType":"ADM2"}},
{"type":"Feature","geometry":{"type":"Polygon","coordinates":[[[0.998343300000045,10.22082940000007],[0.77457,10.38476],[0.78323,10.51218],[0.80757,10.59096],[0.79693,10.68492],[0.804607402000045,10.724182132000067],[0.671273947000032,10.715483665000022],[0.540716529000065,10.677083969000023],[0.471597880000047,10.703963280000039],[0.313350230000026,10.691920280000033],[0.313251644000047,10.691911697000023],[0.326913327000057,10.666213989000028],[0.32524800300007,10.620965958000056],[0.303404331000024,10.608657837000067],[0.295239627000058,10.577428818000044],[0.246057466000025,10.555624008000052],[0.236245260000032,10.539512634000062],[0.200327754000057,10.41994857800006],[0.207857588000024,10.413059791000023],[0.219530067000051,10.423634518000028],[0.263050409000073,10.405978918000073],[0.286749840000027,10.419018364000067],[0.300931428000069,10.402885619000074],[0.294816213000047,10.37347548100007],[0.314256409000052,10.361316436000038],[0.319515017000072,10.335261338000066],[0.338907625000047,10.325077245000045],[0.321442380000065,10.30751682400006],[0.39632401800003,10.312275745000022],[0.369531287000029,10.284436052000046],[0.382499350000046,10.272610131000022],[0.362416698000061,10.260117961000049],[0.351209437000023,10.167390368000042],[0.363749196000072,10.13381617300007],[0.353160596000066,10.101788629000055],[0.361250763000044,10.085227581000026],[0.394325270000024,10.08004035600004],[0.416597025000044,10.059481813000048],[0.40760872900006,10.019869476000054],[0.422500014000036,9.99416732800006],[0.423611104000031,9.960833549000029],[0.468055155000059,9.942777706000072],[0.520555615000035,9.940278053000043],[0.517777681000041,9.909443855000063],[0.55805558000003,9.873055458000067],[0.631944461000046,9.891943892000029],[0.655277729000034,9.873611450000055],[0.666111112000067,9.883333206000032],[0.679293990000076,9.875913620000063],[0.666666687000031,9.942222595000032],[0.68777781700004,9.990555763000032],[0.694722176000028,10.064169884000023],[0.742777824000029,10.145000458000027],[0.736666679000052,10.172780037000052],[0.781944513000042,10.179439545000037],[0.809166729000026,10.152219772000024],[0.855000019000045,10.182499886000073],[0.896944523000059,10.165280342000074],[0.91638892900005,10.188059807000059],[0.977222204000043,10.18389034300003],[0.998343300000045,10.22082940000007]]]},"properties":{"shapeName":"Oti","shapeISO":"","shapeID":"56601680B17683608517106","shapeGroup":"TGO","shapeType":"ADM2"}},
{"type":"Feature","geometry":{"type":"Polygon","coordinates":[[[0.313251644000047,10.691911697000023],[0.27576175300004,10.688603401000023],[0.122164801000054,10.790361404000066],[0.078005679000057,10.801881790000039],[0.043446362000054,10.786521912000069],[0.053046171000062,10.759642601000053],[0.031926587000044,10.730842590000066],[0.005047121000075,10.76348209400004],[-0.074857760999976,10.757650862000048],[-0.072715326999969,10.719996381000044],[-0.090680256999974,10.707266265000044],[-0.05955698799994,10.63105237600007],[0.040648923000049,10.600022267000043],[0.061413705000064,10.560509783000043],[0.143456740000033,10.525382781000076],[0.15773546600002,10.462657678000028],[0.175153121000051,10.446191808000037],[0.173344731000043,10.425585676000026],[0.196734831000072,10.400125444000025],[0.210107403000052,10.403575663000026],[0.207857588000024,10.413059791000023],[0.200327754000057,10.41994857800006],[0.236245260000032,10.539512634000062],[0.246057466000025,10.555624008000052],[0.295239627000058,10.577428818000044],[0.303404331000024,10.608657837000067],[0.32524800300007,10.620965958000056],[0.326913327000057,10.666213989000028],[0.313251644000047,10.691911697000023]]]},"properties":{"shapeName":"Tandjouare","shapeISO":"","shapeID":"56601680B89112535430785","shapeGroup":"TGO","shapeType":"ADM2"}},
{"type":"Feature","geometry":{"type":"Polygon","coordinates":[[[0.408804893000024,11.027991697000061],[0.228302642000074,11.064557947000026],[0.223396750000063,11.045479476000025],[0.24339550000002,10.988559955000028],[0.224935115000051,10.963946108000073],[0.184937614000035,10.99471341700007],[0.131094823000069,11.005481975000066],[0.078790398000024,11.033172553000043],[0.026839426000038,11.018674482000051],[0.032385464000072,10.977406468000027],[-0.003187478999962,10.962249302000032],[-0.010801752999953,10.940834153000026],[-0.007256355999971,10.913898655000025],[-0.028814271999977,10.859694534000027],[-0.021937630999957,10.819838563000076],[-0.074857760999976,10.757650862000048],[0.005047121000075,10.76348209400004],[0.031926587000044,10.730842590000066],[0.053046171000062,10.759642601000053],[0.043446362000054,10.786521912000069],[0.078005679000057,10.801881790000039],[0.122164801000054,10.790361404000066],[0.27576175300004,10.688603401000023],[0.313251644000047,10.691911697000023],[0.313350230000026,10.691920280000033],[0.334946036000019,10.768998146000058],[0.330842763000021,10.78438568100006],[0.30519732800002,10.763869286000045],[0.295964986000058,10.782333374000075],[0.386236906000022,10.923896790000072],[0.409830689000046,10.986471176000066],[0.408804893000024,11.027991697000061]]]},"properties":{"shapeName":"Tone","shapeISO":"","shapeID":"56601680B4810153335262","shapeGroup":"TGO","shapeType":"ADM2"}},
{"type":"Feature","geometry":{"type":"Polygon","coordinates":[[[0.228302642000074,11.064557947000026],[-0.142010303999939,11.138978485000052],[-0.145850000999928,11.10491],[-0.11170108999994,11.09007075900007],[-0.035000000999958,11.10528],[0.00987,11.10144],[0.02275,11.08191],[0.026839426000038,11.018674482000051],[0.078790398000024,11.033172553000043],[0.131094823000069,11.005481975000066],[0.184937614000035,10.99471341700007],[0.224935115000051,10.963946108000073],[0.24339550000002,10.988559955000028],[0.223396750000063,11.045479476000025],[0.228302642000074,11.064557947000026]]]},"properties":{"shapeName":"Cinkassé","shapeISO":"","shapeID":"56601680B64387003159978","shapeGroup":"TGO","shapeType":"ADM2"}},
{"type":"Feature","geometry":{"type":"Polygon","coordinates":[[[0.694239928000059,9.01031462100002],[0.671666682000023,8.98333358800005],[0.643333316000053,8.981666565000069],[0.630833328000051,8.945555687000024],[0.583888888000047,8.915555],[0.578611076000072,8.899444580000022],[0.592499971000052,8.886111259000074],[0.58472222100005,8.873333931000047],[0.554722190000064,8.872500420000051],[0.535833418000038,8.848888397000053],[0.501634406000051,8.845565005000026],[0.48981698800003,8.80092311200002],[0.466331708000041,8.792713972000058],[0.450579676000075,8.812963185000058],[0.431210864000036,8.797948786000063],[0.442251562000024,8.789049602000034],[0.427713056000073,8.78034077500007],[0.41864730900005,8.792476026000031],[0.383217136000042,8.791952544000026],[0.381170800000064,8.770846726000059],[0.401039299000047,8.757545539000034],[0.375317326000072,8.753429072000074],[0.471233397000049,8.595385274000023],[0.490221496000061,8.597193665000077],[0.510565886000052,8.563476703000049],[0.52800733600003,8.569734685000071],[0.558630998000069,8.550175516000024],[0.568244020000066,8.525333944000067],[0.611395247000075,8.51351900800006],[0.630293374000075,8.537390327000026],[0.687645625000073,8.552190908000057],[0.720946932000061,8.574391779000052],[0.78199932800004,8.63914432100006],[0.752398166000035,8.690946354000062],[0.706146351000029,8.720547515000021],[0.700596133000033,8.846352452000076],[0.743147803000056,8.872253469000043],[0.715396714000065,8.903704703000074],[0.707996424000044,8.981407753000042],[0.694239928000059,9.01031462100002]]]},"properties":{"shapeName":"Plaine de Mô","shapeISO":"","shapeID":"56601680B47682688566924","shapeGroup":"TGO","shapeType":"ADM2"}},
{"type":"Feature","geometry":{"type":"Polygon","coordinates":[[[1.050163031000068,7.904068947000042],[1.033226013000046,7.962689877000059],[0.962777793000043,7.980556011000033],[0.87944400300006,7.958889008000028],[0.834166586000038,7.969721794000066],[0.80805558000003,7.942222118000075],[0.723611116000029,7.934443951000048],[0.68138891500007,7.900556087000041],[0.61729968800006,7.896689722000076],[0.617238413000052,7.801663164000047],[0.632800088000067,7.777083332000075],[0.611361145000046,7.751313770000024],[0.632062418000032,7.706493200000068],[0.650147812000057,7.700968980000027],[0.655821278000076,7.64801662900004],[0.670950521000066,7.627213920000031],[0.693644386000074,7.61964929800007],[0.77874637900004,7.665982605000067],[0.794821200000058,7.635724119000031],[0.807113710000067,7.63288738600005],[0.827916419000076,7.684894159000066],[0.902628666000055,7.691314743000021],[0.911666572000058,7.778889179000032],[0.944166720000055,7.855278015000067],[1.050163031000068,7.904068947000042]]]},"properties":{"shapeName":"Akébou","shapeISO":"","shapeID":"56601680B49010054481747","shapeGroup":"TGO","shapeType":"ADM2"}},
{"type":"Feature","geometry":{"type":"Polygon","coordinates":[[[1.156111002000046,7.721388817000047],[1.191060442000037,7.743623122000031],[1.20055237300005,7.679768311000032],[1.281665241000042,7.665961866000032],[1.296334589000026,7.636623169000075],[1.283391047000066,7.594340929000055],[1.316181355000026,7.588300609000044],[1.306689423000023,7.56500223300003],[1.344657149000057,7.545155467000029],[1.336028120000037,7.519268382000064],[1.379173262000052,7.504599033000034],[1.379173262000052,7.476986142000044],[1.399882931000036,7.469220017000055],[1.434399045000021,7.415720040000053],[1.448205490000021,7.484752268000022],[1.519826426000066,7.496832908000044],[1.537084483000058,7.532211924000023],[1.588858654000035,7.519268382000064],[1.607842517000051,7.488203879000025],[1.643625105000069,7.483234075000041],[1.67753,7.49791],[1.65293,7.53402],[1.65051,7.61399],[1.631449984000028,7.661110698000073],[1.633683875000031,7.93155838000007],[1.570736885000031,7.940409184000032],[1.511989594000056,7.916376114000059],[1.49196207500006,7.857629299000052],[1.495967507000046,7.821579456000052],[1.473269701000049,7.813568592000024],[1.36779165300004,7.848282814000072],[1.33841800700003,7.87365102800004],[1.315720201000033,7.916376114000059],[1.194220185000063,7.920382023000059],[1.170187235000071,7.935068607000062],[1.164846539000052,7.965635777000045],[1.071388960000036,7.948888779000072],[1.033226013000046,7.962689877000059],[1.050163031000068,7.904068947000042],[1.087499976000061,7.849999905000061],[1.103888988000051,7.799167156000067],[1.143610954000053,7.780834198000036],[1.156111002000046,7.721388817000047]]]},"properties":{"shapeName":"Anié","shapeISO":"","shapeID":"56601680B95177776630805","shapeGroup":"TGO","shapeType":"ADM2"}},
{"type":"Feature","geometry":{"type":"Polygon","coordinates":[[[0.750916243000063,6.994288445000052],[0.74044987000002,7.026221487000043],[0.68524637500002,7.037642900000037],[0.662403549000032,7.056678588000068],[0.660758235974444,7.142813621744887],[0.59542979500003,7.112066656000025],[0.61276095300002,7.104282128000023],[0.613688944000046,7.092551386000025],[0.595910650000064,7.061000278000051],[0.595176736000042,7.00798534300003],[0.521841749000032,6.971246466000025],[0.522793535000062,6.941170080000063],[0.547516134000034,6.937196380000046],[0.565541803000031,6.918914608000023],[0.558612242000038,6.887755340000069],[0.534809813000038,6.877424320000046],[0.54365180700006,6.864061279000055],[0.532477940000035,6.856009172000029],[0.532168611000031,6.832404919000055],[0.539521145000037,6.825290331000076],[0.548872427000049,6.83399915800004],[0.58058674900002,6.807883790000062],[0.56707141000004,6.803481787000067],[0.566226703000041,6.78446989400004],[0.580051371000025,6.763744789000043],[0.639516100000037,6.744994577000057],[0.64568233500006,6.781401634000076],[0.634796083000026,6.817688942000075],[0.720676601000036,6.901150227000073],[0.736401260000036,6.925342083000032],[0.740029991000029,6.988240719000032],[0.750916243000063,6.994288445000052]]]},"properties":{"shapeName":"Kloto","shapeISO":"","shapeID":"56601680B4042875560778","shapeGroup":"TGO","shapeType":"ADM2"}},
{"type":"Feature","geometry":{"type":"Polygon","coordinates":[[[1.599722028000031,6.361667156000067],[1.606111050000038,6.30388879800006],[1.585832953000022,6.267499924000049],[1.585000038000032,6.231111050000038],[1.485278010000059,6.210000038000032],[1.405277967000075,6.251389027000073],[1.398144960000025,6.213856220000025],[1.397916025000029,6.181196745000022],[1.80669,6.28424],[1.78921,6.30287],[1.79794,6.31276],[1.769534777000047,6.398222256000054],[1.74757771700007,6.381649251000056],[1.666039004000027,6.367199353000046],[1.642815953000024,6.335719217000076],[1.599722028000031,6.361667156000067]]]},"properties":{"shapeName":"Lacs","shapeISO":"","shapeID":"56601680B61332506890313","shapeGroup":"TGO","shapeType":"ADM2"}},
{"type":"Feature","geometry":{"type":"Polygon","coordinates":[[[1.17568880400006,6.168449550000048],[1.200319576000027,6.168551584000056],[1.199609310000028,6.112424249000071],[1.397916025000029,6.181196745000022],[1.398144960000025,6.213856220000025],[1.301110983000058,6.190834045000031],[1.25912466475635,6.200151369934127],[1.189726195000048,6.188944793000076],[1.17568880400006,6.168449550000048]]]},"properties":{"shapeName":"Lome Commune","shapeISO":"","shapeID":"56601680B89691125732498","shapeGroup":"TGO","shapeType":"ADM2"}}
]}