{"type":"FeatureCollection", "features": [
{"type":"Feature","geometry":{"type":"MultiPolygon","coordinates":[[[[70.669533,40.9145],[70.616362,40.973124],[70.5586214,41.0044578],[70.542867,40.988518],[70.585555,40.983122],[70.669533,40.9145]]],[[[70.35047129999998,40.4086976],[70.32831629999998,40.445188],[70.3342065,40.4625884],[70.48465,40.5045199],[70.51409190000001,40.5532865],[70.587357,40.5660361],[70.6366067,40.6242716],[70.65859029999999,40.6290298],[70.70297,40.66235870000001],[70.7321174,40.6559981],[70.7308308,40.6867433],[70.7609488,40.6835899],[70.7767995,40.7164547],[70.797439,40.7199041],[70.786659,40.7420319],[70.74181320000002,40.7649107],[70.74368560000002,40.773925],[70.7043309,40.8004088],[70.72777809999998,40.8088409],[70.7133391,40.8250887],[70.645457,40.864868],[70.564485,40.970332],[70.518832,40.989299],[70.5139452,41.010735],[70.46939920000001,41.0418896],[70.4586576,41.0367855],[70.44494510000001,41.0450935],[70.3957205,41.0268585],[70.3746187,41.0029397],[70.388872,40.9671064],[70.38725040000001,40.9514526],[70.37060229999999,40.9432649],[70.3718228,40.8979968],[70.2863537,40.8747347],[70.266365,40.8501598],[70.20126390000003,40.8222158],[70.1627133,40.83423],[70.12738579999998,40.8220623],[70.1137115,40.7871151],[70.06817279999999,40.755183],[70.0391369,40.7531698],[70.0065143,40.7360093],[69.9739261,40.73891480000001],[69.94062350000003,40.7193219],[69.9243317,40.6233711],[69.93845370000001,40.6158524],[69.9812317,40.6186714],[69.9998398,40.6381912],[70.0061874,40.632206],[69.98164370000002,40.5977821],[70.0231476,40.5917664],[70.0485687,40.5604439],[70.0584259,40.5223656],[70.0012817,40.4928436],[69.98838809999998,40.4575272],[70.00449370000001,40.421917],[70.09013370000001,40.3842506],[70.1818008,40.4090691],[70.24953460000002,40.3761864],[70.2414683,40.337235],[70.278547,40.3486805],[70.3211576,40.4081427],[70.35047129999998,40.4086976]]]]},"properties":{"shapeName":"Asht District","shapeISO":"","shapeID":"16282066B9753024733058","shapeGroup":"TJK","shapeType":"ADM2"}},
{"type":"Feature","geometry":{"type":"MultiPolygon","coordinates":[[[[70.743193,39.870445],[70.719157,39.861025],[70.719887,39.875709],[70.695153,39.864917],[70.607006,39.871813],[70.537274,39.891552],[70.525426,39.876387],[70.537136,39.849694],[70.595147,39.834548],[70.613706,39.814987],[70.605336,39.798576],[70.624282,39.778113],[70.655151,39.788526],[70.656699,39.819956],[70.691502,39.816703],[70.719512,39.846517],[70.727628,39.840324],[70.738408,39.846968],[70.743193,39.870445]]],[[[70.3849358,40.0811089],[70.42440420000001,40.0577287],[70.52666470000001,40.0505826],[70.5334975,40.0322908],[70.554315,40.0395558],[70.57507019999998,40.02257980000001],[70.577984,39.996723],[70.49174440000002,39.947313],[70.4994082,39.930047],[70.512959,39.949897],[70.547171,39.965323],[70.614788,39.958715],[70.632547,39.967488],[70.631811,39.986825],[70.662617,39.990517],[70.657392,40.063357],[70.6699159,40.1029762],[70.7655931,40.1152531],[70.7979381,40.1293316],[70.80232249999999,40.1795465],[70.83166490000002,40.189343],[70.8322861,40.1612005],[70.8594516,40.1650105],[70.88297929999999,40.1865627],[70.9833215,40.2206414],[70.865329,40.221256],[70.759905,40.188189],[70.63233,40.177295],[70.57282,40.242026],[70.575883,40.283398],[70.55979729999999,40.3120592],[70.4823608,40.2520638],[70.394722,40.2148247],[70.3536301,40.1561089],[70.3849358,40.0811089]]]]},"properties":{"shapeName":"Isfara District","shapeISO":"","shapeID":"16282066B48594859138803","shapeGroup":"TJK","shapeType":"ADM2"}},
{"type":"Feature","geometry":{"type":"Polygon","coordinates":[[[70.55979729999999,40.3120592],[70.577972,40.338307],[70.559969,40.354172],[70.483848,40.350945],[70.3690353,40.3932987],[70.3276138,40.3589897],[70.0361938,40.258831],[69.9694061,40.2227898],[69.96921440000003,40.2134811],[70.0044427,40.2322024],[70.0209392,40.230342],[70.175289,40.1429896],[70.19342960000002,40.1698266],[70.2068228,40.12932220000001],[70.2919611,40.12935570000001],[70.3516023,40.1021412],[70.35778889999999,40.081064],[70.3849358,40.0811089],[70.3536301,40.1561089],[70.394722,40.2148247],[70.4823608,40.2520638],[70.55979729999999,40.3120592]]]},"properties":{"shapeName":"Konibodom District","shapeISO":"","shapeID":"16282066B74570235757169","shapeGroup":"TJK","shapeType":"ADM2"}},
{"type":"Feature","geometry":{"type":"Polygon","coordinates":[[[68.8246918,39.4709969],[68.8735657,39.5443382],[68.8985443,39.6305313],[68.95795440000002,39.6689835],[68.97122960000003,39.6889267],[68.9539413,39.7145882],[68.929985,39.7092476],[68.927536,39.7186775],[68.94025420000003,39.7551155],[68.97309879999999,39.7852936],[68.9689178,39.802948],[68.8716965,39.8479309],[68.89054960000001,39.8680303],[68.8489189,39.8694059],[68.8447911,39.941577],[68.82353869999999,39.9864292],[68.81118020000001,39.9744003],[68.8358249,39.9371388],[68.8404448,39.889265],[68.8273769,39.8728683],[68.7893218,39.860108],[68.7719115,39.8259802],[68.74971040000001,39.8312496],[68.73421870000001,39.8571297],[68.6814566,39.835006],[68.63582879999998,39.8548918],[68.63379679999998,39.7630175],[68.5885243,39.7248683],[68.6052889,39.7166415],[68.6064991,39.6923812],[68.62992360000001,39.6819698],[68.6175675,39.6372633],[68.59932040000001,39.6252845],[68.5798278,39.6259437],[68.57188,39.6034144],[68.5507667,39.5994957],[68.54502640000001,39.5882162],[68.54306190000001,39.5717065],[68.7113419,39.4801941],[68.7693176,39.4912109],[68.8246918,39.4709969]]]},"properties":{"shapeName":"Shahriston District","shapeISO":"","shapeID":"16282066B31805734535535","shapeGroup":"TJK","shapeType":"ADM2"}},
{"type":"Feature","geometry":{"type":"Polygon","coordinates":[[[70.71311290000001,39.5023794],[70.65013,39.5822067],[70.5608756,39.5964019],[70.5249033,39.6220846],[70.51794910000001,39.6071202],[70.49180960000002,39.6064065],[70.4643987,39.5822826],[70.44145360000003,39.6010438],[70.4245211,39.5742501],[70.3896533,39.5821989],[70.3755219,39.5973308],[70.3035112,39.5268881],[70.2354491,39.5384942],[70.24338370000001,39.5600968],[70.2125979,39.5775033],[70.1680902,39.5540838],[70.1173417,39.5902249],[70.06822050000001,39.5641574],[70.03966860000001,39.5712864],[70.0313364,39.5514791],[69.9959961,39.5368087],[69.9782426,39.5679358],[69.9409765,39.5641639],[69.92162260000002,39.5797041],[69.9016382,39.5761893],[69.8879326,39.5423495],[69.86722180000001,39.5294871],[69.7839757,39.5801031],[69.69837809999997,39.6005335],[69.6778056,39.5802824],[69.6609986,39.5782505],[69.62941509999999,39.59297590000001],[69.6020203,39.5920146],[69.57397309999999,39.5531179],[69.5557258,39.5582237],[69.53775990000001,39.5381006],[69.5272983,39.5450563],[69.51405930000001,39.53637220000001],[69.49602750000001,39.5395228],[69.4856185,39.5263576],[69.4718903,39.5393844],[69.445202,39.52871360000001],[69.4078762,39.549281],[69.407302,39.5632364],[69.3770457,39.5231018],[69.35115440000001,39.5290484],[69.2535019,39.4706535],[69.23141480000001,39.4108963],[69.1334572,39.3317129],[69.1385154,39.3026313],[69.26497590000001,39.2898883],[69.4026407,39.2421945],[69.582293,39.2571831],[69.69195320000001,39.2303706],[69.6664767,39.2616348],[69.7363432,39.2933642],[69.75680709999999,39.2949145],[69.777581,39.2699031],[69.8081735,39.26357270000001],[69.8460523,39.2811944],[69.8809339,39.3193057],[69.9900228,39.3318889],[70.0220105,39.3131562],[70.09446090000002,39.341785],[70.111049,39.3381418],[70.1245366,39.3066967],[70.2552263,39.3602335],[70.285767,39.3904125],[70.32814169999999,39.3762532],[70.368656,39.3775967],[70.4850314,39.401988],[70.5047201,39.4262243],[70.57830729999998,39.4373864],[70.60342209999999,39.4660668],[70.71311290000001,39.5023794]]]},"properties":{"shapeName":"Kuhistoni Mastchoh District","shapeISO":"","shapeID":"16282066B4928854450407","shapeGroup":"TJK","shapeType":"ADM2"}},
{"type":"Feature","geometry":{"type":"Polygon","coordinates":[[[68.34055540000001,39.5426356],[68.27878649999998,39.5603285],[68.212908,39.5515523],[68.1741045,39.566393],[68.11481950000001,39.5602562],[68.0804151,39.5752806],[68.03553869999999,39.5765835],[67.9761408,39.6047946],[67.93892040000001,39.5988392],[67.87507949999998,39.627375],[67.83587479999998,39.6306767],[67.79313660000001,39.6569586],[67.7607889,39.6399175],[67.707976,39.6596577],[67.6836891,39.63872530000001],[67.651498,39.6353773],[67.6275609,39.6008106],[67.5824345,39.599957],[67.5195706,39.5801063],[67.4520978,39.578286],[67.44392840000002,39.5502319],[67.4705805,39.5416302],[67.46906520000002,39.5327915],[67.42280609999999,39.5362844],[67.3967275,39.52805390000001],[67.4027593,39.509867],[67.4363921,39.4986332],[67.4581504,39.4738264],[67.46018450000001,39.4230124],[67.48078109999999,39.4100721],[67.4876085,39.37823],[67.4702925,39.3438135],[67.4746759,39.3234822],[67.4491765,39.3125527],[67.3369201,39.3055446],[67.358028,39.2851716],[67.3308737,39.2372331],[67.5002062,39.1970026],[67.5026042,39.1832845],[67.5841824,39.1883386],[67.6248735,39.1669847],[67.6301454,39.1465154],[67.67524669999999,39.1451432],[67.6716494,39.0635468],[67.68358219999999,39.0538229],[67.6814345,39.0184873],[67.7038,39.00056],[67.749638,39.001505],[67.767871,39.01612],[67.820101,39.016335],[67.869066,39.001359],[67.890704,39.019181],[67.921648,39.026491],[67.966608,39.023018],[67.985666,39.033684],[67.993311,39.024924],[68.0115281,39.0240792],[67.99806980000001,39.066925],[68.0130768,39.079834],[68.18870539999999,39.0744286],[68.2184143,39.0870857],[68.2262955,39.1285896],[68.2467804,39.1473579],[68.233078,39.1759949],[68.27085109999999,39.2424927],[68.2194748,39.3443184],[68.2212372,39.3953705],[68.2404785,39.4602585],[68.27847289999998,39.487606],[68.288559,39.509037],[68.34055540000001,39.5426356]]]},"properties":{"shapeName":"Panjakent District","shapeISO":"","shapeID":"16282066B22139868689936","shapeGroup":"TJK","shapeType":"ADM2"}},
{"type":"Feature","geometry":{"type":"MultiPolygon","coordinates":[[[[69.2904306,40.2195012],[69.34496590000002,40.3023193],[69.33292940000001,40.312561],[69.3073004,40.2818402],[69.24919960000003,40.3034926],[69.2513032,40.2706633],[69.30145490000001,40.2448134],[69.2904306,40.2195012]]],[[[69.43462170000002,39.9245979],[69.47115330000001,40.0065727],[69.4403305,40.1799355],[69.45724490000002,40.1992111],[69.460083,40.22585680000001],[69.44446560000003,40.2123985],[69.39247669999999,40.200942],[69.3165629,40.1887812],[69.3067929,40.1771134],[69.25456460000002,40.2016926],[69.2196121,40.2036972],[69.21132660000002,40.1337318],[69.2300568,40.1189003],[69.24793240000001,40.12025830000001],[69.2586746,40.0682564],[69.289032,40.069252],[69.29591370000001,40.027935],[69.32315829999999,39.9910851],[69.3578016,39.9819227],[69.3544348,40.0215167],[69.3721698,39.995983],[69.3875401,39.9937507],[69.3946468,40.002558],[69.4319188,39.9882811],[69.43462170000002,39.9245979]]]]},"properties":{"shapeName":"Spitamen District","shapeISO":"","shapeID":"16282066B17537121350265","shapeGroup":"TJK","shapeType":"ADM2"}},
{"type":"Feature","geometry":{"type":"Polygon","coordinates":[[[69.3165629,40.1887812],[69.3046525,40.19267290000001],[69.1977366,40.2150728],[69.1652807,40.2105766],[69.0357496,40.228733900000016],[68.8627616,40.2100349],[68.8407302,40.194008],[68.84346760000001,40.1833704],[68.79729970000002,40.1726025],[68.7726265,40.2024801],[68.5328606,40.1438209],[68.5307877,40.1182878],[68.6332364,40.0766773],[68.6940954,40.09504290000001],[68.7731355,40.09937930000001],[68.92645,40.1434394],[68.9821476,40.1421673],[69.022835,40.1525837],[69.0535736,40.1716118],[69.16622920000002,40.1648369],[69.21132660000002,40.1337318],[69.2196121,40.2036972],[69.25456460000002,40.2016926],[69.3067929,40.1771134],[69.3165629,40.1887812]]]},"properties":{"shapeName":"Zafarobod District","shapeISO":"","shapeID":"16282066B90901920365195","shapeGroup":"TJK","shapeType":"ADM2"}},
{"type":"Feature","geometry":{"type":"Polygon","coordinates":[[[68.8246918,39.4709969],[68.8438187,39.4628944],[68.853775,39.4399109],[68.8651352,39.4396515],[68.8667908,39.4517403],[68.893364,39.4526863],[69.23141480000001,39.4108963],[69.2535019,39.4706535],[69.35115440000001,39.5290484],[69.3377029,39.5464437],[69.35988779999998,39.5956949],[69.3396672,39.6013219],[69.34492390000003,39.6240805],[69.3290299,39.6362765],[69.31837809999998,39.6708959],[69.3370548,39.7006585],[69.2890852,39.755031],[69.29467120000001,39.7804885],[69.2831482,39.7812538],[69.2799729,39.8029924],[69.2649523,39.8060382],[69.2697382,39.8291216],[69.2835512,39.825753],[69.28226540000001,39.8361311],[69.3036555,39.8468769],[69.3032531,39.8721525],[69.3300107,39.8779425],[69.2968843,39.9204575],[69.31746360000002,39.9498446],[69.3439713,39.9562422],[69.3578016,39.9819227],[69.32315829999999,39.9910851],[69.29591370000001,40.027935],[69.289032,40.069252],[69.2586746,40.0682564],[69.24793240000001,40.12025830000001],[69.2300568,40.1189003],[69.21132660000002,40.1337318],[69.19166560000002,40.1116257],[69.112854,40.0959206],[69.088089,40.0723991],[69.0806427,40.0478935],[69.0820084,40.005497],[69.06711580000001,39.9759369],[69.0821609,39.9508553],[69.1128235,39.9446259],[69.1159744,39.84935],[69.1314316,39.7946968],[69.04621890000001,39.815712],[69.0308456,39.8042374],[69.0244598,39.8191261],[68.9689178,39.802948],[68.97309879999999,39.7852936],[68.94025420000003,39.7551155],[68.927536,39.7186775],[68.929985,39.7092476],[68.9539413,39.7145882],[68.97122960000003,39.6889267],[68.95795440000002,39.6689835],[68.8985443,39.6305313],[68.8735657,39.5443382],[68.8246918,39.4709969]]]},"properties":{"shapeName":"Ghonchi District","shapeISO":"","shapeID":"16282066B70669453487294","shapeGroup":"TJK","shapeType":"ADM2"}},
{"type":"Feature","geometry":{"type":"Polygon","coordinates":[[[69.2904306,40.2195012],[69.3046525,40.19267290000001],[69.3165629,40.1887812],[69.39247669999999,40.200942],[69.3788834,40.214756],[69.3389664,40.2149315],[69.3196793,40.2321892],[69.321701,40.2482147],[69.3706284,40.2794228],[69.405838,40.3186035],[69.39862450000001,40.3828411],[69.41749380000002,40.3841546],[69.4253037,40.4082495],[69.4160898,40.4097577],[69.407606,40.4446827],[69.4705238,40.4556579],[69.4461083,40.4873019],[69.5135651,40.5215416],[69.5183792,40.5356445],[69.559021,40.538105],[69.5654984,40.5473404],[69.5359726,40.5651817],[69.5353622,40.5838776],[69.6307616,40.6239795],[69.8571014,40.6071243],[69.871933,40.63554],[69.8690338,40.6819077],[69.8866272,40.7099495],[69.90702430000002,40.7197535],[69.8899187,40.7255604],[69.83508829999998,40.6996686],[69.8159518,40.707322],[69.79316440000002,40.7015934],[69.7582514,40.6452328],[69.6984293,40.6274767],[69.6692671,40.6341375],[69.6516941,40.6710895],[69.625336,40.6762627],[69.5831373,40.7045985],[69.5755127,40.7315575],[69.5473073,40.762965],[69.5018754,40.7704986],[69.4625464,40.7917566],[69.3889695,40.7886897],[69.3624242,40.7670882],[69.3629231,40.734391],[69.328556,40.7040627],[69.34253779999999,40.68513510000001],[69.3435081,40.5795583],[69.2629332,40.5761319],[69.21117690000001,40.5468539],[69.2308738,40.5226758],[69.2798596,40.4928554],[69.26771960000002,40.4597181],[69.2839318,40.4434292],[69.2833969,40.4200006],[69.2984432,40.411835],[69.29111550000002,40.4023807],[69.3065043,40.3867854],[69.30261360000002,40.3681354],[69.3373066,40.3477676],[69.33292940000001,40.312561],[69.34496590000002,40.3023193],[69.2904306,40.2195012]]]},"properties":{"shapeName":"Mastchoh District","shapeISO":"","shapeID":"16282066B76167982569757","shapeGroup":"TJK","shapeType":"ADM2"}},
{"type":"Feature","geometry":{"type":"Polygon","coordinates":[[[68.54502640000001,39.5882162],[68.5365879,39.5713101],[68.54793940000002,39.5387234],[68.524261,39.5323597],[68.49056480000002,39.5425671],[68.4558876,39.5336491],[68.39128640000001,39.5444208],[68.3694592,39.529854],[68.34055540000001,39.5426356],[68.288559,39.509037],[68.27847289999998,39.487606],[68.2404785,39.4602585],[68.2212372,39.3953705],[68.2194748,39.3443184],[68.27085109999999,39.2424927],[68.233078,39.1759949],[68.2467804,39.1473579],[68.2262955,39.1285896],[68.2184143,39.0870857],[68.18870539999999,39.0744286],[68.0130768,39.079834],[67.99806980000001,39.066925],[68.0115281,39.0240792],[67.993311,39.024924],[68.027756,39.010077],[68.078842,39.026366],[68.114973,39.014054],[68.138887,38.978999],[68.136124,38.960383],[68.196079,38.938527],[68.207728,38.918178],[68.196906,38.904543],[68.2297685,38.9059976],[68.3198922,38.9305956],[68.3743592,38.9202086],[68.5098548,38.9510595],[68.5351245,38.9827371],[68.5668022,39.0000229],[68.59005660000001,39.0480561],[68.6658142,39.0469193],[68.7745415,39.0773308],[68.8040487,39.0602259],[68.9210441,39.0600451],[69.0655314,39.0303828],[69.21663330000001,39.0968387],[69.3468579,39.09911250000001],[69.3580201,39.1083625],[69.3651514,39.1587212],[69.3937285,39.1791076],[69.5004403,39.1857997],[69.54746590000002,39.1432958],[69.542815,39.0857541],[69.5532019,39.0722407],[69.6466329,39.1097061],[69.64833829999998,39.1362678],[69.6711276,39.151564],[69.6888526,39.1816397],[69.69195320000001,39.2303706],[69.582293,39.2571831],[69.4026407,39.2421945],[69.26497590000001,39.2898883],[69.1385154,39.3026313],[69.1334572,39.3317129],[69.23141480000001,39.4108963],[68.893364,39.4526863],[68.8667908,39.4517403],[68.8651352,39.4396515],[68.853775,39.4399109],[68.8438187,39.4628944],[68.8246918,39.4709969],[68.7693176,39.4912109],[68.7113419,39.4801941],[68.54306190000001,39.5717065],[68.54502640000001,39.5882162]]]},"properties":{"shapeName":"Ayni District","shapeISO":"","shapeID":"16282066B60603147525969","shapeGroup":"TJK","shapeType":"ADM2"}},
{"type":"Feature","geometry":{"type":"Polygon","coordinates":[[[69.94062350000003,40.7193219],[69.90702430000002,40.7197535],[69.8866272,40.7099495],[69.8690338,40.6819077],[69.871933,40.63554],[69.8571014,40.6071243],[69.6307616,40.6239795],[69.5353622,40.5838776],[69.5359726,40.5651817],[69.5654984,40.5473404],[69.559021,40.538105],[69.5183792,40.5356445],[69.5135651,40.5215416],[69.4461083,40.4873019],[69.4705238,40.4556579],[69.407606,40.4446827],[69.4160898,40.4097577],[69.4253037,40.4082495],[69.41749380000002,40.3841546],[69.39862450000001,40.3828411],[69.405838,40.3186035],[69.3706284,40.2794228],[69.321701,40.2482147],[69.3196793,40.2321892],[69.3389664,40.2149315],[69.3788834,40.214756],[69.39247669999999,40.200942],[69.44446560000003,40.2123985],[69.460083,40.22585680000001],[69.50269320000001,40.2295074],[69.5500793,40.2486877],[69.59033709999999,40.2436842],[69.6079865,40.2138138],[69.6124802,40.2004776],[69.5559998,40.1254349],[69.5278015,40.129406],[69.5338287,40.1078186],[69.51435090000001,40.0966187],[69.5184401,40.080154],[69.53839149999999,40.0890399],[69.5370182,40.1169382],[69.5559009,40.1222547],[69.5821533,40.1046068],[69.6470583,40.1215107],[69.67668179999998,40.1082978],[69.96921440000003,40.2134811],[69.9694061,40.2227898],[70.0361938,40.258831],[70.3276138,40.3589897],[70.3690353,40.3932987],[70.35047129999998,40.4086976],[70.3211576,40.4081427],[70.278547,40.3486805],[70.2414683,40.337235],[70.24953460000002,40.3761864],[70.1818008,40.4090691],[70.09013370000001,40.3842506],[70.00449370000001,40.421917],[69.98838809999998,40.4575272],[70.0012817,40.4928436],[70.0584259,40.5223656],[70.0485687,40.5604439],[70.0231476,40.5917664],[69.98164370000002,40.5977821],[70.0061874,40.632206],[69.9998398,40.6381912],[69.9812317,40.6186714],[69.93845370000001,40.6158524],[69.9243317,40.6233711],[69.94062350000003,40.7193219]]]},"properties":{"shapeName":"Ghafurov District","shapeISO":"","shapeID":"16282066B88907719432894","shapeGroup":"TJK","shapeType":"ADM2"}},
{"type":"Feature","geometry":{"type":"Polygon","coordinates":[[[68.9689178,39.802948],[69.0244598,39.8191261],[69.0308456,39.8042374],[69.04621890000001,39.815712],[69.1314316,39.7946968],[69.1159744,39.84935],[69.1128235,39.9446259],[69.0821609,39.9508553],[69.06711580000001,39.9759369],[69.0820084,40.005497],[69.0806427,40.0478935],[69.088089,40.0723991],[69.112854,40.0959206],[69.19166560000002,40.1116257],[69.21132660000002,40.1337318],[69.16622920000002,40.1648369],[69.0535736,40.1716118],[69.022835,40.1525837],[69.02544879999998,40.1180368],[68.9955171,40.09021820000001],[68.9604763,40.0880374],[68.96807779999999,40.0657938],[68.9158045,40.0611709],[68.9048368,40.0679412],[68.89333709999998,40.0482142],[68.8771716,40.0556746],[68.8463151,40.0478238],[68.916553,39.9335977],[68.9345583,39.9214907],[68.89054960000001,39.8680303],[68.8716965,39.8479309],[68.9689178,39.802948]]]},"properties":{"shapeName":"Istaravshan District","shapeISO":"","shapeID":"16282066B40436225162508","shapeGroup":"TJK","shapeType":"ADM2"}},
{"type":"Feature","geometry":{"type":"Polygon","coordinates":[[[69.43462170000002,39.9245979],[69.4549862,39.9368568],[69.4626565,39.9158175],[69.4801484,39.9298815],[69.499727,39.9274705],[69.498151,39.9417399],[69.5101886,39.944542],[69.52993829999998,39.9419199],[69.5315457,39.9300353],[69.54039990000001,39.9341813],[69.5260615,39.9695316],[69.5309457,39.9943172],[69.5070581,40.0338442],[69.5184401,40.080154],[69.51435090000001,40.0966187],[69.5338287,40.1078186],[69.5278015,40.129406],[69.5559998,40.1254349],[69.6124802,40.2004776],[69.6079865,40.2138138],[69.59033709999999,40.2436842],[69.5500793,40.2486877],[69.50269320000001,40.2295074],[69.460083,40.22585680000001],[69.45724490000002,40.1992111],[69.4403305,40.1799355],[69.47115330000001,40.0065727],[69.43462170000002,39.9245979]]]},"properties":{"shapeName":"Jabbor Rasulov District","shapeISO":"","shapeID":"16282066B25952413622692","shapeGroup":"TJK","shapeType":"ADM2"}},
{"type":"Feature","geometry":{"type":"Polygon","coordinates":[[[71.54859920000001,37.2658997],[71.6699524,37.155468],[71.67280579999998,37.13210680000001],[71.7317886,37.0555305],[71.74954990000002,36.9602089],[71.77151490000001,36.9416161],[71.8145752,36.9330826],[71.8440018,36.9655266],[71.978714,36.9284286],[72.18943789999999,37.0581551],[72.2314301,37.0595322],[72.2425308,37.0822067],[72.3407135,37.070282],[72.374054,37.1177673],[72.3965302,37.1253204],[72.6259537,37.1569061],[72.6448822,37.1715431],[72.6392822,37.215374],[72.6833038,37.2244949],[72.6878357,37.23839190000001],[72.6871567,37.3167496],[72.67157749999998,37.3644562],[72.67999269999999,37.3767509],[72.667305,37.3993149],[72.620018,37.4357338],[72.3290176,37.4794769],[72.2304764,37.4550438],[72.1449127,37.3786049],[71.9833908,37.2819023],[71.885849,37.4367218],[71.7750626,37.3846169],[71.71221160000002,37.4380608],[71.6139908,37.4585762],[71.5095749,37.4449692],[71.59356690000001,37.2895203],[71.54859920000001,37.2658997]]]},"properties":{"shapeName":"Roshtqal'a District","shapeISO":"","shapeID":"16282066B84799714594258","shapeGroup":"TJK","shapeType":"ADM2"}},
{"type":"Feature","geometry":{"type":"Polygon","coordinates":[[[71.2166901,39.0809517],[71.2230225,39.1470299],[71.21620940000003,39.1756706],[71.202652,39.1792755],[71.131073,39.1486588],[71.0125351,39.1315918],[70.94378660000001,39.1341782],[70.871727,39.1491966],[70.653389,39.055912],[70.61879729999998,39.0546608],[70.6692429,38.9489594],[70.7288895,38.9556961],[70.8175125,38.9354362],[70.85211179999999,38.9369888],[70.90106960000003,38.9883156],[71.1016541,39.0459557],[71.1541824,39.0850563],[71.1608734,39.1071434],[71.1765442,39.1069603],[71.2166901,39.0809517]]]},"properties":{"shapeName":"Tojikobod District","shapeISO":"","shapeID":"16282066B72950436230144","shapeGroup":"TJK","shapeType":"ADM2"}},
{"type":"Feature","geometry":{"type":"Polygon","coordinates":[[[67.94519640000001,36.9939475],[67.9704056,37.0390358],[67.97541809999998,37.1044083],[67.9963303,37.1520386],[68.0872879,37.2351646],[68.05180360000001,37.2884903],[68.02409360000001,37.4353027],[68.0078583,37.4616928],[67.97183229999999,37.4592247],[67.9333725,37.3532639],[67.8929214,37.3165169],[67.86625970000001,37.3166454],[67.8226395,37.2469025],[67.788453,37.189087],[67.79130950000001,37.1382276],[67.778889,37.101667],[67.8031433,37.0778503],[67.885556,37.061389],[67.910556,37.014444],[67.94519640000001,36.9939475]]]},"properties":{"shapeName":"Nosiri Khusrav District","shapeISO":"","shapeID":"16282066B93255092957093","shapeGroup":"TJK","shapeType":"ADM2"}},
{"type":"Feature","geometry":{"type":"Polygon","coordinates":[[[72.9547413,37.2913831],[73.038351,37.305108],[73.09417560000001,37.3248156],[73.1074669,37.340667],[73.1068948,37.3627376],[73.1318953,37.3709723],[73.1495583,37.4043116],[73.21769160000002,37.4071132],[73.3006935,37.4621124],[73.3642727,37.4619503],[73.3719663,37.4440445],[73.4281272,37.4688504],[73.5124716,37.4745299],[73.58267729999999,37.4439106],[73.6404029,37.433525],[73.719561,37.447008],[73.7758934,37.4400938],[73.76696310000001,37.3916815],[73.7742983,37.3395847],[73.7049808,37.3070785],[73.65457849999999,37.3134554],[73.6502532,37.2836751],[73.6172368,37.2705194],[73.6534364,37.2369425],[73.68737279999998,37.2539795],[73.72411160000001,37.2468517],[73.73857879999998,37.2272026],[73.7580269,37.2219784],[73.76425580000002,37.235113],[73.7819273,37.2388673],[73.80234829999998,37.2262614],[73.82837429999998,37.2265364],[73.8429578,37.2340449],[73.8519363,37.2574905],[73.90826360000003,37.2832001],[73.9526763,37.2750505],[73.96453790000001,37.2988986],[74.01660640000001,37.2916948],[74.02679649999999,37.3072208],[74.04140640000001,37.2999575],[74.0626907,37.31106959999999],[74.0659089,37.3262981],[74.0988287,37.318083],[74.1545854,37.3416813],[74.19696960000002,37.3358338],[74.2281643,37.3549409],[74.238973,37.3742323],[74.2517983,37.3745119],[74.229479,37.3952787],[74.2422805,37.4153851],[74.3159902,37.3991156],[74.34274729999998,37.406825],[74.3484163,37.422119],[74.3752091,37.4243735],[74.3904614,37.3971466],[74.4180988,37.389223],[74.43945450000001,37.4163667],[74.45235709999999,37.4050166],[74.46782960000003,37.4069202],[74.4660747,37.4267233],[74.49519930000001,37.3961829],[74.52847609999998,37.409371],[74.5550072,37.3992082],[74.5662278,37.3724573],[74.61504509999999,37.3836999],[74.63787209999998,37.3768],[74.67389269999998,37.3892],[74.6895993,37.4059648],[74.70660660000001,37.384251],[74.8038004,37.355417],[74.8767542,37.2748698],[74.89514809999999,37.2325175],[74.9153585,37.2373443],[74.91051460000003,37.2749773],[74.926784,37.2840781],[74.95195120000001,37.2920895],[74.9838131,37.2860743],[75.0773935,37.3157744],[75.1251392,37.3157118],[75.121693,37.3408378],[75.0940415,37.3714447],[75.1539563,37.4095637],[75.12540279999997,37.4480872],[75.1252838,37.4660283],[75.08890179999999,37.484374],[75.0618593,37.5254791],[75.03128320000002,37.5009707],[75.01159310000001,37.5249676],[74.9637801,37.5382926],[74.93233149999999,37.5679648],[74.939428,37.6032182],[74.90262070000001,37.6471898],[74.8996914,37.6737014],[74.9332851,37.6916848],[74.9229401,37.7041805],[74.9595001,37.728133600000014],[74.96710130000001,37.752198],[74.98408360000002,37.7519384],[75.0106322,37.7760399],[74.98686450000001,37.8085212],[74.9520101,37.8088178],[74.9443718,37.8241686],[74.92442320000002,37.8291372],[74.9129658,37.8565016],[74.93745410000001,37.8804717],[74.93796580000001,37.8945794],[74.91293,37.907079],[74.9164752,38.0245825],[74.8926456,38.0361684],[74.8832526,38.0228647],[74.86834079999998,38.02571550000001],[74.85277119999998,38.0489238],[74.8541965,38.069062],[74.8202795,38.0852896],[74.81852520000001,38.1281244],[74.7990061,38.1561692],[74.8043075,38.1988285],[74.7710221,38.1968905],[74.7532678,38.2152561],[74.7110451,38.21293690000001],[74.6979387,38.2281642],[74.70451120000001,38.2945306],[74.66553109999998,38.3805958],[74.69541829999999,38.425102],[74.65073779999997,38.4459372],[74.50668460000001,38.4715043],[74.28444420000001,38.59842290000001],[74.2569076,38.6023416],[74.18688859999999,38.6402797],[74.1213195,38.6416439],[74.1154279,38.6104411],[74.0746378,38.6107931],[74.0751193,38.5878419],[74.062119,38.5783725],[74.0874776,38.5501249],[74.08619360000002,38.5366431],[74.0280934,38.542742],[73.9982408,38.5218773],[73.9765736,38.5366431],[73.92360940000002,38.5425815],[73.8935963,38.5839899],[73.8605337,38.578533],[73.8014705,38.6138425],[73.805162,38.6639178],[73.7800051,38.6801697],[73.76977869999999,38.7172479],[73.7438518,38.7318084],[73.76781620000001,38.7782113],[73.7298122,38.8438058],[73.6945568,38.8528902],[73.7107779,38.9002653],[73.7339752,38.9105644],[73.7554649,38.941908],[73.7804453,38.9420605],[73.7948779,38.9288679],[73.8094541,38.9331379],[73.82412440000002,38.9174228],[73.8354072,38.9215223],[73.8540169,38.952357],[73.8441725,38.9996377],[73.81242360000002,39.0428208],[73.7904738,39.0418881],[73.77878639999999,39.0278946],[73.74253460000001,39.0311536],[73.7322125,39.0673193],[73.7104683,39.07591570000001],[73.7207398,39.111942],[73.70656,39.1216388],[73.7065352,39.1366546],[73.67814219999998,39.1466088],[73.6890577,39.1600407],[73.66182350000001,39.16497],[73.6607132,39.1926457],[73.64093879999999,39.2036145],[73.6317936,39.2302833],[73.6131882,39.2467715],[73.5690704,39.243868],[73.5592849,39.2493876],[73.56300920000001,39.2713444],[73.5379428,39.2777956],[73.5603923,39.3008051],[73.55078709999998,39.3363683],[73.5661323,39.345873],[73.4997347,39.3817402],[73.5583164,39.3937013],[73.5921814,39.4113561],[73.5923209,39.4663461],[73.56706330000002,39.4555226],[73.505128,39.4731829],[73.46162510000002,39.4657856],[73.41729820000002,39.4438831],[73.3901058,39.4512402],[73.3644017,39.409965],[73.3278635,39.3867928],[73.2007067,39.353209],[73.16068360000001,39.3524908],[73.106516,39.3763996],[73.0351498,39.3548106],[73.0066618,39.3627281],[72.973914,39.3581578],[72.9588686,39.346646],[72.93233279999998,39.3718099],[72.90714240000001,39.3676485],[72.87871,39.34688039999999],[72.8329984,39.3630674],[72.7907453,39.346082],[72.7826766,39.3620184],[72.6973229,39.39556],[72.670343,39.3884028],[72.6211602,39.3991562],[72.5992386,39.36611890000001],[72.5665375,39.3516331],[72.54425190000002,39.3808582],[72.4928576,39.3800754],[72.4624567,39.3501897],[72.40054320000002,39.3417804],[72.37940809999998,39.3294471],[72.34243729999999,39.3320994],[72.299779,39.292354],[72.25700390000002,39.1751365],[72.2279518,39.178578],[72.199552,39.1135302],[72.1310808,39.085935],[72.1146477,39.0274889],[72.02695279999999,38.9567439],[72.0074191,38.8847069],[72.0336707,38.8329013],[72.0638447,38.8056449],[72.17435129999998,38.78071280000001],[72.2075882,38.76293180000001],[72.1924286,38.7050095],[72.2090607,38.6706734],[72.1990585,38.6617622],[72.25328060000001,38.6462059],[72.2736359,38.608593],[72.24771120000001,38.5909462],[72.3066101,38.5396996],[72.3822937,38.5218163],[72.57554629999998,38.5481224],[72.6899338,38.5041351],[72.7047119,38.4803963],[72.73457340000002,38.3491592],[72.6972885,38.3039589],[72.67333979999998,38.2040672],[72.67337039999998,38.1157417],[72.6766052,38.0566292],[72.71994020000001,37.9327164],[72.74687960000001,37.9223175],[72.7477722,37.8151779],[72.771843,37.7451591],[72.752449,37.6672173],[72.76981350000001,37.6209946],[72.83847809999997,37.6249046],[72.8866806,37.5697403],[72.836319,37.4958687],[72.8427658,37.421463],[72.82343289999999,37.3810005],[72.85155490000001,37.2948227],[72.9547413,37.2913831]]]},"properties":{"shapeName":"Murghob District","shapeISO":"","shapeID":"16282066B16686410577714","shapeGroup":"TJK","shapeType":"ADM2"}},
{"type":"Feature","geometry":{"type":"Polygon","coordinates":[[[67.94519640000001,36.9939475],[67.976944,36.976389],[68.00844,36.9308513],[68.04624550000001,36.9440197],[68.0343602,36.9527789],[68.04495620000002,36.9746033],[68.07567729999998,36.9905201],[68.0695498,36.9974732],[68.10687679999998,37.066417],[68.097899,37.087947],[68.1316785,37.1187499],[68.1335576,37.1427624],[68.1618943,37.1700852],[68.1592416,37.1894814],[68.1697235,37.1991491],[68.15677009999997,37.2702401],[68.1418641,37.2869139],[68.142937,37.3496356],[68.160231,37.3736842],[68.1469131,37.4675288],[68.1530972,37.5075107],[68.1326009,37.519638],[68.1278909,37.5387394],[68.14762040000002,37.5878612],[68.13321990000001,37.6080562],[68.1436798,37.6613573],[68.1585069,37.6690543],[68.1555248,37.6918705],[68.1665875,37.6972361],[68.1567643,37.7075403],[68.166236,37.7378149],[68.2001881,37.7787649],[68.192883,37.8042796],[68.2500943,37.858218],[68.26428860000001,37.89891330000001],[68.255749,37.91816],[68.225511,37.932167],[68.127743,37.928935],[68.114778,37.869947],[68.039619,37.746766],[67.990619,37.68339],[67.962808,37.672873],[67.860197,37.546246],[67.81631,37.426733],[67.848588,37.311691],[67.8226395,37.2469025],[67.86625970000001,37.3166454],[67.8929214,37.3165169],[67.9333725,37.3532639],[67.97183229999999,37.4592247],[68.0078583,37.4616928],[68.02409360000001,37.4353027],[68.05180360000001,37.2884903],[68.0872879,37.2351646],[67.9963303,37.1520386],[67.97541809999998,37.1044083],[67.9704056,37.0390358],[67.94519640000001,36.9939475]]]},"properties":{"shapeName":"Shahrtuz District","shapeISO":"","shapeID":"16282066B30218976566428","shapeGroup":"TJK","shapeType":"ADM2"}},
{"type":"Feature","geometry":{"type":"Polygon","coordinates":[[[68.5098548,38.9510595],[68.538147,38.8910484],[68.4989777,38.8136978],[68.5139389,38.7590942],[68.49709320000002,38.621994],[68.52555849999999,38.5529099],[68.51158140000001,38.4856071],[68.48426060000003,38.4501953],[68.48416140000002,38.4130859],[68.49964140000002,38.3777084],[68.51320650000001,38.3422852],[68.5453262,38.345047],[68.5677185,38.37831880000001],[68.60078429999999,38.39468],[68.6163635,38.4283905],[68.6766739,38.4575043],[68.69037629999998,38.5084801],[68.6576614,38.5894432],[68.6366119,38.6371231],[68.6502609,38.651413],[68.6468506,38.7276688],[68.6702118,38.76254270000001],[68.68393709999998,38.8260765],[68.64944460000001,38.8707237],[68.63057709999998,38.9232407],[68.5351245,38.9827371],[68.5098548,38.9510595]]]},"properties":{"shapeName":"Hisor District","shapeISO":"","shapeID":"16282066B21622581905056","shapeGroup":"TJK","shapeType":"ADM2"}},
{"type":"Feature","geometry":{"type":"Polygon","coordinates":[[[69.6062736,38.4931546],[69.5832672,38.6416092],[69.5573807,38.6775703],[69.5532684,38.7467995],[69.53553009999999,38.740448],[69.523819,38.7010612],[69.49831390000001,38.6742706],[69.48062130000001,38.6710777],[69.45126340000003,38.6443062],[69.3593674,38.6063805],[69.2674789,38.6217308],[69.2229996,38.5557289],[69.188118,38.5242729],[69.1355667,38.5192986],[69.1592026,38.4803505],[69.09496580000001,38.4167068],[69.18717779999999,38.436388],[69.2157032,38.4243216],[69.2326732,38.3985316],[69.3232037,38.3963269],[69.33492070000001,38.3702939],[69.31425010000001,38.3429312],[69.334714,38.3241985],[69.3812744,38.3280484],[69.4529497,38.3893883],[69.6062736,38.4931546]]]},"properties":{"shapeName":"Faizobod District","shapeISO":"","shapeID":"16282066B89680526344847","shapeGroup":"TJK","shapeType":"ADM2"}},
{"type":"Feature","geometry":{"type":"Polygon","coordinates":[[[69.6062736,38.4931546],[69.7131922,38.6158345],[69.7464201,38.6132506],[69.7704497,38.5910556],[69.7970113,38.5946988],[69.90951090000001,38.7050021],[69.97126430000002,38.7276623],[69.92149350000001,38.7548676],[69.7654095,38.8821233],[69.705719,38.8643379],[69.68585209999998,38.815136],[69.66204829999998,38.7960625],[69.61843869999998,38.79590990000001],[69.6085663,38.7737694],[69.5690002,38.778389],[69.5532684,38.7467995],[69.5573807,38.6775703],[69.5832672,38.6416092],[69.6062736,38.4931546]]]},"properties":{"shapeName":"Roghun District","shapeISO":"","shapeID":"16282066B63470098096953","shapeGroup":"TJK","shapeType":"ADM2"}},
{"type":"Feature","geometry":{"type":"Polygon","coordinates":[[[70.2846818,38.0564888],[70.3265914,38.1150382],[70.34131920000002,38.1559917],[70.33620320000001,38.2635304],[70.3590442,38.3368334],[70.3382186,38.3845824],[70.3114395,38.3703575],[70.24797060000002,38.3021774],[70.21468350000002,38.2998314],[70.1416168,38.3318939],[70.1072083,38.3249664],[70.0494385,38.2746544],[70.00606540000001,38.2534142],[69.9707184,38.1593513],[69.9296951,38.1166534],[69.8851395,38.0541611],[69.9246368,38.0293236],[69.99362950000003,38.0075722],[70.1405258,38.0054054],[70.1819229,38.0148964],[70.2520752,38.0787239],[70.26754760000001,38.0772743],[70.2846818,38.0564888]]]},"properties":{"shapeName":"Muminobod District","shapeISO":"","shapeID":"16282066B24878365760731","shapeGroup":"TJK","shapeType":"ADM2"}},
{"type":"Feature","geometry":{"type":"Polygon","coordinates":[[[68.5351245,38.9827371],[68.63057709999998,38.9232407],[68.64944460000001,38.8707237],[68.68393709999998,38.8260765],[68.6702118,38.76254270000001],[68.6468506,38.7276688],[68.6502609,38.651413],[68.6366119,38.6371231],[68.6576614,38.5894432],[68.7042389,38.59589],[68.776123,38.6389084],[68.7993774,38.6405602],[68.8613586,38.5727119],[68.896286,38.6202965],[68.9409027,38.6109543],[68.94431010000001,38.6027798],[68.9815903,38.630043],[68.989151,38.7375374],[69.0836105,38.850132],[69.07751460000001,38.9166718],[69.025177,38.9720459],[69.0655314,39.0303828],[68.9210441,39.0600451],[68.8040487,39.0602259],[68.7745415,39.0773308],[68.6658142,39.0469193],[68.59005660000001,39.0480561],[68.5668022,39.0000229],[68.5351245,38.9827371]]]},"properties":{"shapeName":"Varzob District","shapeISO":"","shapeID":"16282066B14620359228188","shapeGroup":"TJK","shapeType":"ADM2"}},
{"type":"Feature","geometry":{"type":"Polygon","coordinates":[[[69.1496429,37.9181824],[69.1819916,37.9770927],[69.1468582,37.9830208],[69.08283229999998,37.9586868],[69.0535812,37.9655914],[68.93151860000002,37.9304161],[68.8535767,37.8512001],[68.8799591,37.801342],[68.9167938,37.7992973],[68.9502869,37.7741623],[69.0573654,37.7788048],[69.0862503,37.8021355],[69.1092377,37.8851967],[69.1496429,37.9181824]]]},"properties":{"shapeName":"Sarband District","shapeISO":"","shapeID":"16282066B28152733056959","shapeGroup":"TJK","shapeType":"ADM2"}},
{"type":"Feature","geometry":{"type":"Polygon","coordinates":[[[69.0535812,37.9655914],[69.0670013,38.0121346],[69.0585556,38.0304947],[68.9608078,38.0532951],[68.93965150000001,38.0326805],[68.8696747,38.021656],[68.88207239999998,38.1105499],[68.81156160000002,38.1337776],[68.84043879999999,38.1657104],[68.8303757,38.193615],[68.85930629999999,38.2286606],[68.820282,38.2262688],[68.7604523,38.1637268],[68.7772751,38.10290530000001],[68.7253342,38.0329399],[68.7280884,37.9909706],[68.7485275,37.9450722],[68.7047729,37.9146461],[68.70895390000001,37.8958321],[68.76160430000002,37.8852806],[68.769783,37.8686256],[68.8535767,37.8512001],[68.93151860000002,37.9304161],[69.0535812,37.9655914]]]},"properties":{"shapeName":"Dzhami District","shapeISO":"","shapeID":"16282066B9263642408144","shapeGroup":"TJK","shapeType":"ADM2"}},
{"type":"Feature","geometry":{"type":"Polygon","coordinates":[[[72.3066101,38.5396996],[72.30165860000001,38.4519157],[72.3279724,38.3707352],[72.31645970000001,38.3247871],[72.2594833,38.3128548],[72.18617249999998,38.2783699],[72.112915,38.1874771],[72.0845108,38.2094498],[72.03406520000001,38.2066841],[71.99470520000001,38.2375221],[71.91452030000002,38.2591667],[71.8806152,38.2296257],[71.8382416,38.22825620000001],[71.8197784,38.1996422],[71.7530518,38.1652794],[71.73744960000002,38.0763321],[71.64645390000001,38.0611382],[71.647438,38.0436897],[71.6359406,38.0441933],[71.6113358,38.0167542],[71.5880203,38.0130501],[71.57524109999999,38.0231705],[71.54795070000002,38.014946],[71.5219727,38.0448952],[71.5030441,38.0314827],[71.462204,38.0375748],[71.412735,38.0938683],[71.3382566,38.1187072],[71.31804729999999,38.0987432],[71.32134629999999,38.0674406],[71.30725560000002,38.0467793],[71.2840858,38.0420524],[71.29494370000002,38.0182759],[71.26958320000001,37.9944041],[71.2747589,37.9650526],[71.2556514,37.9250289],[71.2820062,37.9199351],[71.2987602,37.9319637],[71.3293207,37.885428],[71.4507974,37.9227628],[71.5027396,37.952386],[71.52421690000001,37.9531768],[71.5909716,37.9233851],[71.5873698,37.8943675],[71.598313,37.8741539],[71.5846953,37.8465258],[71.595603,37.8050791],[71.5860214,37.7952346],[71.6802902,37.7042465],[71.77571869999998,37.7073174],[71.92210390000001,37.7346497],[71.94898990000002,37.7726707],[72.03954320000001,37.7630272],[72.0774994,37.7866783],[72.1398544,37.7922668],[72.20532990000001,37.821312],[72.2383957,37.8217278],[72.3313675,37.8530617],[72.3676758,37.837677],[72.40721130000001,37.8488998],[72.47435,37.9080009],[72.53400420000001,37.9312325],[72.55547329999999,37.9305],[72.57435609999999,37.9156494],[72.66413879999999,37.9109993],[72.71994020000001,37.9327164],[72.6766052,38.0566292],[72.67337039999998,38.1157417],[72.67333979999998,38.2040672],[72.6972885,38.3039589],[72.73457340000002,38.3491592],[72.7047119,38.4803963],[72.6899338,38.5041351],[72.57554629999998,38.5481224],[72.3822937,38.5218163],[72.3066101,38.5396996]]]},"properties":{"shapeName":"Rushon District","shapeISO":"","shapeID":"16282066B70033230103640","shapeGroup":"TJK","shapeType":"ADM2"}},
{"type":"Feature","geometry":{"type":"Polygon","coordinates":[[[68.8799591,37.801342],[68.85529729999999,37.7819705],[68.85530749999998,37.7246022],[68.8065929,37.7196638],[68.8110857,37.6860377],[68.76448060000001,37.6569977],[68.7489853,37.6696205],[68.7454376,37.7088776],[68.7535619,37.7207395],[68.7808868,37.722094],[68.7896377,37.7528725],[68.7808868,37.7893161],[68.7681173,37.7833237],[68.7202911,37.7249222],[68.71494290000001,37.6444359],[68.853569,37.5844803],[68.8682938,37.5471077],[68.88871769999999,37.5686798],[68.90712740000002,37.5342598],[68.97720340000002,37.5606995],[69.1055298,37.57761],[69.1123734,37.7048111],[69.1568832,37.7057991],[69.16616060000001,37.8671761],[69.1496429,37.9181824],[69.1092377,37.8851967],[69.0862503,37.8021355],[69.0573654,37.7788048],[68.9502869,37.7741623],[68.9167938,37.7992973],[68.8799591,37.801342]]]},"properties":{"shapeName":"Vakhsh District","shapeISO":"","shapeID":"16282066B9795593157075","shapeGroup":"TJK","shapeType":"ADM2"}},
{"type":"Feature","geometry":{"type":"Polygon","coordinates":[[[68.196906,38.904543],[68.179434,38.882682],[68.201333,38.856704],[68.176388,38.845667],[68.171402,38.831163],[68.095227,38.813818],[68.069735,38.818343],[68.066719,38.798859],[68.091376,38.792602],[68.127976,38.733095],[68.082881,38.728522],[68.056901,38.712264],[68.092832,38.642455],[68.061271,38.559367],[68.085242,38.517183],[68.1012342,38.515802],[68.0969487,38.4928115],[68.1164241,38.46811210000001],[68.07044179999998,38.4198896],[68.06191450000001,38.3927255],[68.0926849,38.3893075],[68.136571,38.4107462],[68.1572133,38.3742702],[68.2068495,38.354925],[68.209714,38.338678],[68.223747,38.338017],[68.232778,38.321862],[68.289185,38.323069],[68.302392,38.255669],[68.333358,38.234297],[68.37079,38.245836],[68.373978,38.224086],[68.3864594,38.2304306],[68.3961258,38.2654266],[68.3883667,38.2835884],[68.36110690000001,38.2931442],[68.3709564,38.314724],[68.3461838,38.3745041],[68.32680509999999,38.3684425],[68.313385,38.3804588],[68.3294449,38.4670639],[68.28516390000001,38.4853897],[68.31456760000002,38.5476685],[68.32264709999998,38.5976868],[68.2590027,38.6138458],[68.2826843,38.6501274],[68.2715378,38.6897354],[68.28986360000002,38.7432175],[68.2864075,38.7707062],[68.3193665,38.7846947],[68.292572,38.8150482],[68.2910385,38.8465538],[68.306633,38.8534203],[68.30500029999999,38.863987],[68.2297685,38.9059976],[68.196906,38.904543]]]},"properties":{"shapeName":"Tursunzoda District","shapeISO":"","shapeID":"16282066B73921551904477","shapeGroup":"TJK","shapeType":"ADM2"}},
{"type":"Feature","geometry":{"type":"Polygon","coordinates":[[[68.85930629999999,38.2286606],[68.87072749999999,38.2601814],[68.8410873,38.3035316],[68.84715620000001,38.3314904],[68.8114901,38.32779],[68.7955221,38.3479438],[68.7700456,38.3524914],[68.7138733,38.3178423],[68.6166183,38.3298312],[68.5757939,38.3002723],[68.58416550000001,38.2002268],[68.5188465,38.1022224],[68.5492322,38.0841356],[68.54365120000001,38.0194109],[68.49181970000002,37.9829532],[68.4606588,37.9101669],[68.4869763,37.81137],[68.4763867,37.7005862],[68.6186218,37.7020149],[68.6271133,37.7340622],[68.6174316,37.7899284],[68.6374664,37.8242302],[68.69033049999999,37.8675117],[68.7047729,37.9146461],[68.7485275,37.9450722],[68.7280884,37.9909706],[68.7253342,38.0329399],[68.7772751,38.10290530000001],[68.7604523,38.1637268],[68.820282,38.2262688],[68.85930629999999,38.2286606]]]},"properties":{"shapeName":"Khuroson District","shapeISO":"","shapeID":"16282066B4049549671764","shapeGroup":"TJK","shapeType":"ADM2"}},
{"type":"Feature","geometry":{"type":"Polygon","coordinates":[[[68.941389,37.325],[68.93570709999999,37.3960991],[68.93902590000002,37.4174347],[68.85248569999999,37.442852],[68.65077209999997,37.4436302],[68.6229935,37.413311],[68.61248779999998,37.3802681],[68.5897217,37.3725586],[68.580925,37.3440819],[68.54740140000001,37.3081055],[68.54434970000001,37.2753487],[68.5274124,37.2634087],[68.4777985,37.2604294],[68.46199040000002,37.1813393],[68.5990829,37.2082596],[68.6195953,37.2005403],[68.6484409,37.2202468],[68.6462025,37.2438923],[68.67519569999999,37.2450638],[68.6617043,37.2619995],[68.671389,37.275556],[68.7156568,37.2702134],[68.758333,37.277222],[68.801111,37.245],[68.821667,37.245],[68.828056,37.263333],[68.809444,37.3225],[68.855833,37.3225],[68.905,37.272222],[68.919444,37.275556],[68.923889,37.290278],[68.899444,37.306944],[68.883889,37.334444],[68.941389,37.325]]]},"properties":{"shapeName":"Qumsangir District","shapeISO":"","shapeID":"16282066B36674591611238","shapeGroup":"TJK","shapeType":"ADM2"}},
{"type":"Feature","geometry":{"type":"Polygon","coordinates":[[[69.9296951,38.1166534],[69.86488340000001,38.1372032],[69.8484039,38.1119347],[69.814209,38.1052208],[69.8067627,38.063858],[69.77773279999998,38.0364571],[69.7588806,37.9801178],[69.73186490000002,37.9543228],[69.6936951,37.8617668],[69.7118301,37.8339348],[69.76782990000002,37.8161125],[69.7991791,37.8586311],[69.8439713,37.8766823],[69.8641815,37.9374962],[69.91500090000001,37.9985847],[69.9246368,38.0293236],[69.8851395,38.0541611],[69.9296951,38.1166534]]]},"properties":{"shapeName":"Kulob District","shapeISO":"","shapeID":"16282066B62241494872527","shapeGroup":"TJK","shapeType":"ADM2"}},
{"type":"Feature","geometry":{"type":"Polygon","coordinates":[[[68.2297685,38.9059976],[68.30500029999999,38.863987],[68.306633,38.8534203],[68.2910385,38.8465538],[68.292572,38.8150482],[68.3193665,38.7846947],[68.2864075,38.7707062],[68.28986360000002,38.7432175],[68.2715378,38.6897354],[68.2826843,38.6501274],[68.2590027,38.6138458],[68.32264709999998,38.5976868],[68.31456760000002,38.5476685],[68.28516390000001,38.4853897],[68.3294449,38.4670639],[68.313385,38.3804588],[68.32680509999999,38.3684425],[68.3461838,38.3745041],[68.3709564,38.314724],[68.36110690000001,38.2931442],[68.3883667,38.2835884],[68.3961258,38.2654266],[68.3864594,38.2304306],[68.373978,38.224086],[68.379917,38.203621],[68.4039525,38.1989095],[68.49964140000002,38.3777084],[68.48416140000002,38.4130859],[68.48426060000003,38.4501953],[68.51158140000001,38.4856071],[68.52555849999999,38.5529099],[68.49709320000002,38.621994],[68.5139389,38.7590942],[68.4989777,38.8136978],[68.538147,38.8910484],[68.5098548,38.9510595],[68.3743592,38.9202086],[68.3198922,38.9305956],[68.2297685,38.9059976]]]},"properties":{"shapeName":"Sharinav District","shapeISO":"","shapeID":"16282066B42853000788658","shapeGroup":"TJK","shapeType":"ADM2"}},
{"type":"Feature","geometry":{"type":"Polygon","coordinates":[[[69.97126430000002,38.7276623],[70.0000997,38.7347936],[70.0330176,38.7241999],[70.1195756,38.649605],[70.1604,38.6318025],[70.19781490000001,38.6548882],[70.3269653,38.8240433],[70.35505679999999,38.8460503],[70.46627040000001,38.8594666],[70.51707460000002,38.8725014],[70.5464401,38.8910675],[70.48184970000001,38.9058685],[70.3072815,38.8610878],[70.25955960000002,38.8808441],[70.2234573,38.8813286],[70.2055817,38.9115334],[70.18888089999999,38.9182472],[70.007515,38.930294],[69.935524,38.9525642],[69.8915787,38.9779358],[69.8495178,38.9793968],[69.829422,38.9507027],[69.7874756,38.9361687],[69.7654095,38.8821233],[69.92149350000001,38.7548676],[69.97126430000002,38.7276623]]]},"properties":{"shapeName":"Nurobod District","shapeISO":"","shapeID":"16282066B95450197588643","shapeGroup":"TJK","shapeType":"ADM2"}},
{"type":"Feature","geometry":{"type":"Polygon","coordinates":[[[69.6818222,38.1667835],[69.63302460000001,38.1893819],[69.6382965,38.23613380000001],[69.6127533,38.2562238],[69.606726,38.2824741],[69.5813049,38.2824893],[69.5076527,38.3076468],[69.4507863,38.3116509],[69.3167265,38.2778399],[69.3895151,38.2538957],[69.37891229999998,38.2143628],[69.34526670000001,38.2368277],[69.3303665,38.1987864],[69.34423670000001,38.178849],[69.3775314,38.1636118],[69.4360183,38.1607146],[69.4558395,38.1316089],[69.3863433,38.0808465],[69.344374,38.0254637],[69.3365158,38.0117629],[69.3508133,37.9493009],[69.4445328,37.9270417],[69.49635160000001,37.97363],[69.5434326,37.9807663],[69.613707,37.9715866],[69.6035675,38.0065288],[69.62077179999997,38.0354324],[69.614035,38.108698],[69.656485,38.1591783],[69.6818222,38.1667835]]]},"properties":{"shapeName":"Temurmalik District","shapeISO":"","shapeID":"16282066B93073619052009","shapeGroup":"TJK","shapeType":"ADM2"}},
{"type":"Feature","geometry":{"type":"Polygon","coordinates":[[[69.76782990000002,37.8161125],[69.72037509999998,37.7397652],[69.6736526,37.7152481],[69.6041107,37.7243996],[69.5751419,37.7473373],[69.5480042,37.73039630000001],[69.54607390000001,37.747242],[69.51123050000001,37.72258380000001],[69.4666901,37.72695920000001],[69.4320984,37.66837690000001],[69.44951630000001,37.6514969],[69.4726486,37.6531525],[69.5113754,37.6042442],[69.5577469,37.5875664],[69.55240109999998,37.5759433],[69.62839529999998,37.5697105],[69.6692078,37.5837744],[69.71371640000001,37.5747008],[69.755342,37.5922748],[69.814215,37.5685078],[69.8279038,37.5740917],[69.8414304,37.6035546],[69.899167,37.615],[69.934968,37.6118542],[69.958611,37.565],[69.99781030000001,37.5667513],[70.0208104,37.5476079],[70.056191,37.5490024],[70.0815972,37.5331731],[70.13088229999998,37.5230395],[70.155833,37.536389],[70.1711592,37.5282606],[70.17978379999998,37.5720067],[70.1955119,37.5628647],[70.2130913,37.5675228],[70.202462,37.5823819],[70.2218625,37.5833043],[70.2204952,37.607179],[70.2203293,37.6212349],[70.1605453,37.6541557],[70.1331329,37.69232560000001],[70.06652070000001,37.7441292],[70.0386047,37.7430038],[70.0213089,37.7042542],[69.99736020000002,37.70158],[69.9824219,37.7437477],[69.9566803,37.7562485],[69.9935913,37.79673],[69.9902878,37.8320541],[69.88337709999998,37.8336868],[69.8439713,37.8766823],[69.7991791,37.8586311],[69.76782990000002,37.8161125]]]},"properties":{"shapeName":"Hamadoni District","shapeISO":"","shapeID":"16282066B64291455675046","shapeGroup":"TJK","shapeType":"ADM2"}},
{"type":"Feature","geometry":{"type":"Polygon","coordinates":[[[69.9246368,38.0293236],[69.91500090000001,37.9985847],[69.8641815,37.9374962],[69.8439713,37.8766823],[69.88337709999998,37.8336868],[69.9902878,37.8320541],[69.9935913,37.79673],[69.9566803,37.7562485],[69.9824219,37.7437477],[69.99736020000002,37.70158],[70.0213089,37.7042542],[70.0386047,37.7430038],[70.06652070000001,37.7441292],[70.1331329,37.69232560000001],[70.1605453,37.6541557],[70.2203293,37.6212349],[70.2204952,37.607179],[70.26751410000001,37.6136155],[70.26152950000002,37.6422896],[70.28634709999999,37.6837712],[70.3026035,37.6908487],[70.28705950000001,37.7157541],[70.2998869,37.7300993],[70.2864759,37.7489686],[70.29794290000001,37.7679246],[70.2795665,37.77891870000001],[70.27947209999998,37.8159935],[70.18541879999998,37.8500678],[70.1710551,37.9302409],[70.18633509999998,37.9446477],[70.2113311,37.9210958],[70.2131915,37.9313089],[70.24365070000002,37.9438067],[70.2693677,37.9377248],[70.2755453,37.9459439],[70.2606988,37.9742698],[70.28754660000001,37.9697095],[70.290967,37.9865828],[70.27504269999999,38.0082156],[70.2846818,38.0564888],[70.26754760000001,38.0772743],[70.2520752,38.0787239],[70.1819229,38.0148964],[70.1405258,38.0054054],[69.99362950000003,38.0075722],[69.9246368,38.0293236]]]},"properties":{"shapeName":"Shuro-obod District","shapeISO":"","shapeID":"16282066B44711875302411","shapeGroup":"TJK","shapeType":"ADM2"}},
{"type":"Feature","geometry":{"type":"Polygon","coordinates":[[[68.71494290000001,37.6444359],[68.69721980000001,37.6560287],[68.6992798,37.7075272],[68.65755460000001,37.6896248],[68.6245499,37.69767],[68.626152,37.6524773],[68.60948179999998,37.6339378],[68.5827866,37.6271477],[68.5668716,37.5877609],[68.5905685,37.5704689],[68.64526370000002,37.5786324],[68.65596009999999,37.5706711],[68.62667849999998,37.5280571],[68.6624603,37.494545],[68.6285172,37.4759178],[68.6330338,37.4566727],[68.65077209999997,37.4436302],[68.85248569999999,37.442852],[68.93902590000002,37.4174347],[68.93570709999999,37.3960991],[68.94905090000002,37.3993111],[68.9819717,37.38451],[69.0125427,37.3879509],[69.0731125,37.4177818],[69.0568542,37.4557114],[69.06184390000001,37.4848099],[69.0933533,37.5251045],[69.1055298,37.57761],[68.97720340000002,37.5606995],[68.90712740000002,37.5342598],[68.88871769999999,37.5686798],[68.8682938,37.5471077],[68.853569,37.5844803],[68.71494290000001,37.6444359]]]},"properties":{"shapeName":"Rumi District","shapeISO":"","shapeID":"16282066B18617461158044","shapeGroup":"TJK","shapeType":"ADM2"}},
{"type":"Feature","geometry":{"type":"Polygon","coordinates":[[[68.8535767,37.8512001],[68.769783,37.8686256],[68.76160430000002,37.8852806],[68.70895390000001,37.8958321],[68.7047729,37.9146461],[68.69033049999999,37.8675117],[68.6374664,37.8242302],[68.6174316,37.7899284],[68.6271133,37.7340622],[68.6186218,37.7020149],[68.6245499,37.69767],[68.65755460000001,37.6896248],[68.6992798,37.7075272],[68.69721980000001,37.6560287],[68.71494290000001,37.6444359],[68.7202911,37.7249222],[68.7681173,37.7833237],[68.7808868,37.7893161],[68.7896377,37.7528725],[68.7808868,37.722094],[68.7535619,37.7207395],[68.7454376,37.7088776],[68.7489853,37.6696205],[68.76448060000001,37.6569977],[68.8110857,37.6860377],[68.8065929,37.7196638],[68.85530749999998,37.7246022],[68.85529729999999,37.7819705],[68.8799591,37.801342],[68.8535767,37.8512001]]]},"properties":{"shapeName":"Bokhtar District","shapeISO":"","shapeID":"16282066B18060616011371","shapeGroup":"TJK","shapeType":"ADM2"}},
{"type":"Feature","geometry":{"type":"Polygon","coordinates":[[[69.86488340000001,38.1372032],[69.83482360000002,38.1536598],[69.7382803,38.1550917],[69.6818222,38.1667835],[69.656485,38.1591783],[69.614035,38.108698],[69.62077179999997,38.0354324],[69.6035675,38.0065288],[69.613707,37.9715866],[69.5434326,37.9807663],[69.49635160000001,37.97363],[69.4445328,37.9270417],[69.3508133,37.9493009],[69.3841929,37.8577384],[69.4193726,37.8194313],[69.4120865,37.76922230000001],[69.4666901,37.72695920000001],[69.51123050000001,37.72258380000001],[69.54607390000001,37.747242],[69.5480042,37.73039630000001],[69.5751419,37.7473373],[69.6041107,37.7243996],[69.6736526,37.7152481],[69.72037509999998,37.7397652],[69.76782990000002,37.8161125],[69.7118301,37.8339348],[69.6936951,37.8617668],[69.73186490000002,37.9543228],[69.7588806,37.9801178],[69.77773279999998,38.0364571],[69.8067627,38.063858],[69.814209,38.1052208],[69.8484039,38.1119347],[69.86488340000001,38.1372032]]]},"properties":{"shapeName":"Vose' District","shapeISO":"","shapeID":"16282066B61264330221622","shapeGroup":"TJK","shapeType":"ADM2"}},
{"type":"Feature","geometry":{"type":"Polygon","coordinates":[[[72.0638447,38.8056449],[71.9742428,38.73595630000001],[71.93961960000003,38.7233473],[71.8474288,38.7124177],[71.8097567,38.6842024],[71.777769,38.6759342],[71.7507939,38.6459877],[71.7200464,38.654075],[71.6046013,38.637461],[71.5609864,38.5877742],[71.5329261,38.5740799],[71.5270349,38.5289664],[71.46522990000003,38.5196388],[71.4269377,38.4750679],[71.3989807,38.5032315],[71.3721607,38.5137218],[71.2843107,38.48623],[71.18545529999999,38.4259491],[71.1491208,38.3901861],[71.17097759999999,38.3775442],[71.1841869,38.3451523],[71.2517099,38.3102237],[71.3327856,38.3051017],[71.3345658,38.2703918],[71.3557437,38.2710938],[71.3734974,38.256597],[71.3663686,38.2250685],[71.37930669999999,38.2098057],[71.3645341,38.195977],[71.3765486,38.16091590000001],[71.3483453,38.147382],[71.3382566,38.1187072],[71.412735,38.0938683],[71.462204,38.0375748],[71.5030441,38.0314827],[71.5219727,38.0448952],[71.54795070000002,38.014946],[71.57524109999999,38.0231705],[71.5880203,38.0130501],[71.6113358,38.0167542],[71.6359406,38.0441933],[71.647438,38.0436897],[71.64645390000001,38.0611382],[71.73744960000002,38.0763321],[71.7530518,38.1652794],[71.8197784,38.1996422],[71.8382416,38.22825620000001],[71.8806152,38.2296257],[71.91452030000002,38.2591667],[71.99470520000001,38.2375221],[72.03406520000001,38.2066841],[72.0845108,38.2094498],[72.112915,38.1874771],[72.18617249999998,38.2783699],[72.2594833,38.3128548],[72.31645970000001,38.3247871],[72.3279724,38.3707352],[72.30165860000001,38.4519157],[72.3066101,38.5396996],[72.24771120000001,38.5909462],[72.2736359,38.608593],[72.25328060000001,38.6462059],[72.1990585,38.6617622],[72.2090607,38.6706734],[72.1924286,38.7050095],[72.2075882,38.76293180000001],[72.17435129999998,38.78071280000001],[72.0638447,38.8056449]]]},"properties":{"shapeName":"Vanj District","shapeISO":"","shapeID":"16282066B67507686696316","shapeGroup":"TJK","shapeType":"ADM2"}},
{"type":"Feature","geometry":{"type":"Polygon","coordinates":[[[71.2166901,39.0809517],[71.3363495,39.0999107],[71.353302,39.0849991],[71.3573532,39.0332451],[71.42115020000001,39.0270386],[71.46472930000002,38.99691390000001],[71.51515960000002,39.0022354],[71.5755157,39.0225449],[71.5976791,38.995155300000015],[71.6448059,38.9727745],[71.6439972,38.9481163],[71.67127229999998,38.9082031],[71.7071075,38.8971367],[71.8245926,38.9195099],[71.8995819,38.9105492],[71.97534179999998,38.9216194],[72.02695279999999,38.9567439],[72.1146477,39.0274889],[72.1310808,39.085935],[72.199552,39.1135302],[72.2279518,39.178578],[72.2146758,39.2166145],[72.1841693,39.2414091],[72.17394409999999,39.2695043],[72.096726,39.2713548],[72.0586097,39.3519451],[72.03562920000002,39.3664905],[71.95798590000001,39.331271],[71.91111090000003,39.2772828],[71.79062670000002,39.2780532],[71.75266990000001,39.3239595],[71.7571553,39.3506437],[71.8002925,39.38084449999999],[71.80381829999999,39.4027721],[71.78646950000001,39.4434136],[71.760827,39.4565802],[71.7068867,39.456138],[71.6406322,39.4398992],[71.5624396,39.4548731],[71.54349540000001,39.5181009],[71.5600123,39.5744935],[71.4989315,39.6136217],[71.41458980000002,39.5711706],[71.3609777,39.5763214],[71.33562460000002,39.5687478],[71.3289034,39.5435976],[71.2955027,39.5181191],[71.27787809999998,39.5231697],[71.25320420000001,39.5520258],[71.1933746,39.5112954],[71.099456,39.5064591],[71.0778429,39.4703758],[71.08087879999998,39.43233930000001],[71.0622864,39.4128761],[71.0636368,39.3530045],[71.1078339,39.3316765],[71.0484619,39.2990379],[71.0419083,39.2779503],[71.0750046,39.21895220000001],[71.05281829999998,39.2028923],[70.9533157,39.1765594],[70.94378660000001,39.1341782],[71.0125351,39.1315918],[71.131073,39.1486588],[71.202652,39.1792755],[71.21620940000003,39.1756706],[71.2230225,39.1470299],[71.2166901,39.0809517]]]},"properties":{"shapeName":"Jirgatol District","shapeISO":"","shapeID":"16282066B88100265425771","shapeGroup":"TJK","shapeType":"ADM2"}},
{"type":"Feature","geometry":{"type":"Polygon","coordinates":[[[68.941389,37.325],[68.973889,37.321944],[68.999722,37.307778],[69.033333,37.250833],[69.096667,37.2075],[69.125278,37.163056],[69.191389,37.134722],[69.205,37.116389],[69.24656960000003,37.0952889],[69.284828,37.1137355],[69.32357829999998,37.1176696],[69.3695281,37.1648456],[69.3998319,37.16511050000001],[69.42162980000002,37.1917663],[69.36916390000002,37.204514],[69.3579338,37.2729834],[69.2959538,37.2918679],[69.22213749999999,37.3712921],[69.2030869,37.4259262],[69.219841,37.5318222],[69.20638279999999,37.5316048],[69.1745834,37.4943199],[69.1571808,37.5001526],[69.13774109999999,37.4536362],[69.0731125,37.4177818],[69.0125427,37.3879509],[68.9819717,37.38451],[68.94905090000002,37.3993111],[68.93570709999999,37.3960991],[68.941389,37.325]]]},"properties":{"shapeName":"Panj District","shapeISO":"","shapeID":"16282066B29350614893000","shapeGroup":"TJK","shapeType":"ADM2"}},
{"type":"Feature","geometry":{"type":"Polygon","coordinates":[[[69.09496580000001,38.4167068],[69.07657209999998,38.416778],[69.0844227,38.3757806],[69.06365550000001,38.3071351],[69.09521070000001,38.268545900000014],[69.10304609999999,38.2639512],[69.1146351,38.2733467],[69.1645809,38.2600024],[69.2329302,38.2761374],[69.3167265,38.2778399],[69.4507863,38.3116509],[69.4645583,38.3713542],[69.4529497,38.3893883],[69.3812744,38.3280484],[69.334714,38.3241985],[69.31425010000001,38.3429312],[69.33492070000001,38.3702939],[69.3232037,38.3963269],[69.2326732,38.3985316],[69.2157032,38.4243216],[69.18717779999999,38.436388],[69.09496580000001,38.4167068]]]},"properties":{"shapeName":"Norak District","shapeISO":"","shapeID":"16282066B18278602900186","shapeGroup":"TJK","shapeType":"ADM2"}},
{"type":"Feature","geometry":{"type":"Polygon","coordinates":[[[69.0585556,38.0304947],[69.0756989,38.0632515],[69.0695724,38.0863495],[69.1004562,38.1146812],[69.1132965,38.1742363],[69.09521070000001,38.268545900000014],[69.06365550000001,38.3071351],[69.0844227,38.3757806],[69.07657209999998,38.416778],[68.99426960000004,38.4123327],[68.9067814,38.3835489],[68.8735535,38.339934],[68.84715620000001,38.3314904],[68.8410873,38.3035316],[68.87072749999999,38.2601814],[68.85930629999999,38.2286606],[68.8303757,38.193615],[68.84043879999999,38.1657104],[68.81156160000002,38.1337776],[68.88207239999998,38.1105499],[68.8696747,38.021656],[68.93965150000001,38.0326805],[68.9608078,38.0532951],[69.0585556,38.0304947]]]},"properties":{"shapeName":"Yovon District","shapeISO":"","shapeID":"16282066B23180237533892","shapeGroup":"TJK","shapeType":"ADM2"}},
{"type":"Feature","geometry":{"type":"Polygon","coordinates":[[[68.00844,36.9308513],[68.051389,36.928611],[68.187222,37.020556],[68.253056,37.005],[68.275,37.012222],[68.284167,37.030556],[68.278333,37.086944],[68.294722,37.108333],[68.327778,37.109167],[68.3147964,37.1347427],[68.331955,37.162075],[68.3199463,37.1907654],[68.347084,37.186203],[68.3310013,37.223735800000014],[68.3502655,37.225174],[68.3515854,37.2534676],[68.41497040000002,37.2502327],[68.4107895,37.2650719],[68.3839264,37.266674],[68.3855057,37.2799873],[68.40251160000001,37.288765],[68.43179320000002,37.2664719],[68.44319150000001,37.26939390000001],[68.4483871,37.29010390000001],[68.4581833,37.281208],[68.5026016,37.3450623],[68.47380829999999,37.3962173],[68.4223175,37.3853493],[68.3762512,37.4374046],[68.43821720000001,37.4778633],[68.378067,37.5456314],[68.3859634,37.6429367],[68.40486150000001,37.703022],[68.3944341,37.7138142],[68.3733095,37.9120208],[68.31462120000002,37.9047151],[68.27851279999999,37.9118508],[68.26428860000001,37.89891330000001],[68.2500943,37.858218],[68.192883,37.8042796],[68.2001881,37.7787649],[68.166236,37.7378149],[68.1567643,37.7075403],[68.1665875,37.6972361],[68.1555248,37.6918705],[68.1585069,37.6690543],[68.1436798,37.6613573],[68.13321990000001,37.6080562],[68.14762040000002,37.5878612],[68.1278909,37.5387394],[68.1326009,37.519638],[68.1530972,37.5075107],[68.1469131,37.4675288],[68.160231,37.3736842],[68.142937,37.3496356],[68.1418641,37.2869139],[68.15677009999997,37.2702401],[68.1697235,37.1991491],[68.1592416,37.1894814],[68.1618943,37.1700852],[68.1335576,37.1427624],[68.1316785,37.1187499],[68.097899,37.087947],[68.10687679999998,37.066417],[68.0695498,36.9974732],[68.07567729999998,36.9905201],[68.04495620000002,36.9746033],[68.0343602,36.9527789],[68.04624550000001,36.9440197],[68.00844,36.9308513]]]},"properties":{"shapeName":"Qabodiyon District","shapeISO":"","shapeID":"16282066B75483976473554","shapeGroup":"TJK","shapeType":"ADM2"}},
{"type":"Feature","geometry":{"type":"Polygon","coordinates":[[[70.3382186,38.3845824],[70.3556336,38.4420466],[70.42405320000002,38.48788359999999],[70.439091,38.5156855],[70.417852,38.5653466],[70.35330809999998,38.6067394],[70.22912970000002,38.5995047],[70.1639657,38.5459421],[70.1667562,38.6036905],[70.09687809999998,38.5358047],[69.9559402,38.4833374],[69.87059779999998,38.3914108],[69.76627350000001,38.3325806],[69.69976809999999,38.2675514],[69.67827609999998,38.2567368],[69.606726,38.2824741],[69.6127533,38.2562238],[69.6382965,38.23613380000001],[69.63302460000001,38.1893819],[69.6818222,38.1667835],[69.7382803,38.1550917],[69.83482360000002,38.1536598],[69.86488340000001,38.1372032],[69.9296951,38.1166534],[69.9707184,38.1593513],[70.00606540000001,38.2534142],[70.0494385,38.2746544],[70.1072083,38.3249664],[70.1416168,38.3318939],[70.21468350000002,38.2998314],[70.24797060000002,38.3021774],[70.3114395,38.3703575],[70.3382186,38.3845824]]]},"properties":{"shapeName":"Khovaling District","shapeISO":"","shapeID":"16282066B49983472993835","shapeGroup":"TJK","shapeType":"ADM2"}},
{"type":"Feature","geometry":{"type":"Polygon","coordinates":[[[69.4529497,38.3893883],[69.4645583,38.3713542],[69.4507863,38.3116509],[69.5076527,38.3076468],[69.5813049,38.2824893],[69.606726,38.2824741],[69.67827609999998,38.2567368],[69.69976809999999,38.2675514],[69.76627350000001,38.3325806],[69.87059779999998,38.3914108],[69.9559402,38.4833374],[70.09687809999998,38.5358047],[70.1667562,38.6036905],[70.1604,38.6318025],[70.1195756,38.649605],[70.0330176,38.7241999],[70.0000997,38.7347936],[69.97126430000002,38.7276623],[69.90951090000001,38.7050021],[69.7970113,38.5946988],[69.7704497,38.5910556],[69.7464201,38.6132506],[69.7131922,38.6158345],[69.6062736,38.4931546],[69.4529497,38.3893883]]]},"properties":{"shapeName":"Baljuvon District","shapeISO":"","shapeID":"16282066B12337308871344","shapeGroup":"TJK","shapeType":"ADM2"}},
{"type":"Feature","geometry":{"type":"Polygon","coordinates":[[[68.4606588,37.9101669],[68.4291362,37.9025447],[68.4096025,37.9181509],[68.3733095,37.9120208],[68.3944341,37.7138142],[68.40486150000001,37.703022],[68.3859634,37.6429367],[68.378067,37.5456314],[68.43821720000001,37.4778633],[68.3762512,37.4374046],[68.4223175,37.3853493],[68.47380829999999,37.3962173],[68.5026016,37.3450623],[68.4581833,37.281208],[68.4483871,37.29010390000001],[68.44319150000001,37.26939390000001],[68.43179320000002,37.2664719],[68.40251160000001,37.288765],[68.3855057,37.2799873],[68.3839264,37.266674],[68.4107895,37.2650719],[68.41497040000002,37.2502327],[68.3515854,37.2534676],[68.3502655,37.225174],[68.3310013,37.223735800000014],[68.347084,37.186203],[68.3199463,37.1907654],[68.331955,37.162075],[68.3147964,37.1347427],[68.327778,37.109167],[68.376667,37.098333],[68.405833,37.101667],[68.415556,37.108889],[68.412222,37.148056],[68.44927540000002,37.1341334],[68.459722,37.148056],[68.53900560000001,37.1648877],[68.57241029999999,37.1877096],[68.6195953,37.2005403],[68.5990829,37.2082596],[68.46199040000002,37.1813393],[68.4777985,37.2604294],[68.5274124,37.2634087],[68.54434970000001,37.2753487],[68.54740140000001,37.3081055],[68.580925,37.3440819],[68.5897217,37.3725586],[68.61248779999998,37.3802681],[68.6229935,37.413311],[68.65077209999997,37.4436302],[68.6330338,37.4566727],[68.6285172,37.4759178],[68.6624603,37.494545],[68.62667849999998,37.5280571],[68.65596009999999,37.5706711],[68.64526370000002,37.5786324],[68.5905685,37.5704689],[68.5668716,37.5877609],[68.5827866,37.6271477],[68.60948179999998,37.6339378],[68.626152,37.6524773],[68.6245499,37.69767],[68.6186218,37.7020149],[68.4763867,37.7005862],[68.4869763,37.81137],[68.4606588,37.9101669]]]},"properties":{"shapeName":"Jilikul District","shapeISO":"","shapeID":"16282066B29862957146199","shapeGroup":"TJK","shapeType":"ADM2"}},
{"type":"Feature","geometry":{"type":"Polygon","coordinates":[[[69.1496429,37.9181824],[69.16616060000001,37.8671761],[69.1568832,37.7057991],[69.1936874,37.7065659],[69.24744420000002,37.73957820000001],[69.3595505,37.7777596],[69.4120865,37.76922230000001],[69.4193726,37.8194313],[69.3841929,37.8577384],[69.3508133,37.9493009],[69.3365158,38.0117629],[69.344374,38.0254637],[69.3863433,38.0808465],[69.4558395,38.1316089],[69.4360183,38.1607146],[69.3775314,38.1636118],[69.34423670000001,38.178849],[69.3303665,38.1987864],[69.34526670000001,38.2368277],[69.37891229999998,38.2143628],[69.3895151,38.2538957],[69.3167265,38.2778399],[69.2329302,38.2761374],[69.1645809,38.2600024],[69.1146351,38.2733467],[69.10304609999999,38.2639512],[69.09521070000001,38.268545900000014],[69.1132965,38.1742363],[69.1004562,38.1146812],[69.0695724,38.0863495],[69.0756989,38.0632515],[69.0585556,38.0304947],[69.0670013,38.0121346],[69.0535812,37.9655914],[69.08283229999998,37.9586868],[69.1468582,37.9830208],[69.1819916,37.9770927],[69.1496429,37.9181824]]]},"properties":{"shapeName":"Danghara District","shapeISO":"","shapeID":"16282066B93565945438282","shapeGroup":"TJK","shapeType":"ADM2"}},
{"type":"Feature","geometry":{"type":"Polygon","coordinates":[[[69.1055298,37.57761],[69.0933533,37.5251045],[69.06184390000001,37.4848099],[69.0568542,37.4557114],[69.0731125,37.4177818],[69.13774109999999,37.4536362],[69.1571808,37.5001526],[69.1745834,37.4943199],[69.20638279999999,37.5316048],[69.219841,37.5318222],[69.2030869,37.4259262],[69.22213749999999,37.3712921],[69.2959538,37.2918679],[69.3579338,37.2729834],[69.36916390000002,37.204514],[69.42162980000002,37.1917663],[69.4711073,37.2568359],[69.4604148,37.2627275],[69.4378753,37.2433137],[69.4251583,37.2458572],[69.4135861,37.2722052],[69.42426020000002,37.29210180000001],[69.3973983,37.3151556],[69.4021875,37.3305443],[69.38099829999999,37.3393967],[69.396663,37.3563317],[69.381341,37.3608267],[69.3704109,37.3800215],[69.3784146,37.3944451],[69.3645529,37.4005138],[69.3900167,37.4312071],[69.38887949999999,37.4495049],[69.41816920000002,37.4548708],[69.42271179999999,37.4775575],[69.44747390000002,37.4857648],[69.4605384,37.5134984],[69.49033390000001,37.527585],[69.5115671,37.58113],[69.5328531,37.5902951],[69.55240109999998,37.5759433],[69.5577469,37.5875664],[69.5113754,37.6042442],[69.4726486,37.6531525],[69.44951630000001,37.6514969],[69.4320984,37.66837690000001],[69.4666901,37.72695920000001],[69.4120865,37.76922230000001],[69.3595505,37.7777596],[69.24744420000002,37.73957820000001],[69.1936874,37.7065659],[69.1568832,37.7057991],[69.1123734,37.7048111],[69.1055298,37.57761]]]},"properties":{"shapeName":"Farkhor District","shapeISO":"","shapeID":"16282066B59205536320691","shapeGroup":"TJK","shapeType":"ADM2"}},
{"type":"Feature","geometry":{"type":"Polygon","coordinates":[[[72.67999269999999,37.3767509],[72.73740390000002,37.3872795],[72.82343289999999,37.3810005],[72.8427658,37.421463],[72.836319,37.4958687],[72.8866806,37.5697403],[72.83847809999997,37.6249046],[72.76981350000001,37.6209946],[72.752449,37.6672173],[72.771843,37.7451591],[72.7477722,37.8151779],[72.74687960000001,37.9223175],[72.71994020000001,37.9327164],[72.66413879999999,37.9109993],[72.57435609999999,37.9156494],[72.55547329999999,37.9305],[72.53400420000001,37.9312325],[72.47435,37.9080009],[72.40721130000001,37.8488998],[72.3676758,37.837677],[72.3313675,37.8530617],[72.2383957,37.8217278],[72.20532990000001,37.821312],[72.1398544,37.7922668],[72.0774994,37.7866783],[72.03954320000001,37.7630272],[71.94898990000002,37.7726707],[71.92210390000001,37.7346497],[71.77571869999998,37.7073174],[71.6802902,37.7042465],[71.5860214,37.7952346],[71.5566182,37.787293],[71.5311393,37.76552610000001],[71.5513165,37.7364862],[71.5491719,37.7140671],[71.52936960000001,37.6756913],[71.5261152,37.6313568],[71.5043557,37.6069663],[71.5108493,37.5883672],[71.4952819,37.5334354],[71.5267219,37.4798798],[71.5043092,37.4532958],[71.4980018,37.4077449],[71.4796455,37.4067097],[71.47487,37.387917],[71.49569330000001,37.3693534],[71.48662790000002,37.3357656],[71.5056857,37.3119496],[71.54859920000001,37.2658997],[71.59356690000001,37.2895203],[71.5095749,37.4449692],[71.6139908,37.4585762],[71.71221160000002,37.4380608],[71.7750626,37.3846169],[71.885849,37.4367218],[71.9833908,37.2819023],[72.1449127,37.3786049],[72.2304764,37.4550438],[72.3290176,37.4794769],[72.620018,37.4357338],[72.667305,37.3993149],[72.67999269999999,37.3767509]]]},"properties":{"shapeName":"Shughnon District","shapeISO":"","shapeID":"16282066B11451591144202","shapeGroup":"TJK","shapeType":"ADM2"}},
{"type":"Feature","geometry":{"type":"Polygon","coordinates":[[[69.69195320000001,39.2303706],[69.6888526,39.1816397],[69.6711276,39.151564],[69.8618317,39.0590019],[69.90377809999998,39.0082016],[69.90768430000001,38.9891129],[69.8915787,38.9779358],[69.935524,38.9525642],[70.007515,38.930294],[70.18888089999999,38.9182472],[70.2055817,38.9115334],[70.2234573,38.8813286],[70.25955960000002,38.8808441],[70.3072815,38.8610878],[70.48184970000001,38.9058685],[70.5464401,38.8910675],[70.58557129999998,38.8988152],[70.62407679999998,38.9397697],[70.6692429,38.9489594],[70.61879729999998,39.0546608],[70.653389,39.055912],[70.871727,39.1491966],[70.94378660000001,39.1341782],[70.9533157,39.1765594],[71.05281829999998,39.2028923],[71.0750046,39.21895220000001],[71.0419083,39.2779503],[71.0484619,39.2990379],[71.1078339,39.3316765],[71.0636368,39.3530045],[71.0622864,39.4128761],[70.99353090000001,39.4031709],[70.95100450000001,39.4345888],[70.9356317,39.426548],[70.9349753,39.4068996],[70.91241420000001,39.3833014],[70.86788209999999,39.39317230000001],[70.7884451,39.3894733],[70.7680286,39.3993579],[70.7543333,39.4776029],[70.71311290000001,39.5023794],[70.60342209999999,39.4660668],[70.57830729999998,39.4373864],[70.5047201,39.4262243],[70.4850314,39.401988],[70.368656,39.3775967],[70.32814169999999,39.3762532],[70.285767,39.3904125],[70.2552263,39.3602335],[70.1245366,39.3066967],[70.111049,39.3381418],[70.09446090000002,39.341785],[70.0220105,39.3131562],[69.9900228,39.3318889],[69.8809339,39.3193057],[69.8460523,39.2811944],[69.8081735,39.26357270000001],[69.777581,39.2699031],[69.75680709999999,39.2949145],[69.7363432,39.2933642],[69.6664767,39.2616348],[69.69195320000001,39.2303706]]]},"properties":{"shapeName":"Rasht District","shapeISO":"","shapeID":"16282066B85282984712387","shapeGroup":"TJK","shapeType":"ADM2"}},
{"type":"Feature","geometry":{"type":"Polygon","coordinates":[[[70.2846818,38.0564888],[70.27504269999999,38.0082156],[70.290967,37.9865828],[70.3294706,37.99873130000001],[70.3637664,38.0324422],[70.3642771,38.0547976],[70.417947,38.0757814],[70.4297917,38.096901],[70.5067003,38.1219698],[70.50450940000002,38.164814],[70.5374748,38.2111181],[70.5455708,38.2435598],[70.5664084,38.2674747],[70.60494209999999,38.282755],[70.6109545,38.3463988],[70.6521339,38.3485663],[70.6844005,38.3637997],[70.6938525,38.3826822],[70.6731517,38.3890082],[70.6748698,38.4064619],[70.69891809999999,38.4203548],[70.7407517,38.4190377],[70.77170249999999,38.4559043],[70.80548229999998,38.4442811],[70.8253293,38.4536747],[70.84865760000001,38.4380862],[70.85766990000002,38.459181],[70.8802108,38.4696562],[70.89492220000001,38.4651822],[70.9080267,38.437703],[70.93,38.430833],[70.94127750000001,38.4423114],[70.9570661,38.4378677],[70.9629884,38.4558931],[70.94492530000002,38.4659945],[70.94681360000003,38.4755602],[70.9685418,38.4754544],[70.9903512,38.4899217],[71.0304084,38.4613505],[71.0568914,38.3980769],[71.0694613,38.4026004],[71.0654402,38.4125748],[71.0988841,38.4235631],[71.11058709999999,38.4052606],[71.14465760000002,38.4017832],[71.1491208,38.3901861],[71.18545529999999,38.4259491],[71.2843107,38.48623],[71.225503,38.5299224],[71.20240360000001,38.5902029],[71.1781674,38.6082897],[71.0717139,38.5996597],[71.04179320000001,38.6065844],[71.03326660000002,38.6287277],[71.05125,38.69877510000001],[71.01042570000001,38.7676857],[71.0125961,38.7966245],[70.99321740000002,38.8061588],[70.9527031,38.8012753],[70.8587036,38.7620271],[70.772559,38.7602184],[70.7579863,38.7889505],[70.7326648,38.8039625],[70.6478121,38.7754888],[70.5450794,38.7172753],[70.59055460000002,38.6830138],[70.5935002,38.6581058],[70.516864,38.5926834],[70.498984,38.5587837],[70.439091,38.5156855],[70.42405320000002,38.48788359999999],[70.3556336,38.4420466],[70.3382186,38.3845824],[70.3590442,38.3368334],[70.33620320000001,38.2635304],[70.34131920000002,38.1559917],[70.3265914,38.1150382],[70.2846818,38.0564888]]]},"properties":{"shapeName":"Darvoz District","shapeISO":"","shapeID":"16282066B28036456763405","shapeGroup":"TJK","shapeType":"ADM2"}},
{"type":"Feature","geometry":{"type":"Polygon","coordinates":[[[69.0655314,39.0303828],[69.025177,38.9720459],[69.07751460000001,38.9166718],[69.0836105,38.850132],[68.989151,38.7375374],[68.9815903,38.630043],[68.94431010000001,38.6027798],[68.96423340000003,38.5176773],[68.9256516,38.497509],[69.0152817,38.4715652],[69.0192719,38.4559517],[68.999939,38.437027],[68.99426960000004,38.4123327],[69.07657209999998,38.416778],[69.09496580000001,38.4167068],[69.1592026,38.4803505],[69.1355667,38.5192986],[69.188118,38.5242729],[69.2229996,38.5557289],[69.2674789,38.6217308],[69.3593674,38.6063805],[69.45126340000003,38.6443062],[69.48062130000001,38.6710777],[69.49831390000001,38.6742706],[69.523819,38.7010612],[69.53553009999999,38.740448],[69.5532684,38.7467995],[69.5690002,38.778389],[69.6085663,38.7737694],[69.61843869999998,38.79590990000001],[69.66204829999998,38.7960625],[69.68585209999998,38.815136],[69.705719,38.8643379],[69.7654095,38.8821233],[69.7874756,38.9361687],[69.829422,38.9507027],[69.8495178,38.9793968],[69.8915787,38.9779358],[69.90768430000001,38.9891129],[69.90377809999998,39.0082016],[69.8618317,39.0590019],[69.6711276,39.151564],[69.64833829999998,39.1362678],[69.6466329,39.1097061],[69.5532019,39.0722407],[69.542815,39.0857541],[69.54746590000002,39.1432958],[69.5004403,39.1857997],[69.3937285,39.1791076],[69.3651514,39.1587212],[69.3580201,39.1083625],[69.3468579,39.09911250000001],[69.21663330000001,39.0968387],[69.0655314,39.0303828]]]},"properties":{"shapeName":"Vahdat District","shapeISO":"","shapeID":"16282066B61410458799891","shapeGroup":"TJK","shapeType":"ADM2"}},
{"type":"Feature","geometry":{"type":"Polygon","coordinates":[[[71.54859920000001,37.2658997],[71.5056857,37.3119496],[71.49225670000001,37.2967292],[71.4810368,37.2313946],[71.45542440000001,37.2141079],[71.46323640000001,37.1906334],[71.4454301,37.1703237],[71.4518268,37.1524147],[71.43107360000002,37.0580997],[71.4622072,37.0242958],[71.4681857,36.9512566],[71.5422843,36.8462239],[71.56309460000001,36.763797],[71.6339397,36.69073820000001],[71.676464,36.67111530000001],[71.8436383,36.6806171],[71.9028659,36.733959],[71.95816660000001,36.7562386],[72.0184876,36.810933],[72.0691819,36.840233],[72.11226340000002,36.8470228],[72.1222151,36.867787],[72.1929639,36.9061684],[72.20897829999998,36.924738],[72.32570579999998,36.9813016],[72.4274459,37.0062775],[72.4735229,36.9942691],[72.5279365,36.997913],[72.57240849999998,37.0112919],[72.58847129999998,37.0076246],[72.59428360000003,37.01911530000001],[72.62195340000001,37.0290011],[72.66251960000001,37.0176869],[72.79665040000002,37.2162617],[72.8177573,37.23255570000001],[72.8581262,37.2290165],[72.88377839999998,37.2391376],[72.9547413,37.2913831],[72.85155490000001,37.2948227],[72.82343289999999,37.3810005],[72.73740390000002,37.3872795],[72.67999269999999,37.3767509],[72.67157749999998,37.3644562],[72.6871567,37.3167496],[72.6878357,37.23839190000001],[72.6833038,37.2244949],[72.6392822,37.215374],[72.6448822,37.1715431],[72.6259537,37.1569061],[72.3965302,37.1253204],[72.374054,37.1177673],[72.3407135,37.070282],[72.2425308,37.0822067],[72.2314301,37.0595322],[72.18943789999999,37.0581551],[71.978714,36.9284286],[71.8440018,36.9655266],[71.8145752,36.9330826],[71.77151490000001,36.9416161],[71.74954990000002,36.9602089],[71.7317886,37.0555305],[71.67280579999998,37.13210680000001],[71.6699524,37.155468],[71.54859920000001,37.2658997]]]},"properties":{"shapeName":"Ishkoshim District","shapeISO":"","shapeID":"16282066B75905457590964","shapeGroup":"TJK","shapeType":"ADM2"}},
{"type":"Feature","geometry":{"type":"Polygon","coordinates":[[[70.6692429,38.9489594],[70.62407679999998,38.9397697],[70.58557129999998,38.8988152],[70.5464401,38.8910675],[70.51707460000002,38.8725014],[70.46627040000001,38.8594666],[70.35505679999999,38.8460503],[70.3269653,38.8240433],[70.19781490000001,38.6548882],[70.1604,38.6318025],[70.1667562,38.6036905],[70.1639657,38.5459421],[70.22912970000002,38.5995047],[70.35330809999998,38.6067394],[70.417852,38.5653466],[70.439091,38.5156855],[70.498984,38.5587837],[70.516864,38.5926834],[70.5935002,38.6581058],[70.59055460000002,38.6830138],[70.5450794,38.7172753],[70.6478121,38.7754888],[70.7326648,38.8039625],[70.7579863,38.7889505],[70.772559,38.7602184],[70.8587036,38.7620271],[70.9527031,38.8012753],[70.99321740000002,38.8061588],[71.0125961,38.7966245],[71.01042570000001,38.7676857],[71.05125,38.69877510000001],[71.03326660000002,38.6287277],[71.04179320000001,38.6065844],[71.0717139,38.5996597],[71.1781674,38.6082897],[71.20240360000001,38.5902029],[71.225503,38.5299224],[71.2843107,38.48623],[71.3721607,38.5137218],[71.3989807,38.5032315],[71.4269377,38.4750679],[71.46522990000003,38.5196388],[71.5270349,38.5289664],[71.5329261,38.5740799],[71.5609864,38.5877742],[71.6046013,38.637461],[71.7200464,38.654075],[71.7507939,38.6459877],[71.777769,38.6759342],[71.8097567,38.6842024],[71.8474288,38.7124177],[71.93961960000003,38.7233473],[71.9742428,38.73595630000001],[72.0638447,38.8056449],[72.0336707,38.8329013],[72.0074191,38.8847069],[72.02695279999999,38.9567439],[71.97534179999998,38.9216194],[71.8995819,38.9105492],[71.8245926,38.9195099],[71.7071075,38.8971367],[71.67127229999998,38.9082031],[71.6439972,38.9481163],[71.6448059,38.9727745],[71.5976791,38.995155300000015],[71.5755157,39.0225449],[71.51515960000002,39.0022354],[71.46472930000002,38.99691390000001],[71.42115020000001,39.0270386],[71.3573532,39.0332451],[71.353302,39.0849991],[71.3363495,39.0999107],[71.2166901,39.0809517],[71.1765442,39.1069603],[71.1608734,39.1071434],[71.1541824,39.0850563],[71.1016541,39.0459557],[70.90106960000003,38.9883156],[70.85211179999999,38.9369888],[70.8175125,38.9354362],[70.7288895,38.9556961],[70.6692429,38.9489594]]]},"properties":{"shapeName":"Tavildara District","shapeISO":"","shapeID":"16282066B70165182377284","shapeGroup":"TJK","shapeType":"ADM2"}},
{"type":"Feature","geometry":{"type":"Polygon","coordinates":[[[68.49964140000002,38.3777084],[68.4039525,38.1989095],[68.3770704,38.0845152],[68.3074965,38.0292093],[68.2888332,37.9992869],[68.27851279999999,37.9118508],[68.31462120000002,37.9047151],[68.3733095,37.9120208],[68.4096025,37.9181509],[68.4291362,37.9025447],[68.4606588,37.9101669],[68.49181970000002,37.9829532],[68.54365120000001,38.0194109],[68.5492322,38.0841356],[68.5188465,38.1022224],[68.58416550000001,38.2002268],[68.5757939,38.3002723],[68.6166183,38.3298312],[68.7138733,38.3178423],[68.7700456,38.3524914],[68.7955221,38.3479438],[68.8114901,38.32779],[68.84715620000001,38.3314904],[68.8735535,38.339934],[68.9067814,38.3835489],[68.99426960000004,38.4123327],[68.999939,38.437027],[69.0192719,38.4559517],[69.0152817,38.4715652],[68.9256516,38.497509],[68.96423340000003,38.5176773],[68.94431010000001,38.6027798],[68.9409027,38.6109543],[68.896286,38.6202965],[68.8613586,38.5727119],[68.7993774,38.6405602],[68.776123,38.6389084],[68.7042389,38.59589],[68.6576614,38.5894432],[68.69037629999998,38.5084801],[68.6766739,38.4575043],[68.6163635,38.4283905],[68.60078429999999,38.39468],[68.5677185,38.37831880000001],[68.5453262,38.345047],[68.51320650000001,38.3422852],[68.49964140000002,38.3777084]]]},"properties":{"shapeName":"Rudaki District","shapeISO":"","shapeID":"16282066B50587073780273","shapeGroup":"TJK","shapeType":"ADM2"}}
]}